<?xml version="1.0" encoding="UTF-8"?>
<gpx version="1.1" creator="MounTour (OpenStreetMap)" xmlns="http://www.topografix.com/GPX/1/1">
  <metadata><name>Baraniarky</name><copyright author="OpenStreetMap contributors"><license>https://opendatacommons.org/licenses/odbl/</license></copyright></metadata>
  <trk><name>Baraniarky</name><trkseg>
    <trkpt lat="49.231560" lon="19.032920"><ele>643</ele></trkpt>
    <trkpt lat="49.231501" lon="19.033049"><ele>641</ele></trkpt>
    <trkpt lat="49.231361" lon="19.033025"><ele>638</ele></trkpt>
    <trkpt lat="49.231107" lon="19.033075"><ele>633</ele></trkpt>
    <trkpt lat="49.229705" lon="19.033830"><ele>614</ele></trkpt>
    <trkpt lat="49.229709" lon="19.033071"><ele>619</ele></trkpt>
    <trkpt lat="49.229788" lon="19.031456"><ele>639</ele></trkpt>
    <trkpt lat="49.230101" lon="19.030343"><ele>636</ele></trkpt>
    <trkpt lat="49.230515" lon="19.029050"><ele>653</ele></trkpt>
    <trkpt lat="49.230664" lon="19.027471"><ele>653</ele></trkpt>
    <trkpt lat="49.230453" lon="19.025700"><ele>674</ele></trkpt>
    <trkpt lat="49.230452" lon="19.025102"><ele>684</ele></trkpt>
    <trkpt lat="49.230317" lon="19.024058"><ele>699</ele></trkpt>
    <trkpt lat="49.230324" lon="19.023659"><ele>702</ele></trkpt>
    <trkpt lat="49.230266" lon="19.023034"><ele>703</ele></trkpt>
    <trkpt lat="49.230296" lon="19.022736"><ele>705</ele></trkpt>
    <trkpt lat="49.230261" lon="19.022642"><ele>705</ele></trkpt>
    <trkpt lat="49.230236" lon="19.022390"><ele>709</ele></trkpt>
    <trkpt lat="49.230275" lon="19.021486"><ele>731</ele></trkpt>
    <trkpt lat="49.230269" lon="19.020475"><ele>748</ele></trkpt>
    <trkpt lat="49.230370" lon="19.019536"><ele>761</ele></trkpt>
    <trkpt lat="49.230350" lon="19.019375"><ele>762</ele></trkpt>
    <trkpt lat="49.229987" lon="19.018054"><ele>783</ele></trkpt>
    <trkpt lat="49.229991" lon="19.017439"><ele>799</ele></trkpt>
    <trkpt lat="49.229945" lon="19.017312"><ele>802</ele></trkpt>
    <trkpt lat="49.229732" lon="19.017170"><ele>804</ele></trkpt>
    <trkpt lat="49.229565" lon="19.016811"><ele>815</ele></trkpt>
    <trkpt lat="49.229550" lon="19.016524"><ele>822</ele></trkpt>
    <trkpt lat="49.229577" lon="19.016309"><ele>828</ele></trkpt>
    <trkpt lat="49.229702" lon="19.015926"><ele>838</ele></trkpt>
    <trkpt lat="49.230019" lon="19.015304"><ele>846</ele></trkpt>
    <trkpt lat="49.230103" lon="19.014680"><ele>860</ele></trkpt>
    <trkpt lat="49.230131" lon="19.014032"><ele>870</ele></trkpt>
    <trkpt lat="49.230266" lon="19.013560"><ele>875</ele></trkpt>
    <trkpt lat="49.230385" lon="19.012570"><ele>893</ele></trkpt>
    <trkpt lat="49.230502" lon="19.012153"><ele>900</ele></trkpt>
    <trkpt lat="49.230580" lon="19.011371"><ele>910</ele></trkpt>
    <trkpt lat="49.230500" lon="19.011124"><ele>912</ele></trkpt>
    <trkpt lat="49.230145" lon="19.010779"><ele>925</ele></trkpt>
    <trkpt lat="49.229895" lon="19.010009"><ele>948</ele></trkpt>
    <trkpt lat="49.229762" lon="19.009704"><ele>959</ele></trkpt>
    <trkpt lat="49.229600" lon="19.009543"><ele>974</ele></trkpt>
    <trkpt lat="49.229355" lon="19.009526"><ele>990</ele></trkpt>
    <trkpt lat="49.228730" lon="19.009676"><ele>1016</ele></trkpt>
    <trkpt lat="49.228590" lon="19.009840"><ele>1018</ele></trkpt>
    <trkpt lat="49.228246" lon="19.010075"><ele>1031</ele></trkpt>
    <trkpt lat="49.228215" lon="19.010293"><ele>1035</ele></trkpt>
    <trkpt lat="49.228148" lon="19.010446"><ele>1039</ele></trkpt>
    <trkpt lat="49.227948" lon="19.010725"><ele>1050</ele></trkpt>
    <trkpt lat="49.227856" lon="19.010942"><ele>1057</ele></trkpt>
    <trkpt lat="49.227740" lon="19.011087"><ele>1066</ele></trkpt>
    <trkpt lat="49.227577" lon="19.011119"><ele>1076</ele></trkpt>
    <trkpt lat="49.227500" lon="19.011208"><ele>1081</ele></trkpt>
    <trkpt lat="49.227435" lon="19.011377"><ele>1085</ele></trkpt>
    <trkpt lat="49.227067" lon="19.011235"><ele>1095</ele></trkpt>
    <trkpt lat="49.226775" lon="19.011307"><ele>1103</ele></trkpt>
    <trkpt lat="49.226498" lon="19.011471"><ele>1114</ele></trkpt>
    <trkpt lat="49.226390" lon="19.011487"><ele>1118</ele></trkpt>
    <trkpt lat="49.225787" lon="19.011476"><ele>1134</ele></trkpt>
    <trkpt lat="49.225526" lon="19.011401"><ele>1144</ele></trkpt>
    <trkpt lat="49.225088" lon="19.011500"><ele>1162</ele></trkpt>
    <trkpt lat="49.224911" lon="19.011457"><ele>1170</ele></trkpt>
    <trkpt lat="49.224675" lon="19.011608"><ele>1184</ele></trkpt>
    <trkpt lat="49.224570" lon="19.011629"><ele>1190</ele></trkpt>
    <trkpt lat="49.224452" lon="19.011543"><ele>1196</ele></trkpt>
    <trkpt lat="49.224212" lon="19.011554"><ele>1210</ele></trkpt>
    <trkpt lat="49.224081" lon="19.011508"><ele>1218</ele></trkpt>
    <trkpt lat="49.223662" lon="19.011626"><ele>1245</ele></trkpt>
    <trkpt lat="49.223463" lon="19.011299"><ele>1256</ele></trkpt>
    <trkpt lat="49.223300" lon="19.011321"><ele>1261</ele></trkpt>
    <trkpt lat="49.223463" lon="19.011299"><ele>1256</ele></trkpt>
    <trkpt lat="49.223662" lon="19.011626"><ele>1245</ele></trkpt>
    <trkpt lat="49.224081" lon="19.011508"><ele>1218</ele></trkpt>
    <trkpt lat="49.224212" lon="19.011554"><ele>1210</ele></trkpt>
    <trkpt lat="49.224452" lon="19.011543"><ele>1196</ele></trkpt>
    <trkpt lat="49.224570" lon="19.011629"><ele>1190</ele></trkpt>
    <trkpt lat="49.224675" lon="19.011608"><ele>1184</ele></trkpt>
    <trkpt lat="49.224911" lon="19.011457"><ele>1170</ele></trkpt>
    <trkpt lat="49.225088" lon="19.011500"><ele>1162</ele></trkpt>
    <trkpt lat="49.225526" lon="19.011401"><ele>1144</ele></trkpt>
    <trkpt lat="49.225787" lon="19.011476"><ele>1134</ele></trkpt>
    <trkpt lat="49.226390" lon="19.011487"><ele>1118</ele></trkpt>
    <trkpt lat="49.226498" lon="19.011471"><ele>1114</ele></trkpt>
    <trkpt lat="49.226775" lon="19.011307"><ele>1103</ele></trkpt>
    <trkpt lat="49.227067" lon="19.011235"><ele>1095</ele></trkpt>
    <trkpt lat="49.227435" lon="19.011377"><ele>1085</ele></trkpt>
    <trkpt lat="49.227500" lon="19.011208"><ele>1081</ele></trkpt>
    <trkpt lat="49.227577" lon="19.011119"><ele>1076</ele></trkpt>
    <trkpt lat="49.227740" lon="19.011087"><ele>1066</ele></trkpt>
    <trkpt lat="49.227856" lon="19.010942"><ele>1057</ele></trkpt>
    <trkpt lat="49.227948" lon="19.010725"><ele>1050</ele></trkpt>
    <trkpt lat="49.228148" lon="19.010446"><ele>1039</ele></trkpt>
    <trkpt lat="49.228215" lon="19.010293"><ele>1035</ele></trkpt>
    <trkpt lat="49.228246" lon="19.010075"><ele>1031</ele></trkpt>
    <trkpt lat="49.228590" lon="19.009840"><ele>1018</ele></trkpt>
    <trkpt lat="49.228730" lon="19.009676"><ele>1016</ele></trkpt>
    <trkpt lat="49.229355" lon="19.009526"><ele>990</ele></trkpt>
    <trkpt lat="49.229600" lon="19.009543"><ele>974</ele></trkpt>
    <trkpt lat="49.229762" lon="19.009704"><ele>959</ele></trkpt>
    <trkpt lat="49.229895" lon="19.010009"><ele>948</ele></trkpt>
    <trkpt lat="49.230145" lon="19.010779"><ele>925</ele></trkpt>
    <trkpt lat="49.230500" lon="19.011124"><ele>912</ele></trkpt>
    <trkpt lat="49.230580" lon="19.011371"><ele>910</ele></trkpt>
    <trkpt lat="49.230502" lon="19.012153"><ele>900</ele></trkpt>
    <trkpt lat="49.230385" lon="19.012570"><ele>893</ele></trkpt>
    <trkpt lat="49.230266" lon="19.013560"><ele>875</ele></trkpt>
    <trkpt lat="49.230131" lon="19.014032"><ele>870</ele></trkpt>
    <trkpt lat="49.230103" lon="19.014680"><ele>860</ele></trkpt>
    <trkpt lat="49.230019" lon="19.015304"><ele>846</ele></trkpt>
    <trkpt lat="49.229702" lon="19.015926"><ele>838</ele></trkpt>
    <trkpt lat="49.229577" lon="19.016309"><ele>828</ele></trkpt>
    <trkpt lat="49.229550" lon="19.016524"><ele>822</ele></trkpt>
    <trkpt lat="49.229565" lon="19.016811"><ele>815</ele></trkpt>
    <trkpt lat="49.229732" lon="19.017170"><ele>804</ele></trkpt>
    <trkpt lat="49.229945" lon="19.017312"><ele>802</ele></trkpt>
    <trkpt lat="49.229991" lon="19.017439"><ele>799</ele></trkpt>
    <trkpt lat="49.229987" lon="19.018054"><ele>783</ele></trkpt>
    <trkpt lat="49.230350" lon="19.019375"><ele>762</ele></trkpt>
    <trkpt lat="49.230370" lon="19.019536"><ele>761</ele></trkpt>
    <trkpt lat="49.230269" lon="19.020475"><ele>748</ele></trkpt>
    <trkpt lat="49.230275" lon="19.021486"><ele>731</ele></trkpt>
    <trkpt lat="49.230236" lon="19.022390"><ele>709</ele></trkpt>
    <trkpt lat="49.230261" lon="19.022642"><ele>705</ele></trkpt>
    <trkpt lat="49.230296" lon="19.022736"><ele>705</ele></trkpt>
    <trkpt lat="49.230266" lon="19.023034"><ele>703</ele></trkpt>
    <trkpt lat="49.230324" lon="19.023659"><ele>702</ele></trkpt>
    <trkpt lat="49.230317" lon="19.024058"><ele>699</ele></trkpt>
    <trkpt lat="49.230452" lon="19.025102"><ele>684</ele></trkpt>
    <trkpt lat="49.230453" lon="19.025700"><ele>674</ele></trkpt>
    <trkpt lat="49.230664" lon="19.027471"><ele>653</ele></trkpt>
    <trkpt lat="49.230515" lon="19.029050"><ele>653</ele></trkpt>
    <trkpt lat="49.230101" lon="19.030343"><ele>636</ele></trkpt>
    <trkpt lat="49.229788" lon="19.031456"><ele>639</ele></trkpt>
    <trkpt lat="49.229709" lon="19.033071"><ele>619</ele></trkpt>
    <trkpt lat="49.229705" lon="19.033830"><ele>614</ele></trkpt>
    <trkpt lat="49.231107" lon="19.033075"><ele>633</ele></trkpt>
    <trkpt lat="49.231361" lon="19.033025"><ele>638</ele></trkpt>
    <trkpt lat="49.231501" lon="19.033049"><ele>641</ele></trkpt>
    <trkpt lat="49.231560" lon="19.032920"><ele>643</ele></trkpt>
  </trkseg></trk>
</gpx>
