<?xml version="1.0" encoding="UTF-8"?>
<gpx version="1.1" creator="MounTour (OpenStreetMap)" xmlns="http://www.topografix.com/GPX/1/1">
  <metadata><name>Baranec</name><copyright author="OpenStreetMap contributors"><license>https://opendatacommons.org/licenses/odbl/</license></copyright></metadata>
  <trk><name>Baranec</name><trkseg>
    <trkpt lat="49.134738" lon="19.742348"><ele>912</ele></trkpt>
    <trkpt lat="49.134770" lon="19.742396"><ele>914</ele></trkpt>
    <trkpt lat="49.134895" lon="19.742312"><ele>919</ele></trkpt>
    <trkpt lat="49.134957" lon="19.742238"><ele>922</ele></trkpt>
    <trkpt lat="49.134975" lon="19.742141"><ele>923</ele></trkpt>
    <trkpt lat="49.135289" lon="19.741772"><ele>942</ele></trkpt>
    <trkpt lat="49.135475" lon="19.741662"><ele>956</ele></trkpt>
    <trkpt lat="49.135580" lon="19.741686"><ele>962</ele></trkpt>
    <trkpt lat="49.135791" lon="19.741531"><ele>972</ele></trkpt>
    <trkpt lat="49.136029" lon="19.741443"><ele>986</ele></trkpt>
    <trkpt lat="49.136094" lon="19.741434"><ele>990</ele></trkpt>
    <trkpt lat="49.136122" lon="19.741504"><ele>990</ele></trkpt>
    <trkpt lat="49.136193" lon="19.741508"><ele>993</ele></trkpt>
    <trkpt lat="49.136260" lon="19.741402"><ele>999</ele></trkpt>
    <trkpt lat="49.136392" lon="19.741358"><ele>1006</ele></trkpt>
    <trkpt lat="49.136426" lon="19.741262"><ele>1008</ele></trkpt>
    <trkpt lat="49.136530" lon="19.741243"><ele>1014</ele></trkpt>
    <trkpt lat="49.136579" lon="19.741293"><ele>1015</ele></trkpt>
    <trkpt lat="49.136812" lon="19.741327"><ele>1025</ele></trkpt>
    <trkpt lat="49.136928" lon="19.741128"><ele>1034</ele></trkpt>
    <trkpt lat="49.136996" lon="19.741136"><ele>1036</ele></trkpt>
    <trkpt lat="49.137126" lon="19.741300"><ele>1035</ele></trkpt>
    <trkpt lat="49.137186" lon="19.741284"><ele>1037</ele></trkpt>
    <trkpt lat="49.137226" lon="19.741061"><ele>1044</ele></trkpt>
    <trkpt lat="49.137458" lon="19.740747"><ele>1059</ele></trkpt>
    <trkpt lat="49.137612" lon="19.740822"><ele>1063</ele></trkpt>
    <trkpt lat="49.137724" lon="19.740734"><ele>1068</ele></trkpt>
    <trkpt lat="49.137865" lon="19.740728"><ele>1072</ele></trkpt>
    <trkpt lat="49.138218" lon="19.740568"><ele>1083</ele></trkpt>
    <trkpt lat="49.138246" lon="19.740380"><ele>1086</ele></trkpt>
    <trkpt lat="49.138335" lon="19.740197"><ele>1091</ele></trkpt>
    <trkpt lat="49.138489" lon="19.739580"><ele>1105</ele></trkpt>
    <trkpt lat="49.138567" lon="19.739398"><ele>1109</ele></trkpt>
    <trkpt lat="49.138635" lon="19.739350"><ele>1112</ele></trkpt>
    <trkpt lat="49.139037" lon="19.739379"><ele>1123</ele></trkpt>
    <trkpt lat="49.139153" lon="19.739153"><ele>1129</ele></trkpt>
    <trkpt lat="49.139379" lon="19.739004"><ele>1136</ele></trkpt>
    <trkpt lat="49.139572" lon="19.738623"><ele>1148</ele></trkpt>
    <trkpt lat="49.139679" lon="19.738518"><ele>1154</ele></trkpt>
    <trkpt lat="49.139744" lon="19.738164"><ele>1163</ele></trkpt>
    <trkpt lat="49.139879" lon="19.738199"><ele>1169</ele></trkpt>
    <trkpt lat="49.139965" lon="19.738347"><ele>1171</ele></trkpt>
    <trkpt lat="49.140185" lon="19.738481"><ele>1178</ele></trkpt>
    <trkpt lat="49.140371" lon="19.738357"><ele>1192</ele></trkpt>
    <trkpt lat="49.140481" lon="19.738336"><ele>1198</ele></trkpt>
    <trkpt lat="49.140539" lon="19.738408"><ele>1198</ele></trkpt>
    <trkpt lat="49.140583" lon="19.738360"><ele>1201</ele></trkpt>
    <trkpt lat="49.140609" lon="19.738178"><ele>1205</ele></trkpt>
    <trkpt lat="49.140695" lon="19.737936"><ele>1212</ele></trkpt>
    <trkpt lat="49.140748" lon="19.737896"><ele>1215</ele></trkpt>
    <trkpt lat="49.140883" lon="19.738267"><ele>1215</ele></trkpt>
    <trkpt lat="49.141236" lon="19.737805"><ele>1233</ele></trkpt>
    <trkpt lat="49.141322" lon="19.737769"><ele>1236</ele></trkpt>
    <trkpt lat="49.141379" lon="19.737669"><ele>1239</ele></trkpt>
    <trkpt lat="49.141590" lon="19.737689"><ele>1244</ele></trkpt>
    <trkpt lat="49.141839" lon="19.737346"><ele>1257</ele></trkpt>
    <trkpt lat="49.141986" lon="19.737381"><ele>1260</ele></trkpt>
    <trkpt lat="49.142191" lon="19.737023"><ele>1272</ele></trkpt>
    <trkpt lat="49.142253" lon="19.737013"><ele>1274</ele></trkpt>
    <trkpt lat="49.142414" lon="19.737132"><ele>1279</ele></trkpt>
    <trkpt lat="49.142527" lon="19.737030"><ele>1283</ele></trkpt>
    <trkpt lat="49.142563" lon="19.737099"><ele>1283</ele></trkpt>
    <trkpt lat="49.142638" lon="19.737108"><ele>1284</ele></trkpt>
    <trkpt lat="49.142805" lon="19.736715"><ele>1295</ele></trkpt>
    <trkpt lat="49.142891" lon="19.736686"><ele>1299</ele></trkpt>
    <trkpt lat="49.142942" lon="19.736740"><ele>1300</ele></trkpt>
    <trkpt lat="49.143020" lon="19.736622"><ele>1305</ele></trkpt>
    <trkpt lat="49.143198" lon="19.736462"><ele>1314</ele></trkpt>
    <trkpt lat="49.143395" lon="19.736419"><ele>1321</ele></trkpt>
    <trkpt lat="49.143664" lon="19.736236"><ele>1333</ele></trkpt>
    <trkpt lat="49.143798" lon="19.736187"><ele>1339</ele></trkpt>
    <trkpt lat="49.143986" lon="19.736193"><ele>1346</ele></trkpt>
    <trkpt lat="49.144368" lon="19.736070"><ele>1360</ele></trkpt>
    <trkpt lat="49.144982" lon="19.735690"><ele>1386</ele></trkpt>
    <trkpt lat="49.145374" lon="19.735831"><ele>1399</ele></trkpt>
    <trkpt lat="49.145538" lon="19.735803"><ele>1404</ele></trkpt>
    <trkpt lat="49.145754" lon="19.735585"><ele>1411</ele></trkpt>
    <trkpt lat="49.145807" lon="19.735662"><ele>1412</ele></trkpt>
    <trkpt lat="49.145805" lon="19.735744"><ele>1411</ele></trkpt>
    <trkpt lat="49.145882" lon="19.735817"><ele>1411</ele></trkpt>
    <trkpt lat="49.145948" lon="19.735799"><ele>1412</ele></trkpt>
    <trkpt lat="49.146029" lon="19.735748"><ele>1414</ele></trkpt>
    <trkpt lat="49.146074" lon="19.735638"><ele>1417</ele></trkpt>
    <trkpt lat="49.146181" lon="19.735513"><ele>1422</ele></trkpt>
    <trkpt lat="49.146185" lon="19.735381"><ele>1424</ele></trkpt>
    <trkpt lat="49.146256" lon="19.735255"><ele>1427</ele></trkpt>
    <trkpt lat="49.146432" lon="19.735184"><ele>1433</ele></trkpt>
    <trkpt lat="49.146484" lon="19.735241"><ele>1434</ele></trkpt>
    <trkpt lat="49.146574" lon="19.735185"><ele>1438</ele></trkpt>
    <trkpt lat="49.146687" lon="19.735235"><ele>1442</ele></trkpt>
    <trkpt lat="49.146784" lon="19.735222"><ele>1446</ele></trkpt>
    <trkpt lat="49.147185" lon="19.734902"><ele>1467</ele></trkpt>
    <trkpt lat="49.147471" lon="19.734853"><ele>1478</ele></trkpt>
    <trkpt lat="49.147464" lon="19.734650"><ele>1480</ele></trkpt>
    <trkpt lat="49.147633" lon="19.734423"><ele>1488</ele></trkpt>
    <trkpt lat="49.147765" lon="19.734392"><ele>1493</ele></trkpt>
    <trkpt lat="49.147910" lon="19.734415"><ele>1498</ele></trkpt>
    <trkpt lat="49.147893" lon="19.734295"><ele>1497</ele></trkpt>
    <trkpt lat="49.148166" lon="19.733844"><ele>1508</ele></trkpt>
    <trkpt lat="49.148183" lon="19.733605"><ele>1509</ele></trkpt>
    <trkpt lat="49.148237" lon="19.733559"><ele>1512</ele></trkpt>
    <trkpt lat="49.148292" lon="19.733586"><ele>1514</ele></trkpt>
    <trkpt lat="49.148326" lon="19.733503"><ele>1516</ele></trkpt>
    <trkpt lat="49.148369" lon="19.733520"><ele>1518</ele></trkpt>
    <trkpt lat="49.148400" lon="19.733458"><ele>1520</ele></trkpt>
    <trkpt lat="49.148550" lon="19.733421"><ele>1527</ele></trkpt>
    <trkpt lat="49.148589" lon="19.733343"><ele>1529</ele></trkpt>
    <trkpt lat="49.148627" lon="19.733379"><ele>1531</ele></trkpt>
    <trkpt lat="49.148662" lon="19.733291"><ele>1533</ele></trkpt>
    <trkpt lat="49.148637" lon="19.733150"><ele>1532</ele></trkpt>
    <trkpt lat="49.148718" lon="19.733057"><ele>1536</ele></trkpt>
    <trkpt lat="49.148722" lon="19.732869"><ele>1536</ele></trkpt>
    <trkpt lat="49.148824" lon="19.732679"><ele>1541</ele></trkpt>
    <trkpt lat="49.148898" lon="19.732686"><ele>1545</ele></trkpt>
    <trkpt lat="49.148947" lon="19.732631"><ele>1548</ele></trkpt>
    <trkpt lat="49.149002" lon="19.732654"><ele>1550</ele></trkpt>
    <trkpt lat="49.149222" lon="19.732554"><ele>1560</ele></trkpt>
    <trkpt lat="49.149458" lon="19.732595"><ele>1569</ele></trkpt>
    <trkpt lat="49.149637" lon="19.732292"><ele>1576</ele></trkpt>
    <trkpt lat="49.149850" lon="19.732304"><ele>1585</ele></trkpt>
    <trkpt lat="49.149934" lon="19.732204"><ele>1588</ele></trkpt>
    <trkpt lat="49.150031" lon="19.732266"><ele>1591</ele></trkpt>
    <trkpt lat="49.150167" lon="19.732723"><ele>1598</ele></trkpt>
    <trkpt lat="49.150256" lon="19.732651"><ele>1601</ele></trkpt>
    <trkpt lat="49.150308" lon="19.732981"><ele>1602</ele></trkpt>
    <trkpt lat="49.150500" lon="19.733084"><ele>1607</ele></trkpt>
    <trkpt lat="49.150500" lon="19.732968"><ele>1609</ele></trkpt>
    <trkpt lat="49.150558" lon="19.732981"><ele>1610</ele></trkpt>
    <trkpt lat="49.150646" lon="19.732924"><ele>1612</ele></trkpt>
    <trkpt lat="49.150724" lon="19.732648"><ele>1616</ele></trkpt>
    <trkpt lat="49.150789" lon="19.732676"><ele>1617</ele></trkpt>
    <trkpt lat="49.150971" lon="19.732449"><ele>1622</ele></trkpt>
    <trkpt lat="49.151080" lon="19.732420"><ele>1624</ele></trkpt>
    <trkpt lat="49.151310" lon="19.732145"><ele>1631</ele></trkpt>
    <trkpt lat="49.151676" lon="19.731967"><ele>1640</ele></trkpt>
    <trkpt lat="49.151851" lon="19.731743"><ele>1647</ele></trkpt>
    <trkpt lat="49.152088" lon="19.731634"><ele>1653</ele></trkpt>
    <trkpt lat="49.152121" lon="19.731563"><ele>1654</ele></trkpt>
    <trkpt lat="49.152203" lon="19.731516"><ele>1657</ele></trkpt>
    <trkpt lat="49.152224" lon="19.731440"><ele>1658</ele></trkpt>
    <trkpt lat="49.152322" lon="19.731371"><ele>1660</ele></trkpt>
    <trkpt lat="49.152514" lon="19.731317"><ele>1665</ele></trkpt>
    <trkpt lat="49.152632" lon="19.731213"><ele>1667</ele></trkpt>
    <trkpt lat="49.152693" lon="19.731217"><ele>1669</ele></trkpt>
    <trkpt lat="49.152746" lon="19.731288"><ele>1669</ele></trkpt>
    <trkpt lat="49.152826" lon="19.731273"><ele>1671</ele></trkpt>
    <trkpt lat="49.152970" lon="19.731130"><ele>1675</ele></trkpt>
    <trkpt lat="49.153031" lon="19.731263"><ele>1675</ele></trkpt>
    <trkpt lat="49.153193" lon="19.731373"><ele>1677</ele></trkpt>
    <trkpt lat="49.153389" lon="19.731424"><ele>1681</ele></trkpt>
    <trkpt lat="49.153517" lon="19.731502"><ele>1683</ele></trkpt>
    <trkpt lat="49.153664" lon="19.731668"><ele>1688</ele></trkpt>
    <trkpt lat="49.153889" lon="19.731719"><ele>1689</ele></trkpt>
    <trkpt lat="49.154066" lon="19.731883"><ele>1688</ele></trkpt>
    <trkpt lat="49.154324" lon="19.732019"><ele>1691</ele></trkpt>
    <trkpt lat="49.154461" lon="19.732207"><ele>1692</ele></trkpt>
    <trkpt lat="49.154654" lon="19.732376"><ele>1695</ele></trkpt>
    <trkpt lat="49.154665" lon="19.732431"><ele>1695</ele></trkpt>
    <trkpt lat="49.154797" lon="19.732484"><ele>1699</ele></trkpt>
    <trkpt lat="49.154987" lon="19.732668"><ele>1699</ele></trkpt>
    <trkpt lat="49.155233" lon="19.732768"><ele>1703</ele></trkpt>
    <trkpt lat="49.155427" lon="19.732908"><ele>1702</ele></trkpt>
    <trkpt lat="49.155939" lon="19.733307"><ele>1700</ele></trkpt>
    <trkpt lat="49.156097" lon="19.733491"><ele>1698</ele></trkpt>
    <trkpt lat="49.156441" lon="19.733692"><ele>1701</ele></trkpt>
    <trkpt lat="49.156815" lon="19.733755"><ele>1706</ele></trkpt>
    <trkpt lat="49.157101" lon="19.733926"><ele>1711</ele></trkpt>
    <trkpt lat="49.157583" lon="19.734066"><ele>1717</ele></trkpt>
    <trkpt lat="49.158245" lon="19.734605"><ele>1732</ele></trkpt>
    <trkpt lat="49.158350" lon="19.734787"><ele>1737</ele></trkpt>
    <trkpt lat="49.158602" lon="19.734887"><ele>1746</ele></trkpt>
    <trkpt lat="49.158771" lon="19.734883"><ele>1752</ele></trkpt>
    <trkpt lat="49.158836" lon="19.734822"><ele>1753</ele></trkpt>
    <trkpt lat="49.159113" lon="19.734860"><ele>1761</ele></trkpt>
    <trkpt lat="49.159513" lon="19.735021"><ele>1776</ele></trkpt>
    <trkpt lat="49.159609" lon="19.735112"><ele>1779</ele></trkpt>
    <trkpt lat="49.159732" lon="19.735064"><ele>1783</ele></trkpt>
    <trkpt lat="49.159929" lon="19.735107"><ele>1790</ele></trkpt>
    <trkpt lat="49.160053" lon="19.735304"><ele>1797</ele></trkpt>
    <trkpt lat="49.160158" lon="19.735335"><ele>1801</ele></trkpt>
    <trkpt lat="49.160456" lon="19.735235"><ele>1812</ele></trkpt>
    <trkpt lat="49.160993" lon="19.734787"><ele>1829</ele></trkpt>
    <trkpt lat="49.161619" lon="19.734773"><ele>1841</ele></trkpt>
    <trkpt lat="49.161789" lon="19.734820"><ele>1845</ele></trkpt>
    <trkpt lat="49.161916" lon="19.734793"><ele>1848</ele></trkpt>
    <trkpt lat="49.161940" lon="19.734728"><ele>1848</ele></trkpt>
    <trkpt lat="49.161995" lon="19.734712"><ele>1849</ele></trkpt>
    <trkpt lat="49.162100" lon="19.734841"><ele>1852</ele></trkpt>
    <trkpt lat="49.162160" lon="19.734838"><ele>1853</ele></trkpt>
    <trkpt lat="49.162251" lon="19.734769"><ele>1855</ele></trkpt>
    <trkpt lat="49.162470" lon="19.734755"><ele>1862</ele></trkpt>
    <trkpt lat="49.162556" lon="19.734701"><ele>1865</ele></trkpt>
    <trkpt lat="49.162624" lon="19.734728"><ele>1868</ele></trkpt>
    <trkpt lat="49.162859" lon="19.734541"><ele>1872</ele></trkpt>
    <trkpt lat="49.163061" lon="19.734645"><ele>1876</ele></trkpt>
    <trkpt lat="49.163121" lon="19.734720"><ele>1877</ele></trkpt>
    <trkpt lat="49.163145" lon="19.734820"><ele>1876</ele></trkpt>
    <trkpt lat="49.163335" lon="19.734843"><ele>1873</ele></trkpt>
    <trkpt lat="49.163410" lon="19.734905"><ele>1871</ele></trkpt>
    <trkpt lat="49.163442" lon="19.735015"><ele>1872</ele></trkpt>
    <trkpt lat="49.163677" lon="19.735226"><ele>1867</ele></trkpt>
    <trkpt lat="49.163746" lon="19.735358"><ele>1867</ele></trkpt>
    <trkpt lat="49.163899" lon="19.735403"><ele>1866</ele></trkpt>
    <trkpt lat="49.164134" lon="19.735377"><ele>1865</ele></trkpt>
    <trkpt lat="49.164438" lon="19.735560"><ele>1875</ele></trkpt>
    <trkpt lat="49.164943" lon="19.735731"><ele>1888</ele></trkpt>
    <trkpt lat="49.165256" lon="19.735758"><ele>1897</ele></trkpt>
    <trkpt lat="49.165617" lon="19.735862"><ele>1908</ele></trkpt>
    <trkpt lat="49.165802" lon="19.736063"><ele>1914</ele></trkpt>
    <trkpt lat="49.166004" lon="19.736102"><ele>1918</ele></trkpt>
    <trkpt lat="49.166121" lon="19.736206"><ele>1920</ele></trkpt>
    <trkpt lat="49.166442" lon="19.736332"><ele>1929</ele></trkpt>
    <trkpt lat="49.166981" lon="19.736314"><ele>1947</ele></trkpt>
    <trkpt lat="49.167411" lon="19.736077"><ele>1961</ele></trkpt>
    <trkpt lat="49.167885" lon="19.736002"><ele>1973</ele></trkpt>
    <trkpt lat="49.168001" lon="19.736035"><ele>1977</ele></trkpt>
    <trkpt lat="49.168202" lon="19.736205"><ele>1984</ele></trkpt>
    <trkpt lat="49.168642" lon="19.736362"><ele>1995</ele></trkpt>
    <trkpt lat="49.169075" lon="19.736801"><ele>2007</ele></trkpt>
    <trkpt lat="49.169176" lon="19.737033"><ele>2011</ele></trkpt>
    <trkpt lat="49.169410" lon="19.737207"><ele>2020</ele></trkpt>
    <trkpt lat="49.169629" lon="19.737454"><ele>2027</ele></trkpt>
    <trkpt lat="49.170805" lon="19.738402"><ele>2060</ele></trkpt>
    <trkpt lat="49.170962" lon="19.738645"><ele>2069</ele></trkpt>
    <trkpt lat="49.171420" lon="19.738996"><ele>2091</ele></trkpt>
    <trkpt lat="49.171539" lon="19.739047"><ele>2093</ele></trkpt>
    <trkpt lat="49.171617" lon="19.739253"><ele>2099</ele></trkpt>
    <trkpt lat="49.171938" lon="19.739626"><ele>2110</ele></trkpt>
    <trkpt lat="49.172179" lon="19.739822"><ele>2120</ele></trkpt>
    <trkpt lat="49.172318" lon="19.739832"><ele>2126</ele></trkpt>
    <trkpt lat="49.172629" lon="19.739964"><ele>2139</ele></trkpt>
    <trkpt lat="49.173155" lon="19.740540"><ele>2167</ele></trkpt>
    <trkpt lat="49.173509" lon="19.740825"><ele>2174</ele></trkpt>
    <trkpt lat="49.173155" lon="19.740540"><ele>2167</ele></trkpt>
    <trkpt lat="49.172629" lon="19.739964"><ele>2139</ele></trkpt>
    <trkpt lat="49.172318" lon="19.739832"><ele>2126</ele></trkpt>
    <trkpt lat="49.172179" lon="19.739822"><ele>2120</ele></trkpt>
    <trkpt lat="49.171938" lon="19.739626"><ele>2110</ele></trkpt>
    <trkpt lat="49.171617" lon="19.739253"><ele>2099</ele></trkpt>
    <trkpt lat="49.171539" lon="19.739047"><ele>2093</ele></trkpt>
    <trkpt lat="49.171420" lon="19.738996"><ele>2091</ele></trkpt>
    <trkpt lat="49.170962" lon="19.738645"><ele>2069</ele></trkpt>
    <trkpt lat="49.170805" lon="19.738402"><ele>2060</ele></trkpt>
    <trkpt lat="49.169629" lon="19.737454"><ele>2027</ele></trkpt>
    <trkpt lat="49.169410" lon="19.737207"><ele>2020</ele></trkpt>
    <trkpt lat="49.169176" lon="19.737033"><ele>2011</ele></trkpt>
    <trkpt lat="49.169075" lon="19.736801"><ele>2007</ele></trkpt>
    <trkpt lat="49.168642" lon="19.736362"><ele>1995</ele></trkpt>
    <trkpt lat="49.168202" lon="19.736205"><ele>1984</ele></trkpt>
    <trkpt lat="49.168001" lon="19.736035"><ele>1977</ele></trkpt>
    <trkpt lat="49.167885" lon="19.736002"><ele>1973</ele></trkpt>
    <trkpt lat="49.167411" lon="19.736077"><ele>1961</ele></trkpt>
    <trkpt lat="49.166981" lon="19.736314"><ele>1947</ele></trkpt>
    <trkpt lat="49.166442" lon="19.736332"><ele>1929</ele></trkpt>
    <trkpt lat="49.166121" lon="19.736206"><ele>1920</ele></trkpt>
    <trkpt lat="49.166004" lon="19.736102"><ele>1918</ele></trkpt>
    <trkpt lat="49.165802" lon="19.736063"><ele>1914</ele></trkpt>
    <trkpt lat="49.165617" lon="19.735862"><ele>1908</ele></trkpt>
    <trkpt lat="49.165256" lon="19.735758"><ele>1897</ele></trkpt>
    <trkpt lat="49.164943" lon="19.735731"><ele>1888</ele></trkpt>
    <trkpt lat="49.164438" lon="19.735560"><ele>1875</ele></trkpt>
    <trkpt lat="49.164134" lon="19.735377"><ele>1865</ele></trkpt>
    <trkpt lat="49.163899" lon="19.735403"><ele>1866</ele></trkpt>
    <trkpt lat="49.163746" lon="19.735358"><ele>1867</ele></trkpt>
    <trkpt lat="49.163677" lon="19.735226"><ele>1867</ele></trkpt>
    <trkpt lat="49.163442" lon="19.735015"><ele>1872</ele></trkpt>
    <trkpt lat="49.163410" lon="19.734905"><ele>1871</ele></trkpt>
    <trkpt lat="49.163335" lon="19.734843"><ele>1873</ele></trkpt>
    <trkpt lat="49.163145" lon="19.734820"><ele>1876</ele></trkpt>
    <trkpt lat="49.163121" lon="19.734720"><ele>1877</ele></trkpt>
    <trkpt lat="49.163061" lon="19.734645"><ele>1876</ele></trkpt>
    <trkpt lat="49.162859" lon="19.734541"><ele>1872</ele></trkpt>
    <trkpt lat="49.162624" lon="19.734728"><ele>1868</ele></trkpt>
    <trkpt lat="49.162556" lon="19.734701"><ele>1865</ele></trkpt>
    <trkpt lat="49.162470" lon="19.734755"><ele>1862</ele></trkpt>
    <trkpt lat="49.162251" lon="19.734769"><ele>1855</ele></trkpt>
    <trkpt lat="49.162160" lon="19.734838"><ele>1853</ele></trkpt>
    <trkpt lat="49.162100" lon="19.734841"><ele>1852</ele></trkpt>
    <trkpt lat="49.161995" lon="19.734712"><ele>1849</ele></trkpt>
    <trkpt lat="49.161940" lon="19.734728"><ele>1848</ele></trkpt>
    <trkpt lat="49.161916" lon="19.734793"><ele>1848</ele></trkpt>
    <trkpt lat="49.161789" lon="19.734820"><ele>1845</ele></trkpt>
    <trkpt lat="49.161619" lon="19.734773"><ele>1841</ele></trkpt>
    <trkpt lat="49.160993" lon="19.734787"><ele>1829</ele></trkpt>
    <trkpt lat="49.160456" lon="19.735235"><ele>1812</ele></trkpt>
    <trkpt lat="49.160158" lon="19.735335"><ele>1801</ele></trkpt>
    <trkpt lat="49.160053" lon="19.735304"><ele>1797</ele></trkpt>
    <trkpt lat="49.159929" lon="19.735107"><ele>1790</ele></trkpt>
    <trkpt lat="49.159732" lon="19.735064"><ele>1783</ele></trkpt>
    <trkpt lat="49.159609" lon="19.735112"><ele>1779</ele></trkpt>
    <trkpt lat="49.159513" lon="19.735021"><ele>1776</ele></trkpt>
    <trkpt lat="49.159113" lon="19.734860"><ele>1761</ele></trkpt>
    <trkpt lat="49.158836" lon="19.734822"><ele>1753</ele></trkpt>
    <trkpt lat="49.158771" lon="19.734883"><ele>1752</ele></trkpt>
    <trkpt lat="49.158602" lon="19.734887"><ele>1746</ele></trkpt>
    <trkpt lat="49.158350" lon="19.734787"><ele>1737</ele></trkpt>
    <trkpt lat="49.158245" lon="19.734605"><ele>1732</ele></trkpt>
    <trkpt lat="49.157583" lon="19.734066"><ele>1717</ele></trkpt>
    <trkpt lat="49.157101" lon="19.733926"><ele>1711</ele></trkpt>
    <trkpt lat="49.156815" lon="19.733755"><ele>1706</ele></trkpt>
    <trkpt lat="49.156441" lon="19.733692"><ele>1701</ele></trkpt>
    <trkpt lat="49.156097" lon="19.733491"><ele>1698</ele></trkpt>
    <trkpt lat="49.155939" lon="19.733307"><ele>1700</ele></trkpt>
    <trkpt lat="49.155427" lon="19.732908"><ele>1702</ele></trkpt>
    <trkpt lat="49.155233" lon="19.732768"><ele>1703</ele></trkpt>
    <trkpt lat="49.154987" lon="19.732668"><ele>1699</ele></trkpt>
    <trkpt lat="49.154797" lon="19.732484"><ele>1699</ele></trkpt>
    <trkpt lat="49.154665" lon="19.732431"><ele>1695</ele></trkpt>
    <trkpt lat="49.154654" lon="19.732376"><ele>1695</ele></trkpt>
    <trkpt lat="49.154461" lon="19.732207"><ele>1692</ele></trkpt>
    <trkpt lat="49.154324" lon="19.732019"><ele>1691</ele></trkpt>
    <trkpt lat="49.154066" lon="19.731883"><ele>1688</ele></trkpt>
    <trkpt lat="49.153889" lon="19.731719"><ele>1689</ele></trkpt>
    <trkpt lat="49.153664" lon="19.731668"><ele>1688</ele></trkpt>
    <trkpt lat="49.153517" lon="19.731502"><ele>1683</ele></trkpt>
    <trkpt lat="49.153389" lon="19.731424"><ele>1681</ele></trkpt>
    <trkpt lat="49.153193" lon="19.731373"><ele>1677</ele></trkpt>
    <trkpt lat="49.153031" lon="19.731263"><ele>1675</ele></trkpt>
    <trkpt lat="49.152970" lon="19.731130"><ele>1675</ele></trkpt>
    <trkpt lat="49.152826" lon="19.731273"><ele>1671</ele></trkpt>
    <trkpt lat="49.152746" lon="19.731288"><ele>1669</ele></trkpt>
    <trkpt lat="49.152693" lon="19.731217"><ele>1669</ele></trkpt>
    <trkpt lat="49.152632" lon="19.731213"><ele>1667</ele></trkpt>
    <trkpt lat="49.152514" lon="19.731317"><ele>1665</ele></trkpt>
    <trkpt lat="49.152322" lon="19.731371"><ele>1660</ele></trkpt>
    <trkpt lat="49.152224" lon="19.731440"><ele>1658</ele></trkpt>
    <trkpt lat="49.152203" lon="19.731516"><ele>1657</ele></trkpt>
    <trkpt lat="49.152121" lon="19.731563"><ele>1654</ele></trkpt>
    <trkpt lat="49.152088" lon="19.731634"><ele>1653</ele></trkpt>
    <trkpt lat="49.151851" lon="19.731743"><ele>1647</ele></trkpt>
    <trkpt lat="49.151676" lon="19.731967"><ele>1640</ele></trkpt>
    <trkpt lat="49.151310" lon="19.732145"><ele>1631</ele></trkpt>
    <trkpt lat="49.151080" lon="19.732420"><ele>1624</ele></trkpt>
    <trkpt lat="49.150971" lon="19.732449"><ele>1622</ele></trkpt>
    <trkpt lat="49.150789" lon="19.732676"><ele>1617</ele></trkpt>
    <trkpt lat="49.150724" lon="19.732648"><ele>1616</ele></trkpt>
    <trkpt lat="49.150646" lon="19.732924"><ele>1612</ele></trkpt>
    <trkpt lat="49.150558" lon="19.732981"><ele>1610</ele></trkpt>
    <trkpt lat="49.150500" lon="19.732968"><ele>1609</ele></trkpt>
    <trkpt lat="49.150500" lon="19.733084"><ele>1607</ele></trkpt>
    <trkpt lat="49.150308" lon="19.732981"><ele>1602</ele></trkpt>
    <trkpt lat="49.150256" lon="19.732651"><ele>1601</ele></trkpt>
    <trkpt lat="49.150167" lon="19.732723"><ele>1598</ele></trkpt>
    <trkpt lat="49.150031" lon="19.732266"><ele>1591</ele></trkpt>
    <trkpt lat="49.149934" lon="19.732204"><ele>1588</ele></trkpt>
    <trkpt lat="49.149850" lon="19.732304"><ele>1585</ele></trkpt>
    <trkpt lat="49.149637" lon="19.732292"><ele>1576</ele></trkpt>
    <trkpt lat="49.149458" lon="19.732595"><ele>1569</ele></trkpt>
    <trkpt lat="49.149222" lon="19.732554"><ele>1560</ele></trkpt>
    <trkpt lat="49.149002" lon="19.732654"><ele>1550</ele></trkpt>
    <trkpt lat="49.148947" lon="19.732631"><ele>1548</ele></trkpt>
    <trkpt lat="49.148898" lon="19.732686"><ele>1545</ele></trkpt>
    <trkpt lat="49.148824" lon="19.732679"><ele>1541</ele></trkpt>
    <trkpt lat="49.148722" lon="19.732869"><ele>1536</ele></trkpt>
    <trkpt lat="49.148718" lon="19.733057"><ele>1536</ele></trkpt>
    <trkpt lat="49.148637" lon="19.733150"><ele>1532</ele></trkpt>
    <trkpt lat="49.148662" lon="19.733291"><ele>1533</ele></trkpt>
    <trkpt lat="49.148627" lon="19.733379"><ele>1531</ele></trkpt>
    <trkpt lat="49.148589" lon="19.733343"><ele>1529</ele></trkpt>
    <trkpt lat="49.148550" lon="19.733421"><ele>1527</ele></trkpt>
    <trkpt lat="49.148400" lon="19.733458"><ele>1520</ele></trkpt>
    <trkpt lat="49.148369" lon="19.733520"><ele>1518</ele></trkpt>
    <trkpt lat="49.148326" lon="19.733503"><ele>1516</ele></trkpt>
    <trkpt lat="49.148292" lon="19.733586"><ele>1514</ele></trkpt>
    <trkpt lat="49.148237" lon="19.733559"><ele>1512</ele></trkpt>
    <trkpt lat="49.148183" lon="19.733605"><ele>1509</ele></trkpt>
    <trkpt lat="49.148166" lon="19.733844"><ele>1508</ele></trkpt>
    <trkpt lat="49.147893" lon="19.734295"><ele>1497</ele></trkpt>
    <trkpt lat="49.147910" lon="19.734415"><ele>1498</ele></trkpt>
    <trkpt lat="49.147765" lon="19.734392"><ele>1493</ele></trkpt>
    <trkpt lat="49.147633" lon="19.734423"><ele>1488</ele></trkpt>
    <trkpt lat="49.147464" lon="19.734650"><ele>1480</ele></trkpt>
    <trkpt lat="49.147471" lon="19.734853"><ele>1478</ele></trkpt>
    <trkpt lat="49.147185" lon="19.734902"><ele>1467</ele></trkpt>
    <trkpt lat="49.146784" lon="19.735222"><ele>1446</ele></trkpt>
    <trkpt lat="49.146687" lon="19.735235"><ele>1442</ele></trkpt>
    <trkpt lat="49.146574" lon="19.735185"><ele>1438</ele></trkpt>
    <trkpt lat="49.146484" lon="19.735241"><ele>1434</ele></trkpt>
    <trkpt lat="49.146432" lon="19.735184"><ele>1433</ele></trkpt>
    <trkpt lat="49.146256" lon="19.735255"><ele>1427</ele></trkpt>
    <trkpt lat="49.146185" lon="19.735381"><ele>1424</ele></trkpt>
    <trkpt lat="49.146181" lon="19.735513"><ele>1422</ele></trkpt>
    <trkpt lat="49.146074" lon="19.735638"><ele>1417</ele></trkpt>
    <trkpt lat="49.146029" lon="19.735748"><ele>1414</ele></trkpt>
    <trkpt lat="49.145948" lon="19.735799"><ele>1412</ele></trkpt>
    <trkpt lat="49.145882" lon="19.735817"><ele>1411</ele></trkpt>
    <trkpt lat="49.145805" lon="19.735744"><ele>1411</ele></trkpt>
    <trkpt lat="49.145807" lon="19.735662"><ele>1412</ele></trkpt>
    <trkpt lat="49.145754" lon="19.735585"><ele>1411</ele></trkpt>
    <trkpt lat="49.145538" lon="19.735803"><ele>1404</ele></trkpt>
    <trkpt lat="49.145374" lon="19.735831"><ele>1399</ele></trkpt>
    <trkpt lat="49.144982" lon="19.735690"><ele>1386</ele></trkpt>
    <trkpt lat="49.144368" lon="19.736070"><ele>1360</ele></trkpt>
    <trkpt lat="49.143986" lon="19.736193"><ele>1346</ele></trkpt>
    <trkpt lat="49.143798" lon="19.736187"><ele>1339</ele></trkpt>
    <trkpt lat="49.143664" lon="19.736236"><ele>1333</ele></trkpt>
    <trkpt lat="49.143395" lon="19.736419"><ele>1321</ele></trkpt>
    <trkpt lat="49.143198" lon="19.736462"><ele>1314</ele></trkpt>
    <trkpt lat="49.143020" lon="19.736622"><ele>1305</ele></trkpt>
    <trkpt lat="49.142942" lon="19.736740"><ele>1300</ele></trkpt>
    <trkpt lat="49.142891" lon="19.736686"><ele>1299</ele></trkpt>
    <trkpt lat="49.142805" lon="19.736715"><ele>1295</ele></trkpt>
    <trkpt lat="49.142638" lon="19.737108"><ele>1284</ele></trkpt>
    <trkpt lat="49.142563" lon="19.737099"><ele>1283</ele></trkpt>
    <trkpt lat="49.142527" lon="19.737030"><ele>1283</ele></trkpt>
    <trkpt lat="49.142414" lon="19.737132"><ele>1279</ele></trkpt>
    <trkpt lat="49.142253" lon="19.737013"><ele>1274</ele></trkpt>
    <trkpt lat="49.142191" lon="19.737023"><ele>1272</ele></trkpt>
    <trkpt lat="49.141986" lon="19.737381"><ele>1260</ele></trkpt>
    <trkpt lat="49.141839" lon="19.737346"><ele>1257</ele></trkpt>
    <trkpt lat="49.141590" lon="19.737689"><ele>1244</ele></trkpt>
    <trkpt lat="49.141379" lon="19.737669"><ele>1239</ele></trkpt>
    <trkpt lat="49.141322" lon="19.737769"><ele>1236</ele></trkpt>
    <trkpt lat="49.141236" lon="19.737805"><ele>1233</ele></trkpt>
    <trkpt lat="49.140883" lon="19.738267"><ele>1215</ele></trkpt>
    <trkpt lat="49.140748" lon="19.737896"><ele>1215</ele></trkpt>
    <trkpt lat="49.140695" lon="19.737936"><ele>1212</ele></trkpt>
    <trkpt lat="49.140609" lon="19.738178"><ele>1205</ele></trkpt>
    <trkpt lat="49.140583" lon="19.738360"><ele>1201</ele></trkpt>
    <trkpt lat="49.140539" lon="19.738408"><ele>1198</ele></trkpt>
    <trkpt lat="49.140481" lon="19.738336"><ele>1198</ele></trkpt>
    <trkpt lat="49.140371" lon="19.738357"><ele>1192</ele></trkpt>
    <trkpt lat="49.140185" lon="19.738481"><ele>1178</ele></trkpt>
    <trkpt lat="49.139965" lon="19.738347"><ele>1171</ele></trkpt>
    <trkpt lat="49.139879" lon="19.738199"><ele>1169</ele></trkpt>
    <trkpt lat="49.139744" lon="19.738164"><ele>1163</ele></trkpt>
    <trkpt lat="49.139679" lon="19.738518"><ele>1154</ele></trkpt>
    <trkpt lat="49.139572" lon="19.738623"><ele>1148</ele></trkpt>
    <trkpt lat="49.139379" lon="19.739004"><ele>1136</ele></trkpt>
    <trkpt lat="49.139153" lon="19.739153"><ele>1129</ele></trkpt>
    <trkpt lat="49.139037" lon="19.739379"><ele>1123</ele></trkpt>
    <trkpt lat="49.138635" lon="19.739350"><ele>1112</ele></trkpt>
    <trkpt lat="49.138567" lon="19.739398"><ele>1109</ele></trkpt>
    <trkpt lat="49.138489" lon="19.739580"><ele>1105</ele></trkpt>
    <trkpt lat="49.138335" lon="19.740197"><ele>1091</ele></trkpt>
    <trkpt lat="49.138246" lon="19.740380"><ele>1086</ele></trkpt>
    <trkpt lat="49.138218" lon="19.740568"><ele>1083</ele></trkpt>
    <trkpt lat="49.137865" lon="19.740728"><ele>1072</ele></trkpt>
    <trkpt lat="49.137724" lon="19.740734"><ele>1068</ele></trkpt>
    <trkpt lat="49.137612" lon="19.740822"><ele>1063</ele></trkpt>
    <trkpt lat="49.137458" lon="19.740747"><ele>1059</ele></trkpt>
    <trkpt lat="49.137226" lon="19.741061"><ele>1044</ele></trkpt>
    <trkpt lat="49.137186" lon="19.741284"><ele>1037</ele></trkpt>
    <trkpt lat="49.137126" lon="19.741300"><ele>1035</ele></trkpt>
    <trkpt lat="49.136996" lon="19.741136"><ele>1036</ele></trkpt>
    <trkpt lat="49.136928" lon="19.741128"><ele>1034</ele></trkpt>
    <trkpt lat="49.136812" lon="19.741327"><ele>1025</ele></trkpt>
    <trkpt lat="49.136579" lon="19.741293"><ele>1015</ele></trkpt>
    <trkpt lat="49.136530" lon="19.741243"><ele>1014</ele></trkpt>
    <trkpt lat="49.136426" lon="19.741262"><ele>1008</ele></trkpt>
    <trkpt lat="49.136392" lon="19.741358"><ele>1006</ele></trkpt>
    <trkpt lat="49.136260" lon="19.741402"><ele>999</ele></trkpt>
    <trkpt lat="49.136193" lon="19.741508"><ele>993</ele></trkpt>
    <trkpt lat="49.136122" lon="19.741504"><ele>990</ele></trkpt>
    <trkpt lat="49.136094" lon="19.741434"><ele>990</ele></trkpt>
    <trkpt lat="49.136029" lon="19.741443"><ele>986</ele></trkpt>
    <trkpt lat="49.135791" lon="19.741531"><ele>972</ele></trkpt>
    <trkpt lat="49.135580" lon="19.741686"><ele>962</ele></trkpt>
    <trkpt lat="49.135475" lon="19.741662"><ele>956</ele></trkpt>
    <trkpt lat="49.135289" lon="19.741772"><ele>942</ele></trkpt>
    <trkpt lat="49.134975" lon="19.742141"><ele>923</ele></trkpt>
    <trkpt lat="49.134957" lon="19.742238"><ele>922</ele></trkpt>
    <trkpt lat="49.134895" lon="19.742312"><ele>919</ele></trkpt>
    <trkpt lat="49.134770" lon="19.742396"><ele>914</ele></trkpt>
    <trkpt lat="49.134738" lon="19.742348"><ele>912</ele></trkpt>
  </trkseg></trk>
</gpx>
