<?xml version="1.0" encoding="UTF-8"?>
<gpx version="1.1" creator="MounTour (OpenStreetMap)" xmlns="http://www.topografix.com/GPX/1/1">
  <metadata><name>Batizovské pleso</name><copyright author="OpenStreetMap contributors"><license>https://opendatacommons.org/licenses/odbl/</license></copyright></metadata>
  <trk><name>Batizovské pleso</name><trkseg>
    <trkpt lat="49.151871" lon="20.162444"><ele>1565</ele></trkpt>
    <trkpt lat="49.152205" lon="20.162119"><ele>1570</ele></trkpt>
    <trkpt lat="49.152638" lon="20.161379"><ele>1580</ele></trkpt>
    <trkpt lat="49.152756" lon="20.161256"><ele>1583</ele></trkpt>
    <trkpt lat="49.153142" lon="20.160637"><ele>1595</ele></trkpt>
    <trkpt lat="49.153893" lon="20.159576"><ele>1616</ele></trkpt>
    <trkpt lat="49.154123" lon="20.159162"><ele>1624</ele></trkpt>
    <trkpt lat="49.154353" lon="20.158831"><ele>1632</ele></trkpt>
    <trkpt lat="49.154852" lon="20.158335"><ele>1641</ele></trkpt>
    <trkpt lat="49.155350" lon="20.158059"><ele>1651</ele></trkpt>
    <trkpt lat="49.155985" lon="20.157547"><ele>1665</ele></trkpt>
    <trkpt lat="49.156036" lon="20.157386"><ele>1667</ele></trkpt>
    <trkpt lat="49.156029" lon="20.157255"><ele>1667</ele></trkpt>
    <trkpt lat="49.156077" lon="20.157192"><ele>1668</ele></trkpt>
    <trkpt lat="49.156008" lon="20.156891"><ele>1668</ele></trkpt>
    <trkpt lat="49.156066" lon="20.156769"><ele>1670</ele></trkpt>
    <trkpt lat="49.156318" lon="20.156436"><ele>1669</ele></trkpt>
    <trkpt lat="49.156306" lon="20.156186"><ele>1673</ele></trkpt>
    <trkpt lat="49.156225" lon="20.156044"><ele>1676</ele></trkpt>
    <trkpt lat="49.156220" lon="20.155865"><ele>1678</ele></trkpt>
    <trkpt lat="49.156337" lon="20.155661"><ele>1680</ele></trkpt>
    <trkpt lat="49.156463" lon="20.155547"><ele>1680</ele></trkpt>
    <trkpt lat="49.156550" lon="20.155033"><ele>1684</ele></trkpt>
    <trkpt lat="49.156416" lon="20.155017"><ele>1687</ele></trkpt>
    <trkpt lat="49.156333" lon="20.154787"><ele>1691</ele></trkpt>
    <trkpt lat="49.156226" lon="20.154692"><ele>1694</ele></trkpt>
    <trkpt lat="49.156116" lon="20.154681"><ele>1696</ele></trkpt>
    <trkpt lat="49.156028" lon="20.154589"><ele>1698</ele></trkpt>
    <trkpt lat="49.155815" lon="20.154546"><ele>1698</ele></trkpt>
    <trkpt lat="49.155468" lon="20.154396"><ele>1701</ele></trkpt>
    <trkpt lat="49.155347" lon="20.154395"><ele>1701</ele></trkpt>
    <trkpt lat="49.154871" lon="20.154863"><ele>1695</ele></trkpt>
    <trkpt lat="49.154457" lon="20.154963"><ele>1698</ele></trkpt>
    <trkpt lat="49.154266" lon="20.155067"><ele>1694</ele></trkpt>
    <trkpt lat="49.153963" lon="20.155111"><ele>1694</ele></trkpt>
    <trkpt lat="49.153371" lon="20.155072"><ele>1697</ele></trkpt>
    <trkpt lat="49.153124" lon="20.154991"><ele>1703</ele></trkpt>
    <trkpt lat="49.152905" lon="20.154984"><ele>1706</ele></trkpt>
    <trkpt lat="49.152376" lon="20.155151"><ele>1708</ele></trkpt>
    <trkpt lat="49.152053" lon="20.155096"><ele>1713</ele></trkpt>
    <trkpt lat="49.151679" lon="20.154894"><ele>1715</ele></trkpt>
    <trkpt lat="49.151266" lon="20.153921"><ele>1719</ele></trkpt>
    <trkpt lat="49.151119" lon="20.153668"><ele>1717</ele></trkpt>
    <trkpt lat="49.150992" lon="20.153614"><ele>1715</ele></trkpt>
    <trkpt lat="49.150518" lon="20.152985"><ele>1713</ele></trkpt>
    <trkpt lat="49.150302" lon="20.152525"><ele>1714</ele></trkpt>
    <trkpt lat="49.150153" lon="20.152120"><ele>1714</ele></trkpt>
    <trkpt lat="49.150145" lon="20.151998"><ele>1717</ele></trkpt>
    <trkpt lat="49.149978" lon="20.151791"><ele>1714</ele></trkpt>
    <trkpt lat="49.149908" lon="20.151572"><ele>1717</ele></trkpt>
    <trkpt lat="49.149690" lon="20.151165"><ele>1716</ele></trkpt>
    <trkpt lat="49.149440" lon="20.150846"><ele>1713</ele></trkpt>
    <trkpt lat="49.149413" lon="20.150681"><ele>1716</ele></trkpt>
    <trkpt lat="49.149133" lon="20.150263"><ele>1713</ele></trkpt>
    <trkpt lat="49.148990" lon="20.149804"><ele>1717</ele></trkpt>
    <trkpt lat="49.148804" lon="20.149591"><ele>1713</ele></trkpt>
    <trkpt lat="49.148690" lon="20.149357"><ele>1713</ele></trkpt>
    <trkpt lat="49.148636" lon="20.149154"><ele>1715</ele></trkpt>
    <trkpt lat="49.148134" lon="20.148036"><ele>1712</ele></trkpt>
    <trkpt lat="49.148105" lon="20.147882"><ele>1713</ele></trkpt>
    <trkpt lat="49.148028" lon="20.147816"><ele>1710</ele></trkpt>
    <trkpt lat="49.147685" lon="20.147307"><ele>1707</ele></trkpt>
    <trkpt lat="49.147495" lon="20.146738"><ele>1707</ele></trkpt>
    <trkpt lat="49.147373" lon="20.146564"><ele>1706</ele></trkpt>
    <trkpt lat="49.147125" lon="20.145991"><ele>1705</ele></trkpt>
    <trkpt lat="49.146904" lon="20.145663"><ele>1704</ele></trkpt>
    <trkpt lat="49.146698" lon="20.145226"><ele>1704</ele></trkpt>
    <trkpt lat="49.146435" lon="20.144907"><ele>1703</ele></trkpt>
    <trkpt lat="49.145925" lon="20.144523"><ele>1704</ele></trkpt>
    <trkpt lat="49.145468" lon="20.144092"><ele>1704</ele></trkpt>
    <trkpt lat="49.144804" lon="20.143614"><ele>1707</ele></trkpt>
    <trkpt lat="49.144707" lon="20.143504"><ele>1710</ele></trkpt>
    <trkpt lat="49.144466" lon="20.143087"><ele>1720</ele></trkpt>
    <trkpt lat="49.144326" lon="20.142525"><ele>1725</ele></trkpt>
    <trkpt lat="49.144197" lon="20.142235"><ele>1727</ele></trkpt>
    <trkpt lat="49.144197" lon="20.142132"><ele>1728</ele></trkpt>
    <trkpt lat="49.144144" lon="20.142012"><ele>1728</ele></trkpt>
    <trkpt lat="49.144196" lon="20.141655"><ele>1732</ele></trkpt>
    <trkpt lat="49.144158" lon="20.141314"><ele>1733</ele></trkpt>
    <trkpt lat="49.144280" lon="20.140865"><ele>1742</ele></trkpt>
    <trkpt lat="49.144285" lon="20.140419"><ele>1745</ele></trkpt>
    <trkpt lat="49.144338" lon="20.140097"><ele>1749</ele></trkpt>
    <trkpt lat="49.144397" lon="20.139351"><ele>1752</ele></trkpt>
    <trkpt lat="49.144494" lon="20.139170"><ele>1753</ele></trkpt>
    <trkpt lat="49.144570" lon="20.139101"><ele>1754</ele></trkpt>
    <trkpt lat="49.144980" lon="20.138925"><ele>1764</ele></trkpt>
    <trkpt lat="49.145483" lon="20.138540"><ele>1770</ele></trkpt>
    <trkpt lat="49.145789" lon="20.138497"><ele>1776</ele></trkpt>
    <trkpt lat="49.145939" lon="20.138520"><ele>1780</ele></trkpt>
    <trkpt lat="49.146200" lon="20.138458"><ele>1785</ele></trkpt>
    <trkpt lat="49.146478" lon="20.138269"><ele>1790</ele></trkpt>
    <trkpt lat="49.146597" lon="20.137952"><ele>1789</ele></trkpt>
    <trkpt lat="49.146941" lon="20.138024"><ele>1798</ele></trkpt>
    <trkpt lat="49.147254" lon="20.137669"><ele>1804</ele></trkpt>
    <trkpt lat="49.147384" lon="20.137702"><ele>1808</ele></trkpt>
    <trkpt lat="49.147481" lon="20.137578"><ele>1810</ele></trkpt>
    <trkpt lat="49.147592" lon="20.137598"><ele>1811</ele></trkpt>
    <trkpt lat="49.147710" lon="20.137453"><ele>1812</ele></trkpt>
    <trkpt lat="49.147849" lon="20.137402"><ele>1812</ele></trkpt>
    <trkpt lat="49.147968" lon="20.137206"><ele>1812</ele></trkpt>
    <trkpt lat="49.148308" lon="20.136900"><ele>1814</ele></trkpt>
    <trkpt lat="49.148664" lon="20.136266"><ele>1815</ele></trkpt>
    <trkpt lat="49.148891" lon="20.136084"><ele>1820</ele></trkpt>
    <trkpt lat="49.149008" lon="20.135904"><ele>1822</ele></trkpt>
    <trkpt lat="49.149119" lon="20.135862"><ele>1826</ele></trkpt>
    <trkpt lat="49.149427" lon="20.135445"><ele>1830</ele></trkpt>
    <trkpt lat="49.149575" lon="20.135186"><ele>1831</ele></trkpt>
    <trkpt lat="49.149679" lon="20.135118"><ele>1835</ele></trkpt>
    <trkpt lat="49.149885" lon="20.134813"><ele>1837</ele></trkpt>
    <trkpt lat="49.150094" lon="20.134692"><ele>1844</ele></trkpt>
    <trkpt lat="49.150205" lon="20.134538"><ele>1846</ele></trkpt>
    <trkpt lat="49.150317" lon="20.134341"><ele>1848</ele></trkpt>
    <trkpt lat="49.150434" lon="20.134024"><ele>1849</ele></trkpt>
    <trkpt lat="49.150578" lon="20.133790"><ele>1855</ele></trkpt>
    <trkpt lat="49.150605" lon="20.133506"><ele>1855</ele></trkpt>
    <trkpt lat="49.150684" lon="20.133151"><ele>1860</ele></trkpt>
    <trkpt lat="49.150894" lon="20.132977"><ele>1871</ele></trkpt>
    <trkpt lat="49.151076" lon="20.132729"><ele>1875</ele></trkpt>
    <trkpt lat="49.151222" lon="20.132710"><ele>1882</ele></trkpt>
    <trkpt lat="49.151411" lon="20.132500"><ele>1887</ele></trkpt>
    <trkpt lat="49.151452" lon="20.132308"><ele>1886</ele></trkpt>
    <trkpt lat="49.151386" lon="20.131886"><ele>1884</ele></trkpt>
    <trkpt lat="49.151409" lon="20.131791"><ele>1884</ele></trkpt>
    <trkpt lat="49.151366" lon="20.131572"><ele>1885</ele></trkpt>
    <trkpt lat="49.151391" lon="20.131439"><ele>1886</ele></trkpt>
    <trkpt lat="49.151323" lon="20.131017"><ele>1889</ele></trkpt>
    <trkpt lat="49.151189" lon="20.130788"><ele>1890</ele></trkpt>
    <trkpt lat="49.151153" lon="20.130479"><ele>1893</ele></trkpt>
    <trkpt lat="49.151197" lon="20.130311"><ele>1893</ele></trkpt>
    <trkpt lat="49.151153" lon="20.130479"><ele>1893</ele></trkpt>
    <trkpt lat="49.151189" lon="20.130788"><ele>1890</ele></trkpt>
    <trkpt lat="49.151323" lon="20.131017"><ele>1889</ele></trkpt>
    <trkpt lat="49.151391" lon="20.131439"><ele>1886</ele></trkpt>
    <trkpt lat="49.151366" lon="20.131572"><ele>1885</ele></trkpt>
    <trkpt lat="49.151409" lon="20.131791"><ele>1884</ele></trkpt>
    <trkpt lat="49.151386" lon="20.131886"><ele>1884</ele></trkpt>
    <trkpt lat="49.151452" lon="20.132308"><ele>1886</ele></trkpt>
    <trkpt lat="49.151411" lon="20.132500"><ele>1887</ele></trkpt>
    <trkpt lat="49.151222" lon="20.132710"><ele>1882</ele></trkpt>
    <trkpt lat="49.151076" lon="20.132729"><ele>1875</ele></trkpt>
    <trkpt lat="49.150894" lon="20.132977"><ele>1871</ele></trkpt>
    <trkpt lat="49.150684" lon="20.133151"><ele>1860</ele></trkpt>
    <trkpt lat="49.150605" lon="20.133506"><ele>1855</ele></trkpt>
    <trkpt lat="49.150578" lon="20.133790"><ele>1855</ele></trkpt>
    <trkpt lat="49.150434" lon="20.134024"><ele>1849</ele></trkpt>
    <trkpt lat="49.150317" lon="20.134341"><ele>1848</ele></trkpt>
    <trkpt lat="49.150205" lon="20.134538"><ele>1846</ele></trkpt>
    <trkpt lat="49.150094" lon="20.134692"><ele>1844</ele></trkpt>
    <trkpt lat="49.149885" lon="20.134813"><ele>1837</ele></trkpt>
    <trkpt lat="49.149679" lon="20.135118"><ele>1835</ele></trkpt>
    <trkpt lat="49.149575" lon="20.135186"><ele>1831</ele></trkpt>
    <trkpt lat="49.149427" lon="20.135445"><ele>1830</ele></trkpt>
    <trkpt lat="49.149119" lon="20.135862"><ele>1826</ele></trkpt>
    <trkpt lat="49.149008" lon="20.135904"><ele>1822</ele></trkpt>
    <trkpt lat="49.148891" lon="20.136084"><ele>1820</ele></trkpt>
    <trkpt lat="49.148664" lon="20.136266"><ele>1815</ele></trkpt>
    <trkpt lat="49.148308" lon="20.136900"><ele>1814</ele></trkpt>
    <trkpt lat="49.147968" lon="20.137206"><ele>1812</ele></trkpt>
    <trkpt lat="49.147849" lon="20.137402"><ele>1812</ele></trkpt>
    <trkpt lat="49.147710" lon="20.137453"><ele>1812</ele></trkpt>
    <trkpt lat="49.147592" lon="20.137598"><ele>1811</ele></trkpt>
    <trkpt lat="49.147481" lon="20.137578"><ele>1810</ele></trkpt>
    <trkpt lat="49.147384" lon="20.137702"><ele>1808</ele></trkpt>
    <trkpt lat="49.147254" lon="20.137669"><ele>1804</ele></trkpt>
    <trkpt lat="49.146941" lon="20.138024"><ele>1798</ele></trkpt>
    <trkpt lat="49.146597" lon="20.137952"><ele>1789</ele></trkpt>
    <trkpt lat="49.146478" lon="20.138269"><ele>1790</ele></trkpt>
    <trkpt lat="49.146200" lon="20.138458"><ele>1785</ele></trkpt>
    <trkpt lat="49.145939" lon="20.138520"><ele>1780</ele></trkpt>
    <trkpt lat="49.145789" lon="20.138497"><ele>1776</ele></trkpt>
    <trkpt lat="49.145483" lon="20.138540"><ele>1770</ele></trkpt>
    <trkpt lat="49.144980" lon="20.138925"><ele>1764</ele></trkpt>
    <trkpt lat="49.144570" lon="20.139101"><ele>1754</ele></trkpt>
    <trkpt lat="49.144494" lon="20.139170"><ele>1753</ele></trkpt>
    <trkpt lat="49.144397" lon="20.139351"><ele>1752</ele></trkpt>
    <trkpt lat="49.144338" lon="20.140097"><ele>1749</ele></trkpt>
    <trkpt lat="49.144285" lon="20.140419"><ele>1745</ele></trkpt>
    <trkpt lat="49.144280" lon="20.140865"><ele>1742</ele></trkpt>
    <trkpt lat="49.144158" lon="20.141314"><ele>1733</ele></trkpt>
    <trkpt lat="49.144196" lon="20.141655"><ele>1732</ele></trkpt>
    <trkpt lat="49.144144" lon="20.142012"><ele>1728</ele></trkpt>
    <trkpt lat="49.144197" lon="20.142132"><ele>1728</ele></trkpt>
    <trkpt lat="49.144197" lon="20.142235"><ele>1727</ele></trkpt>
    <trkpt lat="49.144326" lon="20.142525"><ele>1725</ele></trkpt>
    <trkpt lat="49.144466" lon="20.143087"><ele>1720</ele></trkpt>
    <trkpt lat="49.144707" lon="20.143504"><ele>1710</ele></trkpt>
    <trkpt lat="49.144804" lon="20.143614"><ele>1707</ele></trkpt>
    <trkpt lat="49.145468" lon="20.144092"><ele>1704</ele></trkpt>
    <trkpt lat="49.145925" lon="20.144523"><ele>1704</ele></trkpt>
    <trkpt lat="49.146435" lon="20.144907"><ele>1703</ele></trkpt>
    <trkpt lat="49.146698" lon="20.145226"><ele>1704</ele></trkpt>
    <trkpt lat="49.146904" lon="20.145663"><ele>1704</ele></trkpt>
    <trkpt lat="49.147125" lon="20.145991"><ele>1705</ele></trkpt>
    <trkpt lat="49.147373" lon="20.146564"><ele>1706</ele></trkpt>
    <trkpt lat="49.147495" lon="20.146738"><ele>1707</ele></trkpt>
    <trkpt lat="49.147685" lon="20.147307"><ele>1707</ele></trkpt>
    <trkpt lat="49.148028" lon="20.147816"><ele>1710</ele></trkpt>
    <trkpt lat="49.148105" lon="20.147882"><ele>1713</ele></trkpt>
    <trkpt lat="49.148134" lon="20.148036"><ele>1712</ele></trkpt>
    <trkpt lat="49.148636" lon="20.149154"><ele>1715</ele></trkpt>
    <trkpt lat="49.148690" lon="20.149357"><ele>1713</ele></trkpt>
    <trkpt lat="49.148804" lon="20.149591"><ele>1713</ele></trkpt>
    <trkpt lat="49.148990" lon="20.149804"><ele>1717</ele></trkpt>
    <trkpt lat="49.149133" lon="20.150263"><ele>1713</ele></trkpt>
    <trkpt lat="49.149413" lon="20.150681"><ele>1716</ele></trkpt>
    <trkpt lat="49.149440" lon="20.150846"><ele>1713</ele></trkpt>
    <trkpt lat="49.149690" lon="20.151165"><ele>1716</ele></trkpt>
    <trkpt lat="49.149908" lon="20.151572"><ele>1717</ele></trkpt>
    <trkpt lat="49.149978" lon="20.151791"><ele>1714</ele></trkpt>
    <trkpt lat="49.150145" lon="20.151998"><ele>1717</ele></trkpt>
    <trkpt lat="49.150153" lon="20.152120"><ele>1714</ele></trkpt>
    <trkpt lat="49.150302" lon="20.152525"><ele>1714</ele></trkpt>
    <trkpt lat="49.150518" lon="20.152985"><ele>1713</ele></trkpt>
    <trkpt lat="49.150992" lon="20.153614"><ele>1715</ele></trkpt>
    <trkpt lat="49.151119" lon="20.153668"><ele>1717</ele></trkpt>
    <trkpt lat="49.151266" lon="20.153921"><ele>1719</ele></trkpt>
    <trkpt lat="49.151679" lon="20.154894"><ele>1715</ele></trkpt>
    <trkpt lat="49.152053" lon="20.155096"><ele>1713</ele></trkpt>
    <trkpt lat="49.152376" lon="20.155151"><ele>1708</ele></trkpt>
    <trkpt lat="49.152905" lon="20.154984"><ele>1706</ele></trkpt>
    <trkpt lat="49.153124" lon="20.154991"><ele>1703</ele></trkpt>
    <trkpt lat="49.153371" lon="20.155072"><ele>1697</ele></trkpt>
    <trkpt lat="49.153963" lon="20.155111"><ele>1694</ele></trkpt>
    <trkpt lat="49.154266" lon="20.155067"><ele>1694</ele></trkpt>
    <trkpt lat="49.154457" lon="20.154963"><ele>1698</ele></trkpt>
    <trkpt lat="49.154871" lon="20.154863"><ele>1695</ele></trkpt>
    <trkpt lat="49.155347" lon="20.154395"><ele>1701</ele></trkpt>
    <trkpt lat="49.155468" lon="20.154396"><ele>1701</ele></trkpt>
    <trkpt lat="49.155815" lon="20.154546"><ele>1698</ele></trkpt>
    <trkpt lat="49.156028" lon="20.154589"><ele>1698</ele></trkpt>
    <trkpt lat="49.156116" lon="20.154681"><ele>1696</ele></trkpt>
    <trkpt lat="49.156226" lon="20.154692"><ele>1694</ele></trkpt>
    <trkpt lat="49.156333" lon="20.154787"><ele>1691</ele></trkpt>
    <trkpt lat="49.156416" lon="20.155017"><ele>1687</ele></trkpt>
    <trkpt lat="49.156550" lon="20.155033"><ele>1684</ele></trkpt>
    <trkpt lat="49.156463" lon="20.155547"><ele>1680</ele></trkpt>
    <trkpt lat="49.156337" lon="20.155661"><ele>1680</ele></trkpt>
    <trkpt lat="49.156220" lon="20.155865"><ele>1678</ele></trkpt>
    <trkpt lat="49.156225" lon="20.156044"><ele>1676</ele></trkpt>
    <trkpt lat="49.156306" lon="20.156186"><ele>1673</ele></trkpt>
    <trkpt lat="49.156318" lon="20.156436"><ele>1669</ele></trkpt>
    <trkpt lat="49.156066" lon="20.156769"><ele>1670</ele></trkpt>
    <trkpt lat="49.156008" lon="20.156891"><ele>1668</ele></trkpt>
    <trkpt lat="49.156077" lon="20.157192"><ele>1668</ele></trkpt>
    <trkpt lat="49.156029" lon="20.157255"><ele>1667</ele></trkpt>
    <trkpt lat="49.156036" lon="20.157386"><ele>1667</ele></trkpt>
    <trkpt lat="49.155985" lon="20.157547"><ele>1665</ele></trkpt>
    <trkpt lat="49.155350" lon="20.158059"><ele>1651</ele></trkpt>
    <trkpt lat="49.154852" lon="20.158335"><ele>1641</ele></trkpt>
    <trkpt lat="49.154353" lon="20.158831"><ele>1632</ele></trkpt>
    <trkpt lat="49.154123" lon="20.159162"><ele>1624</ele></trkpt>
    <trkpt lat="49.153893" lon="20.159576"><ele>1616</ele></trkpt>
    <trkpt lat="49.153142" lon="20.160637"><ele>1595</ele></trkpt>
    <trkpt lat="49.152756" lon="20.161256"><ele>1583</ele></trkpt>
    <trkpt lat="49.152638" lon="20.161379"><ele>1580</ele></trkpt>
    <trkpt lat="49.152205" lon="20.162119"><ele>1570</ele></trkpt>
    <trkpt lat="49.151871" lon="20.162444"><ele>1565</ele></trkpt>
  </trkseg></trk>
</gpx>
