<?xml version="1.0" encoding="UTF-8"?>
<gpx version="1.1" creator="MounTour (OpenStreetMap)" xmlns="http://www.topografix.com/GPX/1/1">
  <metadata><name>Biely kríž z Krasnian</name><copyright author="OpenStreetMap contributors"><license>https://opendatacommons.org/licenses/odbl/</license></copyright></metadata>
  <trk><name>Biely kríž z Krasnian</name><trkseg>
    <trkpt lat="48.198764" lon="17.134793"><ele>167</ele></trkpt>
    <trkpt lat="48.198928" lon="17.134968"><ele>166</ele></trkpt>
    <trkpt lat="48.199060" lon="17.134958"><ele>166</ele></trkpt>
    <trkpt lat="48.199064" lon="17.135001"><ele>166</ele></trkpt>
    <trkpt lat="48.199789" lon="17.134572"><ele>166</ele></trkpt>
    <trkpt lat="48.200250" lon="17.134723"><ele>164</ele></trkpt>
    <trkpt lat="48.200925" lon="17.135121"><ele>162</ele></trkpt>
    <trkpt lat="48.201900" lon="17.135774"><ele>160</ele></trkpt>
    <trkpt lat="48.202155" lon="17.135992"><ele>160</ele></trkpt>
    <trkpt lat="48.202286" lon="17.136180"><ele>159</ele></trkpt>
    <trkpt lat="48.202339" lon="17.136360"><ele>159</ele></trkpt>
    <trkpt lat="48.202281" lon="17.137645"><ele>158</ele></trkpt>
    <trkpt lat="48.202630" lon="17.139598"><ele>157</ele></trkpt>
    <trkpt lat="48.202882" lon="17.140249"><ele>159</ele></trkpt>
    <trkpt lat="48.203777" lon="17.141845"><ele>164</ele></trkpt>
    <trkpt lat="48.204305" lon="17.142461"><ele>167</ele></trkpt>
    <trkpt lat="48.204975" lon="17.142929"><ele>172</ele></trkpt>
    <trkpt lat="48.205332" lon="17.143015"><ele>175</ele></trkpt>
    <trkpt lat="48.205703" lon="17.142958"><ele>176</ele></trkpt>
    <trkpt lat="48.205861" lon="17.142980"><ele>176</ele></trkpt>
    <trkpt lat="48.206668" lon="17.143399"><ele>178</ele></trkpt>
    <trkpt lat="48.206749" lon="17.143432"><ele>178</ele></trkpt>
    <trkpt lat="48.206825" lon="17.143408"><ele>179</ele></trkpt>
    <trkpt lat="48.207771" lon="17.143940"><ele>181</ele></trkpt>
    <trkpt lat="48.208348" lon="17.144059"><ele>181</ele></trkpt>
    <trkpt lat="48.208874" lon="17.144306"><ele>180</ele></trkpt>
    <trkpt lat="48.209075" lon="17.144442"><ele>179</ele></trkpt>
    <trkpt lat="48.209389" lon="17.144798"><ele>179</ele></trkpt>
    <trkpt lat="48.209657" lon="17.145196"><ele>176</ele></trkpt>
    <trkpt lat="48.209953" lon="17.145490"><ele>176</ele></trkpt>
    <trkpt lat="48.210382" lon="17.145837"><ele>177</ele></trkpt>
    <trkpt lat="48.210996" lon="17.146567"><ele>177</ele></trkpt>
    <trkpt lat="48.211012" lon="17.146533"><ele>177</ele></trkpt>
    <trkpt lat="48.211150" lon="17.146670"><ele>176</ele></trkpt>
    <trkpt lat="48.211761" lon="17.147452"><ele>174</ele></trkpt>
    <trkpt lat="48.212670" lon="17.148725"><ele>174</ele></trkpt>
    <trkpt lat="48.213048" lon="17.149772"><ele>172</ele></trkpt>
    <trkpt lat="48.213346" lon="17.150490"><ele>170</ele></trkpt>
    <trkpt lat="48.213770" lon="17.151263"><ele>167</ele></trkpt>
    <trkpt lat="48.214127" lon="17.152028"><ele>165</ele></trkpt>
    <trkpt lat="48.215098" lon="17.151710"><ele>174</ele></trkpt>
    <trkpt lat="48.215113" lon="17.151750"><ele>174</ele></trkpt>
    <trkpt lat="48.215201" lon="17.151712"><ele>175</ele></trkpt>
    <trkpt lat="48.215561" lon="17.151397"><ele>180</ele></trkpt>
    <trkpt lat="48.216475" lon="17.150271"><ele>189</ele></trkpt>
    <trkpt lat="48.216687" lon="17.150247"><ele>190</ele></trkpt>
    <trkpt lat="48.217161" lon="17.150438"><ele>194</ele></trkpt>
    <trkpt lat="48.217397" lon="17.150458"><ele>194</ele></trkpt>
    <trkpt lat="48.219671" lon="17.149956"><ele>206</ele></trkpt>
    <trkpt lat="48.220132" lon="17.149749"><ele>211</ele></trkpt>
    <trkpt lat="48.220879" lon="17.149214"><ele>229</ele></trkpt>
    <trkpt lat="48.221808" lon="17.148820"><ele>229</ele></trkpt>
    <trkpt lat="48.222398" lon="17.148313"><ele>252</ele></trkpt>
    <trkpt lat="48.222724" lon="17.148197"><ele>254</ele></trkpt>
    <trkpt lat="48.222924" lon="17.148381"><ele>252</ele></trkpt>
    <trkpt lat="48.223040" lon="17.148423"><ele>254</ele></trkpt>
    <trkpt lat="48.223214" lon="17.148436"><ele>256</ele></trkpt>
    <trkpt lat="48.223574" lon="17.148321"><ele>261</ele></trkpt>
    <trkpt lat="48.224539" lon="17.147644"><ele>282</ele></trkpt>
    <trkpt lat="48.224907" lon="17.147334"><ele>289</ele></trkpt>
    <trkpt lat="48.225108" lon="17.147012"><ele>296</ele></trkpt>
    <trkpt lat="48.225488" lon="17.146677"><ele>304</ele></trkpt>
    <trkpt lat="48.225699" lon="17.146682"><ele>306</ele></trkpt>
    <trkpt lat="48.225780" lon="17.146528"><ele>308</ele></trkpt>
    <trkpt lat="48.226510" lon="17.145858"><ele>329</ele></trkpt>
    <trkpt lat="48.226877" lon="17.145428"><ele>339</ele></trkpt>
    <trkpt lat="48.227015" lon="17.145350"><ele>342</ele></trkpt>
    <trkpt lat="48.227416" lon="17.144978"><ele>349</ele></trkpt>
    <trkpt lat="48.228182" lon="17.144492"><ele>364</ele></trkpt>
    <trkpt lat="48.228647" lon="17.144433"><ele>371</ele></trkpt>
    <trkpt lat="48.228988" lon="17.144503"><ele>377</ele></trkpt>
    <trkpt lat="48.229470" lon="17.144449"><ele>387</ele></trkpt>
    <trkpt lat="48.229995" lon="17.144323"><ele>398</ele></trkpt>
    <trkpt lat="48.230721" lon="17.143760"><ele>405</ele></trkpt>
    <trkpt lat="48.231130" lon="17.143138"><ele>414</ele></trkpt>
    <trkpt lat="48.231443" lon="17.142896"><ele>419</ele></trkpt>
    <trkpt lat="48.231638" lon="17.142595"><ele>421</ele></trkpt>
    <trkpt lat="48.233484" lon="17.142538"><ele>448</ele></trkpt>
    <trkpt lat="48.233883" lon="17.143796"><ele>458</ele></trkpt>
    <trkpt lat="48.234127" lon="17.144687"><ele>460</ele></trkpt>
    <trkpt lat="48.234393" lon="17.144694"><ele>462</ele></trkpt>
    <trkpt lat="48.234676" lon="17.144958"><ele>460</ele></trkpt>
    <trkpt lat="48.234842" lon="17.145243"><ele>454</ele></trkpt>
    <trkpt lat="48.235632" lon="17.145782"><ele>432</ele></trkpt>
    <trkpt lat="48.235914" lon="17.146029"><ele>432</ele></trkpt>
    <trkpt lat="48.236228" lon="17.145597"><ele>431</ele></trkpt>
    <trkpt lat="48.236233" lon="17.145507"><ele>431</ele></trkpt>
    <trkpt lat="48.236918" lon="17.145136"><ele>439</ele></trkpt>
    <trkpt lat="48.238111" lon="17.144327"><ele>443</ele></trkpt>
    <trkpt lat="48.239030" lon="17.144387"><ele>447</ele></trkpt>
    <trkpt lat="48.239205" lon="17.144360"><ele>448</ele></trkpt>
    <trkpt lat="48.239896" lon="17.143854"><ele>458</ele></trkpt>
    <trkpt lat="48.240826" lon="17.143051"><ele>461</ele></trkpt>
    <trkpt lat="48.241161" lon="17.142950"><ele>461</ele></trkpt>
    <trkpt lat="48.243603" lon="17.143410"><ele>469</ele></trkpt>
    <trkpt lat="48.247838" lon="17.143920"><ele>499</ele></trkpt>
    <trkpt lat="48.248234" lon="17.144046"><ele>509</ele></trkpt>
    <trkpt lat="48.248426" lon="17.144199"><ele>509</ele></trkpt>
    <trkpt lat="48.248234" lon="17.144046"><ele>509</ele></trkpt>
    <trkpt lat="48.247838" lon="17.143920"><ele>499</ele></trkpt>
    <trkpt lat="48.243603" lon="17.143410"><ele>469</ele></trkpt>
    <trkpt lat="48.241161" lon="17.142950"><ele>461</ele></trkpt>
    <trkpt lat="48.240826" lon="17.143051"><ele>461</ele></trkpt>
    <trkpt lat="48.239896" lon="17.143854"><ele>458</ele></trkpt>
    <trkpt lat="48.239205" lon="17.144360"><ele>448</ele></trkpt>
    <trkpt lat="48.239030" lon="17.144387"><ele>447</ele></trkpt>
    <trkpt lat="48.238111" lon="17.144327"><ele>443</ele></trkpt>
    <trkpt lat="48.236918" lon="17.145136"><ele>439</ele></trkpt>
    <trkpt lat="48.236233" lon="17.145507"><ele>431</ele></trkpt>
    <trkpt lat="48.236228" lon="17.145597"><ele>431</ele></trkpt>
    <trkpt lat="48.235914" lon="17.146029"><ele>432</ele></trkpt>
    <trkpt lat="48.235632" lon="17.145782"><ele>432</ele></trkpt>
    <trkpt lat="48.234842" lon="17.145243"><ele>454</ele></trkpt>
    <trkpt lat="48.234676" lon="17.144958"><ele>460</ele></trkpt>
    <trkpt lat="48.234393" lon="17.144694"><ele>462</ele></trkpt>
    <trkpt lat="48.234127" lon="17.144687"><ele>460</ele></trkpt>
    <trkpt lat="48.233883" lon="17.143796"><ele>458</ele></trkpt>
    <trkpt lat="48.233484" lon="17.142538"><ele>448</ele></trkpt>
    <trkpt lat="48.231638" lon="17.142595"><ele>421</ele></trkpt>
    <trkpt lat="48.231443" lon="17.142896"><ele>419</ele></trkpt>
    <trkpt lat="48.231130" lon="17.143138"><ele>414</ele></trkpt>
    <trkpt lat="48.230721" lon="17.143760"><ele>405</ele></trkpt>
    <trkpt lat="48.229995" lon="17.144323"><ele>398</ele></trkpt>
    <trkpt lat="48.229470" lon="17.144449"><ele>387</ele></trkpt>
    <trkpt lat="48.228988" lon="17.144503"><ele>377</ele></trkpt>
    <trkpt lat="48.228647" lon="17.144433"><ele>371</ele></trkpt>
    <trkpt lat="48.228182" lon="17.144492"><ele>364</ele></trkpt>
    <trkpt lat="48.227416" lon="17.144978"><ele>349</ele></trkpt>
    <trkpt lat="48.227015" lon="17.145350"><ele>342</ele></trkpt>
    <trkpt lat="48.226877" lon="17.145428"><ele>339</ele></trkpt>
    <trkpt lat="48.226510" lon="17.145858"><ele>329</ele></trkpt>
    <trkpt lat="48.225780" lon="17.146528"><ele>308</ele></trkpt>
    <trkpt lat="48.225699" lon="17.146682"><ele>306</ele></trkpt>
    <trkpt lat="48.225488" lon="17.146677"><ele>304</ele></trkpt>
    <trkpt lat="48.225108" lon="17.147012"><ele>296</ele></trkpt>
    <trkpt lat="48.224907" lon="17.147334"><ele>289</ele></trkpt>
    <trkpt lat="48.224539" lon="17.147644"><ele>282</ele></trkpt>
    <trkpt lat="48.223574" lon="17.148321"><ele>261</ele></trkpt>
    <trkpt lat="48.223214" lon="17.148436"><ele>256</ele></trkpt>
    <trkpt lat="48.223040" lon="17.148423"><ele>254</ele></trkpt>
    <trkpt lat="48.222924" lon="17.148381"><ele>252</ele></trkpt>
    <trkpt lat="48.222724" lon="17.148197"><ele>254</ele></trkpt>
    <trkpt lat="48.222398" lon="17.148313"><ele>252</ele></trkpt>
    <trkpt lat="48.221808" lon="17.148820"><ele>229</ele></trkpt>
    <trkpt lat="48.220879" lon="17.149214"><ele>229</ele></trkpt>
    <trkpt lat="48.220132" lon="17.149749"><ele>211</ele></trkpt>
    <trkpt lat="48.219671" lon="17.149956"><ele>206</ele></trkpt>
    <trkpt lat="48.217397" lon="17.150458"><ele>194</ele></trkpt>
    <trkpt lat="48.217161" lon="17.150438"><ele>194</ele></trkpt>
    <trkpt lat="48.216687" lon="17.150247"><ele>190</ele></trkpt>
    <trkpt lat="48.216475" lon="17.150271"><ele>189</ele></trkpt>
    <trkpt lat="48.215561" lon="17.151397"><ele>180</ele></trkpt>
    <trkpt lat="48.215201" lon="17.151712"><ele>175</ele></trkpt>
    <trkpt lat="48.215113" lon="17.151750"><ele>174</ele></trkpt>
    <trkpt lat="48.215098" lon="17.151710"><ele>174</ele></trkpt>
    <trkpt lat="48.214127" lon="17.152028"><ele>165</ele></trkpt>
    <trkpt lat="48.213770" lon="17.151263"><ele>167</ele></trkpt>
    <trkpt lat="48.213346" lon="17.150490"><ele>170</ele></trkpt>
    <trkpt lat="48.213048" lon="17.149772"><ele>172</ele></trkpt>
    <trkpt lat="48.212670" lon="17.148725"><ele>174</ele></trkpt>
    <trkpt lat="48.211761" lon="17.147452"><ele>174</ele></trkpt>
    <trkpt lat="48.211150" lon="17.146670"><ele>176</ele></trkpt>
    <trkpt lat="48.211012" lon="17.146533"><ele>177</ele></trkpt>
    <trkpt lat="48.210996" lon="17.146567"><ele>177</ele></trkpt>
    <trkpt lat="48.210382" lon="17.145837"><ele>177</ele></trkpt>
    <trkpt lat="48.209953" lon="17.145490"><ele>176</ele></trkpt>
    <trkpt lat="48.209657" lon="17.145196"><ele>176</ele></trkpt>
    <trkpt lat="48.209389" lon="17.144798"><ele>179</ele></trkpt>
    <trkpt lat="48.209075" lon="17.144442"><ele>179</ele></trkpt>
    <trkpt lat="48.208874" lon="17.144306"><ele>180</ele></trkpt>
    <trkpt lat="48.208348" lon="17.144059"><ele>181</ele></trkpt>
    <trkpt lat="48.207771" lon="17.143940"><ele>181</ele></trkpt>
    <trkpt lat="48.206825" lon="17.143408"><ele>179</ele></trkpt>
    <trkpt lat="48.206749" lon="17.143432"><ele>178</ele></trkpt>
    <trkpt lat="48.206668" lon="17.143399"><ele>178</ele></trkpt>
    <trkpt lat="48.205861" lon="17.142980"><ele>176</ele></trkpt>
    <trkpt lat="48.205703" lon="17.142958"><ele>176</ele></trkpt>
    <trkpt lat="48.205332" lon="17.143015"><ele>175</ele></trkpt>
    <trkpt lat="48.204975" lon="17.142929"><ele>172</ele></trkpt>
    <trkpt lat="48.204305" lon="17.142461"><ele>167</ele></trkpt>
    <trkpt lat="48.203777" lon="17.141845"><ele>164</ele></trkpt>
    <trkpt lat="48.202882" lon="17.140249"><ele>159</ele></trkpt>
    <trkpt lat="48.202630" lon="17.139598"><ele>157</ele></trkpt>
    <trkpt lat="48.202281" lon="17.137645"><ele>158</ele></trkpt>
    <trkpt lat="48.202339" lon="17.136360"><ele>159</ele></trkpt>
    <trkpt lat="48.202286" lon="17.136180"><ele>159</ele></trkpt>
    <trkpt lat="48.202155" lon="17.135992"><ele>160</ele></trkpt>
    <trkpt lat="48.201900" lon="17.135774"><ele>160</ele></trkpt>
    <trkpt lat="48.200925" lon="17.135121"><ele>162</ele></trkpt>
    <trkpt lat="48.200250" lon="17.134723"><ele>164</ele></trkpt>
    <trkpt lat="48.199789" lon="17.134572"><ele>166</ele></trkpt>
    <trkpt lat="48.199064" lon="17.135001"><ele>166</ele></trkpt>
    <trkpt lat="48.199060" lon="17.134958"><ele>166</ele></trkpt>
    <trkpt lat="48.198928" lon="17.134968"><ele>166</ele></trkpt>
    <trkpt lat="48.198764" lon="17.134793"><ele>167</ele></trkpt>
  </trkseg></trk>
</gpx>
