<?xml version="1.0" encoding="UTF-8"?>
<gpx version="1.1" creator="MounTour (OpenStreetMap)" xmlns="http://www.topografix.com/GPX/1/1">
  <metadata><name>Biela jaskyňa</name><copyright author="OpenStreetMap contributors"><license>https://opendatacommons.org/licenses/odbl/</license></copyright></metadata>
  <trk><name>Biela jaskyňa</name><trkseg>
    <trkpt lat="48.961252" lon="20.444853"><ele>525</ele></trkpt>
    <trkpt lat="48.961136" lon="20.444810"><ele>525</ele></trkpt>
    <trkpt lat="48.960928" lon="20.444480"><ele>528</ele></trkpt>
    <trkpt lat="48.960825" lon="20.443994"><ele>529</ele></trkpt>
    <trkpt lat="48.960625" lon="20.443376"><ele>530</ele></trkpt>
    <trkpt lat="48.960267" lon="20.442537"><ele>541</ele></trkpt>
    <trkpt lat="48.960014" lon="20.442156"><ele>546</ele></trkpt>
    <trkpt lat="48.958486" lon="20.440696"><ele>536</ele></trkpt>
    <trkpt lat="48.957950" lon="20.440279"><ele>537</ele></trkpt>
    <trkpt lat="48.957504" lon="20.439975"><ele>531</ele></trkpt>
    <trkpt lat="48.957131" lon="20.439789"><ele>531</ele></trkpt>
    <trkpt lat="48.956974" lon="20.439785"><ele>530</ele></trkpt>
    <trkpt lat="48.956758" lon="20.439847"><ele>531</ele></trkpt>
    <trkpt lat="48.956553" lon="20.439983"><ele>531</ele></trkpt>
    <trkpt lat="48.956379" lon="20.439995"><ele>533</ele></trkpt>
    <trkpt lat="48.955230" lon="20.440950"><ele>530</ele></trkpt>
    <trkpt lat="48.954906" lon="20.441177"><ele>523</ele></trkpt>
    <trkpt lat="48.954398" lon="20.440541"><ele>524</ele></trkpt>
    <trkpt lat="48.954116" lon="20.440306"><ele>524</ele></trkpt>
    <trkpt lat="48.953924" lon="20.440069"><ele>521</ele></trkpt>
    <trkpt lat="48.953631" lon="20.439590"><ele>518</ele></trkpt>
    <trkpt lat="48.953607" lon="20.439349"><ele>518</ele></trkpt>
    <trkpt lat="48.953717" lon="20.438363"><ele>520</ele></trkpt>
    <trkpt lat="48.954146" lon="20.437440"><ele>526</ele></trkpt>
    <trkpt lat="48.954359" lon="20.437183"><ele>533</ele></trkpt>
    <trkpt lat="48.954269" lon="20.436968"><ele>533</ele></trkpt>
    <trkpt lat="48.954361" lon="20.436872"><ele>532</ele></trkpt>
    <trkpt lat="48.954495" lon="20.436601"><ele>527</ele></trkpt>
    <trkpt lat="48.954472" lon="20.436314"><ele>525</ele></trkpt>
    <trkpt lat="48.954412" lon="20.436147"><ele>527</ele></trkpt>
    <trkpt lat="48.954172" lon="20.435863"><ele>533</ele></trkpt>
    <trkpt lat="48.953998" lon="20.435783"><ele>545</ele></trkpt>
    <trkpt lat="48.953915" lon="20.435690"><ele>551</ele></trkpt>
    <trkpt lat="48.953750" lon="20.435257"><ele>553</ele></trkpt>
    <trkpt lat="48.953764" lon="20.435096"><ele>544</ele></trkpt>
    <trkpt lat="48.953706" lon="20.434747"><ele>538</ele></trkpt>
    <trkpt lat="48.953736" lon="20.434265"><ele>534</ele></trkpt>
    <trkpt lat="48.953718" lon="20.434095"><ele>535</ele></trkpt>
    <trkpt lat="48.953623" lon="20.433830"><ele>538</ele></trkpt>
    <trkpt lat="48.953333" lon="20.433242"><ele>534</ele></trkpt>
    <trkpt lat="48.953172" lon="20.432626"><ele>540</ele></trkpt>
    <trkpt lat="48.953164" lon="20.432460"><ele>544</ele></trkpt>
    <trkpt lat="48.953190" lon="20.432397"><ele>543</ele></trkpt>
    <trkpt lat="48.953688" lon="20.431877"><ele>540</ele></trkpt>
    <trkpt lat="48.953817" lon="20.431609"><ele>534</ele></trkpt>
    <trkpt lat="48.953862" lon="20.431389"><ele>528</ele></trkpt>
    <trkpt lat="48.954003" lon="20.431311"><ele>536</ele></trkpt>
    <trkpt lat="48.954010" lon="20.431167"><ele>536</ele></trkpt>
    <trkpt lat="48.953985" lon="20.430968"><ele>538</ele></trkpt>
    <trkpt lat="48.953910" lon="20.430746"><ele>539</ele></trkpt>
    <trkpt lat="48.953579" lon="20.430316"><ele>541</ele></trkpt>
    <trkpt lat="48.953422" lon="20.430206"><ele>543</ele></trkpt>
    <trkpt lat="48.953374" lon="20.430126"><ele>542</ele></trkpt>
    <trkpt lat="48.953334" lon="20.430003"><ele>539</ele></trkpt>
    <trkpt lat="48.953345" lon="20.429745"><ele>529</ele></trkpt>
    <trkpt lat="48.953442" lon="20.428936"><ele>541</ele></trkpt>
    <trkpt lat="48.953348" lon="20.428625"><ele>537</ele></trkpt>
    <trkpt lat="48.952982" lon="20.428136"><ele>543</ele></trkpt>
    <trkpt lat="48.952878" lon="20.427873"><ele>540</ele></trkpt>
    <trkpt lat="48.952869" lon="20.427681"><ele>536</ele></trkpt>
    <trkpt lat="48.952899" lon="20.427495"><ele>535</ele></trkpt>
    <trkpt lat="48.953008" lon="20.427181"><ele>541</ele></trkpt>
    <trkpt lat="48.953328" lon="20.427146"><ele>545</ele></trkpt>
    <trkpt lat="48.953394" lon="20.427211"><ele>548</ele></trkpt>
    <trkpt lat="48.953499" lon="20.427221"><ele>552</ele></trkpt>
    <trkpt lat="48.953652" lon="20.427088"><ele>553</ele></trkpt>
    <trkpt lat="48.953867" lon="20.426369"><ele>544</ele></trkpt>
    <trkpt lat="48.953879" lon="20.426161"><ele>544</ele></trkpt>
    <trkpt lat="48.953827" lon="20.425604"><ele>540</ele></trkpt>
    <trkpt lat="48.953861" lon="20.425399"><ele>542</ele></trkpt>
    <trkpt lat="48.953851" lon="20.425173"><ele>544</ele></trkpt>
    <trkpt lat="48.953825" lon="20.425005"><ele>544</ele></trkpt>
    <trkpt lat="48.953671" lon="20.424723"><ele>534</ele></trkpt>
    <trkpt lat="48.953665" lon="20.424646"><ele>535</ele></trkpt>
    <trkpt lat="48.953600" lon="20.424521"><ele>532</ele></trkpt>
    <trkpt lat="48.953643" lon="20.424246"><ele>540</ele></trkpt>
    <trkpt lat="48.953595" lon="20.424066"><ele>540</ele></trkpt>
    <trkpt lat="48.953651" lon="20.423790"><ele>550</ele></trkpt>
    <trkpt lat="48.953515" lon="20.423557"><ele>543</ele></trkpt>
    <trkpt lat="48.953435" lon="20.423076"><ele>544</ele></trkpt>
    <trkpt lat="48.953365" lon="20.422943"><ele>541</ele></trkpt>
    <trkpt lat="48.953221" lon="20.422868"><ele>535</ele></trkpt>
    <trkpt lat="48.952789" lon="20.423123"><ele>540</ele></trkpt>
    <trkpt lat="48.952540" lon="20.423085"><ele>549</ele></trkpt>
    <trkpt lat="48.951979" lon="20.422797"><ele>563</ele></trkpt>
    <trkpt lat="48.951813" lon="20.422753"><ele>570</ele></trkpt>
    <trkpt lat="48.951661" lon="20.422566"><ele>574</ele></trkpt>
    <trkpt lat="48.951511" lon="20.422239"><ele>586</ele></trkpt>
    <trkpt lat="48.951093" lon="20.421979"><ele>605</ele></trkpt>
    <trkpt lat="48.950546" lon="20.422124"><ele>621</ele></trkpt>
    <trkpt lat="48.950346" lon="20.422098"><ele>624</ele></trkpt>
    <trkpt lat="48.950265" lon="20.422169"><ele>627</ele></trkpt>
    <trkpt lat="48.949952" lon="20.422226"><ele>637</ele></trkpt>
    <trkpt lat="48.949754" lon="20.422108"><ele>648</ele></trkpt>
    <trkpt lat="48.949699" lon="20.422027"><ele>651</ele></trkpt>
    <trkpt lat="48.949590" lon="20.422043"><ele>655</ele></trkpt>
    <trkpt lat="48.949362" lon="20.421807"><ele>665</ele></trkpt>
    <trkpt lat="48.949149" lon="20.421747"><ele>669</ele></trkpt>
    <trkpt lat="48.948871" lon="20.421752"><ele>681</ele></trkpt>
    <trkpt lat="48.948527" lon="20.421899"><ele>687</ele></trkpt>
    <trkpt lat="48.948414" lon="20.421835"><ele>690</ele></trkpt>
    <trkpt lat="48.948166" lon="20.421933"><ele>697</ele></trkpt>
    <trkpt lat="48.947897" lon="20.421929"><ele>700</ele></trkpt>
    <trkpt lat="48.947655" lon="20.422029"><ele>706</ele></trkpt>
    <trkpt lat="48.947442" lon="20.422017"><ele>714</ele></trkpt>
    <trkpt lat="48.947242" lon="20.421949"><ele>720</ele></trkpt>
    <trkpt lat="48.947016" lon="20.422006"><ele>726</ele></trkpt>
    <trkpt lat="48.946850" lon="20.422114"><ele>729</ele></trkpt>
    <trkpt lat="48.946720" lon="20.422483"><ele>731</ele></trkpt>
    <trkpt lat="48.946681" lon="20.422481"><ele>731</ele></trkpt>
    <trkpt lat="48.946610" lon="20.422372"><ele>733</ele></trkpt>
    <trkpt lat="48.946373" lon="20.422313"><ele>738</ele></trkpt>
    <trkpt lat="48.945963" lon="20.422568"><ele>750</ele></trkpt>
    <trkpt lat="48.945868" lon="20.422575"><ele>753</ele></trkpt>
    <trkpt lat="48.945761" lon="20.422790"><ele>754</ele></trkpt>
    <trkpt lat="48.945752" lon="20.422930"><ele>754</ele></trkpt>
    <trkpt lat="48.945564" lon="20.422957"><ele>757</ele></trkpt>
    <trkpt lat="48.945105" lon="20.423201"><ele>763</ele></trkpt>
    <trkpt lat="48.944794" lon="20.423256"><ele>765</ele></trkpt>
    <trkpt lat="48.944454" lon="20.423380"><ele>765</ele></trkpt>
    <trkpt lat="48.944306" lon="20.423371"><ele>765</ele></trkpt>
    <trkpt lat="48.944442" lon="20.423640"><ele>766</ele></trkpt>
    <trkpt lat="48.944749" lon="20.424087"><ele>772</ele></trkpt>
    <trkpt lat="48.945158" lon="20.424546"><ele>776</ele></trkpt>
    <trkpt lat="48.946121" lon="20.425266"><ele>786</ele></trkpt>
    <trkpt lat="48.946334" lon="20.425487"><ele>791</ele></trkpt>
    <trkpt lat="48.946765" lon="20.426167"><ele>800</ele></trkpt>
    <trkpt lat="48.947028" lon="20.426886"><ele>803</ele></trkpt>
    <trkpt lat="48.947098" lon="20.427240"><ele>802</ele></trkpt>
    <trkpt lat="48.947086" lon="20.427417"><ele>801</ele></trkpt>
    <trkpt lat="48.946832" lon="20.428519"><ele>794</ele></trkpt>
    <trkpt lat="48.946769" lon="20.429239"><ele>787</ele></trkpt>
    <trkpt lat="48.946826" lon="20.429843"><ele>784</ele></trkpt>
    <trkpt lat="48.947132" lon="20.431071"><ele>777</ele></trkpt>
    <trkpt lat="48.947186" lon="20.431340"><ele>775</ele></trkpt>
    <trkpt lat="48.947181" lon="20.431460"><ele>773</ele></trkpt>
    <trkpt lat="48.947143" lon="20.431626"><ele>771</ele></trkpt>
    <trkpt lat="48.946891" lon="20.431834"><ele>769</ele></trkpt>
    <trkpt lat="48.946759" lon="20.432014"><ele>769</ele></trkpt>
    <trkpt lat="48.946709" lon="20.432204"><ele>769</ele></trkpt>
    <trkpt lat="48.946726" lon="20.432280"><ele>769</ele></trkpt>
    <trkpt lat="48.947111" lon="20.432636"><ele>765</ele></trkpt>
    <trkpt lat="48.947198" lon="20.432829"><ele>765</ele></trkpt>
    <trkpt lat="48.947302" lon="20.433215"><ele>762</ele></trkpt>
    <trkpt lat="48.947356" lon="20.433849"><ele>757</ele></trkpt>
    <trkpt lat="48.947339" lon="20.434609"><ele>754</ele></trkpt>
    <trkpt lat="48.947377" lon="20.434919"><ele>755</ele></trkpt>
    <trkpt lat="48.947513" lon="20.435094"><ele>755</ele></trkpt>
    <trkpt lat="48.947759" lon="20.435294"><ele>754</ele></trkpt>
    <trkpt lat="48.948018" lon="20.435698"><ele>754</ele></trkpt>
    <trkpt lat="48.948580" lon="20.436111"><ele>750</ele></trkpt>
    <trkpt lat="48.948954" lon="20.436300"><ele>747</ele></trkpt>
    <trkpt lat="48.949103" lon="20.436500"><ele>748</ele></trkpt>
    <trkpt lat="48.949222" lon="20.436518"><ele>746</ele></trkpt>
    <trkpt lat="48.949653" lon="20.436920"><ele>742</ele></trkpt>
    <trkpt lat="48.949832" lon="20.437215"><ele>742</ele></trkpt>
    <trkpt lat="48.949943" lon="20.437545"><ele>743</ele></trkpt>
    <trkpt lat="48.950013" lon="20.438226"><ele>739</ele></trkpt>
    <trkpt lat="48.950119" lon="20.438608"><ele>740</ele></trkpt>
    <trkpt lat="48.950198" lon="20.438781"><ele>738</ele></trkpt>
    <trkpt lat="48.950463" lon="20.439138"><ele>736</ele></trkpt>
    <trkpt lat="48.950694" lon="20.439567"><ele>730</ele></trkpt>
    <trkpt lat="48.950758" lon="20.439739"><ele>729</ele></trkpt>
    <trkpt lat="48.950792" lon="20.440098"><ele>724</ele></trkpt>
    <trkpt lat="48.950831" lon="20.440131"><ele>723</ele></trkpt>
    <trkpt lat="48.951082" lon="20.440029"><ele>712</ele></trkpt>
    <trkpt lat="48.951156" lon="20.440069"><ele>708</ele></trkpt>
    <trkpt lat="48.951123" lon="20.440806"><ele>699</ele></trkpt>
    <trkpt lat="48.951210" lon="20.440809"><ele>696</ele></trkpt>
    <trkpt lat="48.951333" lon="20.440717"><ele>690</ele></trkpt>
    <trkpt lat="48.951562" lon="20.441531"><ele>670</ele></trkpt>
    <trkpt lat="48.951546" lon="20.441741"><ele>667</ele></trkpt>
    <trkpt lat="48.951463" lon="20.441896"><ele>665</ele></trkpt>
    <trkpt lat="48.950739" lon="20.442242"><ele>657</ele></trkpt>
    <trkpt lat="48.950586" lon="20.442258"><ele>659</ele></trkpt>
    <trkpt lat="48.950515" lon="20.442318"><ele>658</ele></trkpt>
    <trkpt lat="48.950539" lon="20.442379"><ele>656</ele></trkpt>
    <trkpt lat="48.950723" lon="20.442512"><ele>647</ele></trkpt>
    <trkpt lat="48.951327" lon="20.442693"><ele>628</ele></trkpt>
    <trkpt lat="48.951547" lon="20.442923"><ele>617</ele></trkpt>
    <trkpt lat="48.952118" lon="20.443808"><ele>591</ele></trkpt>
    <trkpt lat="48.952232" lon="20.443893"><ele>589</ele></trkpt>
    <trkpt lat="48.952271" lon="20.443859"><ele>586</ele></trkpt>
    <trkpt lat="48.952288" lon="20.443778"><ele>585</ele></trkpt>
    <trkpt lat="48.952225" lon="20.443491"><ele>594</ele></trkpt>
    <trkpt lat="48.952297" lon="20.443356"><ele>587</ele></trkpt>
    <trkpt lat="48.952273" lon="20.443199"><ele>591</ele></trkpt>
    <trkpt lat="48.952307" lon="20.443089"><ele>589</ele></trkpt>
    <trkpt lat="48.952721" lon="20.442201"><ele>570</ele></trkpt>
    <trkpt lat="48.953060" lon="20.441838"><ele>561</ele></trkpt>
    <trkpt lat="48.953451" lon="20.441824"><ele>546</ele></trkpt>
    <trkpt lat="48.953584" lon="20.441777"><ele>542</ele></trkpt>
    <trkpt lat="48.953664" lon="20.441899"><ele>538</ele></trkpt>
    <trkpt lat="48.953849" lon="20.442002"><ele>537</ele></trkpt>
    <trkpt lat="48.954176" lon="20.442280"><ele>526</ele></trkpt>
    <trkpt lat="48.954259" lon="20.442298"><ele>523</ele></trkpt>
    <trkpt lat="48.954414" lon="20.442236"><ele>520</ele></trkpt>
    <trkpt lat="48.954736" lon="20.441733"><ele>517</ele></trkpt>
    <trkpt lat="48.954993" lon="20.441125"><ele>526</ele></trkpt>
    <trkpt lat="48.956379" lon="20.439995"><ele>533</ele></trkpt>
    <trkpt lat="48.956553" lon="20.439983"><ele>531</ele></trkpt>
    <trkpt lat="48.956758" lon="20.439847"><ele>531</ele></trkpt>
    <trkpt lat="48.956974" lon="20.439785"><ele>530</ele></trkpt>
    <trkpt lat="48.957131" lon="20.439789"><ele>531</ele></trkpt>
    <trkpt lat="48.957504" lon="20.439975"><ele>531</ele></trkpt>
    <trkpt lat="48.958203" lon="20.440461"><ele>538</ele></trkpt>
    <trkpt lat="48.959730" lon="20.441854"><ele>546</ele></trkpt>
    <trkpt lat="48.960014" lon="20.442156"><ele>546</ele></trkpt>
    <trkpt lat="48.960267" lon="20.442537"><ele>541</ele></trkpt>
    <trkpt lat="48.960625" lon="20.443376"><ele>530</ele></trkpt>
    <trkpt lat="48.960825" lon="20.443994"><ele>529</ele></trkpt>
    <trkpt lat="48.960928" lon="20.444480"><ele>528</ele></trkpt>
    <trkpt lat="48.961136" lon="20.444810"><ele>525</ele></trkpt>
    <trkpt lat="48.961252" lon="20.444853"><ele>525</ele></trkpt>
  </trkseg></trk>
</gpx>
