<?xml version="1.0" encoding="UTF-8"?>
<gpx version="1.1" creator="MounTour (OpenStreetMap)" xmlns="http://www.topografix.com/GPX/1/1">
  <metadata><name>Bratislavský hrad</name><copyright author="OpenStreetMap contributors"><license>https://opendatacommons.org/licenses/odbl/</license></copyright></metadata>
  <trk><name>Bratislavský hrad</name><trkseg>
    <trkpt lat="48.136541" lon="17.104403"><ele>143</ele></trkpt>
    <trkpt lat="48.136572" lon="17.104709"><ele>140</ele></trkpt>
    <trkpt lat="48.136415" lon="17.104718"><ele>140</ele></trkpt>
    <trkpt lat="48.136416" lon="17.104748"><ele>141</ele></trkpt>
    <trkpt lat="48.139619" lon="17.104596"><ele>134</ele></trkpt>
    <trkpt lat="48.140150" lon="17.104634"><ele>137</ele></trkpt>
    <trkpt lat="48.140152" lon="17.104937"><ele>140</ele></trkpt>
    <trkpt lat="48.140588" lon="17.104901"><ele>142</ele></trkpt>
    <trkpt lat="48.140681" lon="17.104967"><ele>143</ele></trkpt>
    <trkpt lat="48.141121" lon="17.104763"><ele>145</ele></trkpt>
    <trkpt lat="48.141411" lon="17.104704"><ele>145</ele></trkpt>
    <trkpt lat="48.141393" lon="17.104181"><ele>144</ele></trkpt>
    <trkpt lat="48.141674" lon="17.104188"><ele>154</ele></trkpt>
    <trkpt lat="48.141726" lon="17.103932"><ele>162</ele></trkpt>
    <trkpt lat="48.141581" lon="17.103603"><ele>164</ele></trkpt>
    <trkpt lat="48.141540" lon="17.103244"><ele>171</ele></trkpt>
    <trkpt lat="48.141348" lon="17.102785"><ele>173</ele></trkpt>
    <trkpt lat="48.141411" lon="17.102765"><ele>175</ele></trkpt>
    <trkpt lat="48.141628" lon="17.102916"><ele>178</ele></trkpt>
    <trkpt lat="48.141758" lon="17.102935"><ele>180</ele></trkpt>
    <trkpt lat="48.142168" lon="17.102691"><ele>188</ele></trkpt>
    <trkpt lat="48.143024" lon="17.102497"><ele>188</ele></trkpt>
    <trkpt lat="48.143406" lon="17.102348"><ele>192</ele></trkpt>
    <trkpt lat="48.143334" lon="17.101839"><ele>202</ele></trkpt>
    <trkpt lat="48.143299" lon="17.101852"><ele>201</ele></trkpt>
    <trkpt lat="48.143280" lon="17.101700"><ele>203</ele></trkpt>
    <trkpt lat="48.143243" lon="17.101709"><ele>203</ele></trkpt>
    <trkpt lat="48.143166" lon="17.101130"><ele>203</ele></trkpt>
    <trkpt lat="48.142543" lon="17.101237"><ele>204</ele></trkpt>
    <trkpt lat="48.142558" lon="17.101091"><ele>204</ele></trkpt>
    <trkpt lat="48.142543" lon="17.101237"><ele>204</ele></trkpt>
    <trkpt lat="48.143166" lon="17.101130"><ele>203</ele></trkpt>
    <trkpt lat="48.143243" lon="17.101709"><ele>203</ele></trkpt>
    <trkpt lat="48.143280" lon="17.101700"><ele>203</ele></trkpt>
    <trkpt lat="48.143299" lon="17.101852"><ele>201</ele></trkpt>
    <trkpt lat="48.143334" lon="17.101839"><ele>202</ele></trkpt>
    <trkpt lat="48.143406" lon="17.102348"><ele>192</ele></trkpt>
    <trkpt lat="48.143024" lon="17.102497"><ele>188</ele></trkpt>
    <trkpt lat="48.142168" lon="17.102691"><ele>188</ele></trkpt>
    <trkpt lat="48.141758" lon="17.102935"><ele>180</ele></trkpt>
    <trkpt lat="48.141628" lon="17.102916"><ele>178</ele></trkpt>
    <trkpt lat="48.141411" lon="17.102765"><ele>175</ele></trkpt>
    <trkpt lat="48.141348" lon="17.102785"><ele>173</ele></trkpt>
    <trkpt lat="48.141540" lon="17.103244"><ele>171</ele></trkpt>
    <trkpt lat="48.141581" lon="17.103603"><ele>164</ele></trkpt>
    <trkpt lat="48.141726" lon="17.103932"><ele>162</ele></trkpt>
    <trkpt lat="48.141674" lon="17.104188"><ele>154</ele></trkpt>
    <trkpt lat="48.141393" lon="17.104181"><ele>144</ele></trkpt>
    <trkpt lat="48.141411" lon="17.104704"><ele>145</ele></trkpt>
    <trkpt lat="48.141121" lon="17.104763"><ele>145</ele></trkpt>
    <trkpt lat="48.140681" lon="17.104967"><ele>143</ele></trkpt>
    <trkpt lat="48.140588" lon="17.104901"><ele>142</ele></trkpt>
    <trkpt lat="48.140152" lon="17.104937"><ele>140</ele></trkpt>
    <trkpt lat="48.140150" lon="17.104634"><ele>137</ele></trkpt>
    <trkpt lat="48.139619" lon="17.104596"><ele>134</ele></trkpt>
    <trkpt lat="48.136416" lon="17.104748"><ele>141</ele></trkpt>
    <trkpt lat="48.136415" lon="17.104718"><ele>140</ele></trkpt>
    <trkpt lat="48.136572" lon="17.104709"><ele>140</ele></trkpt>
    <trkpt lat="48.136541" lon="17.104403"><ele>143</ele></trkpt>
  </trkseg></trk>
</gpx>
