<?xml version="1.0" encoding="UTF-8"?>
<gpx version="1.1" creator="MounTour (OpenStreetMap)" xmlns="http://www.topografix.com/GPX/1/1">
  <metadata><name>Brestová</name><copyright author="OpenStreetMap contributors"><license>https://opendatacommons.org/licenses/odbl/</license></copyright></metadata>
  <trk><name>Brestová</name><trkseg>
    <trkpt lat="49.238660" lon="19.713286"><ele>1036</ele></trkpt>
    <trkpt lat="49.238611" lon="19.713142"><ele>1044</ele></trkpt>
    <trkpt lat="49.238548" lon="19.713107"><ele>1047</ele></trkpt>
    <trkpt lat="49.238116" lon="19.713166"><ele>1050</ele></trkpt>
    <trkpt lat="49.238025" lon="19.713079"><ele>1055</ele></trkpt>
    <trkpt lat="49.237755" lon="19.713013"><ele>1057</ele></trkpt>
    <trkpt lat="49.237569" lon="19.713061"><ele>1056</ele></trkpt>
    <trkpt lat="49.237362" lon="19.713241"><ele>1048</ele></trkpt>
    <trkpt lat="49.236463" lon="19.713480"><ele>1062</ele></trkpt>
    <trkpt lat="49.236208" lon="19.713601"><ele>1064</ele></trkpt>
    <trkpt lat="49.236004" lon="19.713605"><ele>1068</ele></trkpt>
    <trkpt lat="49.235407" lon="19.713362"><ele>1083</ele></trkpt>
    <trkpt lat="49.235364" lon="19.713286"><ele>1087</ele></trkpt>
    <trkpt lat="49.235208" lon="19.713234"><ele>1091</ele></trkpt>
    <trkpt lat="49.235012" lon="19.713009"><ele>1105</ele></trkpt>
    <trkpt lat="49.234899" lon="19.713004"><ele>1104</ele></trkpt>
    <trkpt lat="49.234866" lon="19.712937"><ele>1109</ele></trkpt>
    <trkpt lat="49.234796" lon="19.712978"><ele>1105</ele></trkpt>
    <trkpt lat="49.234814" lon="19.712890"><ele>1112</ele></trkpt>
    <trkpt lat="49.234740" lon="19.712914"><ele>1109</ele></trkpt>
    <trkpt lat="49.234826" lon="19.712744"><ele>1121</ele></trkpt>
    <trkpt lat="49.234657" lon="19.712792"><ele>1117</ele></trkpt>
    <trkpt lat="49.234712" lon="19.712581"><ele>1129</ele></trkpt>
    <trkpt lat="49.234519" lon="19.712651"><ele>1124</ele></trkpt>
    <trkpt lat="49.234405" lon="19.712644"><ele>1123</ele></trkpt>
    <trkpt lat="49.234327" lon="19.712579"><ele>1125</ele></trkpt>
    <trkpt lat="49.233763" lon="19.711109"><ele>1169</ele></trkpt>
    <trkpt lat="49.233597" lon="19.710914"><ele>1174</ele></trkpt>
    <trkpt lat="49.233578" lon="19.710764"><ele>1183</ele></trkpt>
    <trkpt lat="49.233285" lon="19.710315"><ele>1203</ele></trkpt>
    <trkpt lat="49.233305" lon="19.710186"><ele>1208</ele></trkpt>
    <trkpt lat="49.233244" lon="19.710055"><ele>1212</ele></trkpt>
    <trkpt lat="49.233193" lon="19.709730"><ele>1222</ele></trkpt>
    <trkpt lat="49.233143" lon="19.709699"><ele>1221</ele></trkpt>
    <trkpt lat="49.233085" lon="19.709502"><ele>1225</ele></trkpt>
    <trkpt lat="49.232962" lon="19.708472"><ele>1250</ele></trkpt>
    <trkpt lat="49.232973" lon="19.708240"><ele>1255</ele></trkpt>
    <trkpt lat="49.232887" lon="19.707701"><ele>1266</ele></trkpt>
    <trkpt lat="49.232905" lon="19.707643"><ele>1267</ele></trkpt>
    <trkpt lat="49.232844" lon="19.707273"><ele>1272</ele></trkpt>
    <trkpt lat="49.232796" lon="19.707166"><ele>1272</ele></trkpt>
    <trkpt lat="49.232842" lon="19.707080"><ele>1276</ele></trkpt>
    <trkpt lat="49.232842" lon="19.706963"><ele>1279</ele></trkpt>
    <trkpt lat="49.232816" lon="19.706816"><ele>1282</ele></trkpt>
    <trkpt lat="49.232758" lon="19.706727"><ele>1283</ele></trkpt>
    <trkpt lat="49.232644" lon="19.706226"><ele>1300</ele></trkpt>
    <trkpt lat="49.232686" lon="19.706196"><ele>1300</ele></trkpt>
    <trkpt lat="49.232857" lon="19.706297"><ele>1298</ele></trkpt>
    <trkpt lat="49.233020" lon="19.706253"><ele>1306</ele></trkpt>
    <trkpt lat="49.233130" lon="19.706171"><ele>1316</ele></trkpt>
    <trkpt lat="49.233133" lon="19.706135"><ele>1317</ele></trkpt>
    <trkpt lat="49.233017" lon="19.705943"><ele>1316</ele></trkpt>
    <trkpt lat="49.232957" lon="19.705657"><ele>1324</ele></trkpt>
    <trkpt lat="49.232804" lon="19.705296"><ele>1328</ele></trkpt>
    <trkpt lat="49.232816" lon="19.705221"><ele>1331</ele></trkpt>
    <trkpt lat="49.232764" lon="19.705051"><ele>1334</ele></trkpt>
    <trkpt lat="49.232801" lon="19.705024"><ele>1337</ele></trkpt>
    <trkpt lat="49.232890" lon="19.705064"><ele>1342</ele></trkpt>
    <trkpt lat="49.232938" lon="19.705027"><ele>1346</ele></trkpt>
    <trkpt lat="49.232831" lon="19.704671"><ele>1351</ele></trkpt>
    <trkpt lat="49.232779" lon="19.704352"><ele>1360</ele></trkpt>
    <trkpt lat="49.232753" lon="19.704330"><ele>1360</ele></trkpt>
    <trkpt lat="49.232892" lon="19.704296"><ele>1372</ele></trkpt>
    <trkpt lat="49.232833" lon="19.704171"><ele>1374</ele></trkpt>
    <trkpt lat="49.232712" lon="19.704053"><ele>1371</ele></trkpt>
    <trkpt lat="49.232632" lon="19.703883"><ele>1371</ele></trkpt>
    <trkpt lat="49.232517" lon="19.703287"><ele>1384</ele></trkpt>
    <trkpt lat="49.232547" lon="19.703266"><ele>1387</ele></trkpt>
    <trkpt lat="49.232632" lon="19.703330"><ele>1390</ele></trkpt>
    <trkpt lat="49.232698" lon="19.703308"><ele>1396</ele></trkpt>
    <trkpt lat="49.232465" lon="19.702799"><ele>1400</ele></trkpt>
    <trkpt lat="49.232401" lon="19.702526"><ele>1410</ele></trkpt>
    <trkpt lat="49.232330" lon="19.702365"><ele>1415</ele></trkpt>
    <trkpt lat="49.232286" lon="19.701977"><ele>1427</ele></trkpt>
    <trkpt lat="49.232318" lon="19.701942"><ele>1429</ele></trkpt>
    <trkpt lat="49.233027" lon="19.702030"><ele>1457</ele></trkpt>
    <trkpt lat="49.233063" lon="19.701920"><ele>1462</ele></trkpt>
    <trkpt lat="49.233014" lon="19.701354"><ele>1477</ele></trkpt>
    <trkpt lat="49.232888" lon="19.700876"><ele>1486</ele></trkpt>
    <trkpt lat="49.232573" lon="19.700006"><ele>1505</ele></trkpt>
    <trkpt lat="49.232692" lon="19.699994"><ele>1510</ele></trkpt>
    <trkpt lat="49.232896" lon="19.700128"><ele>1512</ele></trkpt>
    <trkpt lat="49.233069" lon="19.700121"><ele>1519</ele></trkpt>
    <trkpt lat="49.233035" lon="19.699567"><ele>1538</ele></trkpt>
    <trkpt lat="49.232992" lon="19.699386"><ele>1543</ele></trkpt>
    <trkpt lat="49.232898" lon="19.699294"><ele>1543</ele></trkpt>
    <trkpt lat="49.232921" lon="19.699243"><ele>1546</ele></trkpt>
    <trkpt lat="49.232741" lon="19.698818"><ele>1560</ele></trkpt>
    <trkpt lat="49.232769" lon="19.698779"><ele>1561</ele></trkpt>
    <trkpt lat="49.232900" lon="19.698768"><ele>1565</ele></trkpt>
    <trkpt lat="49.233235" lon="19.698863"><ele>1572</ele></trkpt>
    <trkpt lat="49.233243" lon="19.698835"><ele>1573</ele></trkpt>
    <trkpt lat="49.233186" lon="19.698625"><ele>1579</ele></trkpt>
    <trkpt lat="49.233094" lon="19.698555"><ele>1579</ele></trkpt>
    <trkpt lat="49.232929" lon="19.698218"><ele>1589</ele></trkpt>
    <trkpt lat="49.233088" lon="19.698166"><ele>1594</ele></trkpt>
    <trkpt lat="49.233029" lon="19.697938"><ele>1601</ele></trkpt>
    <trkpt lat="49.233309" lon="19.697863"><ele>1612</ele></trkpt>
    <trkpt lat="49.233161" lon="19.697488"><ele>1620</ele></trkpt>
    <trkpt lat="49.233159" lon="19.697137"><ele>1626</ele></trkpt>
    <trkpt lat="49.233272" lon="19.696994"><ele>1629</ele></trkpt>
    <trkpt lat="49.233276" lon="19.696796"><ele>1630</ele></trkpt>
    <trkpt lat="49.233232" lon="19.696687"><ele>1630</ele></trkpt>
    <trkpt lat="49.233074" lon="19.696480"><ele>1632</ele></trkpt>
    <trkpt lat="49.232891" lon="19.696334"><ele>1635</ele></trkpt>
    <trkpt lat="49.232749" lon="19.696158"><ele>1637</ele></trkpt>
    <trkpt lat="49.232634" lon="19.696101"><ele>1640</ele></trkpt>
    <trkpt lat="49.232541" lon="19.696196"><ele>1643</ele></trkpt>
    <trkpt lat="49.232454" lon="19.696206"><ele>1644</ele></trkpt>
    <trkpt lat="49.232229" lon="19.695975"><ele>1649</ele></trkpt>
    <trkpt lat="49.232003" lon="19.695976"><ele>1653</ele></trkpt>
    <trkpt lat="49.231905" lon="19.695890"><ele>1654</ele></trkpt>
    <trkpt lat="49.231707" lon="19.695882"><ele>1657</ele></trkpt>
    <trkpt lat="49.231602" lon="19.695815"><ele>1659</ele></trkpt>
    <trkpt lat="49.231245" lon="19.695713"><ele>1664</ele></trkpt>
    <trkpt lat="49.230967" lon="19.695576"><ele>1670</ele></trkpt>
    <trkpt lat="49.230840" lon="19.695463"><ele>1671</ele></trkpt>
    <trkpt lat="49.230345" lon="19.695372"><ele>1684</ele></trkpt>
    <trkpt lat="49.230237" lon="19.695249"><ele>1687</ele></trkpt>
    <trkpt lat="49.230078" lon="19.695190"><ele>1691</ele></trkpt>
    <trkpt lat="49.230029" lon="19.695101"><ele>1692</ele></trkpt>
    <trkpt lat="49.229946" lon="19.695045"><ele>1695</ele></trkpt>
    <trkpt lat="49.229926" lon="19.694911"><ele>1695</ele></trkpt>
    <trkpt lat="49.229768" lon="19.694819"><ele>1700</ele></trkpt>
    <trkpt lat="49.229719" lon="19.694680"><ele>1702</ele></trkpt>
    <trkpt lat="49.229660" lon="19.694654"><ele>1704</ele></trkpt>
    <trkpt lat="49.229572" lon="19.694510"><ele>1706</ele></trkpt>
    <trkpt lat="49.229496" lon="19.694517"><ele>1710</ele></trkpt>
    <trkpt lat="49.229293" lon="19.694327"><ele>1715</ele></trkpt>
    <trkpt lat="49.229222" lon="19.694513"><ele>1720</ele></trkpt>
    <trkpt lat="49.228822" lon="19.694456"><ele>1736</ele></trkpt>
    <trkpt lat="49.228612" lon="19.694345"><ele>1742</ele></trkpt>
    <trkpt lat="49.228545" lon="19.694423"><ele>1747</ele></trkpt>
    <trkpt lat="49.228318" lon="19.694281"><ele>1754</ele></trkpt>
    <trkpt lat="49.228261" lon="19.694387"><ele>1758</ele></trkpt>
    <trkpt lat="49.228191" lon="19.694326"><ele>1760</ele></trkpt>
    <trkpt lat="49.228167" lon="19.694485"><ele>1765</ele></trkpt>
    <trkpt lat="49.228120" lon="19.694474"><ele>1767</ele></trkpt>
    <trkpt lat="49.228118" lon="19.694532"><ele>1768</ele></trkpt>
    <trkpt lat="49.227954" lon="19.694555"><ele>1776</ele></trkpt>
    <trkpt lat="49.227970" lon="19.694758"><ele>1779</ele></trkpt>
    <trkpt lat="49.227899" lon="19.694798"><ele>1781</ele></trkpt>
    <trkpt lat="49.227683" lon="19.694703"><ele>1786</ele></trkpt>
    <trkpt lat="49.227125" lon="19.693943"><ele>1799</ele></trkpt>
    <trkpt lat="49.226755" lon="19.693662"><ele>1804</ele></trkpt>
    <trkpt lat="49.226630" lon="19.693492"><ele>1805</ele></trkpt>
    <trkpt lat="49.226329" lon="19.693220"><ele>1806</ele></trkpt>
    <trkpt lat="49.226051" lon="19.693122"><ele>1807</ele></trkpt>
    <trkpt lat="49.225852" lon="19.692870"><ele>1809</ele></trkpt>
    <trkpt lat="49.225853" lon="19.692757"><ele>1811</ele></trkpt>
    <trkpt lat="49.225718" lon="19.692592"><ele>1811</ele></trkpt>
    <trkpt lat="49.225560" lon="19.692470"><ele>1814</ele></trkpt>
    <trkpt lat="49.225437" lon="19.692178"><ele>1813</ele></trkpt>
    <trkpt lat="49.225197" lon="19.691981"><ele>1815</ele></trkpt>
    <trkpt lat="49.225012" lon="19.691674"><ele>1816</ele></trkpt>
    <trkpt lat="49.224711" lon="19.691323"><ele>1818</ele></trkpt>
    <trkpt lat="49.224532" lon="19.691060"><ele>1818</ele></trkpt>
    <trkpt lat="49.224465" lon="19.690839"><ele>1819</ele></trkpt>
    <trkpt lat="49.224269" lon="19.690601"><ele>1823</ele></trkpt>
    <trkpt lat="49.224109" lon="19.690237"><ele>1829</ele></trkpt>
    <trkpt lat="49.223693" lon="19.689634"><ele>1833</ele></trkpt>
    <trkpt lat="49.223395" lon="19.689010"><ele>1839</ele></trkpt>
    <trkpt lat="49.223280" lon="19.688211"><ele>1850</ele></trkpt>
    <trkpt lat="49.223280" lon="19.687931"><ele>1855</ele></trkpt>
    <trkpt lat="49.223194" lon="19.687283"><ele>1864</ele></trkpt>
    <trkpt lat="49.223168" lon="19.686762"><ele>1869</ele></trkpt>
    <trkpt lat="49.223117" lon="19.686593"><ele>1872</ele></trkpt>
    <trkpt lat="49.223183" lon="19.686239"><ele>1877</ele></trkpt>
    <trkpt lat="49.223158" lon="19.684927"><ele>1867</ele></trkpt>
    <trkpt lat="49.223017" lon="19.684653"><ele>1868</ele></trkpt>
    <trkpt lat="49.222956" lon="19.684302"><ele>1870</ele></trkpt>
    <trkpt lat="49.222816" lon="19.683996"><ele>1876</ele></trkpt>
    <trkpt lat="49.222795" lon="19.683505"><ele>1891</ele></trkpt>
    <trkpt lat="49.222891" lon="19.683297"><ele>1898</ele></trkpt>
    <trkpt lat="49.222837" lon="19.683129"><ele>1905</ele></trkpt>
    <trkpt lat="49.222736" lon="19.683025"><ele>1909</ele></trkpt>
    <trkpt lat="49.222700" lon="19.682913"><ele>1912</ele></trkpt>
    <trkpt lat="49.222728" lon="19.682786"><ele>1917</ele></trkpt>
    <trkpt lat="49.222915" lon="19.682558"><ele>1923</ele></trkpt>
    <trkpt lat="49.222768" lon="19.682245"><ele>1930</ele></trkpt>
    <trkpt lat="49.222710" lon="19.682214"><ele>1930</ele></trkpt>
    <trkpt lat="49.222768" lon="19.682245"><ele>1930</ele></trkpt>
    <trkpt lat="49.222915" lon="19.682558"><ele>1923</ele></trkpt>
    <trkpt lat="49.222728" lon="19.682786"><ele>1917</ele></trkpt>
    <trkpt lat="49.222700" lon="19.682913"><ele>1912</ele></trkpt>
    <trkpt lat="49.222736" lon="19.683025"><ele>1909</ele></trkpt>
    <trkpt lat="49.222837" lon="19.683129"><ele>1905</ele></trkpt>
    <trkpt lat="49.222891" lon="19.683297"><ele>1898</ele></trkpt>
    <trkpt lat="49.222795" lon="19.683505"><ele>1891</ele></trkpt>
    <trkpt lat="49.222816" lon="19.683996"><ele>1876</ele></trkpt>
    <trkpt lat="49.222956" lon="19.684302"><ele>1870</ele></trkpt>
    <trkpt lat="49.223017" lon="19.684653"><ele>1868</ele></trkpt>
    <trkpt lat="49.223158" lon="19.684927"><ele>1867</ele></trkpt>
    <trkpt lat="49.223183" lon="19.686239"><ele>1877</ele></trkpt>
    <trkpt lat="49.223117" lon="19.686593"><ele>1872</ele></trkpt>
    <trkpt lat="49.223168" lon="19.686762"><ele>1869</ele></trkpt>
    <trkpt lat="49.223194" lon="19.687283"><ele>1864</ele></trkpt>
    <trkpt lat="49.223280" lon="19.687931"><ele>1855</ele></trkpt>
    <trkpt lat="49.223280" lon="19.688211"><ele>1850</ele></trkpt>
    <trkpt lat="49.223395" lon="19.689010"><ele>1839</ele></trkpt>
    <trkpt lat="49.223693" lon="19.689634"><ele>1833</ele></trkpt>
    <trkpt lat="49.224109" lon="19.690237"><ele>1829</ele></trkpt>
    <trkpt lat="49.224269" lon="19.690601"><ele>1823</ele></trkpt>
    <trkpt lat="49.224465" lon="19.690839"><ele>1819</ele></trkpt>
    <trkpt lat="49.224532" lon="19.691060"><ele>1818</ele></trkpt>
    <trkpt lat="49.224711" lon="19.691323"><ele>1818</ele></trkpt>
    <trkpt lat="49.225012" lon="19.691674"><ele>1816</ele></trkpt>
    <trkpt lat="49.225197" lon="19.691981"><ele>1815</ele></trkpt>
    <trkpt lat="49.225437" lon="19.692178"><ele>1813</ele></trkpt>
    <trkpt lat="49.225560" lon="19.692470"><ele>1814</ele></trkpt>
    <trkpt lat="49.225718" lon="19.692592"><ele>1811</ele></trkpt>
    <trkpt lat="49.225853" lon="19.692757"><ele>1811</ele></trkpt>
    <trkpt lat="49.225852" lon="19.692870"><ele>1809</ele></trkpt>
    <trkpt lat="49.226051" lon="19.693122"><ele>1807</ele></trkpt>
    <trkpt lat="49.226329" lon="19.693220"><ele>1806</ele></trkpt>
    <trkpt lat="49.226630" lon="19.693492"><ele>1805</ele></trkpt>
    <trkpt lat="49.226755" lon="19.693662"><ele>1804</ele></trkpt>
    <trkpt lat="49.227125" lon="19.693943"><ele>1799</ele></trkpt>
    <trkpt lat="49.227683" lon="19.694703"><ele>1786</ele></trkpt>
    <trkpt lat="49.227899" lon="19.694798"><ele>1781</ele></trkpt>
    <trkpt lat="49.227970" lon="19.694758"><ele>1779</ele></trkpt>
    <trkpt lat="49.227954" lon="19.694555"><ele>1776</ele></trkpt>
    <trkpt lat="49.228118" lon="19.694532"><ele>1768</ele></trkpt>
    <trkpt lat="49.228120" lon="19.694474"><ele>1767</ele></trkpt>
    <trkpt lat="49.228167" lon="19.694485"><ele>1765</ele></trkpt>
    <trkpt lat="49.228191" lon="19.694326"><ele>1760</ele></trkpt>
    <trkpt lat="49.228261" lon="19.694387"><ele>1758</ele></trkpt>
    <trkpt lat="49.228318" lon="19.694281"><ele>1754</ele></trkpt>
    <trkpt lat="49.228545" lon="19.694423"><ele>1747</ele></trkpt>
    <trkpt lat="49.228612" lon="19.694345"><ele>1742</ele></trkpt>
    <trkpt lat="49.228822" lon="19.694456"><ele>1736</ele></trkpt>
    <trkpt lat="49.229222" lon="19.694513"><ele>1720</ele></trkpt>
    <trkpt lat="49.229293" lon="19.694327"><ele>1715</ele></trkpt>
    <trkpt lat="49.229496" lon="19.694517"><ele>1710</ele></trkpt>
    <trkpt lat="49.229572" lon="19.694510"><ele>1706</ele></trkpt>
    <trkpt lat="49.229660" lon="19.694654"><ele>1704</ele></trkpt>
    <trkpt lat="49.229719" lon="19.694680"><ele>1702</ele></trkpt>
    <trkpt lat="49.229768" lon="19.694819"><ele>1700</ele></trkpt>
    <trkpt lat="49.229926" lon="19.694911"><ele>1695</ele></trkpt>
    <trkpt lat="49.229946" lon="19.695045"><ele>1695</ele></trkpt>
    <trkpt lat="49.230029" lon="19.695101"><ele>1692</ele></trkpt>
    <trkpt lat="49.230078" lon="19.695190"><ele>1691</ele></trkpt>
    <trkpt lat="49.230237" lon="19.695249"><ele>1687</ele></trkpt>
    <trkpt lat="49.230345" lon="19.695372"><ele>1684</ele></trkpt>
    <trkpt lat="49.230840" lon="19.695463"><ele>1671</ele></trkpt>
    <trkpt lat="49.230967" lon="19.695576"><ele>1670</ele></trkpt>
    <trkpt lat="49.231245" lon="19.695713"><ele>1664</ele></trkpt>
    <trkpt lat="49.231602" lon="19.695815"><ele>1659</ele></trkpt>
    <trkpt lat="49.231707" lon="19.695882"><ele>1657</ele></trkpt>
    <trkpt lat="49.231905" lon="19.695890"><ele>1654</ele></trkpt>
    <trkpt lat="49.232003" lon="19.695976"><ele>1653</ele></trkpt>
    <trkpt lat="49.232229" lon="19.695975"><ele>1649</ele></trkpt>
    <trkpt lat="49.232454" lon="19.696206"><ele>1644</ele></trkpt>
    <trkpt lat="49.232541" lon="19.696196"><ele>1643</ele></trkpt>
    <trkpt lat="49.232634" lon="19.696101"><ele>1640</ele></trkpt>
    <trkpt lat="49.232749" lon="19.696158"><ele>1637</ele></trkpt>
    <trkpt lat="49.232891" lon="19.696334"><ele>1635</ele></trkpt>
    <trkpt lat="49.233074" lon="19.696480"><ele>1632</ele></trkpt>
    <trkpt lat="49.233232" lon="19.696687"><ele>1630</ele></trkpt>
    <trkpt lat="49.233276" lon="19.696796"><ele>1630</ele></trkpt>
    <trkpt lat="49.233272" lon="19.696994"><ele>1629</ele></trkpt>
    <trkpt lat="49.233159" lon="19.697137"><ele>1626</ele></trkpt>
    <trkpt lat="49.233161" lon="19.697488"><ele>1620</ele></trkpt>
    <trkpt lat="49.233309" lon="19.697863"><ele>1612</ele></trkpt>
    <trkpt lat="49.233029" lon="19.697938"><ele>1601</ele></trkpt>
    <trkpt lat="49.233088" lon="19.698166"><ele>1594</ele></trkpt>
    <trkpt lat="49.232929" lon="19.698218"><ele>1589</ele></trkpt>
    <trkpt lat="49.233094" lon="19.698555"><ele>1579</ele></trkpt>
    <trkpt lat="49.233186" lon="19.698625"><ele>1579</ele></trkpt>
    <trkpt lat="49.233243" lon="19.698835"><ele>1573</ele></trkpt>
    <trkpt lat="49.233235" lon="19.698863"><ele>1572</ele></trkpt>
    <trkpt lat="49.232900" lon="19.698768"><ele>1565</ele></trkpt>
    <trkpt lat="49.232769" lon="19.698779"><ele>1561</ele></trkpt>
    <trkpt lat="49.232741" lon="19.698818"><ele>1560</ele></trkpt>
    <trkpt lat="49.232921" lon="19.699243"><ele>1546</ele></trkpt>
    <trkpt lat="49.232898" lon="19.699294"><ele>1543</ele></trkpt>
    <trkpt lat="49.232992" lon="19.699386"><ele>1543</ele></trkpt>
    <trkpt lat="49.233035" lon="19.699567"><ele>1538</ele></trkpt>
    <trkpt lat="49.233069" lon="19.700121"><ele>1519</ele></trkpt>
    <trkpt lat="49.232896" lon="19.700128"><ele>1512</ele></trkpt>
    <trkpt lat="49.232692" lon="19.699994"><ele>1510</ele></trkpt>
    <trkpt lat="49.232573" lon="19.700006"><ele>1505</ele></trkpt>
    <trkpt lat="49.232888" lon="19.700876"><ele>1486</ele></trkpt>
    <trkpt lat="49.233014" lon="19.701354"><ele>1477</ele></trkpt>
    <trkpt lat="49.233063" lon="19.701920"><ele>1462</ele></trkpt>
    <trkpt lat="49.233027" lon="19.702030"><ele>1457</ele></trkpt>
    <trkpt lat="49.232318" lon="19.701942"><ele>1429</ele></trkpt>
    <trkpt lat="49.232286" lon="19.701977"><ele>1427</ele></trkpt>
    <trkpt lat="49.232330" lon="19.702365"><ele>1415</ele></trkpt>
    <trkpt lat="49.232401" lon="19.702526"><ele>1410</ele></trkpt>
    <trkpt lat="49.232465" lon="19.702799"><ele>1400</ele></trkpt>
    <trkpt lat="49.232698" lon="19.703308"><ele>1396</ele></trkpt>
    <trkpt lat="49.232632" lon="19.703330"><ele>1390</ele></trkpt>
    <trkpt lat="49.232547" lon="19.703266"><ele>1387</ele></trkpt>
    <trkpt lat="49.232517" lon="19.703287"><ele>1384</ele></trkpt>
    <trkpt lat="49.232632" lon="19.703883"><ele>1371</ele></trkpt>
    <trkpt lat="49.232712" lon="19.704053"><ele>1371</ele></trkpt>
    <trkpt lat="49.232833" lon="19.704171"><ele>1374</ele></trkpt>
    <trkpt lat="49.232892" lon="19.704296"><ele>1372</ele></trkpt>
    <trkpt lat="49.232753" lon="19.704330"><ele>1360</ele></trkpt>
    <trkpt lat="49.232779" lon="19.704352"><ele>1360</ele></trkpt>
    <trkpt lat="49.232831" lon="19.704671"><ele>1351</ele></trkpt>
    <trkpt lat="49.232938" lon="19.705027"><ele>1346</ele></trkpt>
    <trkpt lat="49.232890" lon="19.705064"><ele>1342</ele></trkpt>
    <trkpt lat="49.232801" lon="19.705024"><ele>1337</ele></trkpt>
    <trkpt lat="49.232764" lon="19.705051"><ele>1334</ele></trkpt>
    <trkpt lat="49.232816" lon="19.705221"><ele>1331</ele></trkpt>
    <trkpt lat="49.232804" lon="19.705296"><ele>1328</ele></trkpt>
    <trkpt lat="49.232957" lon="19.705657"><ele>1324</ele></trkpt>
    <trkpt lat="49.233017" lon="19.705943"><ele>1316</ele></trkpt>
    <trkpt lat="49.233133" lon="19.706135"><ele>1317</ele></trkpt>
    <trkpt lat="49.233130" lon="19.706171"><ele>1316</ele></trkpt>
    <trkpt lat="49.233020" lon="19.706253"><ele>1306</ele></trkpt>
    <trkpt lat="49.232857" lon="19.706297"><ele>1298</ele></trkpt>
    <trkpt lat="49.232686" lon="19.706196"><ele>1300</ele></trkpt>
    <trkpt lat="49.232644" lon="19.706226"><ele>1300</ele></trkpt>
    <trkpt lat="49.232758" lon="19.706727"><ele>1283</ele></trkpt>
    <trkpt lat="49.232816" lon="19.706816"><ele>1282</ele></trkpt>
    <trkpt lat="49.232842" lon="19.706963"><ele>1279</ele></trkpt>
    <trkpt lat="49.232842" lon="19.707080"><ele>1276</ele></trkpt>
    <trkpt lat="49.232796" lon="19.707166"><ele>1272</ele></trkpt>
    <trkpt lat="49.232844" lon="19.707273"><ele>1272</ele></trkpt>
    <trkpt lat="49.232905" lon="19.707643"><ele>1267</ele></trkpt>
    <trkpt lat="49.232887" lon="19.707701"><ele>1266</ele></trkpt>
    <trkpt lat="49.232973" lon="19.708240"><ele>1255</ele></trkpt>
    <trkpt lat="49.232962" lon="19.708472"><ele>1250</ele></trkpt>
    <trkpt lat="49.233085" lon="19.709502"><ele>1225</ele></trkpt>
    <trkpt lat="49.233143" lon="19.709699"><ele>1221</ele></trkpt>
    <trkpt lat="49.233193" lon="19.709730"><ele>1222</ele></trkpt>
    <trkpt lat="49.233244" lon="19.710055"><ele>1212</ele></trkpt>
    <trkpt lat="49.233305" lon="19.710186"><ele>1208</ele></trkpt>
    <trkpt lat="49.233285" lon="19.710315"><ele>1203</ele></trkpt>
    <trkpt lat="49.233578" lon="19.710764"><ele>1183</ele></trkpt>
    <trkpt lat="49.233597" lon="19.710914"><ele>1174</ele></trkpt>
    <trkpt lat="49.233763" lon="19.711109"><ele>1169</ele></trkpt>
    <trkpt lat="49.234327" lon="19.712579"><ele>1125</ele></trkpt>
    <trkpt lat="49.234405" lon="19.712644"><ele>1123</ele></trkpt>
    <trkpt lat="49.234519" lon="19.712651"><ele>1124</ele></trkpt>
    <trkpt lat="49.234712" lon="19.712581"><ele>1129</ele></trkpt>
    <trkpt lat="49.234657" lon="19.712792"><ele>1117</ele></trkpt>
    <trkpt lat="49.234826" lon="19.712744"><ele>1121</ele></trkpt>
    <trkpt lat="49.234740" lon="19.712914"><ele>1109</ele></trkpt>
    <trkpt lat="49.234814" lon="19.712890"><ele>1112</ele></trkpt>
    <trkpt lat="49.234796" lon="19.712978"><ele>1105</ele></trkpt>
    <trkpt lat="49.234866" lon="19.712937"><ele>1109</ele></trkpt>
    <trkpt lat="49.234899" lon="19.713004"><ele>1104</ele></trkpt>
    <trkpt lat="49.235012" lon="19.713009"><ele>1105</ele></trkpt>
    <trkpt lat="49.235208" lon="19.713234"><ele>1091</ele></trkpt>
    <trkpt lat="49.235364" lon="19.713286"><ele>1087</ele></trkpt>
    <trkpt lat="49.235407" lon="19.713362"><ele>1083</ele></trkpt>
    <trkpt lat="49.236004" lon="19.713605"><ele>1068</ele></trkpt>
    <trkpt lat="49.236208" lon="19.713601"><ele>1064</ele></trkpt>
    <trkpt lat="49.236463" lon="19.713480"><ele>1062</ele></trkpt>
    <trkpt lat="49.237362" lon="19.713241"><ele>1048</ele></trkpt>
    <trkpt lat="49.237569" lon="19.713061"><ele>1056</ele></trkpt>
    <trkpt lat="49.237755" lon="19.713013"><ele>1057</ele></trkpt>
    <trkpt lat="49.238025" lon="19.713079"><ele>1055</ele></trkpt>
    <trkpt lat="49.238116" lon="19.713166"><ele>1050</ele></trkpt>
    <trkpt lat="49.238548" lon="19.713107"><ele>1047</ele></trkpt>
    <trkpt lat="49.238611" lon="19.713142"><ele>1044</ele></trkpt>
    <trkpt lat="49.238660" lon="19.713286"><ele>1036</ele></trkpt>
  </trkseg></trk>
</gpx>
