<?xml version="1.0" encoding="UTF-8"?>
<gpx version="1.1" creator="MounTour (BRouter + OpenStreetMap)" xmlns="http://www.topografix.com/GPX/1/1">
  <metadata><name>Čachtický hrad z Čachtíc</name><copyright author="OpenStreetMap contributors"><license>https://opendatacommons.org/licenses/odbl/</license></copyright></metadata>
  <trk><name>Čachtický hrad z Čachtíc</name><trkseg>
    <trkpt lat="48.714187" lon="17.786343"><ele>186.0</ele></trkpt>
    <trkpt lat="48.714230" lon="17.786347"><ele>186.25</ele></trkpt>
    <trkpt lat="48.714227" lon="17.786059"><ele>187.0</ele></trkpt>
    <trkpt lat="48.714220" lon="17.785882"><ele>187.0</ele></trkpt>
    <trkpt lat="48.714240" lon="17.785626"><ele>187.25</ele></trkpt>
    <trkpt lat="48.714322" lon="17.785167"><ele>188.25</ele></trkpt>
    <trkpt lat="48.714578" lon="17.784263"><ele>191.25</ele></trkpt>
    <trkpt lat="48.714695" lon="17.783695"><ele>190.0</ele></trkpt>
    <trkpt lat="48.714905" lon="17.783054"><ele>193.25</ele></trkpt>
    <trkpt lat="48.714930" lon="17.782901"><ele>193.25</ele></trkpt>
    <trkpt lat="48.714940" lon="17.782669"><ele>194.0</ele></trkpt>
    <trkpt lat="48.714904" lon="17.782160"><ele>196.75</ele></trkpt>
    <trkpt lat="48.714797" lon="17.781546"><ele>199.75</ele></trkpt>
    <trkpt lat="48.714775" lon="17.781424"><ele>199.75</ele></trkpt>
    <trkpt lat="48.714738" lon="17.780944"><ele>202.5</ele></trkpt>
    <trkpt lat="48.714659" lon="17.780418"><ele>206.75</ele></trkpt>
    <trkpt lat="48.714656" lon="17.779743"><ele>213.0</ele></trkpt>
    <trkpt lat="48.714629" lon="17.779013"><ele>218.75</ele></trkpt>
    <trkpt lat="48.714641" lon="17.778675"><ele>221.0</ele></trkpt>
    <trkpt lat="48.714808" lon="17.777147"><ele>236.0</ele></trkpt>
    <trkpt lat="48.714901" lon="17.776612"><ele>239.75</ele></trkpt>
    <trkpt lat="48.714954" lon="17.776429"><ele>241.0</ele></trkpt>
    <trkpt lat="48.715052" lon="17.776093"><ele>245.5</ele></trkpt>
    <trkpt lat="48.715405" lon="17.775021"><ele>257.0</ele></trkpt>
    <trkpt lat="48.715549" lon="17.774468"><ele>257.75</ele></trkpt>
    <trkpt lat="48.715703" lon="17.773779"><ele>265.25</ele></trkpt>
    <trkpt lat="48.715837" lon="17.773368"><ele>264.25</ele></trkpt>
    <trkpt lat="48.716148" lon="17.772670"><ele>265.75</ele></trkpt>
    <trkpt lat="48.716415" lon="17.772197"><ele>267.25</ele></trkpt>
    <trkpt lat="48.716679" lon="17.771289"><ele>270.5</ele></trkpt>
    <trkpt lat="48.716690" lon="17.771241"><ele>270.75</ele></trkpt>
    <trkpt lat="48.717063" lon="17.769562"><ele>280.75</ele></trkpt>
    <trkpt lat="48.717268" lon="17.768626"><ele>285.75</ele></trkpt>
    <trkpt lat="48.717308" lon="17.768394"><ele>288.0</ele></trkpt>
    <trkpt lat="48.717407" lon="17.768229"><ele>289.75</ele></trkpt>
    <trkpt lat="48.717559" lon="17.768063"><ele>292.5</ele></trkpt>
    <trkpt lat="48.717732" lon="17.767956"><ele>295.25</ele></trkpt>
    <trkpt lat="48.717794" lon="17.767858"><ele>295.5</ele></trkpt>
    <trkpt lat="48.717840" lon="17.767724"><ele>295.75</ele></trkpt>
    <trkpt lat="48.717936" lon="17.767121"><ele>299.75</ele></trkpt>
    <trkpt lat="48.718055" lon="17.766628"><ele>301.5</ele></trkpt>
    <trkpt lat="48.718176" lon="17.766319"><ele>306.5</ele></trkpt>
    <trkpt lat="48.718254" lon="17.766208"><ele>307.25</ele></trkpt>
    <trkpt lat="48.718602" lon="17.765761"><ele>311.75</ele></trkpt>
    <trkpt lat="48.718826" lon="17.765565"><ele>314.0</ele></trkpt>
    <trkpt lat="48.719437" lon="17.765282"><ele>320.0</ele></trkpt>
    <trkpt lat="48.719630" lon="17.765196"><ele>322.5</ele></trkpt>
    <trkpt lat="48.719873" lon="17.765102"><ele>324.0</ele></trkpt>
    <trkpt lat="48.720385" lon="17.764945"><ele>327.25</ele></trkpt>
    <trkpt lat="48.720543" lon="17.764917"><ele>328.75</ele></trkpt>
    <trkpt lat="48.720682" lon="17.764892"><ele>330.0</ele></trkpt>
    <trkpt lat="48.720891" lon="17.764785"><ele>332.0</ele></trkpt>
    <trkpt lat="48.720922" lon="17.764749"><ele>332.25</ele></trkpt>
    <trkpt lat="48.721107" lon="17.764528"><ele>334.5</ele></trkpt>
    <trkpt lat="48.721262" lon="17.764273"><ele>337.75</ele></trkpt>
    <trkpt lat="48.721491" lon="17.764043"><ele>342.25</ele></trkpt>
    <trkpt lat="48.721709" lon="17.763758"><ele>347.5</ele></trkpt>
    <trkpt lat="48.721793" lon="17.763688"><ele>348.75</ele></trkpt>
    <trkpt lat="48.721935" lon="17.763607"><ele>350.0</ele></trkpt>
    <trkpt lat="48.722292" lon="17.763401"><ele>354.5</ele></trkpt>
    <trkpt lat="48.722427" lon="17.763306"><ele>355.75</ele></trkpt>
    <trkpt lat="48.722956" lon="17.762744"><ele>358.5</ele></trkpt>
    <trkpt lat="48.723162" lon="17.762549"><ele>359.25</ele></trkpt>
    <trkpt lat="48.723306" lon="17.762428"><ele>359.75</ele></trkpt>
    <trkpt lat="48.723721" lon="17.762144"><ele>360.75</ele></trkpt>
    <trkpt lat="48.724006" lon="17.761962"><ele>362.5</ele></trkpt>
    <trkpt lat="48.724090" lon="17.761918"><ele>362.5</ele></trkpt>
    <trkpt lat="48.724287" lon="17.761823"><ele>363.25</ele></trkpt>
    <trkpt lat="48.724360" lon="17.761791"><ele>364.25</ele></trkpt>
    <trkpt lat="48.724779" lon="17.761585"><ele>372.25</ele></trkpt>
    <trkpt lat="48.724897" lon="17.761555"><ele>374.5</ele></trkpt>
    <trkpt lat="48.725053" lon="17.761576"><ele>374.5</ele></trkpt>
    <trkpt lat="48.725164" lon="17.761518"><ele>376.0</ele></trkpt>
    <trkpt lat="48.725176" lon="17.761508"><ele>376.25</ele></trkpt>
    <trkpt lat="48.725220" lon="17.761466"><ele>377.25</ele></trkpt>
    <trkpt lat="48.725268" lon="17.761411"><ele>378.5</ele></trkpt>
    <trkpt lat="48.725376" lon="17.761293"><ele>377.5</ele></trkpt>
    <trkpt lat="48.725377" lon="17.761257"><ele>377.5</ele></trkpt>
    <trkpt lat="48.725383" lon="17.760973"><ele>378.25</ele></trkpt>
    <trkpt lat="48.725291" lon="17.760788"><ele>381.5</ele></trkpt>
    <trkpt lat="48.725260" lon="17.760757"><ele>381.0</ele></trkpt>
    <trkpt lat="48.725230" lon="17.760754"><ele>380.0</ele></trkpt>
    <trkpt lat="48.725180" lon="17.760794"><ele>380.0</ele></trkpt>
    <trkpt lat="48.725150" lon="17.760838"><ele>380.75</ele></trkpt>
    <trkpt lat="48.725132" lon="17.760866"><ele>381.0</ele></trkpt>
    <trkpt lat="48.725108" lon="17.760932"><ele>382.25</ele></trkpt>
    <trkpt lat="48.725105" lon="17.761089"><ele>386.0</ele></trkpt>
    <trkpt lat="48.725052" lon="17.761252"><ele>384.5</ele></trkpt>
    <trkpt lat="48.724902" lon="17.761263"><ele>382.75</ele></trkpt>
    <trkpt lat="48.725052" lon="17.761252"><ele>384.5</ele></trkpt>
    <trkpt lat="48.725105" lon="17.761089"><ele>386.0</ele></trkpt>
    <trkpt lat="48.725108" lon="17.760932"><ele>382.25</ele></trkpt>
    <trkpt lat="48.725132" lon="17.760866"><ele>381.0</ele></trkpt>
    <trkpt lat="48.725150" lon="17.760838"><ele>380.75</ele></trkpt>
    <trkpt lat="48.725180" lon="17.760794"><ele>380.0</ele></trkpt>
    <trkpt lat="48.725230" lon="17.760754"><ele>380.0</ele></trkpt>
    <trkpt lat="48.725260" lon="17.760757"><ele>381.0</ele></trkpt>
    <trkpt lat="48.725291" lon="17.760788"><ele>381.5</ele></trkpt>
    <trkpt lat="48.725383" lon="17.760973"><ele>378.25</ele></trkpt>
    <trkpt lat="48.725377" lon="17.761257"><ele>377.5</ele></trkpt>
    <trkpt lat="48.725376" lon="17.761293"><ele>377.5</ele></trkpt>
    <trkpt lat="48.725268" lon="17.761411"><ele>378.5</ele></trkpt>
    <trkpt lat="48.725220" lon="17.761466"><ele>377.25</ele></trkpt>
    <trkpt lat="48.725176" lon="17.761508"><ele>376.25</ele></trkpt>
    <trkpt lat="48.725164" lon="17.761518"><ele>376.0</ele></trkpt>
    <trkpt lat="48.725053" lon="17.761576"><ele>374.5</ele></trkpt>
    <trkpt lat="48.724897" lon="17.761555"><ele>374.5</ele></trkpt>
    <trkpt lat="48.724779" lon="17.761585"><ele>372.25</ele></trkpt>
    <trkpt lat="48.724360" lon="17.761791"><ele>364.25</ele></trkpt>
    <trkpt lat="48.724287" lon="17.761823"><ele>363.25</ele></trkpt>
    <trkpt lat="48.724090" lon="17.761918"><ele>362.5</ele></trkpt>
    <trkpt lat="48.724006" lon="17.761962"><ele>362.5</ele></trkpt>
    <trkpt lat="48.723721" lon="17.762144"><ele>360.75</ele></trkpt>
    <trkpt lat="48.723306" lon="17.762428"><ele>359.75</ele></trkpt>
    <trkpt lat="48.723162" lon="17.762549"><ele>359.25</ele></trkpt>
    <trkpt lat="48.722956" lon="17.762744"><ele>358.5</ele></trkpt>
    <trkpt lat="48.722427" lon="17.763306"><ele>355.75</ele></trkpt>
    <trkpt lat="48.722292" lon="17.763401"><ele>354.5</ele></trkpt>
    <trkpt lat="48.721935" lon="17.763607"><ele>350.0</ele></trkpt>
    <trkpt lat="48.721793" lon="17.763688"><ele>348.75</ele></trkpt>
    <trkpt lat="48.721709" lon="17.763758"><ele>347.5</ele></trkpt>
    <trkpt lat="48.721491" lon="17.764043"><ele>342.25</ele></trkpt>
    <trkpt lat="48.721262" lon="17.764273"><ele>337.75</ele></trkpt>
    <trkpt lat="48.721107" lon="17.764528"><ele>334.5</ele></trkpt>
    <trkpt lat="48.720922" lon="17.764749"><ele>332.25</ele></trkpt>
    <trkpt lat="48.720891" lon="17.764785"><ele>332.0</ele></trkpt>
    <trkpt lat="48.720682" lon="17.764892"><ele>330.0</ele></trkpt>
    <trkpt lat="48.720543" lon="17.764917"><ele>328.75</ele></trkpt>
    <trkpt lat="48.720385" lon="17.764945"><ele>327.25</ele></trkpt>
    <trkpt lat="48.719873" lon="17.765102"><ele>324.0</ele></trkpt>
    <trkpt lat="48.719630" lon="17.765196"><ele>322.5</ele></trkpt>
    <trkpt lat="48.719437" lon="17.765282"><ele>320.0</ele></trkpt>
    <trkpt lat="48.718826" lon="17.765565"><ele>314.0</ele></trkpt>
    <trkpt lat="48.718602" lon="17.765761"><ele>311.75</ele></trkpt>
    <trkpt lat="48.718254" lon="17.766208"><ele>307.25</ele></trkpt>
    <trkpt lat="48.718176" lon="17.766319"><ele>306.5</ele></trkpt>
    <trkpt lat="48.718055" lon="17.766628"><ele>301.5</ele></trkpt>
    <trkpt lat="48.717936" lon="17.767121"><ele>299.75</ele></trkpt>
    <trkpt lat="48.717840" lon="17.767724"><ele>295.75</ele></trkpt>
    <trkpt lat="48.717794" lon="17.767858"><ele>295.5</ele></trkpt>
    <trkpt lat="48.717732" lon="17.767956"><ele>295.25</ele></trkpt>
    <trkpt lat="48.717559" lon="17.768063"><ele>292.5</ele></trkpt>
    <trkpt lat="48.717407" lon="17.768229"><ele>289.75</ele></trkpt>
    <trkpt lat="48.717308" lon="17.768394"><ele>288.0</ele></trkpt>
    <trkpt lat="48.717268" lon="17.768626"><ele>285.75</ele></trkpt>
    <trkpt lat="48.717063" lon="17.769562"><ele>280.75</ele></trkpt>
    <trkpt lat="48.716690" lon="17.771241"><ele>270.75</ele></trkpt>
    <trkpt lat="48.716679" lon="17.771289"><ele>270.5</ele></trkpt>
    <trkpt lat="48.717077" lon="17.771458"><ele>276.5</ele></trkpt>
    <trkpt lat="48.716808" lon="17.772306"><ele>274.5</ele></trkpt>
    <trkpt lat="48.716536" lon="17.772843"><ele>273.25</ele></trkpt>
    <trkpt lat="48.716297" lon="17.773277"><ele>271.75</ele></trkpt>
    <trkpt lat="48.716145" lon="17.773800"><ele>272.5</ele></trkpt>
    <trkpt lat="48.715987" lon="17.774221"><ele>269.0</ele></trkpt>
    <trkpt lat="48.715890" lon="17.774352"><ele>266.0</ele></trkpt>
    <trkpt lat="48.715840" lon="17.774375"><ele>264.75</ele></trkpt>
    <trkpt lat="48.715777" lon="17.774427"><ele>262.75</ele></trkpt>
    <trkpt lat="48.715703" lon="17.774464"><ele>261.0</ele></trkpt>
    <trkpt lat="48.715645" lon="17.774447"><ele>259.75</ele></trkpt>
    <trkpt lat="48.715598" lon="17.774450"><ele>258.75</ele></trkpt>
    <trkpt lat="48.715549" lon="17.774468"><ele>257.75</ele></trkpt>
    <trkpt lat="48.715405" lon="17.775021"><ele>257.0</ele></trkpt>
    <trkpt lat="48.715052" lon="17.776093"><ele>245.5</ele></trkpt>
    <trkpt lat="48.714954" lon="17.776429"><ele>241.0</ele></trkpt>
    <trkpt lat="48.714901" lon="17.776612"><ele>239.75</ele></trkpt>
    <trkpt lat="48.714808" lon="17.777147"><ele>236.0</ele></trkpt>
    <trkpt lat="48.714641" lon="17.778675"><ele>221.0</ele></trkpt>
    <trkpt lat="48.714629" lon="17.779013"><ele>218.75</ele></trkpt>
    <trkpt lat="48.714656" lon="17.779743"><ele>213.0</ele></trkpt>
    <trkpt lat="48.714659" lon="17.780418"><ele>206.75</ele></trkpt>
    <trkpt lat="48.714738" lon="17.780944"><ele>202.5</ele></trkpt>
    <trkpt lat="48.714775" lon="17.781424"><ele>199.75</ele></trkpt>
    <trkpt lat="48.714797" lon="17.781546"><ele>199.75</ele></trkpt>
    <trkpt lat="48.714904" lon="17.782160"><ele>196.75</ele></trkpt>
    <trkpt lat="48.714940" lon="17.782669"><ele>194.0</ele></trkpt>
    <trkpt lat="48.714930" lon="17.782901"><ele>193.25</ele></trkpt>
    <trkpt lat="48.714905" lon="17.783054"><ele>193.25</ele></trkpt>
    <trkpt lat="48.714695" lon="17.783695"><ele>190.0</ele></trkpt>
    <trkpt lat="48.714578" lon="17.784263"><ele>191.25</ele></trkpt>
    <trkpt lat="48.714322" lon="17.785167"><ele>188.25</ele></trkpt>
    <trkpt lat="48.714240" lon="17.785626"><ele>187.25</ele></trkpt>
    <trkpt lat="48.714220" lon="17.785882"><ele>187.0</ele></trkpt>
    <trkpt lat="48.714227" lon="17.786059"><ele>187.0</ele></trkpt>
    <trkpt lat="48.714230" lon="17.786347"><ele>186.25</ele></trkpt>
    <trkpt lat="48.714187" lon="17.786343"><ele>184.5</ele></trkpt>
  </trkseg></trk>
</gpx>
