<?xml version="1.0" encoding="UTF-8"?>
<gpx version="1.1" creator="MounTour (OpenStreetMap)" xmlns="http://www.topografix.com/GPX/1/1">
  <metadata><name>Červený Kameň z Častej</name><copyright author="OpenStreetMap contributors"><license>https://opendatacommons.org/licenses/odbl/</license></copyright></metadata>
  <trk><name>Červený Kameň z Častej</name><trkseg>
    <trkpt lat="48.398777" lon="17.356807"><ele>249</ele></trkpt>
    <trkpt lat="48.398774" lon="17.356945"><ele>249</ele></trkpt>
    <trkpt lat="48.398543" lon="17.356843"><ele>248</ele></trkpt>
    <trkpt lat="48.398488" lon="17.356740"><ele>249</ele></trkpt>
    <trkpt lat="48.398395" lon="17.356801"><ele>249</ele></trkpt>
    <trkpt lat="48.398125" lon="17.356729"><ele>249</ele></trkpt>
    <trkpt lat="48.396373" lon="17.355563"><ele>244</ele></trkpt>
    <trkpt lat="48.396008" lon="17.355203"><ele>243</ele></trkpt>
    <trkpt lat="48.395634" lon="17.354709"><ele>244</ele></trkpt>
    <trkpt lat="48.395372" lon="17.354238"><ele>245</ele></trkpt>
    <trkpt lat="48.395180" lon="17.353790"><ele>248</ele></trkpt>
    <trkpt lat="48.394912" lon="17.352466"><ele>256</ele></trkpt>
    <trkpt lat="48.394826" lon="17.351833"><ele>260</ele></trkpt>
    <trkpt lat="48.394765" lon="17.351823"><ele>259</ele></trkpt>
    <trkpt lat="48.394738" lon="17.351092"><ele>264</ele></trkpt>
    <trkpt lat="48.394819" lon="17.350323"><ele>271</ele></trkpt>
    <trkpt lat="48.395078" lon="17.349013"><ele>277</ele></trkpt>
    <trkpt lat="48.395063" lon="17.348924"><ele>277</ele></trkpt>
    <trkpt lat="48.395124" lon="17.348134"><ele>282</ele></trkpt>
    <trkpt lat="48.395093" lon="17.347543"><ele>285</ele></trkpt>
    <trkpt lat="48.395037" lon="17.347143"><ele>287</ele></trkpt>
    <trkpt lat="48.394838" lon="17.346445"><ele>291</ele></trkpt>
    <trkpt lat="48.394901" lon="17.346387"><ele>291</ele></trkpt>
    <trkpt lat="48.394707" lon="17.345800"><ele>295</ele></trkpt>
    <trkpt lat="48.394347" lon="17.344957"><ele>303</ele></trkpt>
    <trkpt lat="48.394173" lon="17.344320"><ele>309</ele></trkpt>
    <trkpt lat="48.393978" lon="17.343380"><ele>317</ele></trkpt>
    <trkpt lat="48.393985" lon="17.343063"><ele>320</ele></trkpt>
    <trkpt lat="48.393918" lon="17.342859"><ele>323</ele></trkpt>
    <trkpt lat="48.394137" lon="17.342702"><ele>328</ele></trkpt>
    <trkpt lat="48.394249" lon="17.342277"><ele>333</ele></trkpt>
    <trkpt lat="48.394408" lon="17.341891"><ele>335</ele></trkpt>
    <trkpt lat="48.394402" lon="17.341224"><ele>340</ele></trkpt>
    <trkpt lat="48.394531" lon="17.340191"><ele>342</ele></trkpt>
    <trkpt lat="48.394617" lon="17.339847"><ele>342</ele></trkpt>
    <trkpt lat="48.394647" lon="17.338706"><ele>343</ele></trkpt>
    <trkpt lat="48.394708" lon="17.338486"><ele>339</ele></trkpt>
    <trkpt lat="48.394613" lon="17.338257"><ele>335</ele></trkpt>
    <trkpt lat="48.394602" lon="17.337974"><ele>331</ele></trkpt>
    <trkpt lat="48.394545" lon="17.337835"><ele>330</ele></trkpt>
    <trkpt lat="48.394044" lon="17.337183"><ele>327</ele></trkpt>
    <trkpt lat="48.393782" lon="17.337075"><ele>329</ele></trkpt>
    <trkpt lat="48.394036" lon="17.335336"><ele>339</ele></trkpt>
    <trkpt lat="48.394101" lon="17.335047"><ele>341</ele></trkpt>
    <trkpt lat="48.394067" lon="17.334722"><ele>342</ele></trkpt>
    <trkpt lat="48.392987" lon="17.334161"><ele>346</ele></trkpt>
    <trkpt lat="48.392842" lon="17.334051"><ele>348</ele></trkpt>
    <trkpt lat="48.392687" lon="17.334088"><ele>348</ele></trkpt>
    <trkpt lat="48.392030" lon="17.334863"><ele>343</ele></trkpt>
    <trkpt lat="48.391829" lon="17.335229"><ele>342</ele></trkpt>
    <trkpt lat="48.391764" lon="17.335153"><ele>337</ele></trkpt>
    <trkpt lat="48.391514" lon="17.335611"><ele>344</ele></trkpt>
    <trkpt lat="48.391764" lon="17.335153"><ele>337</ele></trkpt>
    <trkpt lat="48.391829" lon="17.335229"><ele>342</ele></trkpt>
    <trkpt lat="48.392030" lon="17.334863"><ele>343</ele></trkpt>
    <trkpt lat="48.392687" lon="17.334088"><ele>348</ele></trkpt>
    <trkpt lat="48.392789" lon="17.334047"><ele>348</ele></trkpt>
    <trkpt lat="48.394067" lon="17.334722"><ele>342</ele></trkpt>
    <trkpt lat="48.394101" lon="17.335047"><ele>341</ele></trkpt>
    <trkpt lat="48.394036" lon="17.335336"><ele>339</ele></trkpt>
    <trkpt lat="48.393782" lon="17.337075"><ele>329</ele></trkpt>
    <trkpt lat="48.394044" lon="17.337183"><ele>327</ele></trkpt>
    <trkpt lat="48.394545" lon="17.337835"><ele>330</ele></trkpt>
    <trkpt lat="48.394602" lon="17.337974"><ele>331</ele></trkpt>
    <trkpt lat="48.394613" lon="17.338257"><ele>335</ele></trkpt>
    <trkpt lat="48.394708" lon="17.338486"><ele>339</ele></trkpt>
    <trkpt lat="48.394647" lon="17.338706"><ele>343</ele></trkpt>
    <trkpt lat="48.394617" lon="17.339847"><ele>342</ele></trkpt>
    <trkpt lat="48.394531" lon="17.340191"><ele>342</ele></trkpt>
    <trkpt lat="48.394402" lon="17.341224"><ele>340</ele></trkpt>
    <trkpt lat="48.394408" lon="17.341891"><ele>335</ele></trkpt>
    <trkpt lat="48.394249" lon="17.342277"><ele>333</ele></trkpt>
    <trkpt lat="48.394137" lon="17.342702"><ele>328</ele></trkpt>
    <trkpt lat="48.393918" lon="17.342859"><ele>323</ele></trkpt>
    <trkpt lat="48.393985" lon="17.343063"><ele>320</ele></trkpt>
    <trkpt lat="48.393978" lon="17.343380"><ele>317</ele></trkpt>
    <trkpt lat="48.394173" lon="17.344320"><ele>309</ele></trkpt>
    <trkpt lat="48.394347" lon="17.344957"><ele>303</ele></trkpt>
    <trkpt lat="48.394707" lon="17.345800"><ele>295</ele></trkpt>
    <trkpt lat="48.394901" lon="17.346387"><ele>291</ele></trkpt>
    <trkpt lat="48.394838" lon="17.346445"><ele>291</ele></trkpt>
    <trkpt lat="48.395037" lon="17.347143"><ele>287</ele></trkpt>
    <trkpt lat="48.395093" lon="17.347543"><ele>285</ele></trkpt>
    <trkpt lat="48.395124" lon="17.348134"><ele>282</ele></trkpt>
    <trkpt lat="48.395063" lon="17.348924"><ele>277</ele></trkpt>
    <trkpt lat="48.395078" lon="17.349013"><ele>277</ele></trkpt>
    <trkpt lat="48.394819" lon="17.350323"><ele>271</ele></trkpt>
    <trkpt lat="48.394738" lon="17.351092"><ele>264</ele></trkpt>
    <trkpt lat="48.394765" lon="17.351823"><ele>259</ele></trkpt>
    <trkpt lat="48.394826" lon="17.351833"><ele>260</ele></trkpt>
    <trkpt lat="48.394912" lon="17.352466"><ele>256</ele></trkpt>
    <trkpt lat="48.395180" lon="17.353790"><ele>248</ele></trkpt>
    <trkpt lat="48.395372" lon="17.354238"><ele>245</ele></trkpt>
    <trkpt lat="48.395634" lon="17.354709"><ele>244</ele></trkpt>
    <trkpt lat="48.396008" lon="17.355203"><ele>243</ele></trkpt>
    <trkpt lat="48.396373" lon="17.355563"><ele>244</ele></trkpt>
    <trkpt lat="48.398125" lon="17.356729"><ele>249</ele></trkpt>
    <trkpt lat="48.398395" lon="17.356801"><ele>249</ele></trkpt>
    <trkpt lat="48.398488" lon="17.356740"><ele>249</ele></trkpt>
    <trkpt lat="48.398543" lon="17.356843"><ele>248</ele></trkpt>
    <trkpt lat="48.398774" lon="17.356945"><ele>249</ele></trkpt>
    <trkpt lat="48.398777" lon="17.356807"><ele>249</ele></trkpt>
  </trkseg></trk>
</gpx>
