<?xml version="1.0" encoding="UTF-8"?>
<gpx version="1.1" creator="MounTour (OpenStreetMap)" xmlns="http://www.topografix.com/GPX/1/1">
  <metadata><name>Chata na Grúni</name><copyright author="OpenStreetMap contributors"><license>https://opendatacommons.org/licenses/odbl/</license></copyright></metadata>
  <trk><name>Chata na Grúni</name><trkseg>
    <trkpt lat="49.231702" lon="19.062720"><ele>633</ele></trkpt>
    <trkpt lat="49.231697" lon="19.062527"><ele>631</ele></trkpt>
    <trkpt lat="49.231779" lon="19.061656"><ele>656</ele></trkpt>
    <trkpt lat="49.231694" lon="19.061007"><ele>666</ele></trkpt>
    <trkpt lat="49.231583" lon="19.060750"><ele>664</ele></trkpt>
    <trkpt lat="49.231481" lon="19.060688"><ele>660</ele></trkpt>
    <trkpt lat="49.231254" lon="19.060660"><ele>657</ele></trkpt>
    <trkpt lat="49.230475" lon="19.060670"><ele>692</ele></trkpt>
    <trkpt lat="49.230255" lon="19.060488"><ele>699</ele></trkpt>
    <trkpt lat="49.230106" lon="19.060287"><ele>703</ele></trkpt>
    <trkpt lat="49.229966" lon="19.059928"><ele>709</ele></trkpt>
    <trkpt lat="49.229812" lon="19.059678"><ele>714</ele></trkpt>
    <trkpt lat="49.229175" lon="19.059509"><ele>729</ele></trkpt>
    <trkpt lat="49.229038" lon="19.059396"><ele>735</ele></trkpt>
    <trkpt lat="49.228646" lon="19.058863"><ele>746</ele></trkpt>
    <trkpt lat="49.228493" lon="19.058898"><ele>750</ele></trkpt>
    <trkpt lat="49.227915" lon="19.058881"><ele>772</ele></trkpt>
    <trkpt lat="49.227751" lon="19.058640"><ele>780</ele></trkpt>
    <trkpt lat="49.227208" lon="19.057186"><ele>814</ele></trkpt>
    <trkpt lat="49.226936" lon="19.056711"><ele>822</ele></trkpt>
    <trkpt lat="49.226847" lon="19.056618"><ele>825</ele></trkpt>
    <trkpt lat="49.226778" lon="19.056572"><ele>828</ele></trkpt>
    <trkpt lat="49.226722" lon="19.056623"><ele>830</ele></trkpt>
    <trkpt lat="49.226693" lon="19.056931"><ele>826</ele></trkpt>
    <trkpt lat="49.226582" lon="19.057219"><ele>824</ele></trkpt>
    <trkpt lat="49.226370" lon="19.057289"><ele>830</ele></trkpt>
    <trkpt lat="49.226187" lon="19.057097"><ele>839</ele></trkpt>
    <trkpt lat="49.226084" lon="19.056873"><ele>850</ele></trkpt>
    <trkpt lat="49.225541" lon="19.056724"><ele>872</ele></trkpt>
    <trkpt lat="49.225095" lon="19.056407"><ele>893</ele></trkpt>
    <trkpt lat="49.224640" lon="19.056252"><ele>901</ele></trkpt>
    <trkpt lat="49.224425" lon="19.056346"><ele>909</ele></trkpt>
    <trkpt lat="49.224027" lon="19.056997"><ele>922</ele></trkpt>
    <trkpt lat="49.223763" lon="19.057011"><ele>924</ele></trkpt>
    <trkpt lat="49.223439" lon="19.056620"><ele>930</ele></trkpt>
    <trkpt lat="49.223298" lon="19.056508"><ele>934</ele></trkpt>
    <trkpt lat="49.222642" lon="19.056219"><ele>956</ele></trkpt>
    <trkpt lat="49.222054" lon="19.055850"><ele>962</ele></trkpt>
    <trkpt lat="49.221434" lon="19.055561"><ele>976</ele></trkpt>
    <trkpt lat="49.221255" lon="19.055365"><ele>980</ele></trkpt>
    <trkpt lat="49.220799" lon="19.054545"><ele>987</ele></trkpt>
    <trkpt lat="49.220549" lon="19.054354"><ele>985</ele></trkpt>
    <trkpt lat="49.220277" lon="19.054190"><ele>983</ele></trkpt>
    <trkpt lat="49.219573" lon="19.053908"><ele>974</ele></trkpt>
    <trkpt lat="49.219388" lon="19.054067"><ele>973</ele></trkpt>
    <trkpt lat="49.219573" lon="19.053908"><ele>974</ele></trkpt>
    <trkpt lat="49.220277" lon="19.054190"><ele>983</ele></trkpt>
    <trkpt lat="49.220549" lon="19.054354"><ele>985</ele></trkpt>
    <trkpt lat="49.220799" lon="19.054545"><ele>987</ele></trkpt>
    <trkpt lat="49.221255" lon="19.055365"><ele>980</ele></trkpt>
    <trkpt lat="49.221434" lon="19.055561"><ele>976</ele></trkpt>
    <trkpt lat="49.222054" lon="19.055850"><ele>962</ele></trkpt>
    <trkpt lat="49.222642" lon="19.056219"><ele>956</ele></trkpt>
    <trkpt lat="49.223298" lon="19.056508"><ele>934</ele></trkpt>
    <trkpt lat="49.223439" lon="19.056620"><ele>930</ele></trkpt>
    <trkpt lat="49.223763" lon="19.057011"><ele>924</ele></trkpt>
    <trkpt lat="49.224027" lon="19.056997"><ele>922</ele></trkpt>
    <trkpt lat="49.224425" lon="19.056346"><ele>909</ele></trkpt>
    <trkpt lat="49.224640" lon="19.056252"><ele>901</ele></trkpt>
    <trkpt lat="49.225095" lon="19.056407"><ele>893</ele></trkpt>
    <trkpt lat="49.225541" lon="19.056724"><ele>872</ele></trkpt>
    <trkpt lat="49.226084" lon="19.056873"><ele>850</ele></trkpt>
    <trkpt lat="49.226187" lon="19.057097"><ele>839</ele></trkpt>
    <trkpt lat="49.226370" lon="19.057289"><ele>830</ele></trkpt>
    <trkpt lat="49.226582" lon="19.057219"><ele>824</ele></trkpt>
    <trkpt lat="49.226693" lon="19.056931"><ele>826</ele></trkpt>
    <trkpt lat="49.226722" lon="19.056623"><ele>830</ele></trkpt>
    <trkpt lat="49.226778" lon="19.056572"><ele>828</ele></trkpt>
    <trkpt lat="49.226847" lon="19.056618"><ele>825</ele></trkpt>
    <trkpt lat="49.226936" lon="19.056711"><ele>822</ele></trkpt>
    <trkpt lat="49.227208" lon="19.057186"><ele>814</ele></trkpt>
    <trkpt lat="49.227751" lon="19.058640"><ele>780</ele></trkpt>
    <trkpt lat="49.227915" lon="19.058881"><ele>772</ele></trkpt>
    <trkpt lat="49.228493" lon="19.058898"><ele>750</ele></trkpt>
    <trkpt lat="49.228646" lon="19.058863"><ele>746</ele></trkpt>
    <trkpt lat="49.229038" lon="19.059396"><ele>735</ele></trkpt>
    <trkpt lat="49.229175" lon="19.059509"><ele>729</ele></trkpt>
    <trkpt lat="49.229812" lon="19.059678"><ele>714</ele></trkpt>
    <trkpt lat="49.229966" lon="19.059928"><ele>709</ele></trkpt>
    <trkpt lat="49.230106" lon="19.060287"><ele>703</ele></trkpt>
    <trkpt lat="49.230255" lon="19.060488"><ele>699</ele></trkpt>
    <trkpt lat="49.230475" lon="19.060670"><ele>692</ele></trkpt>
    <trkpt lat="49.231254" lon="19.060660"><ele>657</ele></trkpt>
    <trkpt lat="49.231481" lon="19.060688"><ele>660</ele></trkpt>
    <trkpt lat="49.231583" lon="19.060750"><ele>664</ele></trkpt>
    <trkpt lat="49.231694" lon="19.061007"><ele>666</ele></trkpt>
    <trkpt lat="49.231779" lon="19.061656"><ele>656</ele></trkpt>
    <trkpt lat="49.231697" lon="19.062527"><ele>631</ele></trkpt>
    <trkpt lat="49.231702" lon="19.062720"><ele>633</ele></trkpt>
  </trkseg></trk>
</gpx>
