<?xml version="1.0" encoding="UTF-8"?>
<gpx version="1.1" creator="MounTour (OpenStreetMap)" xmlns="http://www.topografix.com/GPX/1/1">
  <metadata><name>Chleb</name><copyright author="OpenStreetMap contributors"><license>https://opendatacommons.org/licenses/odbl/</license></copyright></metadata>
  <trk><name>Chleb</name><trkseg>
    <trkpt lat="49.208613" lon="19.042873"><ele>754</ele></trkpt>
    <trkpt lat="49.208569" lon="19.042809"><ele>749</ele></trkpt>
    <trkpt lat="49.208199" lon="19.043235"><ele>752</ele></trkpt>
    <trkpt lat="49.207782" lon="19.043068"><ele>747</ele></trkpt>
    <trkpt lat="49.207511" lon="19.042903"><ele>752</ele></trkpt>
    <trkpt lat="49.207273" lon="19.042845"><ele>759</ele></trkpt>
    <trkpt lat="49.206755" lon="19.042869"><ele>785</ele></trkpt>
    <trkpt lat="49.206487" lon="19.042951"><ele>808</ele></trkpt>
    <trkpt lat="49.206439" lon="19.042920"><ele>811</ele></trkpt>
    <trkpt lat="49.206425" lon="19.042868"><ele>812</ele></trkpt>
    <trkpt lat="49.206529" lon="19.042665"><ele>801</ele></trkpt>
    <trkpt lat="49.206667" lon="19.042246"><ele>797</ele></trkpt>
    <trkpt lat="49.206730" lon="19.041812"><ele>818</ele></trkpt>
    <trkpt lat="49.207020" lon="19.041284"><ele>824</ele></trkpt>
    <trkpt lat="49.207020" lon="19.041197"><ele>825</ele></trkpt>
    <trkpt lat="49.206977" lon="19.041077"><ele>827</ele></trkpt>
    <trkpt lat="49.206849" lon="19.040951"><ele>831</ele></trkpt>
    <trkpt lat="49.206549" lon="19.040846"><ele>844</ele></trkpt>
    <trkpt lat="49.206162" lon="19.040467"><ele>854</ele></trkpt>
    <trkpt lat="49.205993" lon="19.040451"><ele>863</ele></trkpt>
    <trkpt lat="49.205923" lon="19.040382"><ele>866</ele></trkpt>
    <trkpt lat="49.205304" lon="19.039255"><ele>882</ele></trkpt>
    <trkpt lat="49.205245" lon="19.039249"><ele>885</ele></trkpt>
    <trkpt lat="49.205213" lon="19.039678"><ele>890</ele></trkpt>
    <trkpt lat="49.205165" lon="19.039747"><ele>894</ele></trkpt>
    <trkpt lat="49.205114" lon="19.039748"><ele>897</ele></trkpt>
    <trkpt lat="49.204739" lon="19.039292"><ele>906</ele></trkpt>
    <trkpt lat="49.204687" lon="19.039292"><ele>909</ele></trkpt>
    <trkpt lat="49.204668" lon="19.039373"><ele>910</ele></trkpt>
    <trkpt lat="49.204729" lon="19.040079"><ele>920</ele></trkpt>
    <trkpt lat="49.204680" lon="19.040149"><ele>924</ele></trkpt>
    <trkpt lat="49.204336" lon="19.039598"><ele>932</ele></trkpt>
    <trkpt lat="49.204007" lon="19.038915"><ele>941</ele></trkpt>
    <trkpt lat="49.203937" lon="19.038979"><ele>946</ele></trkpt>
    <trkpt lat="49.203920" lon="19.039243"><ele>950</ele></trkpt>
    <trkpt lat="49.204054" lon="19.040112"><ele>958</ele></trkpt>
    <trkpt lat="49.204081" lon="19.040744"><ele>962</ele></trkpt>
    <trkpt lat="49.204038" lon="19.040970"><ele>961</ele></trkpt>
    <trkpt lat="49.203951" lon="19.040937"><ele>966</ele></trkpt>
    <trkpt lat="49.203846" lon="19.040690"><ele>975</ele></trkpt>
    <trkpt lat="49.203788" lon="19.040603"><ele>979</ele></trkpt>
    <trkpt lat="49.203738" lon="19.040608"><ele>981</ele></trkpt>
    <trkpt lat="49.203695" lon="19.040954"><ele>976</ele></trkpt>
    <trkpt lat="49.203641" lon="19.041031"><ele>976</ele></trkpt>
    <trkpt lat="49.203612" lon="19.041018"><ele>977</ele></trkpt>
    <trkpt lat="49.203457" lon="19.040288"><ele>997</ele></trkpt>
    <trkpt lat="49.203390" lon="19.040192"><ele>1000</ele></trkpt>
    <trkpt lat="49.203341" lon="19.040304"><ele>1003</ele></trkpt>
    <trkpt lat="49.203302" lon="19.040760"><ele>999</ele></trkpt>
    <trkpt lat="49.203232" lon="19.040734"><ele>1007</ele></trkpt>
    <trkpt lat="49.202840" lon="19.039441"><ele>1031</ele></trkpt>
    <trkpt lat="49.202770" lon="19.039532"><ele>1036</ele></trkpt>
    <trkpt lat="49.202745" lon="19.039889"><ele>1043</ele></trkpt>
    <trkpt lat="49.202756" lon="19.040315"><ele>1048</ele></trkpt>
    <trkpt lat="49.202711" lon="19.040769"><ele>1043</ele></trkpt>
    <trkpt lat="49.202557" lon="19.041011"><ele>1048</ele></trkpt>
    <trkpt lat="49.202416" lon="19.041078"><ele>1055</ele></trkpt>
    <trkpt lat="49.202249" lon="19.041096"><ele>1065</ele></trkpt>
    <trkpt lat="49.202120" lon="19.040937"><ele>1073</ele></trkpt>
    <trkpt lat="49.202013" lon="19.040645"><ele>1082</ele></trkpt>
    <trkpt lat="49.201879" lon="19.040415"><ele>1093</ele></trkpt>
    <trkpt lat="49.201605" lon="19.040165"><ele>1109</ele></trkpt>
    <trkpt lat="49.201416" lon="19.039923"><ele>1118</ele></trkpt>
    <trkpt lat="49.201353" lon="19.039984"><ele>1118</ele></trkpt>
    <trkpt lat="49.201150" lon="19.039905"><ele>1126</ele></trkpt>
    <trkpt lat="49.200961" lon="19.039696"><ele>1139</ele></trkpt>
    <trkpt lat="49.200905" lon="19.039696"><ele>1141</ele></trkpt>
    <trkpt lat="49.200621" lon="19.039480"><ele>1158</ele></trkpt>
    <trkpt lat="49.200384" lon="19.039135"><ele>1171</ele></trkpt>
    <trkpt lat="49.200270" lon="19.039395"><ele>1175</ele></trkpt>
    <trkpt lat="49.200226" lon="19.039388"><ele>1178</ele></trkpt>
    <trkpt lat="49.200040" lon="19.039662"><ele>1187</ele></trkpt>
    <trkpt lat="49.199938" lon="19.039552"><ele>1195</ele></trkpt>
    <trkpt lat="49.199874" lon="19.039554"><ele>1198</ele></trkpt>
    <trkpt lat="49.199796" lon="19.039439"><ele>1204</ele></trkpt>
    <trkpt lat="49.199684" lon="19.039574"><ele>1207</ele></trkpt>
    <trkpt lat="49.199524" lon="19.039652"><ele>1213</ele></trkpt>
    <trkpt lat="49.199363" lon="19.039593"><ele>1222</ele></trkpt>
    <trkpt lat="49.199325" lon="19.039621"><ele>1223</ele></trkpt>
    <trkpt lat="49.199287" lon="19.039439"><ele>1228</ele></trkpt>
    <trkpt lat="49.199123" lon="19.039332"><ele>1237</ele></trkpt>
    <trkpt lat="49.199084" lon="19.039140"><ele>1242</ele></trkpt>
    <trkpt lat="49.198982" lon="19.039066"><ele>1247</ele></trkpt>
    <trkpt lat="49.198976" lon="19.039012"><ele>1248</ele></trkpt>
    <trkpt lat="49.198868" lon="19.038985"><ele>1253</ele></trkpt>
    <trkpt lat="49.198824" lon="19.038931"><ele>1256</ele></trkpt>
    <trkpt lat="49.198814" lon="19.038823"><ele>1257</ele></trkpt>
    <trkpt lat="49.198560" lon="19.038523"><ele>1271</ele></trkpt>
    <trkpt lat="49.198542" lon="19.038439"><ele>1273</ele></trkpt>
    <trkpt lat="49.198469" lon="19.038441"><ele>1276</ele></trkpt>
    <trkpt lat="49.198403" lon="19.038374"><ele>1279</ele></trkpt>
    <trkpt lat="49.198354" lon="19.038399"><ele>1281</ele></trkpt>
    <trkpt lat="49.198240" lon="19.038601"><ele>1285</ele></trkpt>
    <trkpt lat="49.198205" lon="19.038595"><ele>1287</ele></trkpt>
    <trkpt lat="49.198122" lon="19.038728"><ele>1291</ele></trkpt>
    <trkpt lat="49.197960" lon="19.038649"><ele>1300</ele></trkpt>
    <trkpt lat="49.197900" lon="19.038692"><ele>1303</ele></trkpt>
    <trkpt lat="49.197717" lon="19.039077"><ele>1312</ele></trkpt>
    <trkpt lat="49.197418" lon="19.039347"><ele>1329</ele></trkpt>
    <trkpt lat="49.197296" lon="19.039212"><ele>1336</ele></trkpt>
    <trkpt lat="49.197224" lon="19.039247"><ele>1341</ele></trkpt>
    <trkpt lat="49.197152" lon="19.039170"><ele>1345</ele></trkpt>
    <trkpt lat="49.197068" lon="19.039196"><ele>1349</ele></trkpt>
    <trkpt lat="49.196956" lon="19.038955"><ele>1356</ele></trkpt>
    <trkpt lat="49.196786" lon="19.039102"><ele>1364</ele></trkpt>
    <trkpt lat="49.196649" lon="19.039028"><ele>1370</ele></trkpt>
    <trkpt lat="49.196339" lon="19.039120"><ele>1382</ele></trkpt>
    <trkpt lat="49.196257" lon="19.039071"><ele>1384</ele></trkpt>
    <trkpt lat="49.195841" lon="19.038998"><ele>1397</ele></trkpt>
    <trkpt lat="49.195719" lon="19.038881"><ele>1402</ele></trkpt>
    <trkpt lat="49.195371" lon="19.038839"><ele>1417</ele></trkpt>
    <trkpt lat="49.195249" lon="19.038912"><ele>1421</ele></trkpt>
    <trkpt lat="49.194816" lon="19.038786"><ele>1442</ele></trkpt>
    <trkpt lat="49.194667" lon="19.038698"><ele>1448</ele></trkpt>
    <trkpt lat="49.194505" lon="19.038673"><ele>1453</ele></trkpt>
    <trkpt lat="49.194350" lon="19.038456"><ele>1461</ele></trkpt>
    <trkpt lat="49.194166" lon="19.038381"><ele>1468</ele></trkpt>
    <trkpt lat="49.194043" lon="19.038242"><ele>1475</ele></trkpt>
    <trkpt lat="49.193878" lon="19.038269"><ele>1482</ele></trkpt>
    <trkpt lat="49.193806" lon="19.038162"><ele>1484</ele></trkpt>
    <trkpt lat="49.193703" lon="19.038279"><ele>1487</ele></trkpt>
    <trkpt lat="49.193212" lon="19.038163"><ele>1492</ele></trkpt>
    <trkpt lat="49.193155" lon="19.038202"><ele>1492</ele></trkpt>
    <trkpt lat="49.193132" lon="19.038325"><ele>1492</ele></trkpt>
    <trkpt lat="49.192616" lon="19.038308"><ele>1502</ele></trkpt>
    <trkpt lat="49.192420" lon="19.038495"><ele>1507</ele></trkpt>
    <trkpt lat="49.192371" lon="19.038238"><ele>1511</ele></trkpt>
    <trkpt lat="49.192198" lon="19.038327"><ele>1516</ele></trkpt>
    <trkpt lat="49.191710" lon="19.038307"><ele>1523</ele></trkpt>
    <trkpt lat="49.191266" lon="19.039658"><ele>1526</ele></trkpt>
    <trkpt lat="49.191081" lon="19.040025"><ele>1531</ele></trkpt>
    <trkpt lat="49.190760" lon="19.040999"><ele>1539</ele></trkpt>
    <trkpt lat="49.190658" lon="19.041147"><ele>1541</ele></trkpt>
    <trkpt lat="49.190185" lon="19.041589"><ele>1547</ele></trkpt>
    <trkpt lat="49.190101" lon="19.042230"><ele>1549</ele></trkpt>
    <trkpt lat="49.190001" lon="19.042635"><ele>1551</ele></trkpt>
    <trkpt lat="49.190003" lon="19.042855"><ele>1551</ele></trkpt>
    <trkpt lat="49.189927" lon="19.043308"><ele>1552</ele></trkpt>
    <trkpt lat="49.189896" lon="19.043413"><ele>1553</ele></trkpt>
    <trkpt lat="49.189576" lon="19.043854"><ele>1558</ele></trkpt>
    <trkpt lat="49.189579" lon="19.044002"><ele>1558</ele></trkpt>
    <trkpt lat="49.189432" lon="19.044253"><ele>1559</ele></trkpt>
    <trkpt lat="49.189381" lon="19.044777"><ele>1558</ele></trkpt>
    <trkpt lat="49.189315" lon="19.044898"><ele>1558</ele></trkpt>
    <trkpt lat="49.189169" lon="19.045598"><ele>1559</ele></trkpt>
    <trkpt lat="49.189111" lon="19.046613"><ele>1565</ele></trkpt>
    <trkpt lat="49.188923" lon="19.047807"><ele>1584</ele></trkpt>
    <trkpt lat="49.188780" lon="19.048477"><ele>1596</ele></trkpt>
    <trkpt lat="49.188690" lon="19.049129"><ele>1608</ele></trkpt>
    <trkpt lat="49.188459" lon="19.049965"><ele>1620</ele></trkpt>
    <trkpt lat="49.188486" lon="19.050045"><ele>1621</ele></trkpt>
    <trkpt lat="49.188403" lon="19.050294"><ele>1624</ele></trkpt>
    <trkpt lat="49.188347" lon="19.050835"><ele>1629</ele></trkpt>
    <trkpt lat="49.188193" lon="19.051134"><ele>1631</ele></trkpt>
    <trkpt lat="49.187958" lon="19.051400"><ele>1639</ele></trkpt>
    <trkpt lat="49.187889" lon="19.051614"><ele>1640</ele></trkpt>
    <trkpt lat="49.187958" lon="19.051400"><ele>1639</ele></trkpt>
    <trkpt lat="49.188193" lon="19.051134"><ele>1631</ele></trkpt>
    <trkpt lat="49.188347" lon="19.050835"><ele>1629</ele></trkpt>
    <trkpt lat="49.188403" lon="19.050294"><ele>1624</ele></trkpt>
    <trkpt lat="49.188486" lon="19.050045"><ele>1621</ele></trkpt>
    <trkpt lat="49.188459" lon="19.049965"><ele>1620</ele></trkpt>
    <trkpt lat="49.188690" lon="19.049129"><ele>1608</ele></trkpt>
    <trkpt lat="49.188780" lon="19.048477"><ele>1596</ele></trkpt>
    <trkpt lat="49.188923" lon="19.047807"><ele>1584</ele></trkpt>
    <trkpt lat="49.189111" lon="19.046613"><ele>1565</ele></trkpt>
    <trkpt lat="49.189169" lon="19.045598"><ele>1559</ele></trkpt>
    <trkpt lat="49.189315" lon="19.044898"><ele>1558</ele></trkpt>
    <trkpt lat="49.189381" lon="19.044777"><ele>1558</ele></trkpt>
    <trkpt lat="49.189432" lon="19.044253"><ele>1559</ele></trkpt>
    <trkpt lat="49.189579" lon="19.044002"><ele>1558</ele></trkpt>
    <trkpt lat="49.189576" lon="19.043854"><ele>1558</ele></trkpt>
    <trkpt lat="49.189896" lon="19.043413"><ele>1553</ele></trkpt>
    <trkpt lat="49.189927" lon="19.043308"><ele>1552</ele></trkpt>
    <trkpt lat="49.190003" lon="19.042855"><ele>1551</ele></trkpt>
    <trkpt lat="49.190001" lon="19.042635"><ele>1551</ele></trkpt>
    <trkpt lat="49.190101" lon="19.042230"><ele>1549</ele></trkpt>
    <trkpt lat="49.190185" lon="19.041589"><ele>1547</ele></trkpt>
    <trkpt lat="49.190658" lon="19.041147"><ele>1541</ele></trkpt>
    <trkpt lat="49.190760" lon="19.040999"><ele>1539</ele></trkpt>
    <trkpt lat="49.191081" lon="19.040025"><ele>1531</ele></trkpt>
    <trkpt lat="49.191266" lon="19.039658"><ele>1526</ele></trkpt>
    <trkpt lat="49.191710" lon="19.038307"><ele>1523</ele></trkpt>
    <trkpt lat="49.192198" lon="19.038327"><ele>1516</ele></trkpt>
    <trkpt lat="49.192371" lon="19.038238"><ele>1511</ele></trkpt>
    <trkpt lat="49.192420" lon="19.038495"><ele>1507</ele></trkpt>
    <trkpt lat="49.192616" lon="19.038308"><ele>1502</ele></trkpt>
    <trkpt lat="49.193132" lon="19.038325"><ele>1492</ele></trkpt>
    <trkpt lat="49.193155" lon="19.038202"><ele>1492</ele></trkpt>
    <trkpt lat="49.193212" lon="19.038163"><ele>1492</ele></trkpt>
    <trkpt lat="49.193703" lon="19.038279"><ele>1487</ele></trkpt>
    <trkpt lat="49.193806" lon="19.038162"><ele>1484</ele></trkpt>
    <trkpt lat="49.193878" lon="19.038269"><ele>1482</ele></trkpt>
    <trkpt lat="49.194043" lon="19.038242"><ele>1475</ele></trkpt>
    <trkpt lat="49.194166" lon="19.038381"><ele>1468</ele></trkpt>
    <trkpt lat="49.194350" lon="19.038456"><ele>1461</ele></trkpt>
    <trkpt lat="49.194505" lon="19.038673"><ele>1453</ele></trkpt>
    <trkpt lat="49.194667" lon="19.038698"><ele>1448</ele></trkpt>
    <trkpt lat="49.194816" lon="19.038786"><ele>1442</ele></trkpt>
    <trkpt lat="49.195249" lon="19.038912"><ele>1421</ele></trkpt>
    <trkpt lat="49.195371" lon="19.038839"><ele>1417</ele></trkpt>
    <trkpt lat="49.195719" lon="19.038881"><ele>1402</ele></trkpt>
    <trkpt lat="49.195841" lon="19.038998"><ele>1397</ele></trkpt>
    <trkpt lat="49.196257" lon="19.039071"><ele>1384</ele></trkpt>
    <trkpt lat="49.196339" lon="19.039120"><ele>1382</ele></trkpt>
    <trkpt lat="49.196649" lon="19.039028"><ele>1370</ele></trkpt>
    <trkpt lat="49.196786" lon="19.039102"><ele>1364</ele></trkpt>
    <trkpt lat="49.196956" lon="19.038955"><ele>1356</ele></trkpt>
    <trkpt lat="49.197068" lon="19.039196"><ele>1349</ele></trkpt>
    <trkpt lat="49.197152" lon="19.039170"><ele>1345</ele></trkpt>
    <trkpt lat="49.197224" lon="19.039247"><ele>1341</ele></trkpt>
    <trkpt lat="49.197296" lon="19.039212"><ele>1336</ele></trkpt>
    <trkpt lat="49.197418" lon="19.039347"><ele>1329</ele></trkpt>
    <trkpt lat="49.197717" lon="19.039077"><ele>1312</ele></trkpt>
    <trkpt lat="49.197900" lon="19.038692"><ele>1303</ele></trkpt>
    <trkpt lat="49.197960" lon="19.038649"><ele>1300</ele></trkpt>
    <trkpt lat="49.198122" lon="19.038728"><ele>1291</ele></trkpt>
    <trkpt lat="49.198205" lon="19.038595"><ele>1287</ele></trkpt>
    <trkpt lat="49.198240" lon="19.038601"><ele>1285</ele></trkpt>
    <trkpt lat="49.198354" lon="19.038399"><ele>1281</ele></trkpt>
    <trkpt lat="49.198403" lon="19.038374"><ele>1279</ele></trkpt>
    <trkpt lat="49.198469" lon="19.038441"><ele>1276</ele></trkpt>
    <trkpt lat="49.198542" lon="19.038439"><ele>1273</ele></trkpt>
    <trkpt lat="49.198560" lon="19.038523"><ele>1271</ele></trkpt>
    <trkpt lat="49.198814" lon="19.038823"><ele>1257</ele></trkpt>
    <trkpt lat="49.198824" lon="19.038931"><ele>1256</ele></trkpt>
    <trkpt lat="49.198868" lon="19.038985"><ele>1253</ele></trkpt>
    <trkpt lat="49.198976" lon="19.039012"><ele>1248</ele></trkpt>
    <trkpt lat="49.198982" lon="19.039066"><ele>1247</ele></trkpt>
    <trkpt lat="49.199084" lon="19.039140"><ele>1242</ele></trkpt>
    <trkpt lat="49.199123" lon="19.039332"><ele>1237</ele></trkpt>
    <trkpt lat="49.199287" lon="19.039439"><ele>1228</ele></trkpt>
    <trkpt lat="49.199325" lon="19.039621"><ele>1223</ele></trkpt>
    <trkpt lat="49.199363" lon="19.039593"><ele>1222</ele></trkpt>
    <trkpt lat="49.199524" lon="19.039652"><ele>1213</ele></trkpt>
    <trkpt lat="49.199684" lon="19.039574"><ele>1207</ele></trkpt>
    <trkpt lat="49.199796" lon="19.039439"><ele>1204</ele></trkpt>
    <trkpt lat="49.199874" lon="19.039554"><ele>1198</ele></trkpt>
    <trkpt lat="49.199938" lon="19.039552"><ele>1195</ele></trkpt>
    <trkpt lat="49.200040" lon="19.039662"><ele>1187</ele></trkpt>
    <trkpt lat="49.200226" lon="19.039388"><ele>1178</ele></trkpt>
    <trkpt lat="49.200270" lon="19.039395"><ele>1175</ele></trkpt>
    <trkpt lat="49.200384" lon="19.039135"><ele>1171</ele></trkpt>
    <trkpt lat="49.200621" lon="19.039480"><ele>1158</ele></trkpt>
    <trkpt lat="49.200905" lon="19.039696"><ele>1141</ele></trkpt>
    <trkpt lat="49.200961" lon="19.039696"><ele>1139</ele></trkpt>
    <trkpt lat="49.201150" lon="19.039905"><ele>1126</ele></trkpt>
    <trkpt lat="49.201353" lon="19.039984"><ele>1118</ele></trkpt>
    <trkpt lat="49.201416" lon="19.039923"><ele>1118</ele></trkpt>
    <trkpt lat="49.201605" lon="19.040165"><ele>1109</ele></trkpt>
    <trkpt lat="49.201879" lon="19.040415"><ele>1093</ele></trkpt>
    <trkpt lat="49.202013" lon="19.040645"><ele>1082</ele></trkpt>
    <trkpt lat="49.202120" lon="19.040937"><ele>1073</ele></trkpt>
    <trkpt lat="49.202249" lon="19.041096"><ele>1065</ele></trkpt>
    <trkpt lat="49.202416" lon="19.041078"><ele>1055</ele></trkpt>
    <trkpt lat="49.202557" lon="19.041011"><ele>1048</ele></trkpt>
    <trkpt lat="49.202711" lon="19.040769"><ele>1043</ele></trkpt>
    <trkpt lat="49.202756" lon="19.040315"><ele>1048</ele></trkpt>
    <trkpt lat="49.202745" lon="19.039889"><ele>1043</ele></trkpt>
    <trkpt lat="49.202770" lon="19.039532"><ele>1036</ele></trkpt>
    <trkpt lat="49.202840" lon="19.039441"><ele>1031</ele></trkpt>
    <trkpt lat="49.203232" lon="19.040734"><ele>1007</ele></trkpt>
    <trkpt lat="49.203302" lon="19.040760"><ele>999</ele></trkpt>
    <trkpt lat="49.203341" lon="19.040304"><ele>1003</ele></trkpt>
    <trkpt lat="49.203390" lon="19.040192"><ele>1000</ele></trkpt>
    <trkpt lat="49.203457" lon="19.040288"><ele>997</ele></trkpt>
    <trkpt lat="49.203612" lon="19.041018"><ele>977</ele></trkpt>
    <trkpt lat="49.203641" lon="19.041031"><ele>976</ele></trkpt>
    <trkpt lat="49.203695" lon="19.040954"><ele>976</ele></trkpt>
    <trkpt lat="49.203738" lon="19.040608"><ele>981</ele></trkpt>
    <trkpt lat="49.203788" lon="19.040603"><ele>979</ele></trkpt>
    <trkpt lat="49.203846" lon="19.040690"><ele>975</ele></trkpt>
    <trkpt lat="49.203951" lon="19.040937"><ele>966</ele></trkpt>
    <trkpt lat="49.204038" lon="19.040970"><ele>961</ele></trkpt>
    <trkpt lat="49.204081" lon="19.040744"><ele>962</ele></trkpt>
    <trkpt lat="49.204054" lon="19.040112"><ele>958</ele></trkpt>
    <trkpt lat="49.203920" lon="19.039243"><ele>950</ele></trkpt>
    <trkpt lat="49.203937" lon="19.038979"><ele>946</ele></trkpt>
    <trkpt lat="49.204007" lon="19.038915"><ele>941</ele></trkpt>
    <trkpt lat="49.204336" lon="19.039598"><ele>932</ele></trkpt>
    <trkpt lat="49.204680" lon="19.040149"><ele>924</ele></trkpt>
    <trkpt lat="49.204729" lon="19.040079"><ele>920</ele></trkpt>
    <trkpt lat="49.204668" lon="19.039373"><ele>910</ele></trkpt>
    <trkpt lat="49.204687" lon="19.039292"><ele>909</ele></trkpt>
    <trkpt lat="49.204739" lon="19.039292"><ele>906</ele></trkpt>
    <trkpt lat="49.205114" lon="19.039748"><ele>897</ele></trkpt>
    <trkpt lat="49.205165" lon="19.039747"><ele>894</ele></trkpt>
    <trkpt lat="49.205213" lon="19.039678"><ele>890</ele></trkpt>
    <trkpt lat="49.205245" lon="19.039249"><ele>885</ele></trkpt>
    <trkpt lat="49.205304" lon="19.039255"><ele>882</ele></trkpt>
    <trkpt lat="49.205923" lon="19.040382"><ele>866</ele></trkpt>
    <trkpt lat="49.205993" lon="19.040451"><ele>863</ele></trkpt>
    <trkpt lat="49.206162" lon="19.040467"><ele>854</ele></trkpt>
    <trkpt lat="49.206549" lon="19.040846"><ele>844</ele></trkpt>
    <trkpt lat="49.206849" lon="19.040951"><ele>831</ele></trkpt>
    <trkpt lat="49.206977" lon="19.041077"><ele>827</ele></trkpt>
    <trkpt lat="49.207020" lon="19.041197"><ele>825</ele></trkpt>
    <trkpt lat="49.207020" lon="19.041284"><ele>824</ele></trkpt>
    <trkpt lat="49.206730" lon="19.041812"><ele>818</ele></trkpt>
    <trkpt lat="49.206667" lon="19.042246"><ele>797</ele></trkpt>
    <trkpt lat="49.206529" lon="19.042665"><ele>801</ele></trkpt>
    <trkpt lat="49.206425" lon="19.042868"><ele>812</ele></trkpt>
    <trkpt lat="49.206439" lon="19.042920"><ele>811</ele></trkpt>
    <trkpt lat="49.206487" lon="19.042951"><ele>808</ele></trkpt>
    <trkpt lat="49.206755" lon="19.042869"><ele>785</ele></trkpt>
    <trkpt lat="49.207273" lon="19.042845"><ele>759</ele></trkpt>
    <trkpt lat="49.207511" lon="19.042903"><ele>752</ele></trkpt>
    <trkpt lat="49.207782" lon="19.043068"><ele>747</ele></trkpt>
    <trkpt lat="49.208199" lon="19.043235"><ele>752</ele></trkpt>
    <trkpt lat="49.208569" lon="19.042809"><ele>749</ele></trkpt>
    <trkpt lat="49.208613" lon="19.042873"><ele>754</ele></trkpt>
  </trkseg></trk>
</gpx>
