<?xml version="1.0" encoding="UTF-8"?>
<gpx version="1.1" creator="MounTour (OpenStreetMap)" xmlns="http://www.topografix.com/GPX/1/1">
  <metadata><name>Čierna skala</name><copyright author="OpenStreetMap contributors"><license>https://opendatacommons.org/licenses/odbl/</license></copyright></metadata>
  <trk><name>Čierna skala</name><trkseg>
    <trkpt lat="48.510716" lon="17.312386"><ele>300</ele></trkpt>
    <trkpt lat="48.510509" lon="17.312318"><ele>305</ele></trkpt>
    <trkpt lat="48.509961" lon="17.312790"><ele>320</ele></trkpt>
    <trkpt lat="48.509759" lon="17.313190"><ele>326</ele></trkpt>
    <trkpt lat="48.509657" lon="17.313654"><ele>335</ele></trkpt>
    <trkpt lat="48.509351" lon="17.313996"><ele>353</ele></trkpt>
    <trkpt lat="48.509319" lon="17.314318"><ele>358</ele></trkpt>
    <trkpt lat="48.509171" lon="17.314471"><ele>366</ele></trkpt>
    <trkpt lat="48.509082" lon="17.314698"><ele>371</ele></trkpt>
    <trkpt lat="48.508833" lon="17.315486"><ele>385</ele></trkpt>
    <trkpt lat="48.508639" lon="17.315963"><ele>399</ele></trkpt>
    <trkpt lat="48.508489" lon="17.316518"><ele>411</ele></trkpt>
    <trkpt lat="48.508345" lon="17.316651"><ele>418</ele></trkpt>
    <trkpt lat="48.508350" lon="17.317017"><ele>423</ele></trkpt>
    <trkpt lat="48.508306" lon="17.317311"><ele>430</ele></trkpt>
    <trkpt lat="48.507979" lon="17.318421"><ele>459</ele></trkpt>
    <trkpt lat="48.507596" lon="17.320540"><ele>495</ele></trkpt>
    <trkpt lat="48.507435" lon="17.322021"><ele>510</ele></trkpt>
    <trkpt lat="48.507246" lon="17.322653"><ele>507</ele></trkpt>
    <trkpt lat="48.506708" lon="17.322886"><ele>504</ele></trkpt>
    <trkpt lat="48.506392" lon="17.323092"><ele>504</ele></trkpt>
    <trkpt lat="48.505943" lon="17.322975"><ele>498</ele></trkpt>
    <trkpt lat="48.505665" lon="17.323136"><ele>508</ele></trkpt>
    <trkpt lat="48.505277" lon="17.322989"><ele>512</ele></trkpt>
    <trkpt lat="48.504846" lon="17.323155"><ele>509</ele></trkpt>
    <trkpt lat="48.504326" lon="17.323506"><ele>496</ele></trkpt>
    <trkpt lat="48.504133" lon="17.323892"><ele>493</ele></trkpt>
    <trkpt lat="48.503847" lon="17.325107"><ele>488</ele></trkpt>
    <trkpt lat="48.503520" lon="17.325734"><ele>485</ele></trkpt>
    <trkpt lat="48.503144" lon="17.327247"><ele>481</ele></trkpt>
    <trkpt lat="48.502899" lon="17.327885"><ele>475</ele></trkpt>
    <trkpt lat="48.502576" lon="17.327941"><ele>479</ele></trkpt>
    <trkpt lat="48.502344" lon="17.328267"><ele>479</ele></trkpt>
    <trkpt lat="48.502302" lon="17.328713"><ele>481</ele></trkpt>
    <trkpt lat="48.501940" lon="17.329775"><ele>487</ele></trkpt>
    <trkpt lat="48.501877" lon="17.330071"><ele>490</ele></trkpt>
    <trkpt lat="48.501772" lon="17.330806"><ele>498</ele></trkpt>
    <trkpt lat="48.501812" lon="17.331063"><ele>500</ele></trkpt>
    <trkpt lat="48.501694" lon="17.331183"><ele>504</ele></trkpt>
    <trkpt lat="48.501547" lon="17.331884"><ele>512</ele></trkpt>
    <trkpt lat="48.501384" lon="17.334416"><ele>550</ele></trkpt>
    <trkpt lat="48.501205" lon="17.335273"><ele>564</ele></trkpt>
    <trkpt lat="48.500859" lon="17.335095"><ele>572</ele></trkpt>
    <trkpt lat="48.500836" lon="17.335602"><ele>576</ele></trkpt>
    <trkpt lat="48.500783" lon="17.335829"><ele>578</ele></trkpt>
    <trkpt lat="48.499846" lon="17.338738"><ele>627</ele></trkpt>
    <trkpt lat="48.499301" lon="17.340630"><ele>656</ele></trkpt>
    <trkpt lat="48.498948" lon="17.341248"><ele>654</ele></trkpt>
    <trkpt lat="48.499301" lon="17.340630"><ele>656</ele></trkpt>
    <trkpt lat="48.499846" lon="17.338738"><ele>627</ele></trkpt>
    <trkpt lat="48.500783" lon="17.335829"><ele>578</ele></trkpt>
    <trkpt lat="48.500836" lon="17.335602"><ele>576</ele></trkpt>
    <trkpt lat="48.500859" lon="17.335095"><ele>572</ele></trkpt>
    <trkpt lat="48.501205" lon="17.335273"><ele>564</ele></trkpt>
    <trkpt lat="48.501384" lon="17.334416"><ele>550</ele></trkpt>
    <trkpt lat="48.501547" lon="17.331884"><ele>512</ele></trkpt>
    <trkpt lat="48.501694" lon="17.331183"><ele>504</ele></trkpt>
    <trkpt lat="48.501812" lon="17.331063"><ele>500</ele></trkpt>
    <trkpt lat="48.501772" lon="17.330806"><ele>498</ele></trkpt>
    <trkpt lat="48.501877" lon="17.330071"><ele>490</ele></trkpt>
    <trkpt lat="48.501940" lon="17.329775"><ele>487</ele></trkpt>
    <trkpt lat="48.502302" lon="17.328713"><ele>481</ele></trkpt>
    <trkpt lat="48.502344" lon="17.328267"><ele>479</ele></trkpt>
    <trkpt lat="48.502576" lon="17.327941"><ele>479</ele></trkpt>
    <trkpt lat="48.502899" lon="17.327885"><ele>475</ele></trkpt>
    <trkpt lat="48.503144" lon="17.327247"><ele>481</ele></trkpt>
    <trkpt lat="48.503520" lon="17.325734"><ele>485</ele></trkpt>
    <trkpt lat="48.503847" lon="17.325107"><ele>488</ele></trkpt>
    <trkpt lat="48.504133" lon="17.323892"><ele>493</ele></trkpt>
    <trkpt lat="48.504326" lon="17.323506"><ele>496</ele></trkpt>
    <trkpt lat="48.504846" lon="17.323155"><ele>509</ele></trkpt>
    <trkpt lat="48.505277" lon="17.322989"><ele>512</ele></trkpt>
    <trkpt lat="48.505665" lon="17.323136"><ele>508</ele></trkpt>
    <trkpt lat="48.505943" lon="17.322975"><ele>498</ele></trkpt>
    <trkpt lat="48.506392" lon="17.323092"><ele>504</ele></trkpt>
    <trkpt lat="48.506708" lon="17.322886"><ele>504</ele></trkpt>
    <trkpt lat="48.507246" lon="17.322653"><ele>507</ele></trkpt>
    <trkpt lat="48.507435" lon="17.322021"><ele>510</ele></trkpt>
    <trkpt lat="48.507596" lon="17.320540"><ele>495</ele></trkpt>
    <trkpt lat="48.507979" lon="17.318421"><ele>459</ele></trkpt>
    <trkpt lat="48.508306" lon="17.317311"><ele>430</ele></trkpt>
    <trkpt lat="48.508350" lon="17.317017"><ele>423</ele></trkpt>
    <trkpt lat="48.508345" lon="17.316651"><ele>418</ele></trkpt>
    <trkpt lat="48.508489" lon="17.316518"><ele>411</ele></trkpt>
    <trkpt lat="48.508639" lon="17.315963"><ele>399</ele></trkpt>
    <trkpt lat="48.508833" lon="17.315486"><ele>385</ele></trkpt>
    <trkpt lat="48.509082" lon="17.314698"><ele>371</ele></trkpt>
    <trkpt lat="48.509171" lon="17.314471"><ele>366</ele></trkpt>
    <trkpt lat="48.509319" lon="17.314318"><ele>358</ele></trkpt>
    <trkpt lat="48.509351" lon="17.313996"><ele>353</ele></trkpt>
    <trkpt lat="48.509657" lon="17.313654"><ele>335</ele></trkpt>
    <trkpt lat="48.509759" lon="17.313190"><ele>326</ele></trkpt>
    <trkpt lat="48.509961" lon="17.312790"><ele>320</ele></trkpt>
    <trkpt lat="48.510509" lon="17.312318"><ele>305</ele></trkpt>
    <trkpt lat="48.510716" lon="17.312386"><ele>300</ele></trkpt>
  </trkseg></trk>
</gpx>
