<?xml version="1.0" encoding="UTF-8"?>
<gpx version="1.1" creator="MounTour (OpenStreetMap)" xmlns="http://www.topografix.com/GPX/1/1">
  <metadata><name>Čmeľok</name><copyright author="OpenStreetMap contributors"><license>https://opendatacommons.org/licenses/odbl/</license></copyright></metadata>
  <trk><name>Čmeľok</name><trkseg>
    <trkpt lat="48.350439" lon="17.189469"><ele>535</ele></trkpt>
    <trkpt lat="48.350578" lon="17.189441"><ele>540</ele></trkpt>
    <trkpt lat="48.350912" lon="17.189238"><ele>544</ele></trkpt>
    <trkpt lat="48.351277" lon="17.189128"><ele>549</ele></trkpt>
    <trkpt lat="48.351558" lon="17.188809"><ele>551</ele></trkpt>
    <trkpt lat="48.351773" lon="17.188737"><ele>552</ele></trkpt>
    <trkpt lat="48.352347" lon="17.188841"><ele>549</ele></trkpt>
    <trkpt lat="48.352567" lon="17.188936"><ele>546</ele></trkpt>
    <trkpt lat="48.353081" lon="17.189397"><ele>553</ele></trkpt>
    <trkpt lat="48.353504" lon="17.189540"><ele>554</ele></trkpt>
    <trkpt lat="48.353792" lon="17.189741"><ele>557</ele></trkpt>
    <trkpt lat="48.354076" lon="17.189799"><ele>558</ele></trkpt>
    <trkpt lat="48.354517" lon="17.189734"><ele>560</ele></trkpt>
    <trkpt lat="48.354658" lon="17.189781"><ele>560</ele></trkpt>
    <trkpt lat="48.355041" lon="17.190120"><ele>568</ele></trkpt>
    <trkpt lat="48.355567" lon="17.190810"><ele>567</ele></trkpt>
    <trkpt lat="48.356114" lon="17.191126"><ele>568</ele></trkpt>
    <trkpt lat="48.356980" lon="17.191822"><ele>570</ele></trkpt>
    <trkpt lat="48.357613" lon="17.192414"><ele>588</ele></trkpt>
    <trkpt lat="48.358586" lon="17.192849"><ele>616</ele></trkpt>
    <trkpt lat="48.358913" lon="17.193034"><ele>625</ele></trkpt>
    <trkpt lat="48.359553" lon="17.193536"><ele>636</ele></trkpt>
    <trkpt lat="48.359777" lon="17.193811"><ele>639</ele></trkpt>
    <trkpt lat="48.360313" lon="17.195011"><ele>655</ele></trkpt>
    <trkpt lat="48.360595" lon="17.195782"><ele>670</ele></trkpt>
    <trkpt lat="48.360718" lon="17.195979"><ele>674</ele></trkpt>
    <trkpt lat="48.361669" lon="17.196852"><ele>701</ele></trkpt>
    <trkpt lat="48.361741" lon="17.196954"><ele>702</ele></trkpt>
    <trkpt lat="48.362004" lon="17.197676"><ele>708</ele></trkpt>
    <trkpt lat="48.362295" lon="17.198200"><ele>712</ele></trkpt>
    <trkpt lat="48.362856" lon="17.198384"><ele>717</ele></trkpt>
    <trkpt lat="48.362295" lon="17.198200"><ele>712</ele></trkpt>
    <trkpt lat="48.362004" lon="17.197676"><ele>708</ele></trkpt>
    <trkpt lat="48.361741" lon="17.196954"><ele>702</ele></trkpt>
    <trkpt lat="48.361669" lon="17.196852"><ele>701</ele></trkpt>
    <trkpt lat="48.360718" lon="17.195979"><ele>674</ele></trkpt>
    <trkpt lat="48.360595" lon="17.195782"><ele>670</ele></trkpt>
    <trkpt lat="48.360313" lon="17.195011"><ele>655</ele></trkpt>
    <trkpt lat="48.359777" lon="17.193811"><ele>639</ele></trkpt>
    <trkpt lat="48.359553" lon="17.193536"><ele>636</ele></trkpt>
    <trkpt lat="48.358913" lon="17.193034"><ele>625</ele></trkpt>
    <trkpt lat="48.358586" lon="17.192849"><ele>616</ele></trkpt>
    <trkpt lat="48.357613" lon="17.192414"><ele>588</ele></trkpt>
    <trkpt lat="48.356980" lon="17.191822"><ele>570</ele></trkpt>
    <trkpt lat="48.356114" lon="17.191126"><ele>568</ele></trkpt>
    <trkpt lat="48.355567" lon="17.190810"><ele>567</ele></trkpt>
    <trkpt lat="48.355041" lon="17.190120"><ele>568</ele></trkpt>
    <trkpt lat="48.354658" lon="17.189781"><ele>560</ele></trkpt>
    <trkpt lat="48.354517" lon="17.189734"><ele>560</ele></trkpt>
    <trkpt lat="48.354076" lon="17.189799"><ele>558</ele></trkpt>
    <trkpt lat="48.353792" lon="17.189741"><ele>557</ele></trkpt>
    <trkpt lat="48.353504" lon="17.189540"><ele>554</ele></trkpt>
    <trkpt lat="48.353081" lon="17.189397"><ele>553</ele></trkpt>
    <trkpt lat="48.352567" lon="17.188936"><ele>546</ele></trkpt>
    <trkpt lat="48.352347" lon="17.188841"><ele>549</ele></trkpt>
    <trkpt lat="48.351773" lon="17.188737"><ele>552</ele></trkpt>
    <trkpt lat="48.351558" lon="17.188809"><ele>551</ele></trkpt>
    <trkpt lat="48.351277" lon="17.189128"><ele>549</ele></trkpt>
    <trkpt lat="48.350912" lon="17.189238"><ele>544</ele></trkpt>
    <trkpt lat="48.350578" lon="17.189441"><ele>540</ele></trkpt>
    <trkpt lat="48.350439" lon="17.189469"><ele>535</ele></trkpt>
  </trkseg></trk>
</gpx>
