<?xml version="1.0" encoding="UTF-8"?>
<gpx version="1.1" creator="MounTour (OpenStreetMap)" xmlns="http://www.topografix.com/GPX/1/1">
  <metadata><name>Devínska Kobyla z Devína</name><copyright author="OpenStreetMap contributors"><license>https://opendatacommons.org/licenses/odbl/</license></copyright></metadata>
  <trk><name>Devínska Kobyla z Devína</name><trkseg>
    <trkpt lat="48.175499" lon="16.979849"><ele>146</ele></trkpt>
    <trkpt lat="48.175539" lon="16.979965"><ele>146</ele></trkpt>
    <trkpt lat="48.175765" lon="16.979852"><ele>145</ele></trkpt>
    <trkpt lat="48.177041" lon="16.980214"><ele>142</ele></trkpt>
    <trkpt lat="48.178089" lon="16.980358"><ele>143</ele></trkpt>
    <trkpt lat="48.178182" lon="16.980425"><ele>144</ele></trkpt>
    <trkpt lat="48.178342" lon="16.981168"><ele>147</ele></trkpt>
    <trkpt lat="48.178394" lon="16.981103"><ele>147</ele></trkpt>
    <trkpt lat="48.178413" lon="16.981153"><ele>148</ele></trkpt>
    <trkpt lat="48.178755" lon="16.980837"><ele>148</ele></trkpt>
    <trkpt lat="48.179600" lon="16.980268"><ele>147</ele></trkpt>
    <trkpt lat="48.179837" lon="16.980969"><ele>152</ele></trkpt>
    <trkpt lat="48.179859" lon="16.981213"><ele>154</ele></trkpt>
    <trkpt lat="48.179839" lon="16.981577"><ele>159</ele></trkpt>
    <trkpt lat="48.179676" lon="16.982214"><ele>164</ele></trkpt>
    <trkpt lat="48.179655" lon="16.982643"><ele>168</ele></trkpt>
    <trkpt lat="48.179560" lon="16.983105"><ele>174</ele></trkpt>
    <trkpt lat="48.179426" lon="16.984367"><ele>188</ele></trkpt>
    <trkpt lat="48.179437" lon="16.984984"><ele>193</ele></trkpt>
    <trkpt lat="48.179765" lon="16.986165"><ele>207</ele></trkpt>
    <trkpt lat="48.180004" lon="16.986839"><ele>216</ele></trkpt>
    <trkpt lat="48.180033" lon="16.986992"><ele>220</ele></trkpt>
    <trkpt lat="48.179986" lon="16.987665"><ele>231</ele></trkpt>
    <trkpt lat="48.179902" lon="16.987988"><ele>239</ele></trkpt>
    <trkpt lat="48.179864" lon="16.988355"><ele>244</ele></trkpt>
    <trkpt lat="48.180420" lon="16.989713"><ele>257</ele></trkpt>
    <trkpt lat="48.180539" lon="16.989967"><ele>261</ele></trkpt>
    <trkpt lat="48.180635" lon="16.990067"><ele>264</ele></trkpt>
    <trkpt lat="48.180694" lon="16.990189"><ele>267</ele></trkpt>
    <trkpt lat="48.180688" lon="16.990290"><ele>269</ele></trkpt>
    <trkpt lat="48.180248" lon="16.990669"><ele>273</ele></trkpt>
    <trkpt lat="48.180137" lon="16.990696"><ele>274</ele></trkpt>
    <trkpt lat="48.180516" lon="16.990942"><ele>277</ele></trkpt>
    <trkpt lat="48.180600" lon="16.991076"><ele>279</ele></trkpt>
    <trkpt lat="48.180901" lon="16.991128"><ele>285</ele></trkpt>
    <trkpt lat="48.181063" lon="16.991299"><ele>288</ele></trkpt>
    <trkpt lat="48.181170" lon="16.991469"><ele>290</ele></trkpt>
    <trkpt lat="48.181322" lon="16.991850"><ele>294</ele></trkpt>
    <trkpt lat="48.181426" lon="16.992292"><ele>297</ele></trkpt>
    <trkpt lat="48.181576" lon="16.992394"><ele>301</ele></trkpt>
    <trkpt lat="48.181674" lon="16.992748"><ele>304</ele></trkpt>
    <trkpt lat="48.181740" lon="16.993243"><ele>305</ele></trkpt>
    <trkpt lat="48.181915" lon="16.993708"><ele>307</ele></trkpt>
    <trkpt lat="48.182058" lon="16.993898"><ele>312</ele></trkpt>
    <trkpt lat="48.182571" lon="16.994053"><ele>330</ele></trkpt>
    <trkpt lat="48.182780" lon="16.994170"><ele>332</ele></trkpt>
    <trkpt lat="48.182899" lon="16.994123"><ele>336</ele></trkpt>
    <trkpt lat="48.182828" lon="16.993530"><ele>342</ele></trkpt>
    <trkpt lat="48.182819" lon="16.992917"><ele>343</ele></trkpt>
    <trkpt lat="48.182958" lon="16.992325"><ele>347</ele></trkpt>
    <trkpt lat="48.183095" lon="16.991498"><ele>350</ele></trkpt>
    <trkpt lat="48.182870" lon="16.990413"><ele>354</ele></trkpt>
    <trkpt lat="48.182868" lon="16.990269"><ele>356</ele></trkpt>
    <trkpt lat="48.182961" lon="16.989981"><ele>361</ele></trkpt>
    <trkpt lat="48.183049" lon="16.989842"><ele>363</ele></trkpt>
    <trkpt lat="48.183395" lon="16.989809"><ele>370</ele></trkpt>
    <trkpt lat="48.183650" lon="16.989712"><ele>374</ele></trkpt>
    <trkpt lat="48.184763" lon="16.988536"><ele>387</ele></trkpt>
    <trkpt lat="48.184881" lon="16.988733"><ele>391</ele></trkpt>
    <trkpt lat="48.185032" lon="16.989109"><ele>398</ele></trkpt>
    <trkpt lat="48.185160" lon="16.989896"><ele>408</ele></trkpt>
    <trkpt lat="48.185212" lon="16.990690"><ele>419</ele></trkpt>
    <trkpt lat="48.185527" lon="16.992492"><ele>440</ele></trkpt>
    <trkpt lat="48.186265" lon="16.993439"><ele>458</ele></trkpt>
    <trkpt lat="48.186930" lon="16.992846"><ele>474</ele></trkpt>
    <trkpt lat="48.187034" lon="16.992826"><ele>476</ele></trkpt>
    <trkpt lat="48.187143" lon="16.992909"><ele>478</ele></trkpt>
    <trkpt lat="48.187216" lon="16.992623"><ele>481</ele></trkpt>
    <trkpt lat="48.187210" lon="16.992441"><ele>482</ele></trkpt>
    <trkpt lat="48.187300" lon="16.992683"><ele>484</ele></trkpt>
    <trkpt lat="48.187407" lon="16.992843"><ele>488</ele></trkpt>
    <trkpt lat="48.187417" lon="16.992635"><ele>489</ele></trkpt>
    <trkpt lat="48.187500" lon="16.992714"><ele>492</ele></trkpt>
    <trkpt lat="48.187510" lon="16.992465"><ele>492</ele></trkpt>
    <trkpt lat="48.187548" lon="16.992428"><ele>493</ele></trkpt>
    <trkpt lat="48.188225" lon="16.993417"><ele>506</ele></trkpt>
    <trkpt lat="48.188893" lon="16.993784"><ele>512</ele></trkpt>
    <trkpt lat="48.188923" lon="16.993888"><ele>512</ele></trkpt>
    <trkpt lat="48.188814" lon="16.993933"><ele>512</ele></trkpt>
    <trkpt lat="48.188782" lon="16.993996"><ele>512</ele></trkpt>
    <trkpt lat="48.188788" lon="16.994098"><ele>512</ele></trkpt>
    <trkpt lat="48.189001" lon="16.994350"><ele>511</ele></trkpt>
    <trkpt lat="48.188964" lon="16.994479"><ele>512</ele></trkpt>
    <trkpt lat="48.189019" lon="16.994737"><ele>513</ele></trkpt>
    <trkpt lat="48.189221" lon="16.995251"><ele>515</ele></trkpt>
    <trkpt lat="48.189396" lon="16.995515"><ele>514</ele></trkpt>
    <trkpt lat="48.189221" lon="16.995251"><ele>515</ele></trkpt>
    <trkpt lat="48.189019" lon="16.994737"><ele>513</ele></trkpt>
    <trkpt lat="48.188964" lon="16.994479"><ele>512</ele></trkpt>
    <trkpt lat="48.189001" lon="16.994350"><ele>511</ele></trkpt>
    <trkpt lat="48.188788" lon="16.994098"><ele>512</ele></trkpt>
    <trkpt lat="48.188782" lon="16.993996"><ele>512</ele></trkpt>
    <trkpt lat="48.188814" lon="16.993933"><ele>512</ele></trkpt>
    <trkpt lat="48.188923" lon="16.993888"><ele>512</ele></trkpt>
    <trkpt lat="48.188893" lon="16.993784"><ele>512</ele></trkpt>
    <trkpt lat="48.188225" lon="16.993417"><ele>506</ele></trkpt>
    <trkpt lat="48.187548" lon="16.992428"><ele>493</ele></trkpt>
    <trkpt lat="48.187510" lon="16.992465"><ele>492</ele></trkpt>
    <trkpt lat="48.187500" lon="16.992714"><ele>492</ele></trkpt>
    <trkpt lat="48.187417" lon="16.992635"><ele>489</ele></trkpt>
    <trkpt lat="48.187407" lon="16.992843"><ele>488</ele></trkpt>
    <trkpt lat="48.187300" lon="16.992683"><ele>484</ele></trkpt>
    <trkpt lat="48.187210" lon="16.992441"><ele>482</ele></trkpt>
    <trkpt lat="48.187216" lon="16.992623"><ele>481</ele></trkpt>
    <trkpt lat="48.187143" lon="16.992909"><ele>478</ele></trkpt>
    <trkpt lat="48.187034" lon="16.992826"><ele>476</ele></trkpt>
    <trkpt lat="48.186930" lon="16.992846"><ele>474</ele></trkpt>
    <trkpt lat="48.186265" lon="16.993439"><ele>458</ele></trkpt>
    <trkpt lat="48.185527" lon="16.992492"><ele>440</ele></trkpt>
    <trkpt lat="48.185212" lon="16.990690"><ele>419</ele></trkpt>
    <trkpt lat="48.185160" lon="16.989896"><ele>408</ele></trkpt>
    <trkpt lat="48.185032" lon="16.989109"><ele>398</ele></trkpt>
    <trkpt lat="48.184881" lon="16.988733"><ele>391</ele></trkpt>
    <trkpt lat="48.184763" lon="16.988536"><ele>387</ele></trkpt>
    <trkpt lat="48.183650" lon="16.989712"><ele>374</ele></trkpt>
    <trkpt lat="48.183395" lon="16.989809"><ele>370</ele></trkpt>
    <trkpt lat="48.183049" lon="16.989842"><ele>363</ele></trkpt>
    <trkpt lat="48.182961" lon="16.989981"><ele>361</ele></trkpt>
    <trkpt lat="48.182868" lon="16.990269"><ele>356</ele></trkpt>
    <trkpt lat="48.182870" lon="16.990413"><ele>354</ele></trkpt>
    <trkpt lat="48.183095" lon="16.991498"><ele>350</ele></trkpt>
    <trkpt lat="48.182958" lon="16.992325"><ele>347</ele></trkpt>
    <trkpt lat="48.182819" lon="16.992917"><ele>343</ele></trkpt>
    <trkpt lat="48.182828" lon="16.993530"><ele>342</ele></trkpt>
    <trkpt lat="48.182899" lon="16.994123"><ele>336</ele></trkpt>
    <trkpt lat="48.182780" lon="16.994170"><ele>332</ele></trkpt>
    <trkpt lat="48.182571" lon="16.994053"><ele>330</ele></trkpt>
    <trkpt lat="48.182058" lon="16.993898"><ele>312</ele></trkpt>
    <trkpt lat="48.181915" lon="16.993708"><ele>307</ele></trkpt>
    <trkpt lat="48.181740" lon="16.993243"><ele>305</ele></trkpt>
    <trkpt lat="48.181674" lon="16.992748"><ele>304</ele></trkpt>
    <trkpt lat="48.181576" lon="16.992394"><ele>301</ele></trkpt>
    <trkpt lat="48.181426" lon="16.992292"><ele>297</ele></trkpt>
    <trkpt lat="48.181322" lon="16.991850"><ele>294</ele></trkpt>
    <trkpt lat="48.181170" lon="16.991469"><ele>290</ele></trkpt>
    <trkpt lat="48.181063" lon="16.991299"><ele>288</ele></trkpt>
    <trkpt lat="48.180901" lon="16.991128"><ele>285</ele></trkpt>
    <trkpt lat="48.180600" lon="16.991076"><ele>279</ele></trkpt>
    <trkpt lat="48.180516" lon="16.990942"><ele>277</ele></trkpt>
    <trkpt lat="48.180137" lon="16.990696"><ele>274</ele></trkpt>
    <trkpt lat="48.180248" lon="16.990669"><ele>273</ele></trkpt>
    <trkpt lat="48.180688" lon="16.990290"><ele>269</ele></trkpt>
    <trkpt lat="48.180694" lon="16.990189"><ele>267</ele></trkpt>
    <trkpt lat="48.180635" lon="16.990067"><ele>264</ele></trkpt>
    <trkpt lat="48.180539" lon="16.989967"><ele>261</ele></trkpt>
    <trkpt lat="48.180420" lon="16.989713"><ele>257</ele></trkpt>
    <trkpt lat="48.179864" lon="16.988355"><ele>244</ele></trkpt>
    <trkpt lat="48.179902" lon="16.987988"><ele>239</ele></trkpt>
    <trkpt lat="48.179986" lon="16.987665"><ele>231</ele></trkpt>
    <trkpt lat="48.180033" lon="16.986992"><ele>220</ele></trkpt>
    <trkpt lat="48.180004" lon="16.986839"><ele>216</ele></trkpt>
    <trkpt lat="48.179765" lon="16.986165"><ele>207</ele></trkpt>
    <trkpt lat="48.179437" lon="16.984984"><ele>193</ele></trkpt>
    <trkpt lat="48.179426" lon="16.984367"><ele>188</ele></trkpt>
    <trkpt lat="48.179560" lon="16.983105"><ele>174</ele></trkpt>
    <trkpt lat="48.179655" lon="16.982643"><ele>168</ele></trkpt>
    <trkpt lat="48.179676" lon="16.982214"><ele>164</ele></trkpt>
    <trkpt lat="48.179839" lon="16.981577"><ele>159</ele></trkpt>
    <trkpt lat="48.179859" lon="16.981213"><ele>154</ele></trkpt>
    <trkpt lat="48.179837" lon="16.980969"><ele>152</ele></trkpt>
    <trkpt lat="48.179600" lon="16.980268"><ele>147</ele></trkpt>
    <trkpt lat="48.178755" lon="16.980837"><ele>148</ele></trkpt>
    <trkpt lat="48.178413" lon="16.981153"><ele>148</ele></trkpt>
    <trkpt lat="48.178394" lon="16.981103"><ele>147</ele></trkpt>
    <trkpt lat="48.178342" lon="16.981168"><ele>147</ele></trkpt>
    <trkpt lat="48.178182" lon="16.980425"><ele>144</ele></trkpt>
    <trkpt lat="48.178089" lon="16.980358"><ele>143</ele></trkpt>
    <trkpt lat="48.177041" lon="16.980214"><ele>142</ele></trkpt>
    <trkpt lat="48.175765" lon="16.979852"><ele>145</ele></trkpt>
    <trkpt lat="48.175539" lon="16.979965"><ele>146</ele></trkpt>
    <trkpt lat="48.175499" lon="16.979849"><ele>146</ele></trkpt>
  </trkseg></trk>
</gpx>
