<?xml version="1.0" encoding="UTF-8"?>
<gpx version="1.1" creator="MounTour (OpenStreetMap)" xmlns="http://www.topografix.com/GPX/1/1">
  <metadata><name>Gačovská skala</name><copyright author="OpenStreetMap contributors"><license>https://opendatacommons.org/licenses/odbl/</license></copyright></metadata>
  <trk><name>Gačovská skala</name><trkseg>
    <trkpt lat="48.866492" lon="20.381317"><ele>789</ele></trkpt>
    <trkpt lat="48.866548" lon="20.381235"><ele>788</ele></trkpt>
    <trkpt lat="48.866678" lon="20.380502"><ele>787</ele></trkpt>
    <trkpt lat="48.866817" lon="20.379914"><ele>790</ele></trkpt>
    <trkpt lat="48.866944" lon="20.379635"><ele>794</ele></trkpt>
    <trkpt lat="48.867353" lon="20.379269"><ele>798</ele></trkpt>
    <trkpt lat="48.867775" lon="20.378711"><ele>805</ele></trkpt>
    <trkpt lat="48.867898" lon="20.378660"><ele>805</ele></trkpt>
    <trkpt lat="48.868158" lon="20.378237"><ele>810</ele></trkpt>
    <trkpt lat="48.868491" lon="20.377992"><ele>813</ele></trkpt>
    <trkpt lat="48.868491" lon="20.377879"><ele>814</ele></trkpt>
    <trkpt lat="48.868326" lon="20.377188"><ele>819</ele></trkpt>
    <trkpt lat="48.868319" lon="20.377058"><ele>821</ele></trkpt>
    <trkpt lat="48.868394" lon="20.376802"><ele>826</ele></trkpt>
    <trkpt lat="48.868686" lon="20.376576"><ele>830</ele></trkpt>
    <trkpt lat="48.869125" lon="20.376529"><ele>844</ele></trkpt>
    <trkpt lat="48.869155" lon="20.376476"><ele>847</ele></trkpt>
    <trkpt lat="48.869123" lon="20.376287"><ele>853</ele></trkpt>
    <trkpt lat="48.868852" lon="20.375723"><ele>853</ele></trkpt>
    <trkpt lat="48.868899" lon="20.375439"><ele>865</ele></trkpt>
    <trkpt lat="48.868876" lon="20.375354"><ele>868</ele></trkpt>
    <trkpt lat="48.868659" lon="20.374935"><ele>883</ele></trkpt>
    <trkpt lat="48.868469" lon="20.374675"><ele>894</ele></trkpt>
    <trkpt lat="48.868508" lon="20.374636"><ele>895</ele></trkpt>
    <trkpt lat="48.869690" lon="20.374398"><ele>921</ele></trkpt>
    <trkpt lat="48.869471" lon="20.374059"><ele>932</ele></trkpt>
    <trkpt lat="48.869850" lon="20.373965"><ele>940</ele></trkpt>
    <trkpt lat="48.869515" lon="20.373719"><ele>945</ele></trkpt>
    <trkpt lat="48.869862" lon="20.373547"><ele>957</ele></trkpt>
    <trkpt lat="48.869506" lon="20.373361"><ele>954</ele></trkpt>
    <trkpt lat="48.869780" lon="20.373176"><ele>970</ele></trkpt>
    <trkpt lat="48.870054" lon="20.373067"><ele>982</ele></trkpt>
    <trkpt lat="48.869611" lon="20.372783"><ele>984</ele></trkpt>
    <trkpt lat="48.869806" lon="20.372755"><ele>992</ele></trkpt>
    <trkpt lat="48.869043" lon="20.372102"><ele>998</ele></trkpt>
    <trkpt lat="48.869586" lon="20.371914"><ele>1005</ele></trkpt>
    <trkpt lat="48.869934" lon="20.371910"><ele>1013</ele></trkpt>
    <trkpt lat="48.870215" lon="20.371958"><ele>1022</ele></trkpt>
    <trkpt lat="48.870516" lon="20.372169"><ele>1032</ele></trkpt>
    <trkpt lat="48.870853" lon="20.372281"><ele>1044</ele></trkpt>
    <trkpt lat="48.871523" lon="20.372291"><ele>1060</ele></trkpt>
    <trkpt lat="48.871792" lon="20.372574"><ele>1060</ele></trkpt>
    <trkpt lat="48.871973" lon="20.372681"><ele>1058</ele></trkpt>
    <trkpt lat="48.872072" lon="20.372826"><ele>1056</ele></trkpt>
    <trkpt lat="48.872307" lon="20.373464"><ele>1060</ele></trkpt>
    <trkpt lat="48.872621" lon="20.373891"><ele>1069</ele></trkpt>
    <trkpt lat="48.873072" lon="20.374668"><ele>1072</ele></trkpt>
    <trkpt lat="48.873071" lon="20.374895"><ele>1070</ele></trkpt>
    <trkpt lat="48.873330" lon="20.375210"><ele>1073</ele></trkpt>
    <trkpt lat="48.873442" lon="20.375276"><ele>1076</ele></trkpt>
    <trkpt lat="48.873653" lon="20.375508"><ele>1077</ele></trkpt>
    <trkpt lat="48.873850" lon="20.376066"><ele>1082</ele></trkpt>
    <trkpt lat="48.874003" lon="20.376814"><ele>1095</ele></trkpt>
    <trkpt lat="48.873937" lon="20.377052"><ele>1093</ele></trkpt>
    <trkpt lat="48.873952" lon="20.377331"><ele>1095</ele></trkpt>
    <trkpt lat="48.873927" lon="20.377760"><ele>1096</ele></trkpt>
    <trkpt lat="48.873967" lon="20.378185"><ele>1106</ele></trkpt>
    <trkpt lat="48.874112" lon="20.378582"><ele>1108</ele></trkpt>
    <trkpt lat="48.873967" lon="20.378185"><ele>1106</ele></trkpt>
    <trkpt lat="48.873927" lon="20.377760"><ele>1096</ele></trkpt>
    <trkpt lat="48.873952" lon="20.377331"><ele>1095</ele></trkpt>
    <trkpt lat="48.873937" lon="20.377052"><ele>1093</ele></trkpt>
    <trkpt lat="48.874003" lon="20.376814"><ele>1095</ele></trkpt>
    <trkpt lat="48.873850" lon="20.376066"><ele>1082</ele></trkpt>
    <trkpt lat="48.873720" lon="20.375672"><ele>1077</ele></trkpt>
    <trkpt lat="48.873653" lon="20.375508"><ele>1077</ele></trkpt>
    <trkpt lat="48.873442" lon="20.375276"><ele>1076</ele></trkpt>
    <trkpt lat="48.873330" lon="20.375210"><ele>1073</ele></trkpt>
    <trkpt lat="48.873071" lon="20.374895"><ele>1070</ele></trkpt>
    <trkpt lat="48.873072" lon="20.374668"><ele>1072</ele></trkpt>
    <trkpt lat="48.872621" lon="20.373891"><ele>1069</ele></trkpt>
    <trkpt lat="48.872307" lon="20.373464"><ele>1060</ele></trkpt>
    <trkpt lat="48.872072" lon="20.372826"><ele>1056</ele></trkpt>
    <trkpt lat="48.871973" lon="20.372681"><ele>1058</ele></trkpt>
    <trkpt lat="48.871792" lon="20.372574"><ele>1060</ele></trkpt>
    <trkpt lat="48.871523" lon="20.372291"><ele>1060</ele></trkpt>
    <trkpt lat="48.870853" lon="20.372281"><ele>1044</ele></trkpt>
    <trkpt lat="48.870516" lon="20.372169"><ele>1032</ele></trkpt>
    <trkpt lat="48.870215" lon="20.371958"><ele>1022</ele></trkpt>
    <trkpt lat="48.869934" lon="20.371910"><ele>1013</ele></trkpt>
    <trkpt lat="48.869586" lon="20.371914"><ele>1005</ele></trkpt>
    <trkpt lat="48.869043" lon="20.372102"><ele>998</ele></trkpt>
    <trkpt lat="48.869806" lon="20.372755"><ele>992</ele></trkpt>
    <trkpt lat="48.869611" lon="20.372783"><ele>984</ele></trkpt>
    <trkpt lat="48.870054" lon="20.373067"><ele>982</ele></trkpt>
    <trkpt lat="48.869780" lon="20.373176"><ele>970</ele></trkpt>
    <trkpt lat="48.869506" lon="20.373361"><ele>954</ele></trkpt>
    <trkpt lat="48.869862" lon="20.373547"><ele>957</ele></trkpt>
    <trkpt lat="48.869515" lon="20.373719"><ele>945</ele></trkpt>
    <trkpt lat="48.869850" lon="20.373965"><ele>940</ele></trkpt>
    <trkpt lat="48.869471" lon="20.374059"><ele>932</ele></trkpt>
    <trkpt lat="48.869690" lon="20.374398"><ele>921</ele></trkpt>
    <trkpt lat="48.868508" lon="20.374636"><ele>895</ele></trkpt>
    <trkpt lat="48.868469" lon="20.374675"><ele>894</ele></trkpt>
    <trkpt lat="48.868659" lon="20.374935"><ele>883</ele></trkpt>
    <trkpt lat="48.868876" lon="20.375354"><ele>868</ele></trkpt>
    <trkpt lat="48.868899" lon="20.375439"><ele>865</ele></trkpt>
    <trkpt lat="48.868852" lon="20.375723"><ele>853</ele></trkpt>
    <trkpt lat="48.869123" lon="20.376287"><ele>853</ele></trkpt>
    <trkpt lat="48.869155" lon="20.376476"><ele>847</ele></trkpt>
    <trkpt lat="48.869125" lon="20.376529"><ele>844</ele></trkpt>
    <trkpt lat="48.868686" lon="20.376576"><ele>830</ele></trkpt>
    <trkpt lat="48.868394" lon="20.376802"><ele>826</ele></trkpt>
    <trkpt lat="48.868319" lon="20.377058"><ele>821</ele></trkpt>
    <trkpt lat="48.868326" lon="20.377188"><ele>819</ele></trkpt>
    <trkpt lat="48.868491" lon="20.377879"><ele>814</ele></trkpt>
    <trkpt lat="48.868491" lon="20.377992"><ele>813</ele></trkpt>
    <trkpt lat="48.868158" lon="20.378237"><ele>810</ele></trkpt>
    <trkpt lat="48.867898" lon="20.378660"><ele>805</ele></trkpt>
    <trkpt lat="48.867775" lon="20.378711"><ele>805</ele></trkpt>
    <trkpt lat="48.867353" lon="20.379269"><ele>798</ele></trkpt>
    <trkpt lat="48.866944" lon="20.379635"><ele>794</ele></trkpt>
    <trkpt lat="48.866817" lon="20.379914"><ele>790</ele></trkpt>
    <trkpt lat="48.866678" lon="20.380502"><ele>787</ele></trkpt>
    <trkpt lat="48.866548" lon="20.381235"><ele>788</ele></trkpt>
    <trkpt lat="48.866492" lon="20.381317"><ele>789</ele></trkpt>
  </trkseg></trk>
</gpx>
