<?xml version="1.0" encoding="UTF-8"?>
<gpx version="1.1" creator="MounTour (OpenStreetMap)" xmlns="http://www.topografix.com/GPX/1/1">
  <metadata><name>Havranica</name><copyright author="OpenStreetMap contributors"><license>https://opendatacommons.org/licenses/odbl/</license></copyright></metadata>
  <trk><name>Havranica</name><trkseg>
    <trkpt lat="48.514634" lon="17.430347"><ele>291</ele></trkpt>
    <trkpt lat="48.515037" lon="17.430198"><ele>300</ele></trkpt>
    <trkpt lat="48.515135" lon="17.430092"><ele>301</ele></trkpt>
    <trkpt lat="48.515176" lon="17.429969"><ele>303</ele></trkpt>
    <trkpt lat="48.515193" lon="17.429469"><ele>307</ele></trkpt>
    <trkpt lat="48.515265" lon="17.428741"><ele>311</ele></trkpt>
    <trkpt lat="48.515335" lon="17.428385"><ele>316</ele></trkpt>
    <trkpt lat="48.515485" lon="17.428000"><ele>323</ele></trkpt>
    <trkpt lat="48.515549" lon="17.427062"><ele>335</ele></trkpt>
    <trkpt lat="48.515704" lon="17.426125"><ele>346</ele></trkpt>
    <trkpt lat="48.515668" lon="17.425324"><ele>354</ele></trkpt>
    <trkpt lat="48.515706" lon="17.424866"><ele>357</ele></trkpt>
    <trkpt lat="48.516057" lon="17.424518"><ele>365</ele></trkpt>
    <trkpt lat="48.516485" lon="17.423947"><ele>372</ele></trkpt>
    <trkpt lat="48.516623" lon="17.423330"><ele>375</ele></trkpt>
    <trkpt lat="48.516813" lon="17.422802"><ele>379</ele></trkpt>
    <trkpt lat="48.517430" lon="17.421471"><ele>393</ele></trkpt>
    <trkpt lat="48.517615" lon="17.421004"><ele>400</ele></trkpt>
    <trkpt lat="48.518052" lon="17.420285"><ele>412</ele></trkpt>
    <trkpt lat="48.518091" lon="17.420135"><ele>414</ele></trkpt>
    <trkpt lat="48.518143" lon="17.419559"><ele>420</ele></trkpt>
    <trkpt lat="48.518173" lon="17.419445"><ele>421</ele></trkpt>
    <trkpt lat="48.518239" lon="17.419352"><ele>422</ele></trkpt>
    <trkpt lat="48.518978" lon="17.418556"><ele>437</ele></trkpt>
    <trkpt lat="48.519058" lon="17.418531"><ele>439</ele></trkpt>
    <trkpt lat="48.519240" lon="17.418586"><ele>442</ele></trkpt>
    <trkpt lat="48.519436" lon="17.418729"><ele>445</ele></trkpt>
    <trkpt lat="48.519971" lon="17.418654"><ele>458</ele></trkpt>
    <trkpt lat="48.520577" lon="17.418425"><ele>478</ele></trkpt>
    <trkpt lat="48.520883" lon="17.418503"><ele>486</ele></trkpt>
    <trkpt lat="48.521404" lon="17.418374"><ele>496</ele></trkpt>
    <trkpt lat="48.521617" lon="17.418190"><ele>498</ele></trkpt>
    <trkpt lat="48.521713" lon="17.417852"><ele>503</ele></trkpt>
    <trkpt lat="48.521795" lon="17.417850"><ele>503</ele></trkpt>
    <trkpt lat="48.521903" lon="17.417745"><ele>505</ele></trkpt>
    <trkpt lat="48.522172" lon="17.417302"><ele>512</ele></trkpt>
    <trkpt lat="48.522393" lon="17.417102"><ele>518</ele></trkpt>
    <trkpt lat="48.522706" lon="17.417022"><ele>524</ele></trkpt>
    <trkpt lat="48.522875" lon="17.416881"><ele>531</ele></trkpt>
    <trkpt lat="48.522919" lon="17.416818"><ele>534</ele></trkpt>
    <trkpt lat="48.523080" lon="17.416299"><ele>547</ele></trkpt>
    <trkpt lat="48.523181" lon="17.416134"><ele>552</ele></trkpt>
    <trkpt lat="48.523508" lon="17.415902"><ele>558</ele></trkpt>
    <trkpt lat="48.523658" lon="17.415701"><ele>563</ele></trkpt>
    <trkpt lat="48.523755" lon="17.415644"><ele>565</ele></trkpt>
    <trkpt lat="48.523957" lon="17.415592"><ele>570</ele></trkpt>
    <trkpt lat="48.524213" lon="17.415607"><ele>577</ele></trkpt>
    <trkpt lat="48.524628" lon="17.415923"><ele>585</ele></trkpt>
    <trkpt lat="48.524842" lon="17.416187"><ele>588</ele></trkpt>
    <trkpt lat="48.525164" lon="17.415927"><ele>602</ele></trkpt>
    <trkpt lat="48.525459" lon="17.415867"><ele>612</ele></trkpt>
    <trkpt lat="48.525650" lon="17.415782"><ele>615</ele></trkpt>
    <trkpt lat="48.525757" lon="17.415274"><ele>618</ele></trkpt>
    <trkpt lat="48.525694" lon="17.415074"><ele>621</ele></trkpt>
    <trkpt lat="48.525660" lon="17.414216"><ele>629</ele></trkpt>
    <trkpt lat="48.525756" lon="17.413760"><ele>631</ele></trkpt>
    <trkpt lat="48.525675" lon="17.413636"><ele>635</ele></trkpt>
    <trkpt lat="48.525621" lon="17.413450"><ele>638</ele></trkpt>
    <trkpt lat="48.525619" lon="17.413276"><ele>640</ele></trkpt>
    <trkpt lat="48.525461" lon="17.412979"><ele>647</ele></trkpt>
    <trkpt lat="48.525447" lon="17.412757"><ele>651</ele></trkpt>
    <trkpt lat="48.525406" lon="17.412608"><ele>656</ele></trkpt>
    <trkpt lat="48.525364" lon="17.412561"><ele>658</ele></trkpt>
    <trkpt lat="48.525393" lon="17.412080"><ele>667</ele></trkpt>
    <trkpt lat="48.525335" lon="17.411880"><ele>674</ele></trkpt>
    <trkpt lat="48.525322" lon="17.411690"><ele>678</ele></trkpt>
    <trkpt lat="48.525209" lon="17.411549"><ele>682</ele></trkpt>
    <trkpt lat="48.525120" lon="17.411250"><ele>687</ele></trkpt>
    <trkpt lat="48.524917" lon="17.411077"><ele>692</ele></trkpt>
    <trkpt lat="48.524838" lon="17.410848"><ele>695</ele></trkpt>
    <trkpt lat="48.524818" lon="17.410691"><ele>696</ele></trkpt>
    <trkpt lat="48.524599" lon="17.410332"><ele>698</ele></trkpt>
    <trkpt lat="48.524608" lon="17.410238"><ele>700</ele></trkpt>
    <trkpt lat="48.524639" lon="17.410200"><ele>701</ele></trkpt>
    <trkpt lat="48.524839" lon="17.410114"><ele>704</ele></trkpt>
    <trkpt lat="48.524732" lon="17.409809"><ele>710</ele></trkpt>
    <trkpt lat="48.524727" lon="17.409650"><ele>711</ele></trkpt>
    <trkpt lat="48.524655" lon="17.409403"><ele>713</ele></trkpt>
    <trkpt lat="48.524625" lon="17.409141"><ele>717</ele></trkpt>
    <trkpt lat="48.524526" lon="17.408950"><ele>718</ele></trkpt>
    <trkpt lat="48.524653" lon="17.408528"><ele>725</ele></trkpt>
    <trkpt lat="48.524684" lon="17.408145"><ele>727</ele></trkpt>
    <trkpt lat="48.524777" lon="17.407973"><ele>728</ele></trkpt>
    <trkpt lat="48.524809" lon="17.407512"><ele>729</ele></trkpt>
    <trkpt lat="48.524739" lon="17.407225"><ele>731</ele></trkpt>
    <trkpt lat="48.524752" lon="17.406954"><ele>731</ele></trkpt>
    <trkpt lat="48.524739" lon="17.407225"><ele>731</ele></trkpt>
    <trkpt lat="48.524809" lon="17.407512"><ele>729</ele></trkpt>
    <trkpt lat="48.524777" lon="17.407973"><ele>728</ele></trkpt>
    <trkpt lat="48.524684" lon="17.408145"><ele>727</ele></trkpt>
    <trkpt lat="48.524653" lon="17.408528"><ele>725</ele></trkpt>
    <trkpt lat="48.524526" lon="17.408950"><ele>718</ele></trkpt>
    <trkpt lat="48.524625" lon="17.409141"><ele>717</ele></trkpt>
    <trkpt lat="48.524655" lon="17.409403"><ele>713</ele></trkpt>
    <trkpt lat="48.524727" lon="17.409650"><ele>711</ele></trkpt>
    <trkpt lat="48.524732" lon="17.409809"><ele>710</ele></trkpt>
    <trkpt lat="48.524839" lon="17.410114"><ele>704</ele></trkpt>
    <trkpt lat="48.524639" lon="17.410200"><ele>701</ele></trkpt>
    <trkpt lat="48.524608" lon="17.410238"><ele>700</ele></trkpt>
    <trkpt lat="48.524599" lon="17.410332"><ele>698</ele></trkpt>
    <trkpt lat="48.524818" lon="17.410691"><ele>696</ele></trkpt>
    <trkpt lat="48.524838" lon="17.410848"><ele>695</ele></trkpt>
    <trkpt lat="48.524917" lon="17.411077"><ele>692</ele></trkpt>
    <trkpt lat="48.525120" lon="17.411250"><ele>687</ele></trkpt>
    <trkpt lat="48.525209" lon="17.411549"><ele>682</ele></trkpt>
    <trkpt lat="48.525322" lon="17.411690"><ele>678</ele></trkpt>
    <trkpt lat="48.525335" lon="17.411880"><ele>674</ele></trkpt>
    <trkpt lat="48.525393" lon="17.412080"><ele>667</ele></trkpt>
    <trkpt lat="48.525364" lon="17.412561"><ele>658</ele></trkpt>
    <trkpt lat="48.525406" lon="17.412608"><ele>656</ele></trkpt>
    <trkpt lat="48.525447" lon="17.412757"><ele>651</ele></trkpt>
    <trkpt lat="48.525461" lon="17.412979"><ele>647</ele></trkpt>
    <trkpt lat="48.525619" lon="17.413276"><ele>640</ele></trkpt>
    <trkpt lat="48.525621" lon="17.413450"><ele>638</ele></trkpt>
    <trkpt lat="48.525675" lon="17.413636"><ele>635</ele></trkpt>
    <trkpt lat="48.525756" lon="17.413760"><ele>631</ele></trkpt>
    <trkpt lat="48.525660" lon="17.414216"><ele>629</ele></trkpt>
    <trkpt lat="48.525694" lon="17.415074"><ele>621</ele></trkpt>
    <trkpt lat="48.525757" lon="17.415274"><ele>618</ele></trkpt>
    <trkpt lat="48.525650" lon="17.415782"><ele>615</ele></trkpt>
    <trkpt lat="48.525459" lon="17.415867"><ele>612</ele></trkpt>
    <trkpt lat="48.525164" lon="17.415927"><ele>602</ele></trkpt>
    <trkpt lat="48.524842" lon="17.416187"><ele>588</ele></trkpt>
    <trkpt lat="48.524628" lon="17.415923"><ele>585</ele></trkpt>
    <trkpt lat="48.524213" lon="17.415607"><ele>577</ele></trkpt>
    <trkpt lat="48.523957" lon="17.415592"><ele>570</ele></trkpt>
    <trkpt lat="48.523755" lon="17.415644"><ele>565</ele></trkpt>
    <trkpt lat="48.523658" lon="17.415701"><ele>563</ele></trkpt>
    <trkpt lat="48.523508" lon="17.415902"><ele>558</ele></trkpt>
    <trkpt lat="48.523181" lon="17.416134"><ele>552</ele></trkpt>
    <trkpt lat="48.523080" lon="17.416299"><ele>547</ele></trkpt>
    <trkpt lat="48.522919" lon="17.416818"><ele>534</ele></trkpt>
    <trkpt lat="48.522875" lon="17.416881"><ele>531</ele></trkpt>
    <trkpt lat="48.522706" lon="17.417022"><ele>524</ele></trkpt>
    <trkpt lat="48.522393" lon="17.417102"><ele>518</ele></trkpt>
    <trkpt lat="48.522172" lon="17.417302"><ele>512</ele></trkpt>
    <trkpt lat="48.521903" lon="17.417745"><ele>505</ele></trkpt>
    <trkpt lat="48.521795" lon="17.417850"><ele>503</ele></trkpt>
    <trkpt lat="48.521713" lon="17.417852"><ele>503</ele></trkpt>
    <trkpt lat="48.521617" lon="17.418190"><ele>498</ele></trkpt>
    <trkpt lat="48.521404" lon="17.418374"><ele>496</ele></trkpt>
    <trkpt lat="48.520883" lon="17.418503"><ele>486</ele></trkpt>
    <trkpt lat="48.520577" lon="17.418425"><ele>478</ele></trkpt>
    <trkpt lat="48.519971" lon="17.418654"><ele>458</ele></trkpt>
    <trkpt lat="48.519436" lon="17.418729"><ele>445</ele></trkpt>
    <trkpt lat="48.519240" lon="17.418586"><ele>442</ele></trkpt>
    <trkpt lat="48.519058" lon="17.418531"><ele>439</ele></trkpt>
    <trkpt lat="48.518978" lon="17.418556"><ele>437</ele></trkpt>
    <trkpt lat="48.518239" lon="17.419352"><ele>422</ele></trkpt>
    <trkpt lat="48.518173" lon="17.419445"><ele>421</ele></trkpt>
    <trkpt lat="48.518143" lon="17.419559"><ele>420</ele></trkpt>
    <trkpt lat="48.518091" lon="17.420135"><ele>414</ele></trkpt>
    <trkpt lat="48.518052" lon="17.420285"><ele>412</ele></trkpt>
    <trkpt lat="48.517615" lon="17.421004"><ele>400</ele></trkpt>
    <trkpt lat="48.517430" lon="17.421471"><ele>393</ele></trkpt>
    <trkpt lat="48.516813" lon="17.422802"><ele>379</ele></trkpt>
    <trkpt lat="48.516623" lon="17.423330"><ele>375</ele></trkpt>
    <trkpt lat="48.516485" lon="17.423947"><ele>372</ele></trkpt>
    <trkpt lat="48.516057" lon="17.424518"><ele>365</ele></trkpt>
    <trkpt lat="48.515706" lon="17.424866"><ele>357</ele></trkpt>
    <trkpt lat="48.515668" lon="17.425324"><ele>354</ele></trkpt>
    <trkpt lat="48.515704" lon="17.426125"><ele>346</ele></trkpt>
    <trkpt lat="48.515549" lon="17.427062"><ele>335</ele></trkpt>
    <trkpt lat="48.515485" lon="17.428000"><ele>323</ele></trkpt>
    <trkpt lat="48.515335" lon="17.428385"><ele>316</ele></trkpt>
    <trkpt lat="48.515265" lon="17.428741"><ele>311</ele></trkpt>
    <trkpt lat="48.515193" lon="17.429469"><ele>307</ele></trkpt>
    <trkpt lat="48.515176" lon="17.429969"><ele>303</ele></trkpt>
    <trkpt lat="48.515135" lon="17.430092"><ele>301</ele></trkpt>
    <trkpt lat="48.515037" lon="17.430198"><ele>300</ele></trkpt>
    <trkpt lat="48.514634" lon="17.430347"><ele>291</ele></trkpt>
  </trkseg></trk>
</gpx>
