<?xml version="1.0" encoding="UTF-8"?>
<gpx version="1.1" creator="MounTour (OpenStreetMap)" xmlns="http://www.topografix.com/GPX/1/1">
  <metadata><name>Havrania skala</name><copyright author="OpenStreetMap contributors"><license>https://opendatacommons.org/licenses/odbl/</license></copyright></metadata>
  <trk><name>Havrania skala</name><trkseg>
    <trkpt lat="48.875946" lon="20.328079"><ele>822</ele></trkpt>
    <trkpt lat="48.875965" lon="20.328215"><ele>824</ele></trkpt>
    <trkpt lat="48.875929" lon="20.328483"><ele>827</ele></trkpt>
    <trkpt lat="48.876139" lon="20.328527"><ele>832</ele></trkpt>
    <trkpt lat="48.876267" lon="20.328674"><ele>838</ele></trkpt>
    <trkpt lat="48.876414" lon="20.328958"><ele>846</ele></trkpt>
    <trkpt lat="48.876421" lon="20.329071"><ele>849</ele></trkpt>
    <trkpt lat="48.876396" lon="20.329124"><ele>850</ele></trkpt>
    <trkpt lat="48.876451" lon="20.329172"><ele>853</ele></trkpt>
    <trkpt lat="48.876444" lon="20.329285"><ele>857</ele></trkpt>
    <trkpt lat="48.876546" lon="20.329229"><ele>856</ele></trkpt>
    <trkpt lat="48.876653" lon="20.329272"><ele>857</ele></trkpt>
    <trkpt lat="48.876690" lon="20.329214"><ele>857</ele></trkpt>
    <trkpt lat="48.876746" lon="20.329206"><ele>860</ele></trkpt>
    <trkpt lat="48.876836" lon="20.329389"><ele>865</ele></trkpt>
    <trkpt lat="48.877297" lon="20.330011"><ele>878</ele></trkpt>
    <trkpt lat="48.877518" lon="20.330155"><ele>877</ele></trkpt>
    <trkpt lat="48.877586" lon="20.330152"><ele>878</ele></trkpt>
    <trkpt lat="48.877809" lon="20.330419"><ele>882</ele></trkpt>
    <trkpt lat="48.877918" lon="20.330432"><ele>885</ele></trkpt>
    <trkpt lat="48.878479" lon="20.330752"><ele>900</ele></trkpt>
    <trkpt lat="48.878970" lon="20.331268"><ele>921</ele></trkpt>
    <trkpt lat="48.878984" lon="20.331430"><ele>924</ele></trkpt>
    <trkpt lat="48.878897" lon="20.331569"><ele>927</ele></trkpt>
    <trkpt lat="48.878865" lon="20.331662"><ele>929</ele></trkpt>
    <trkpt lat="48.878886" lon="20.331679"><ele>930</ele></trkpt>
    <trkpt lat="48.879103" lon="20.331775"><ele>938</ele></trkpt>
    <trkpt lat="48.879370" lon="20.331755"><ele>942</ele></trkpt>
    <trkpt lat="48.879435" lon="20.331797"><ele>945</ele></trkpt>
    <trkpt lat="48.879542" lon="20.331767"><ele>947</ele></trkpt>
    <trkpt lat="48.879739" lon="20.331821"><ele>953</ele></trkpt>
    <trkpt lat="48.880031" lon="20.331766"><ele>960</ele></trkpt>
    <trkpt lat="48.880184" lon="20.331823"><ele>965</ele></trkpt>
    <trkpt lat="48.880288" lon="20.331804"><ele>969</ele></trkpt>
    <trkpt lat="48.880314" lon="20.331992"><ele>968</ele></trkpt>
    <trkpt lat="48.880409" lon="20.332166"><ele>972</ele></trkpt>
    <trkpt lat="48.880490" lon="20.332151"><ele>975</ele></trkpt>
    <trkpt lat="48.880700" lon="20.332287"><ele>985</ele></trkpt>
    <trkpt lat="48.880762" lon="20.332098"><ele>989</ele></trkpt>
    <trkpt lat="48.880710" lon="20.331952"><ele>987</ele></trkpt>
    <trkpt lat="48.880694" lon="20.331755"><ele>989</ele></trkpt>
    <trkpt lat="48.880205" lon="20.331127"><ele>970</ele></trkpt>
    <trkpt lat="48.880216" lon="20.331069"><ele>971</ele></trkpt>
    <trkpt lat="48.880331" lon="20.331035"><ele>976</ele></trkpt>
    <trkpt lat="48.880389" lon="20.331167"><ele>979</ele></trkpt>
    <trkpt lat="48.880919" lon="20.331561"><ele>1002</ele></trkpt>
    <trkpt lat="48.881076" lon="20.331867"><ele>1006</ele></trkpt>
    <trkpt lat="48.881271" lon="20.332113"><ele>1012</ele></trkpt>
    <trkpt lat="48.881302" lon="20.332210"><ele>1013</ele></trkpt>
    <trkpt lat="48.881321" lon="20.332507"><ele>1014</ele></trkpt>
    <trkpt lat="48.881314" lon="20.332796"><ele>1018</ele></trkpt>
    <trkpt lat="48.881286" lon="20.332875"><ele>1019</ele></trkpt>
    <trkpt lat="48.880868" lon="20.333261"><ele>1013</ele></trkpt>
    <trkpt lat="48.880428" lon="20.333888"><ele>1016</ele></trkpt>
    <trkpt lat="48.880313" lon="20.334174"><ele>1012</ele></trkpt>
    <trkpt lat="48.880316" lon="20.334520"><ele>1015</ele></trkpt>
    <trkpt lat="48.880430" lon="20.334991"><ele>1021</ele></trkpt>
    <trkpt lat="48.880463" lon="20.335335"><ele>1023</ele></trkpt>
    <trkpt lat="48.880420" lon="20.335693"><ele>1025</ele></trkpt>
    <trkpt lat="48.880300" lon="20.336072"><ele>1028</ele></trkpt>
    <trkpt lat="48.880287" lon="20.336238"><ele>1031</ele></trkpt>
    <trkpt lat="48.880331" lon="20.336436"><ele>1035</ele></trkpt>
    <trkpt lat="48.880470" lon="20.336654"><ele>1037</ele></trkpt>
    <trkpt lat="48.880616" lon="20.336778"><ele>1037</ele></trkpt>
    <trkpt lat="48.880905" lon="20.336903"><ele>1036</ele></trkpt>
    <trkpt lat="48.881287" lon="20.336914"><ele>1037</ele></trkpt>
    <trkpt lat="48.881390" lon="20.336954"><ele>1037</ele></trkpt>
    <trkpt lat="48.882123" lon="20.337427"><ele>1039</ele></trkpt>
    <trkpt lat="48.882649" lon="20.337844"><ele>1030</ele></trkpt>
    <trkpt lat="48.882767" lon="20.338038"><ele>1029</ele></trkpt>
    <trkpt lat="48.882898" lon="20.338418"><ele>1031</ele></trkpt>
    <trkpt lat="48.882990" lon="20.338555"><ele>1031</ele></trkpt>
    <trkpt lat="48.883163" lon="20.338708"><ele>1034</ele></trkpt>
    <trkpt lat="48.884032" lon="20.338923"><ele>1040</ele></trkpt>
    <trkpt lat="48.884515" lon="20.339104"><ele>1040</ele></trkpt>
    <trkpt lat="48.884990" lon="20.339642"><ele>1042</ele></trkpt>
    <trkpt lat="48.885172" lon="20.340013"><ele>1043</ele></trkpt>
    <trkpt lat="48.885300" lon="20.340115"><ele>1041</ele></trkpt>
    <trkpt lat="48.885702" lon="20.340154"><ele>1044</ele></trkpt>
    <trkpt lat="48.886116" lon="20.340266"><ele>1050</ele></trkpt>
    <trkpt lat="48.886892" lon="20.340177"><ele>1067</ele></trkpt>
    <trkpt lat="48.887060" lon="20.340197"><ele>1071</ele></trkpt>
    <trkpt lat="48.887430" lon="20.340126"><ele>1083</ele></trkpt>
    <trkpt lat="48.887865" lon="20.339807"><ele>1103</ele></trkpt>
    <trkpt lat="48.887969" lon="20.339781"><ele>1106</ele></trkpt>
    <trkpt lat="48.888180" lon="20.340175"><ele>1111</ele></trkpt>
    <trkpt lat="48.888604" lon="20.340329"><ele>1115</ele></trkpt>
    <trkpt lat="48.888873" lon="20.340594"><ele>1117</ele></trkpt>
    <trkpt lat="48.889107" lon="20.341009"><ele>1116</ele></trkpt>
    <trkpt lat="48.889399" lon="20.341248"><ele>1110</ele></trkpt>
    <trkpt lat="48.889505" lon="20.341302"><ele>1108</ele></trkpt>
    <trkpt lat="48.889913" lon="20.341340"><ele>1109</ele></trkpt>
    <trkpt lat="48.890480" lon="20.341717"><ele>1115</ele></trkpt>
    <trkpt lat="48.890631" lon="20.342022"><ele>1122</ele></trkpt>
    <trkpt lat="48.890799" lon="20.342482"><ele>1128</ele></trkpt>
    <trkpt lat="48.890750" lon="20.342718"><ele>1131</ele></trkpt>
    <trkpt lat="48.890627" lon="20.342959"><ele>1134</ele></trkpt>
    <trkpt lat="48.890562" lon="20.343193"><ele>1136</ele></trkpt>
    <trkpt lat="48.890518" lon="20.343673"><ele>1137</ele></trkpt>
    <trkpt lat="48.890397" lon="20.343985"><ele>1140</ele></trkpt>
    <trkpt lat="48.890293" lon="20.344634"><ele>1135</ele></trkpt>
    <trkpt lat="48.890244" lon="20.344625"><ele>1138</ele></trkpt>
    <trkpt lat="48.890176" lon="20.344707"><ele>1137</ele></trkpt>
    <trkpt lat="48.890023" lon="20.344621"><ele>1146</ele></trkpt>
    <trkpt lat="48.889933" lon="20.344648"><ele>1144</ele></trkpt>
    <trkpt lat="48.889882" lon="20.344588"><ele>1146</ele></trkpt>
    <trkpt lat="48.889933" lon="20.344648"><ele>1144</ele></trkpt>
    <trkpt lat="48.890023" lon="20.344621"><ele>1146</ele></trkpt>
    <trkpt lat="48.890176" lon="20.344707"><ele>1137</ele></trkpt>
    <trkpt lat="48.890244" lon="20.344625"><ele>1138</ele></trkpt>
    <trkpt lat="48.890293" lon="20.344634"><ele>1135</ele></trkpt>
    <trkpt lat="48.890397" lon="20.343985"><ele>1140</ele></trkpt>
    <trkpt lat="48.890518" lon="20.343673"><ele>1137</ele></trkpt>
    <trkpt lat="48.890562" lon="20.343193"><ele>1136</ele></trkpt>
    <trkpt lat="48.890627" lon="20.342959"><ele>1134</ele></trkpt>
    <trkpt lat="48.890750" lon="20.342718"><ele>1131</ele></trkpt>
    <trkpt lat="48.890799" lon="20.342482"><ele>1128</ele></trkpt>
    <trkpt lat="48.890631" lon="20.342022"><ele>1122</ele></trkpt>
    <trkpt lat="48.890480" lon="20.341717"><ele>1115</ele></trkpt>
    <trkpt lat="48.889913" lon="20.341340"><ele>1109</ele></trkpt>
    <trkpt lat="48.889505" lon="20.341302"><ele>1108</ele></trkpt>
    <trkpt lat="48.889399" lon="20.341248"><ele>1110</ele></trkpt>
    <trkpt lat="48.889107" lon="20.341009"><ele>1116</ele></trkpt>
    <trkpt lat="48.888873" lon="20.340594"><ele>1117</ele></trkpt>
    <trkpt lat="48.888604" lon="20.340329"><ele>1115</ele></trkpt>
    <trkpt lat="48.888180" lon="20.340175"><ele>1111</ele></trkpt>
    <trkpt lat="48.887969" lon="20.339781"><ele>1106</ele></trkpt>
    <trkpt lat="48.887865" lon="20.339807"><ele>1103</ele></trkpt>
    <trkpt lat="48.887430" lon="20.340126"><ele>1083</ele></trkpt>
    <trkpt lat="48.887060" lon="20.340197"><ele>1071</ele></trkpt>
    <trkpt lat="48.886892" lon="20.340177"><ele>1067</ele></trkpt>
    <trkpt lat="48.886116" lon="20.340266"><ele>1050</ele></trkpt>
    <trkpt lat="48.885702" lon="20.340154"><ele>1044</ele></trkpt>
    <trkpt lat="48.885300" lon="20.340115"><ele>1041</ele></trkpt>
    <trkpt lat="48.885172" lon="20.340013"><ele>1043</ele></trkpt>
    <trkpt lat="48.884990" lon="20.339642"><ele>1042</ele></trkpt>
    <trkpt lat="48.884515" lon="20.339104"><ele>1040</ele></trkpt>
    <trkpt lat="48.884032" lon="20.338923"><ele>1040</ele></trkpt>
    <trkpt lat="48.883163" lon="20.338708"><ele>1034</ele></trkpt>
    <trkpt lat="48.882990" lon="20.338555"><ele>1031</ele></trkpt>
    <trkpt lat="48.882898" lon="20.338418"><ele>1031</ele></trkpt>
    <trkpt lat="48.882767" lon="20.338038"><ele>1029</ele></trkpt>
    <trkpt lat="48.882649" lon="20.337844"><ele>1030</ele></trkpt>
    <trkpt lat="48.882123" lon="20.337427"><ele>1039</ele></trkpt>
    <trkpt lat="48.881390" lon="20.336954"><ele>1037</ele></trkpt>
    <trkpt lat="48.881287" lon="20.336914"><ele>1037</ele></trkpt>
    <trkpt lat="48.880905" lon="20.336903"><ele>1036</ele></trkpt>
    <trkpt lat="48.880616" lon="20.336778"><ele>1037</ele></trkpt>
    <trkpt lat="48.880470" lon="20.336654"><ele>1037</ele></trkpt>
    <trkpt lat="48.880331" lon="20.336436"><ele>1035</ele></trkpt>
    <trkpt lat="48.880287" lon="20.336238"><ele>1031</ele></trkpt>
    <trkpt lat="48.880300" lon="20.336072"><ele>1028</ele></trkpt>
    <trkpt lat="48.880420" lon="20.335693"><ele>1025</ele></trkpt>
    <trkpt lat="48.880463" lon="20.335335"><ele>1023</ele></trkpt>
    <trkpt lat="48.880430" lon="20.334991"><ele>1021</ele></trkpt>
    <trkpt lat="48.880316" lon="20.334520"><ele>1015</ele></trkpt>
    <trkpt lat="48.880313" lon="20.334174"><ele>1012</ele></trkpt>
    <trkpt lat="48.880428" lon="20.333888"><ele>1016</ele></trkpt>
    <trkpt lat="48.880868" lon="20.333261"><ele>1013</ele></trkpt>
    <trkpt lat="48.881286" lon="20.332875"><ele>1019</ele></trkpt>
    <trkpt lat="48.881314" lon="20.332796"><ele>1018</ele></trkpt>
    <trkpt lat="48.881321" lon="20.332507"><ele>1014</ele></trkpt>
    <trkpt lat="48.881302" lon="20.332210"><ele>1013</ele></trkpt>
    <trkpt lat="48.881271" lon="20.332113"><ele>1012</ele></trkpt>
    <trkpt lat="48.881076" lon="20.331867"><ele>1006</ele></trkpt>
    <trkpt lat="48.880919" lon="20.331561"><ele>1002</ele></trkpt>
    <trkpt lat="48.880389" lon="20.331167"><ele>979</ele></trkpt>
    <trkpt lat="48.880331" lon="20.331035"><ele>976</ele></trkpt>
    <trkpt lat="48.880216" lon="20.331069"><ele>971</ele></trkpt>
    <trkpt lat="48.880205" lon="20.331127"><ele>970</ele></trkpt>
    <trkpt lat="48.880694" lon="20.331755"><ele>989</ele></trkpt>
    <trkpt lat="48.880710" lon="20.331952"><ele>987</ele></trkpt>
    <trkpt lat="48.880762" lon="20.332098"><ele>989</ele></trkpt>
    <trkpt lat="48.880700" lon="20.332287"><ele>985</ele></trkpt>
    <trkpt lat="48.880490" lon="20.332151"><ele>975</ele></trkpt>
    <trkpt lat="48.880409" lon="20.332166"><ele>972</ele></trkpt>
    <trkpt lat="48.880314" lon="20.331992"><ele>968</ele></trkpt>
    <trkpt lat="48.880288" lon="20.331804"><ele>969</ele></trkpt>
    <trkpt lat="48.880184" lon="20.331823"><ele>965</ele></trkpt>
    <trkpt lat="48.880031" lon="20.331766"><ele>960</ele></trkpt>
    <trkpt lat="48.879739" lon="20.331821"><ele>953</ele></trkpt>
    <trkpt lat="48.879542" lon="20.331767"><ele>947</ele></trkpt>
    <trkpt lat="48.879435" lon="20.331797"><ele>945</ele></trkpt>
    <trkpt lat="48.879370" lon="20.331755"><ele>942</ele></trkpt>
    <trkpt lat="48.879103" lon="20.331775"><ele>938</ele></trkpt>
    <trkpt lat="48.878886" lon="20.331679"><ele>930</ele></trkpt>
    <trkpt lat="48.878865" lon="20.331662"><ele>929</ele></trkpt>
    <trkpt lat="48.878897" lon="20.331569"><ele>927</ele></trkpt>
    <trkpt lat="48.878984" lon="20.331430"><ele>924</ele></trkpt>
    <trkpt lat="48.878970" lon="20.331268"><ele>921</ele></trkpt>
    <trkpt lat="48.878479" lon="20.330752"><ele>900</ele></trkpt>
    <trkpt lat="48.877918" lon="20.330432"><ele>885</ele></trkpt>
    <trkpt lat="48.877809" lon="20.330419"><ele>882</ele></trkpt>
    <trkpt lat="48.877586" lon="20.330152"><ele>878</ele></trkpt>
    <trkpt lat="48.877518" lon="20.330155"><ele>877</ele></trkpt>
    <trkpt lat="48.877297" lon="20.330011"><ele>878</ele></trkpt>
    <trkpt lat="48.876836" lon="20.329389"><ele>865</ele></trkpt>
    <trkpt lat="48.876746" lon="20.329206"><ele>860</ele></trkpt>
    <trkpt lat="48.876690" lon="20.329214"><ele>857</ele></trkpt>
    <trkpt lat="48.876653" lon="20.329272"><ele>857</ele></trkpt>
    <trkpt lat="48.876546" lon="20.329229"><ele>856</ele></trkpt>
    <trkpt lat="48.876444" lon="20.329285"><ele>857</ele></trkpt>
    <trkpt lat="48.876451" lon="20.329172"><ele>853</ele></trkpt>
    <trkpt lat="48.876396" lon="20.329124"><ele>850</ele></trkpt>
    <trkpt lat="48.876421" lon="20.329071"><ele>849</ele></trkpt>
    <trkpt lat="48.876414" lon="20.328958"><ele>846</ele></trkpt>
    <trkpt lat="48.876267" lon="20.328674"><ele>838</ele></trkpt>
    <trkpt lat="48.876139" lon="20.328527"><ele>832</ele></trkpt>
    <trkpt lat="48.875929" lon="20.328483"><ele>827</ele></trkpt>
    <trkpt lat="48.875965" lon="20.328215"><ele>824</ele></trkpt>
    <trkpt lat="48.875946" lon="20.328079"><ele>822</ele></trkpt>
  </trkseg></trk>
</gpx>
