<?xml version="1.0" encoding="UTF-8"?>
<gpx version="1.1" creator="MounTour (OpenStreetMap)" xmlns="http://www.topografix.com/GPX/1/1">
  <metadata><name>Hlbočiansky vodopád</name><copyright author="OpenStreetMap contributors"><license>https://opendatacommons.org/licenses/odbl/</license></copyright></metadata>
  <trk><name>Hlbočiansky vodopád</name><trkseg>
    <trkpt lat="48.514634" lon="17.430347"><ele>291</ele></trkpt>
    <trkpt lat="48.514522" lon="17.430448"><ele>287</ele></trkpt>
    <trkpt lat="48.514603" lon="17.429915"><ele>297</ele></trkpt>
    <trkpt lat="48.514620" lon="17.429519"><ele>303</ele></trkpt>
    <trkpt lat="48.514593" lon="17.428278"><ele>312</ele></trkpt>
    <trkpt lat="48.514530" lon="17.427720"><ele>309</ele></trkpt>
    <trkpt lat="48.514562" lon="17.427107"><ele>316</ele></trkpt>
    <trkpt lat="48.514549" lon="17.426402"><ele>318</ele></trkpt>
    <trkpt lat="48.514337" lon="17.424995"><ele>313</ele></trkpt>
    <trkpt lat="48.514287" lon="17.423080"><ele>318</ele></trkpt>
    <trkpt lat="48.514240" lon="17.422526"><ele>319</ele></trkpt>
    <trkpt lat="48.514114" lon="17.421904"><ele>325</ele></trkpt>
    <trkpt lat="48.514127" lon="17.421298"><ele>336</ele></trkpt>
    <trkpt lat="48.514044" lon="17.421028"><ele>337</ele></trkpt>
    <trkpt lat="48.513870" lon="17.420740"><ele>340</ele></trkpt>
    <trkpt lat="48.513204" lon="17.420104"><ele>337</ele></trkpt>
    <trkpt lat="48.513125" lon="17.419991"><ele>340</ele></trkpt>
    <trkpt lat="48.513019" lon="17.419724"><ele>342</ele></trkpt>
    <trkpt lat="48.512975" lon="17.419435"><ele>344</ele></trkpt>
    <trkpt lat="48.512984" lon="17.418778"><ele>353</ele></trkpt>
    <trkpt lat="48.513229" lon="17.417529"><ele>355</ele></trkpt>
    <trkpt lat="48.513295" lon="17.417129"><ele>362</ele></trkpt>
    <trkpt lat="48.513311" lon="17.416818"><ele>364</ele></trkpt>
    <trkpt lat="48.513286" lon="17.415491"><ele>370</ele></trkpt>
    <trkpt lat="48.513100" lon="17.413590"><ele>376</ele></trkpt>
    <trkpt lat="48.512959" lon="17.413700"><ele>376</ele></trkpt>
    <trkpt lat="48.512779" lon="17.413714"><ele>378</ele></trkpt>
    <trkpt lat="48.512600" lon="17.413833"><ele>382</ele></trkpt>
    <trkpt lat="48.512502" lon="17.413698"><ele>383</ele></trkpt>
    <trkpt lat="48.512242" lon="17.413199"><ele>386</ele></trkpt>
    <trkpt lat="48.511815" lon="17.411954"><ele>385</ele></trkpt>
    <trkpt lat="48.511625" lon="17.410843"><ele>369</ele></trkpt>
    <trkpt lat="48.511486" lon="17.410388"><ele>364</ele></trkpt>
    <trkpt lat="48.511439" lon="17.410266"><ele>363</ele></trkpt>
    <trkpt lat="48.511155" lon="17.410186"><ele>362</ele></trkpt>
    <trkpt lat="48.510994" lon="17.410297"><ele>358</ele></trkpt>
    <trkpt lat="48.510848" lon="17.410475"><ele>353</ele></trkpt>
    <trkpt lat="48.510994" lon="17.410297"><ele>358</ele></trkpt>
    <trkpt lat="48.511155" lon="17.410186"><ele>362</ele></trkpt>
    <trkpt lat="48.511439" lon="17.410266"><ele>363</ele></trkpt>
    <trkpt lat="48.511625" lon="17.410843"><ele>369</ele></trkpt>
    <trkpt lat="48.511815" lon="17.411954"><ele>385</ele></trkpt>
    <trkpt lat="48.512242" lon="17.413199"><ele>386</ele></trkpt>
    <trkpt lat="48.512502" lon="17.413698"><ele>383</ele></trkpt>
    <trkpt lat="48.512600" lon="17.413833"><ele>382</ele></trkpt>
    <trkpt lat="48.512779" lon="17.413714"><ele>378</ele></trkpt>
    <trkpt lat="48.512959" lon="17.413700"><ele>376</ele></trkpt>
    <trkpt lat="48.513100" lon="17.413590"><ele>376</ele></trkpt>
    <trkpt lat="48.513286" lon="17.415491"><ele>370</ele></trkpt>
    <trkpt lat="48.513311" lon="17.416818"><ele>364</ele></trkpt>
    <trkpt lat="48.513295" lon="17.417129"><ele>362</ele></trkpt>
    <trkpt lat="48.513229" lon="17.417529"><ele>355</ele></trkpt>
    <trkpt lat="48.512984" lon="17.418778"><ele>353</ele></trkpt>
    <trkpt lat="48.512975" lon="17.419435"><ele>344</ele></trkpt>
    <trkpt lat="48.513019" lon="17.419724"><ele>342</ele></trkpt>
    <trkpt lat="48.513125" lon="17.419991"><ele>340</ele></trkpt>
    <trkpt lat="48.513204" lon="17.420104"><ele>337</ele></trkpt>
    <trkpt lat="48.513870" lon="17.420740"><ele>340</ele></trkpt>
    <trkpt lat="48.514044" lon="17.421028"><ele>337</ele></trkpt>
    <trkpt lat="48.514127" lon="17.421298"><ele>336</ele></trkpt>
    <trkpt lat="48.514114" lon="17.421904"><ele>325</ele></trkpt>
    <trkpt lat="48.514240" lon="17.422526"><ele>319</ele></trkpt>
    <trkpt lat="48.514287" lon="17.423080"><ele>318</ele></trkpt>
    <trkpt lat="48.514337" lon="17.424995"><ele>313</ele></trkpt>
    <trkpt lat="48.514549" lon="17.426402"><ele>318</ele></trkpt>
    <trkpt lat="48.514562" lon="17.427107"><ele>316</ele></trkpt>
    <trkpt lat="48.514530" lon="17.427720"><ele>309</ele></trkpt>
    <trkpt lat="48.514593" lon="17.428278"><ele>312</ele></trkpt>
    <trkpt lat="48.514620" lon="17.429519"><ele>303</ele></trkpt>
    <trkpt lat="48.514603" lon="17.429915"><ele>297</ele></trkpt>
    <trkpt lat="48.514522" lon="17.430448"><ele>287</ele></trkpt>
    <trkpt lat="48.514634" lon="17.430347"><ele>291</ele></trkpt>
  </trkseg></trk>
</gpx>
