<?xml version="1.0" encoding="UTF-8"?>
<gpx version="1.1" creator="MounTour (OpenStreetMap)" xmlns="http://www.topografix.com/GPX/1/1">
  <metadata><name>Hnilická Kýčera</name><copyright author="OpenStreetMap contributors"><license>https://opendatacommons.org/licenses/odbl/</license></copyright></metadata>
  <trk><name>Hnilická Kýčera</name><trkseg>
    <trkpt lat="49.022550" lon="18.683809"><ele>595</ele></trkpt>
    <trkpt lat="49.022461" lon="18.683986"><ele>595</ele></trkpt>
    <trkpt lat="49.022404" lon="18.684214"><ele>596</ele></trkpt>
    <trkpt lat="49.022300" lon="18.685471"><ele>602</ele></trkpt>
    <trkpt lat="49.022177" lon="18.686157"><ele>602</ele></trkpt>
    <trkpt lat="49.022047" lon="18.686601"><ele>608</ele></trkpt>
    <trkpt lat="49.021903" lon="18.686881"><ele>613</ele></trkpt>
    <trkpt lat="49.021520" lon="18.687439"><ele>622</ele></trkpt>
    <trkpt lat="49.020522" lon="18.688568"><ele>615</ele></trkpt>
    <trkpt lat="49.020287" lon="18.689077"><ele>613</ele></trkpt>
    <trkpt lat="49.020162" lon="18.689493"><ele>613</ele></trkpt>
    <trkpt lat="49.019302" lon="18.693262"><ele>618</ele></trkpt>
    <trkpt lat="49.019020" lon="18.694640"><ele>622</ele></trkpt>
    <trkpt lat="49.019043" lon="18.695200"><ele>625</ele></trkpt>
    <trkpt lat="49.019227" lon="18.697022"><ele>635</ele></trkpt>
    <trkpt lat="49.019210" lon="18.697296"><ele>637</ele></trkpt>
    <trkpt lat="49.019078" lon="18.698035"><ele>643</ele></trkpt>
    <trkpt lat="49.019046" lon="18.699532"><ele>655</ele></trkpt>
    <trkpt lat="49.019008" lon="18.699850"><ele>654</ele></trkpt>
    <trkpt lat="49.018946" lon="18.700086"><ele>652</ele></trkpt>
    <trkpt lat="49.018524" lon="18.700815"><ele>653</ele></trkpt>
    <trkpt lat="49.018230" lon="18.701195"><ele>653</ele></trkpt>
    <trkpt lat="49.017869" lon="18.701549"><ele>651</ele></trkpt>
    <trkpt lat="49.017759" lon="18.701783"><ele>651</ele></trkpt>
    <trkpt lat="49.017687" lon="18.702030"><ele>654</ele></trkpt>
    <trkpt lat="49.017406" lon="18.703202"><ele>662</ele></trkpt>
    <trkpt lat="49.017393" lon="18.703602"><ele>666</ele></trkpt>
    <trkpt lat="49.017473" lon="18.704195"><ele>666</ele></trkpt>
    <trkpt lat="49.017678" lon="18.705243"><ele>683</ele></trkpt>
    <trkpt lat="49.017673" lon="18.706022"><ele>682</ele></trkpt>
    <trkpt lat="49.017727" lon="18.707072"><ele>684</ele></trkpt>
    <trkpt lat="49.017693" lon="18.707510"><ele>690</ele></trkpt>
    <trkpt lat="49.017496" lon="18.708260"><ele>697</ele></trkpt>
    <trkpt lat="49.017307" lon="18.708781"><ele>702</ele></trkpt>
    <trkpt lat="49.016531" lon="18.710230"><ele>720</ele></trkpt>
    <trkpt lat="49.015488" lon="18.712868"><ele>740</ele></trkpt>
    <trkpt lat="49.015296" lon="18.713746"><ele>745</ele></trkpt>
    <trkpt lat="49.015268" lon="18.714604"><ele>748</ele></trkpt>
    <trkpt lat="49.015220" lon="18.714816"><ele>752</ele></trkpt>
    <trkpt lat="49.015025" lon="18.715269"><ele>758</ele></trkpt>
    <trkpt lat="49.014941" lon="18.715371"><ele>760</ele></trkpt>
    <trkpt lat="49.014848" lon="18.715660"><ele>765</ele></trkpt>
    <trkpt lat="49.014785" lon="18.716031"><ele>771</ele></trkpt>
    <trkpt lat="49.014581" lon="18.716686"><ele>787</ele></trkpt>
    <trkpt lat="49.014598" lon="18.717551"><ele>797</ele></trkpt>
    <trkpt lat="49.014631" lon="18.717812"><ele>799</ele></trkpt>
    <trkpt lat="49.014800" lon="18.718624"><ele>808</ele></trkpt>
    <trkpt lat="49.015034" lon="18.719131"><ele>822</ele></trkpt>
    <trkpt lat="49.015052" lon="18.719308"><ele>825</ele></trkpt>
    <trkpt lat="49.015002" lon="18.719638"><ele>829</ele></trkpt>
    <trkpt lat="49.014804" lon="18.719797"><ele>835</ele></trkpt>
    <trkpt lat="49.014522" lon="18.720169"><ele>845</ele></trkpt>
    <trkpt lat="49.013453" lon="18.721841"><ele>888</ele></trkpt>
    <trkpt lat="49.013472" lon="18.721993"><ele>889</ele></trkpt>
    <trkpt lat="49.013762" lon="18.722112"><ele>895</ele></trkpt>
    <trkpt lat="49.014452" lon="18.722001"><ele>905</ele></trkpt>
    <trkpt lat="49.014649" lon="18.722090"><ele>907</ele></trkpt>
    <trkpt lat="49.014710" lon="18.722194"><ele>912</ele></trkpt>
    <trkpt lat="49.014944" lon="18.723102"><ele>936</ele></trkpt>
    <trkpt lat="49.014964" lon="18.723793"><ele>954</ele></trkpt>
    <trkpt lat="49.014998" lon="18.724004"><ele>960</ele></trkpt>
    <trkpt lat="49.015145" lon="18.724375"><ele>971</ele></trkpt>
    <trkpt lat="49.015203" lon="18.724664"><ele>978</ele></trkpt>
    <trkpt lat="49.015448" lon="18.725179"><ele>989</ele></trkpt>
    <trkpt lat="49.015793" lon="18.726081"><ele>1000</ele></trkpt>
    <trkpt lat="49.015916" lon="18.726097"><ele>1000</ele></trkpt>
    <trkpt lat="49.016056" lon="18.726039"><ele>1000</ele></trkpt>
    <trkpt lat="49.016300" lon="18.725581"><ele>999</ele></trkpt>
    <trkpt lat="49.016512" lon="18.724890"><ele>1007</ele></trkpt>
    <trkpt lat="49.016726" lon="18.724506"><ele>1016</ele></trkpt>
    <trkpt lat="49.016852" lon="18.724368"><ele>1021</ele></trkpt>
    <trkpt lat="49.017184" lon="18.724139"><ele>1030</ele></trkpt>
    <trkpt lat="49.017414" lon="18.723721"><ele>1038</ele></trkpt>
    <trkpt lat="49.017843" lon="18.723286"><ele>1057</ele></trkpt>
    <trkpt lat="49.018477" lon="18.722972"><ele>1076</ele></trkpt>
    <trkpt lat="49.019173" lon="18.722811"><ele>1085</ele></trkpt>
    <trkpt lat="49.019333" lon="18.722860"><ele>1084</ele></trkpt>
    <trkpt lat="49.019640" lon="18.723800"><ele>1079</ele></trkpt>
    <trkpt lat="49.019799" lon="18.723981"><ele>1074</ele></trkpt>
    <trkpt lat="49.019965" lon="18.724593"><ele>1064</ele></trkpt>
    <trkpt lat="49.020146" lon="18.725038"><ele>1060</ele></trkpt>
    <trkpt lat="49.020304" lon="18.725335"><ele>1057</ele></trkpt>
    <trkpt lat="49.020824" lon="18.726611"><ele>1064</ele></trkpt>
    <trkpt lat="49.021189" lon="18.727355"><ele>1068</ele></trkpt>
    <trkpt lat="49.021295" lon="18.727717"><ele>1071</ele></trkpt>
    <trkpt lat="49.021425" lon="18.727969"><ele>1072</ele></trkpt>
    <trkpt lat="49.021743" lon="18.728838"><ele>1074</ele></trkpt>
    <trkpt lat="49.021822" lon="18.729192"><ele>1072</ele></trkpt>
    <trkpt lat="49.021940" lon="18.730560"><ele>1060</ele></trkpt>
    <trkpt lat="49.022232" lon="18.731684"><ele>1052</ele></trkpt>
    <trkpt lat="49.022811" lon="18.732896"><ele>1038</ele></trkpt>
    <trkpt lat="49.023057" lon="18.733334"><ele>1033</ele></trkpt>
    <trkpt lat="49.023187" lon="18.733492"><ele>1032</ele></trkpt>
    <trkpt lat="49.023587" lon="18.733741"><ele>1034</ele></trkpt>
    <trkpt lat="49.023810" lon="18.733980"><ele>1034</ele></trkpt>
    <trkpt lat="49.023817" lon="18.734112"><ele>1034</ele></trkpt>
    <trkpt lat="49.023761" lon="18.734372"><ele>1036</ele></trkpt>
    <trkpt lat="49.024037" lon="18.735074"><ele>1042</ele></trkpt>
    <trkpt lat="49.024238" lon="18.735687"><ele>1051</ele></trkpt>
    <trkpt lat="49.024614" lon="18.736324"><ele>1065</ele></trkpt>
    <trkpt lat="49.025069" lon="18.736917"><ele>1094</ele></trkpt>
    <trkpt lat="49.025467" lon="18.737360"><ele>1116</ele></trkpt>
    <trkpt lat="49.025644" lon="18.737762"><ele>1134</ele></trkpt>
    <trkpt lat="49.025795" lon="18.737883"><ele>1142</ele></trkpt>
    <trkpt lat="49.025920" lon="18.738218"><ele>1161</ele></trkpt>
    <trkpt lat="49.026060" lon="18.738384"><ele>1169</ele></trkpt>
    <trkpt lat="49.026073" lon="18.738781"><ele>1178</ele></trkpt>
    <trkpt lat="49.026165" lon="18.739157"><ele>1189</ele></trkpt>
    <trkpt lat="49.026311" lon="18.739428"><ele>1198</ele></trkpt>
    <trkpt lat="49.026347" lon="18.739806"><ele>1206</ele></trkpt>
    <trkpt lat="49.026644" lon="18.740108"><ele>1215</ele></trkpt>
    <trkpt lat="49.026347" lon="18.739806"><ele>1206</ele></trkpt>
    <trkpt lat="49.026311" lon="18.739428"><ele>1198</ele></trkpt>
    <trkpt lat="49.026165" lon="18.739157"><ele>1189</ele></trkpt>
    <trkpt lat="49.026073" lon="18.738781"><ele>1178</ele></trkpt>
    <trkpt lat="49.026060" lon="18.738384"><ele>1169</ele></trkpt>
    <trkpt lat="49.025920" lon="18.738218"><ele>1161</ele></trkpt>
    <trkpt lat="49.025795" lon="18.737883"><ele>1142</ele></trkpt>
    <trkpt lat="49.025644" lon="18.737762"><ele>1134</ele></trkpt>
    <trkpt lat="49.025467" lon="18.737360"><ele>1116</ele></trkpt>
    <trkpt lat="49.025069" lon="18.736917"><ele>1094</ele></trkpt>
    <trkpt lat="49.024614" lon="18.736324"><ele>1065</ele></trkpt>
    <trkpt lat="49.024238" lon="18.735687"><ele>1051</ele></trkpt>
    <trkpt lat="49.024037" lon="18.735074"><ele>1042</ele></trkpt>
    <trkpt lat="49.023761" lon="18.734372"><ele>1036</ele></trkpt>
    <trkpt lat="49.023817" lon="18.734112"><ele>1034</ele></trkpt>
    <trkpt lat="49.023810" lon="18.733980"><ele>1034</ele></trkpt>
    <trkpt lat="49.023587" lon="18.733741"><ele>1034</ele></trkpt>
    <trkpt lat="49.023187" lon="18.733492"><ele>1032</ele></trkpt>
    <trkpt lat="49.023057" lon="18.733334"><ele>1033</ele></trkpt>
    <trkpt lat="49.022811" lon="18.732896"><ele>1038</ele></trkpt>
    <trkpt lat="49.022232" lon="18.731684"><ele>1052</ele></trkpt>
    <trkpt lat="49.021940" lon="18.730560"><ele>1060</ele></trkpt>
    <trkpt lat="49.021822" lon="18.729192"><ele>1072</ele></trkpt>
    <trkpt lat="49.021743" lon="18.728838"><ele>1074</ele></trkpt>
    <trkpt lat="49.021425" lon="18.727969"><ele>1072</ele></trkpt>
    <trkpt lat="49.021295" lon="18.727717"><ele>1071</ele></trkpt>
    <trkpt lat="49.021189" lon="18.727355"><ele>1068</ele></trkpt>
    <trkpt lat="49.020824" lon="18.726611"><ele>1064</ele></trkpt>
    <trkpt lat="49.020304" lon="18.725335"><ele>1057</ele></trkpt>
    <trkpt lat="49.020146" lon="18.725038"><ele>1060</ele></trkpt>
    <trkpt lat="49.019965" lon="18.724593"><ele>1064</ele></trkpt>
    <trkpt lat="49.019799" lon="18.723981"><ele>1074</ele></trkpt>
    <trkpt lat="49.019640" lon="18.723800"><ele>1079</ele></trkpt>
    <trkpt lat="49.019333" lon="18.722860"><ele>1084</ele></trkpt>
    <trkpt lat="49.019173" lon="18.722811"><ele>1085</ele></trkpt>
    <trkpt lat="49.018477" lon="18.722972"><ele>1076</ele></trkpt>
    <trkpt lat="49.017843" lon="18.723286"><ele>1057</ele></trkpt>
    <trkpt lat="49.017414" lon="18.723721"><ele>1038</ele></trkpt>
    <trkpt lat="49.017184" lon="18.724139"><ele>1030</ele></trkpt>
    <trkpt lat="49.016852" lon="18.724368"><ele>1021</ele></trkpt>
    <trkpt lat="49.016726" lon="18.724506"><ele>1016</ele></trkpt>
    <trkpt lat="49.016512" lon="18.724890"><ele>1007</ele></trkpt>
    <trkpt lat="49.016300" lon="18.725581"><ele>999</ele></trkpt>
    <trkpt lat="49.016056" lon="18.726039"><ele>1000</ele></trkpt>
    <trkpt lat="49.015916" lon="18.726097"><ele>1000</ele></trkpt>
    <trkpt lat="49.015793" lon="18.726081"><ele>1000</ele></trkpt>
    <trkpt lat="49.015448" lon="18.725179"><ele>989</ele></trkpt>
    <trkpt lat="49.015203" lon="18.724664"><ele>978</ele></trkpt>
    <trkpt lat="49.015145" lon="18.724375"><ele>971</ele></trkpt>
    <trkpt lat="49.014998" lon="18.724004"><ele>960</ele></trkpt>
    <trkpt lat="49.014964" lon="18.723793"><ele>954</ele></trkpt>
    <trkpt lat="49.014944" lon="18.723102"><ele>936</ele></trkpt>
    <trkpt lat="49.014710" lon="18.722194"><ele>912</ele></trkpt>
    <trkpt lat="49.014649" lon="18.722090"><ele>907</ele></trkpt>
    <trkpt lat="49.014452" lon="18.722001"><ele>905</ele></trkpt>
    <trkpt lat="49.013762" lon="18.722112"><ele>895</ele></trkpt>
    <trkpt lat="49.013472" lon="18.721993"><ele>889</ele></trkpt>
    <trkpt lat="49.013453" lon="18.721841"><ele>888</ele></trkpt>
    <trkpt lat="49.014522" lon="18.720169"><ele>845</ele></trkpt>
    <trkpt lat="49.014804" lon="18.719797"><ele>835</ele></trkpt>
    <trkpt lat="49.015002" lon="18.719638"><ele>829</ele></trkpt>
    <trkpt lat="49.015052" lon="18.719308"><ele>825</ele></trkpt>
    <trkpt lat="49.015034" lon="18.719131"><ele>822</ele></trkpt>
    <trkpt lat="49.014800" lon="18.718624"><ele>808</ele></trkpt>
    <trkpt lat="49.014631" lon="18.717812"><ele>799</ele></trkpt>
    <trkpt lat="49.014598" lon="18.717551"><ele>797</ele></trkpt>
    <trkpt lat="49.014581" lon="18.716686"><ele>787</ele></trkpt>
    <trkpt lat="49.014785" lon="18.716031"><ele>771</ele></trkpt>
    <trkpt lat="49.014848" lon="18.715660"><ele>765</ele></trkpt>
    <trkpt lat="49.014941" lon="18.715371"><ele>760</ele></trkpt>
    <trkpt lat="49.015025" lon="18.715269"><ele>758</ele></trkpt>
    <trkpt lat="49.015220" lon="18.714816"><ele>752</ele></trkpt>
    <trkpt lat="49.015268" lon="18.714604"><ele>748</ele></trkpt>
    <trkpt lat="49.015296" lon="18.713746"><ele>745</ele></trkpt>
    <trkpt lat="49.015488" lon="18.712868"><ele>740</ele></trkpt>
    <trkpt lat="49.016531" lon="18.710230"><ele>720</ele></trkpt>
    <trkpt lat="49.017307" lon="18.708781"><ele>702</ele></trkpt>
    <trkpt lat="49.017496" lon="18.708260"><ele>697</ele></trkpt>
    <trkpt lat="49.017693" lon="18.707510"><ele>690</ele></trkpt>
    <trkpt lat="49.017727" lon="18.707072"><ele>684</ele></trkpt>
    <trkpt lat="49.017673" lon="18.706022"><ele>682</ele></trkpt>
    <trkpt lat="49.017678" lon="18.705243"><ele>683</ele></trkpt>
    <trkpt lat="49.017473" lon="18.704195"><ele>666</ele></trkpt>
    <trkpt lat="49.017393" lon="18.703602"><ele>666</ele></trkpt>
    <trkpt lat="49.017406" lon="18.703202"><ele>662</ele></trkpt>
    <trkpt lat="49.017687" lon="18.702030"><ele>654</ele></trkpt>
    <trkpt lat="49.017759" lon="18.701783"><ele>651</ele></trkpt>
    <trkpt lat="49.017869" lon="18.701549"><ele>651</ele></trkpt>
    <trkpt lat="49.018230" lon="18.701195"><ele>653</ele></trkpt>
    <trkpt lat="49.018524" lon="18.700815"><ele>653</ele></trkpt>
    <trkpt lat="49.018946" lon="18.700086"><ele>652</ele></trkpt>
    <trkpt lat="49.019008" lon="18.699850"><ele>654</ele></trkpt>
    <trkpt lat="49.019046" lon="18.699532"><ele>655</ele></trkpt>
    <trkpt lat="49.019078" lon="18.698035"><ele>643</ele></trkpt>
    <trkpt lat="49.019210" lon="18.697296"><ele>637</ele></trkpt>
    <trkpt lat="49.019227" lon="18.697022"><ele>635</ele></trkpt>
    <trkpt lat="49.019043" lon="18.695200"><ele>625</ele></trkpt>
    <trkpt lat="49.019020" lon="18.694640"><ele>622</ele></trkpt>
    <trkpt lat="49.019302" lon="18.693262"><ele>618</ele></trkpt>
    <trkpt lat="49.020162" lon="18.689493"><ele>613</ele></trkpt>
    <trkpt lat="49.020287" lon="18.689077"><ele>613</ele></trkpt>
    <trkpt lat="49.020522" lon="18.688568"><ele>615</ele></trkpt>
    <trkpt lat="49.021520" lon="18.687439"><ele>622</ele></trkpt>
    <trkpt lat="49.021903" lon="18.686881"><ele>613</ele></trkpt>
    <trkpt lat="49.022047" lon="18.686601"><ele>608</ele></trkpt>
    <trkpt lat="49.022177" lon="18.686157"><ele>602</ele></trkpt>
    <trkpt lat="49.022300" lon="18.685471"><ele>602</ele></trkpt>
    <trkpt lat="49.022404" lon="18.684214"><ele>596</ele></trkpt>
    <trkpt lat="49.022461" lon="18.683986"><ele>595</ele></trkpt>
    <trkpt lat="49.022550" lon="18.683809"><ele>595</ele></trkpt>
  </trkseg></trk>
</gpx>
