<?xml version="1.0" encoding="UTF-8"?>
<gpx version="1.1" creator="MounTour (OpenStreetMap)" xmlns="http://www.topografix.com/GPX/1/1">
  <metadata><name>Hole</name><copyright author="OpenStreetMap contributors"><license>https://opendatacommons.org/licenses/odbl/</license></copyright></metadata>
  <trk><name>Hole</name><trkseg>
    <trkpt lat="49.212419" lon="19.038784"><ele>700</ele></trkpt>
    <trkpt lat="49.212159" lon="19.038452"><ele>695</ele></trkpt>
    <trkpt lat="49.211585" lon="19.038549"><ele>708</ele></trkpt>
    <trkpt lat="49.211057" lon="19.038312"><ele>732</ele></trkpt>
    <trkpt lat="49.210838" lon="19.038023"><ele>725</ele></trkpt>
    <trkpt lat="49.210673" lon="19.037661"><ele>729</ele></trkpt>
    <trkpt lat="49.210102" lon="19.037107"><ele>743</ele></trkpt>
    <trkpt lat="49.210014" lon="19.036857"><ele>743</ele></trkpt>
    <trkpt lat="49.209909" lon="19.036365"><ele>749</ele></trkpt>
    <trkpt lat="49.209530" lon="19.035472"><ele>760</ele></trkpt>
    <trkpt lat="49.209413" lon="19.035004"><ele>766</ele></trkpt>
    <trkpt lat="49.209329" lon="19.034803"><ele>774</ele></trkpt>
    <trkpt lat="49.209234" lon="19.034707"><ele>777</ele></trkpt>
    <trkpt lat="49.208821" lon="19.034547"><ele>785</ele></trkpt>
    <trkpt lat="49.208679" lon="19.034409"><ele>787</ele></trkpt>
    <trkpt lat="49.208393" lon="19.033787"><ele>797</ele></trkpt>
    <trkpt lat="49.208036" lon="19.032844"><ele>809</ele></trkpt>
    <trkpt lat="49.207830" lon="19.032585"><ele>815</ele></trkpt>
    <trkpt lat="49.207387" lon="19.032299"><ele>818</ele></trkpt>
    <trkpt lat="49.207046" lon="19.031743"><ele>829</ele></trkpt>
    <trkpt lat="49.206818" lon="19.031533"><ele>832</ele></trkpt>
    <trkpt lat="49.206569" lon="19.031143"><ele>838</ele></trkpt>
    <trkpt lat="49.206444" lon="19.030812"><ele>841</ele></trkpt>
    <trkpt lat="49.206336" lon="19.030718"><ele>842</ele></trkpt>
    <trkpt lat="49.206197" lon="19.030487"><ele>845</ele></trkpt>
    <trkpt lat="49.206141" lon="19.030016"><ele>847</ele></trkpt>
    <trkpt lat="49.205817" lon="19.029033"><ele>868</ele></trkpt>
    <trkpt lat="49.205693" lon="19.028343"><ele>884</ele></trkpt>
    <trkpt lat="49.205302" lon="19.027785"><ele>893</ele></trkpt>
    <trkpt lat="49.204766" lon="19.027228"><ele>908</ele></trkpt>
    <trkpt lat="49.204599" lon="19.026827"><ele>917</ele></trkpt>
    <trkpt lat="49.204453" lon="19.026621"><ele>922</ele></trkpt>
    <trkpt lat="49.204041" lon="19.026233"><ele>936</ele></trkpt>
    <trkpt lat="49.203874" lon="19.026211"><ele>936</ele></trkpt>
    <trkpt lat="49.203769" lon="19.026109"><ele>940</ele></trkpt>
    <trkpt lat="49.203554" lon="19.025437"><ele>960</ele></trkpt>
    <trkpt lat="49.203376" lon="19.025136"><ele>962</ele></trkpt>
    <trkpt lat="49.203204" lon="19.024568"><ele>977</ele></trkpt>
    <trkpt lat="49.203074" lon="19.024317"><ele>981</ele></trkpt>
    <trkpt lat="49.203087" lon="19.024245"><ele>984</ele></trkpt>
    <trkpt lat="49.203181" lon="19.024245"><ele>988</ele></trkpt>
    <trkpt lat="49.203767" lon="19.024439"><ele>1007</ele></trkpt>
    <trkpt lat="49.203763" lon="19.024322"><ele>1012</ele></trkpt>
    <trkpt lat="49.203684" lon="19.024085"><ele>1020</ele></trkpt>
    <trkpt lat="49.203706" lon="19.024013"><ele>1023</ele></trkpt>
    <trkpt lat="49.204104" lon="19.024018"><ele>1029</ele></trkpt>
    <trkpt lat="49.204227" lon="19.023882"><ele>1029</ele></trkpt>
    <trkpt lat="49.204252" lon="19.023649"><ele>1032</ele></trkpt>
    <trkpt lat="49.204152" lon="19.023358"><ele>1041</ele></trkpt>
    <trkpt lat="49.204139" lon="19.022999"><ele>1051</ele></trkpt>
    <trkpt lat="49.203914" lon="19.022494"><ele>1061</ele></trkpt>
    <trkpt lat="49.203745" lon="19.021966"><ele>1073</ele></trkpt>
    <trkpt lat="49.203676" lon="19.021613"><ele>1081</ele></trkpt>
    <trkpt lat="49.203676" lon="19.021253"><ele>1089</ele></trkpt>
    <trkpt lat="49.203645" lon="19.021147"><ele>1091</ele></trkpt>
    <trkpt lat="49.203495" lon="19.020758"><ele>1106</ele></trkpt>
    <trkpt lat="49.203178" lon="19.020330"><ele>1131</ele></trkpt>
    <trkpt lat="49.203094" lon="19.020091"><ele>1143</ele></trkpt>
    <trkpt lat="49.202817" lon="19.019997"><ele>1156</ele></trkpt>
    <trkpt lat="49.202798" lon="19.019946"><ele>1157</ele></trkpt>
    <trkpt lat="49.202899" lon="19.019434"><ele>1165</ele></trkpt>
    <trkpt lat="49.203007" lon="19.019167"><ele>1168</ele></trkpt>
    <trkpt lat="49.203032" lon="19.018941"><ele>1173</ele></trkpt>
    <trkpt lat="49.203188" lon="19.018361"><ele>1181</ele></trkpt>
    <trkpt lat="49.203303" lon="19.017663"><ele>1192</ele></trkpt>
    <trkpt lat="49.203421" lon="19.017194"><ele>1198</ele></trkpt>
    <trkpt lat="49.203555" lon="19.016883"><ele>1200</ele></trkpt>
    <trkpt lat="49.203715" lon="19.016595"><ele>1202</ele></trkpt>
    <trkpt lat="49.203783" lon="19.016547"><ele>1204</ele></trkpt>
    <trkpt lat="49.203805" lon="19.016451"><ele>1205</ele></trkpt>
    <trkpt lat="49.204271" lon="19.015642"><ele>1227</ele></trkpt>
    <trkpt lat="49.203578" lon="19.015261"><ele>1233</ele></trkpt>
    <trkpt lat="49.203172" lon="19.014888"><ele>1244</ele></trkpt>
    <trkpt lat="49.203039" lon="19.014876"><ele>1247</ele></trkpt>
    <trkpt lat="49.202867" lon="19.014722"><ele>1253</ele></trkpt>
    <trkpt lat="49.202774" lon="19.014715"><ele>1256</ele></trkpt>
    <trkpt lat="49.202668" lon="19.014555"><ele>1257</ele></trkpt>
    <trkpt lat="49.201863" lon="19.014373"><ele>1270</ele></trkpt>
    <trkpt lat="49.201412" lon="19.014437"><ele>1276</ele></trkpt>
    <trkpt lat="49.201262" lon="19.014394"><ele>1279</ele></trkpt>
    <trkpt lat="49.201176" lon="19.014459"><ele>1282</ele></trkpt>
    <trkpt lat="49.201005" lon="19.014459"><ele>1287</ele></trkpt>
    <trkpt lat="49.200761" lon="19.014571"><ele>1293</ele></trkpt>
    <trkpt lat="49.200318" lon="19.014630"><ele>1304</ele></trkpt>
    <trkpt lat="49.200125" lon="19.014459"><ele>1308</ele></trkpt>
    <trkpt lat="49.199438" lon="19.014459"><ele>1325</ele></trkpt>
    <trkpt lat="49.199309" lon="19.014394"><ele>1328</ele></trkpt>
    <trkpt lat="49.199288" lon="19.014330"><ele>1327</ele></trkpt>
    <trkpt lat="49.198987" lon="19.014287"><ele>1337</ele></trkpt>
    <trkpt lat="49.198709" lon="19.014502"><ele>1351</ele></trkpt>
    <trkpt lat="49.198408" lon="19.014523"><ele>1363</ele></trkpt>
    <trkpt lat="49.198189" lon="19.014465"><ele>1371</ele></trkpt>
    <trkpt lat="49.198125" lon="19.014354"><ele>1372</ele></trkpt>
    <trkpt lat="49.197968" lon="19.014388"><ele>1377</ele></trkpt>
    <trkpt lat="49.197853" lon="19.014298"><ele>1379</ele></trkpt>
    <trkpt lat="49.197740" lon="19.014401"><ele>1384</ele></trkpt>
    <trkpt lat="49.197349" lon="19.014261"><ele>1395</ele></trkpt>
    <trkpt lat="49.197025" lon="19.014293"><ele>1407</ele></trkpt>
    <trkpt lat="49.196702" lon="19.014252"><ele>1420</ele></trkpt>
    <trkpt lat="49.196544" lon="19.014067"><ele>1427</ele></trkpt>
    <trkpt lat="49.196284" lon="19.014145"><ele>1437</ele></trkpt>
    <trkpt lat="49.196244" lon="19.014211"><ele>1438</ele></trkpt>
    <trkpt lat="49.195991" lon="19.014251"><ele>1446</ele></trkpt>
    <trkpt lat="49.195799" lon="19.014063"><ele>1455</ele></trkpt>
    <trkpt lat="49.195494" lon="19.014000"><ele>1463</ele></trkpt>
    <trkpt lat="49.195419" lon="19.014046"><ele>1463</ele></trkpt>
    <trkpt lat="49.195232" lon="19.014009"><ele>1466</ele></trkpt>
    <trkpt lat="49.195122" lon="19.014060"><ele>1465</ele></trkpt>
    <trkpt lat="49.194983" lon="19.014060"><ele>1467</ele></trkpt>
    <trkpt lat="49.194898" lon="19.013981"><ele>1471</ele></trkpt>
    <trkpt lat="49.194869" lon="19.014039"><ele>1470</ele></trkpt>
    <trkpt lat="49.194824" lon="19.014044"><ele>1471</ele></trkpt>
    <trkpt lat="49.194740" lon="19.013977"><ele>1475</ele></trkpt>
    <trkpt lat="49.194384" lon="19.014110"><ele>1482</ele></trkpt>
    <trkpt lat="49.193941" lon="19.014117"><ele>1495</ele></trkpt>
    <trkpt lat="49.193840" lon="19.014046"><ele>1499</ele></trkpt>
    <trkpt lat="49.193374" lon="19.013944"><ele>1509</ele></trkpt>
    <trkpt lat="49.192920" lon="19.013895"><ele>1515</ele></trkpt>
    <trkpt lat="49.192894" lon="19.013643"><ele>1511</ele></trkpt>
    <trkpt lat="49.192912" lon="19.013441"><ele>1507</ele></trkpt>
    <trkpt lat="49.193087" lon="19.013002"><ele>1503</ele></trkpt>
    <trkpt lat="49.193360" lon="19.012035"><ele>1506</ele></trkpt>
    <trkpt lat="49.193519" lon="19.011579"><ele>1511</ele></trkpt>
    <trkpt lat="49.193558" lon="19.011288"><ele>1512</ele></trkpt>
    <trkpt lat="49.193729" lon="19.010806"><ele>1516</ele></trkpt>
    <trkpt lat="49.193733" lon="19.010525"><ele>1518</ele></trkpt>
    <trkpt lat="49.193644" lon="19.009931"><ele>1525</ele></trkpt>
    <trkpt lat="49.193623" lon="19.009358"><ele>1533</ele></trkpt>
    <trkpt lat="49.193683" lon="19.008760"><ele>1533</ele></trkpt>
    <trkpt lat="49.193675" lon="19.008495"><ele>1532</ele></trkpt>
    <trkpt lat="49.193749" lon="19.008178"><ele>1530</ele></trkpt>
    <trkpt lat="49.193880" lon="19.007950"><ele>1527</ele></trkpt>
    <trkpt lat="49.193974" lon="19.007894"><ele>1524</ele></trkpt>
    <trkpt lat="49.194020" lon="19.007687"><ele>1519</ele></trkpt>
    <trkpt lat="49.194193" lon="19.007378"><ele>1510</ele></trkpt>
    <trkpt lat="49.194469" lon="19.007290"><ele>1503</ele></trkpt>
    <trkpt lat="49.194650" lon="19.007355"><ele>1499</ele></trkpt>
    <trkpt lat="49.194684" lon="19.007319"><ele>1498</ele></trkpt>
    <trkpt lat="49.194757" lon="19.007034"><ele>1493</ele></trkpt>
    <trkpt lat="49.194918" lon="19.006867"><ele>1487</ele></trkpt>
    <trkpt lat="49.195021" lon="19.006629"><ele>1482</ele></trkpt>
    <trkpt lat="49.195114" lon="19.006534"><ele>1478</ele></trkpt>
    <trkpt lat="49.195109" lon="19.006403"><ele>1476</ele></trkpt>
    <trkpt lat="49.195264" lon="19.006215"><ele>1469</ele></trkpt>
    <trkpt lat="49.195424" lon="19.005888"><ele>1457</ele></trkpt>
    <trkpt lat="49.195452" lon="19.005851"><ele>1456</ele></trkpt>
    <trkpt lat="49.195709" lon="19.005829"><ele>1452</ele></trkpt>
    <trkpt lat="49.195862" lon="19.005661"><ele>1449</ele></trkpt>
    <trkpt lat="49.195879" lon="19.005540"><ele>1449</ele></trkpt>
    <trkpt lat="49.195988" lon="19.005410"><ele>1450</ele></trkpt>
    <trkpt lat="49.196054" lon="19.005220"><ele>1452</ele></trkpt>
    <trkpt lat="49.196244" lon="19.005056"><ele>1453</ele></trkpt>
    <trkpt lat="49.196375" lon="19.004996"><ele>1454</ele></trkpt>
    <trkpt lat="49.196378" lon="19.004898"><ele>1454</ele></trkpt>
    <trkpt lat="49.196556" lon="19.004831"><ele>1452</ele></trkpt>
    <trkpt lat="49.196577" lon="19.004780"><ele>1452</ele></trkpt>
    <trkpt lat="49.196525" lon="19.004711"><ele>1454</ele></trkpt>
    <trkpt lat="49.196536" lon="19.004607"><ele>1455</ele></trkpt>
    <trkpt lat="49.196596" lon="19.004559"><ele>1455</ele></trkpt>
    <trkpt lat="49.196624" lon="19.004398"><ele>1457</ele></trkpt>
    <trkpt lat="49.196784" lon="19.004192"><ele>1458</ele></trkpt>
    <trkpt lat="49.196950" lon="19.004130"><ele>1460</ele></trkpt>
    <trkpt lat="49.197040" lon="19.004170"><ele>1459</ele></trkpt>
    <trkpt lat="49.197186" lon="19.004013"><ele>1460</ele></trkpt>
    <trkpt lat="49.197040" lon="19.004170"><ele>1459</ele></trkpt>
    <trkpt lat="49.196950" lon="19.004130"><ele>1460</ele></trkpt>
    <trkpt lat="49.196784" lon="19.004192"><ele>1458</ele></trkpt>
    <trkpt lat="49.196624" lon="19.004398"><ele>1457</ele></trkpt>
    <trkpt lat="49.196596" lon="19.004559"><ele>1455</ele></trkpt>
    <trkpt lat="49.196536" lon="19.004607"><ele>1455</ele></trkpt>
    <trkpt lat="49.196525" lon="19.004711"><ele>1454</ele></trkpt>
    <trkpt lat="49.196577" lon="19.004780"><ele>1452</ele></trkpt>
    <trkpt lat="49.196556" lon="19.004831"><ele>1452</ele></trkpt>
    <trkpt lat="49.196378" lon="19.004898"><ele>1454</ele></trkpt>
    <trkpt lat="49.196375" lon="19.004996"><ele>1454</ele></trkpt>
    <trkpt lat="49.196244" lon="19.005056"><ele>1453</ele></trkpt>
    <trkpt lat="49.196054" lon="19.005220"><ele>1452</ele></trkpt>
    <trkpt lat="49.195988" lon="19.005410"><ele>1450</ele></trkpt>
    <trkpt lat="49.195879" lon="19.005540"><ele>1449</ele></trkpt>
    <trkpt lat="49.195862" lon="19.005661"><ele>1449</ele></trkpt>
    <trkpt lat="49.195709" lon="19.005829"><ele>1452</ele></trkpt>
    <trkpt lat="49.195452" lon="19.005851"><ele>1456</ele></trkpt>
    <trkpt lat="49.195424" lon="19.005888"><ele>1457</ele></trkpt>
    <trkpt lat="49.195264" lon="19.006215"><ele>1469</ele></trkpt>
    <trkpt lat="49.195109" lon="19.006403"><ele>1476</ele></trkpt>
    <trkpt lat="49.195114" lon="19.006534"><ele>1478</ele></trkpt>
    <trkpt lat="49.195021" lon="19.006629"><ele>1482</ele></trkpt>
    <trkpt lat="49.194918" lon="19.006867"><ele>1487</ele></trkpt>
    <trkpt lat="49.194757" lon="19.007034"><ele>1493</ele></trkpt>
    <trkpt lat="49.194684" lon="19.007319"><ele>1498</ele></trkpt>
    <trkpt lat="49.194650" lon="19.007355"><ele>1499</ele></trkpt>
    <trkpt lat="49.194469" lon="19.007290"><ele>1503</ele></trkpt>
    <trkpt lat="49.194193" lon="19.007378"><ele>1510</ele></trkpt>
    <trkpt lat="49.194020" lon="19.007687"><ele>1519</ele></trkpt>
    <trkpt lat="49.193974" lon="19.007894"><ele>1524</ele></trkpt>
    <trkpt lat="49.193880" lon="19.007950"><ele>1527</ele></trkpt>
    <trkpt lat="49.193749" lon="19.008178"><ele>1530</ele></trkpt>
    <trkpt lat="49.193675" lon="19.008495"><ele>1532</ele></trkpt>
    <trkpt lat="49.193683" lon="19.008760"><ele>1533</ele></trkpt>
    <trkpt lat="49.193623" lon="19.009358"><ele>1533</ele></trkpt>
    <trkpt lat="49.193644" lon="19.009931"><ele>1525</ele></trkpt>
    <trkpt lat="49.193733" lon="19.010525"><ele>1518</ele></trkpt>
    <trkpt lat="49.193729" lon="19.010806"><ele>1516</ele></trkpt>
    <trkpt lat="49.193558" lon="19.011288"><ele>1512</ele></trkpt>
    <trkpt lat="49.193519" lon="19.011579"><ele>1511</ele></trkpt>
    <trkpt lat="49.193360" lon="19.012035"><ele>1506</ele></trkpt>
    <trkpt lat="49.193087" lon="19.013002"><ele>1503</ele></trkpt>
    <trkpt lat="49.192912" lon="19.013441"><ele>1507</ele></trkpt>
    <trkpt lat="49.192894" lon="19.013643"><ele>1511</ele></trkpt>
    <trkpt lat="49.192920" lon="19.013895"><ele>1515</ele></trkpt>
    <trkpt lat="49.193374" lon="19.013944"><ele>1509</ele></trkpt>
    <trkpt lat="49.193840" lon="19.014046"><ele>1499</ele></trkpt>
    <trkpt lat="49.193941" lon="19.014117"><ele>1495</ele></trkpt>
    <trkpt lat="49.194384" lon="19.014110"><ele>1482</ele></trkpt>
    <trkpt lat="49.194740" lon="19.013977"><ele>1475</ele></trkpt>
    <trkpt lat="49.194824" lon="19.014044"><ele>1471</ele></trkpt>
    <trkpt lat="49.194869" lon="19.014039"><ele>1470</ele></trkpt>
    <trkpt lat="49.194898" lon="19.013981"><ele>1471</ele></trkpt>
    <trkpt lat="49.194983" lon="19.014060"><ele>1467</ele></trkpt>
    <trkpt lat="49.195122" lon="19.014060"><ele>1465</ele></trkpt>
    <trkpt lat="49.195232" lon="19.014009"><ele>1466</ele></trkpt>
    <trkpt lat="49.195419" lon="19.014046"><ele>1463</ele></trkpt>
    <trkpt lat="49.195494" lon="19.014000"><ele>1463</ele></trkpt>
    <trkpt lat="49.195799" lon="19.014063"><ele>1455</ele></trkpt>
    <trkpt lat="49.195991" lon="19.014251"><ele>1446</ele></trkpt>
    <trkpt lat="49.196244" lon="19.014211"><ele>1438</ele></trkpt>
    <trkpt lat="49.196284" lon="19.014145"><ele>1437</ele></trkpt>
    <trkpt lat="49.196544" lon="19.014067"><ele>1427</ele></trkpt>
    <trkpt lat="49.196702" lon="19.014252"><ele>1420</ele></trkpt>
    <trkpt lat="49.197025" lon="19.014293"><ele>1407</ele></trkpt>
    <trkpt lat="49.197349" lon="19.014261"><ele>1395</ele></trkpt>
    <trkpt lat="49.197740" lon="19.014401"><ele>1384</ele></trkpt>
    <trkpt lat="49.197853" lon="19.014298"><ele>1379</ele></trkpt>
    <trkpt lat="49.197968" lon="19.014388"><ele>1377</ele></trkpt>
    <trkpt lat="49.198125" lon="19.014354"><ele>1372</ele></trkpt>
    <trkpt lat="49.198189" lon="19.014465"><ele>1371</ele></trkpt>
    <trkpt lat="49.198408" lon="19.014523"><ele>1363</ele></trkpt>
    <trkpt lat="49.198709" lon="19.014502"><ele>1351</ele></trkpt>
    <trkpt lat="49.198987" lon="19.014287"><ele>1337</ele></trkpt>
    <trkpt lat="49.199288" lon="19.014330"><ele>1327</ele></trkpt>
    <trkpt lat="49.199309" lon="19.014394"><ele>1328</ele></trkpt>
    <trkpt lat="49.199438" lon="19.014459"><ele>1325</ele></trkpt>
    <trkpt lat="49.200125" lon="19.014459"><ele>1308</ele></trkpt>
    <trkpt lat="49.200318" lon="19.014630"><ele>1304</ele></trkpt>
    <trkpt lat="49.200761" lon="19.014571"><ele>1293</ele></trkpt>
    <trkpt lat="49.201005" lon="19.014459"><ele>1287</ele></trkpt>
    <trkpt lat="49.201176" lon="19.014459"><ele>1282</ele></trkpt>
    <trkpt lat="49.201262" lon="19.014394"><ele>1279</ele></trkpt>
    <trkpt lat="49.201412" lon="19.014437"><ele>1276</ele></trkpt>
    <trkpt lat="49.201863" lon="19.014373"><ele>1270</ele></trkpt>
    <trkpt lat="49.202668" lon="19.014555"><ele>1257</ele></trkpt>
    <trkpt lat="49.202774" lon="19.014715"><ele>1256</ele></trkpt>
    <trkpt lat="49.202867" lon="19.014722"><ele>1253</ele></trkpt>
    <trkpt lat="49.203039" lon="19.014876"><ele>1247</ele></trkpt>
    <trkpt lat="49.203172" lon="19.014888"><ele>1244</ele></trkpt>
    <trkpt lat="49.203578" lon="19.015261"><ele>1233</ele></trkpt>
    <trkpt lat="49.204271" lon="19.015642"><ele>1227</ele></trkpt>
    <trkpt lat="49.203805" lon="19.016451"><ele>1205</ele></trkpt>
    <trkpt lat="49.203783" lon="19.016547"><ele>1204</ele></trkpt>
    <trkpt lat="49.203715" lon="19.016595"><ele>1202</ele></trkpt>
    <trkpt lat="49.203555" lon="19.016883"><ele>1200</ele></trkpt>
    <trkpt lat="49.203421" lon="19.017194"><ele>1198</ele></trkpt>
    <trkpt lat="49.203303" lon="19.017663"><ele>1192</ele></trkpt>
    <trkpt lat="49.203188" lon="19.018361"><ele>1181</ele></trkpt>
    <trkpt lat="49.203032" lon="19.018941"><ele>1173</ele></trkpt>
    <trkpt lat="49.203007" lon="19.019167"><ele>1168</ele></trkpt>
    <trkpt lat="49.202899" lon="19.019434"><ele>1165</ele></trkpt>
    <trkpt lat="49.202798" lon="19.019946"><ele>1157</ele></trkpt>
    <trkpt lat="49.202817" lon="19.019997"><ele>1156</ele></trkpt>
    <trkpt lat="49.203094" lon="19.020091"><ele>1143</ele></trkpt>
    <trkpt lat="49.203178" lon="19.020330"><ele>1131</ele></trkpt>
    <trkpt lat="49.203495" lon="19.020758"><ele>1106</ele></trkpt>
    <trkpt lat="49.203645" lon="19.021147"><ele>1091</ele></trkpt>
    <trkpt lat="49.203676" lon="19.021253"><ele>1089</ele></trkpt>
    <trkpt lat="49.203676" lon="19.021613"><ele>1081</ele></trkpt>
    <trkpt lat="49.203745" lon="19.021966"><ele>1073</ele></trkpt>
    <trkpt lat="49.203914" lon="19.022494"><ele>1061</ele></trkpt>
    <trkpt lat="49.204139" lon="19.022999"><ele>1051</ele></trkpt>
    <trkpt lat="49.204152" lon="19.023358"><ele>1041</ele></trkpt>
    <trkpt lat="49.204252" lon="19.023649"><ele>1032</ele></trkpt>
    <trkpt lat="49.204227" lon="19.023882"><ele>1029</ele></trkpt>
    <trkpt lat="49.204104" lon="19.024018"><ele>1029</ele></trkpt>
    <trkpt lat="49.203706" lon="19.024013"><ele>1023</ele></trkpt>
    <trkpt lat="49.203684" lon="19.024085"><ele>1020</ele></trkpt>
    <trkpt lat="49.203763" lon="19.024322"><ele>1012</ele></trkpt>
    <trkpt lat="49.203767" lon="19.024439"><ele>1007</ele></trkpt>
    <trkpt lat="49.203181" lon="19.024245"><ele>988</ele></trkpt>
    <trkpt lat="49.203087" lon="19.024245"><ele>984</ele></trkpt>
    <trkpt lat="49.203074" lon="19.024317"><ele>981</ele></trkpt>
    <trkpt lat="49.203204" lon="19.024568"><ele>977</ele></trkpt>
    <trkpt lat="49.203376" lon="19.025136"><ele>962</ele></trkpt>
    <trkpt lat="49.203554" lon="19.025437"><ele>960</ele></trkpt>
    <trkpt lat="49.203769" lon="19.026109"><ele>940</ele></trkpt>
    <trkpt lat="49.203874" lon="19.026211"><ele>936</ele></trkpt>
    <trkpt lat="49.204041" lon="19.026233"><ele>936</ele></trkpt>
    <trkpt lat="49.204453" lon="19.026621"><ele>922</ele></trkpt>
    <trkpt lat="49.204599" lon="19.026827"><ele>917</ele></trkpt>
    <trkpt lat="49.204766" lon="19.027228"><ele>908</ele></trkpt>
    <trkpt lat="49.205302" lon="19.027785"><ele>893</ele></trkpt>
    <trkpt lat="49.205693" lon="19.028343"><ele>884</ele></trkpt>
    <trkpt lat="49.205817" lon="19.029033"><ele>868</ele></trkpt>
    <trkpt lat="49.206141" lon="19.030016"><ele>847</ele></trkpt>
    <trkpt lat="49.206197" lon="19.030487"><ele>845</ele></trkpt>
    <trkpt lat="49.206336" lon="19.030718"><ele>842</ele></trkpt>
    <trkpt lat="49.206444" lon="19.030812"><ele>841</ele></trkpt>
    <trkpt lat="49.206569" lon="19.031143"><ele>838</ele></trkpt>
    <trkpt lat="49.206818" lon="19.031533"><ele>832</ele></trkpt>
    <trkpt lat="49.207046" lon="19.031743"><ele>829</ele></trkpt>
    <trkpt lat="49.207387" lon="19.032299"><ele>818</ele></trkpt>
    <trkpt lat="49.207830" lon="19.032585"><ele>815</ele></trkpt>
    <trkpt lat="49.208036" lon="19.032844"><ele>809</ele></trkpt>
    <trkpt lat="49.208393" lon="19.033787"><ele>797</ele></trkpt>
    <trkpt lat="49.208679" lon="19.034409"><ele>787</ele></trkpt>
    <trkpt lat="49.208821" lon="19.034547"><ele>785</ele></trkpt>
    <trkpt lat="49.209234" lon="19.034707"><ele>777</ele></trkpt>
    <trkpt lat="49.209329" lon="19.034803"><ele>774</ele></trkpt>
    <trkpt lat="49.209413" lon="19.035004"><ele>766</ele></trkpt>
    <trkpt lat="49.209530" lon="19.035472"><ele>760</ele></trkpt>
    <trkpt lat="49.209909" lon="19.036365"><ele>749</ele></trkpt>
    <trkpt lat="49.210014" lon="19.036857"><ele>743</ele></trkpt>
    <trkpt lat="49.210102" lon="19.037107"><ele>743</ele></trkpt>
    <trkpt lat="49.210673" lon="19.037661"><ele>729</ele></trkpt>
    <trkpt lat="49.210838" lon="19.038023"><ele>725</ele></trkpt>
    <trkpt lat="49.211057" lon="19.038312"><ele>732</ele></trkpt>
    <trkpt lat="49.211585" lon="19.038549"><ele>708</ele></trkpt>
    <trkpt lat="49.212159" lon="19.038452"><ele>695</ele></trkpt>
    <trkpt lat="49.212419" lon="19.038784"><ele>700</ele></trkpt>
  </trkseg></trk>
</gpx>
