<?xml version="1.0" encoding="UTF-8"?>
<gpx version="1.1" creator="MounTour (OpenStreetMap)" xmlns="http://www.topografix.com/GPX/1/1">
  <metadata><name>Horná lúka</name><copyright author="OpenStreetMap contributors"><license>https://opendatacommons.org/licenses/odbl/</license></copyright></metadata>
  <trk><name>Horná lúka</name><trkseg>
    <trkpt lat="49.083565" lon="18.738494"><ele>602</ele></trkpt>
    <trkpt lat="49.083760" lon="18.740745"><ele>608</ele></trkpt>
    <trkpt lat="49.083927" lon="18.741549"><ele>606</ele></trkpt>
    <trkpt lat="49.083965" lon="18.742153"><ele>608</ele></trkpt>
    <trkpt lat="49.083970" lon="18.742756"><ele>609</ele></trkpt>
    <trkpt lat="49.083919" lon="18.744127"><ele>637</ele></trkpt>
    <trkpt lat="49.083935" lon="18.745669"><ele>640</ele></trkpt>
    <trkpt lat="49.083890" lon="18.747351"><ele>638</ele></trkpt>
    <trkpt lat="49.083968" lon="18.748007"><ele>635</ele></trkpt>
    <trkpt lat="49.084020" lon="18.749212"><ele>636</ele></trkpt>
    <trkpt lat="49.084158" lon="18.750495"><ele>637</ele></trkpt>
    <trkpt lat="49.084396" lon="18.751469"><ele>653</ele></trkpt>
    <trkpt lat="49.084442" lon="18.751734"><ele>660</ele></trkpt>
    <trkpt lat="49.084479" lon="18.752297"><ele>659</ele></trkpt>
    <trkpt lat="49.084455" lon="18.753298"><ele>652</ele></trkpt>
    <trkpt lat="49.084351" lon="18.754253"><ele>657</ele></trkpt>
    <trkpt lat="49.084298" lon="18.755052"><ele>659</ele></trkpt>
    <trkpt lat="49.084253" lon="18.755250"><ele>658</ele></trkpt>
    <trkpt lat="49.084012" lon="18.755698"><ele>662</ele></trkpt>
    <trkpt lat="49.083900" lon="18.756004"><ele>660</ele></trkpt>
    <trkpt lat="49.083766" lon="18.757428"><ele>666</ele></trkpt>
    <trkpt lat="49.083662" lon="18.758026"><ele>670</ele></trkpt>
    <trkpt lat="49.083554" lon="18.758388"><ele>677</ele></trkpt>
    <trkpt lat="49.083307" lon="18.758540"><ele>680</ele></trkpt>
    <trkpt lat="49.082392" lon="18.759462"><ele>691</ele></trkpt>
    <trkpt lat="49.082053" lon="18.759939"><ele>698</ele></trkpt>
    <trkpt lat="49.081748" lon="18.760248"><ele>701</ele></trkpt>
    <trkpt lat="49.081291" lon="18.760572"><ele>705</ele></trkpt>
    <trkpt lat="49.081092" lon="18.760758"><ele>712</ele></trkpt>
    <trkpt lat="49.080360" lon="18.761650"><ele>737</ele></trkpt>
    <trkpt lat="49.079814" lon="18.762401"><ele>743</ele></trkpt>
    <trkpt lat="49.079552" lon="18.762626"><ele>742</ele></trkpt>
    <trkpt lat="49.079219" lon="18.763135"><ele>750</ele></trkpt>
    <trkpt lat="49.078796" lon="18.763559"><ele>758</ele></trkpt>
    <trkpt lat="49.078385" lon="18.763865"><ele>765</ele></trkpt>
    <trkpt lat="49.078258" lon="18.763951"><ele>767</ele></trkpt>
    <trkpt lat="49.077988" lon="18.764026"><ele>775</ele></trkpt>
    <trkpt lat="49.077239" lon="18.764032"><ele>785</ele></trkpt>
    <trkpt lat="49.076540" lon="18.764117"><ele>792</ele></trkpt>
    <trkpt lat="49.075908" lon="18.764085"><ele>798</ele></trkpt>
    <trkpt lat="49.075640" lon="18.764112"><ele>800</ele></trkpt>
    <trkpt lat="49.075117" lon="18.764321"><ele>798</ele></trkpt>
    <trkpt lat="49.074899" lon="18.764469"><ele>792</ele></trkpt>
    <trkpt lat="49.074820" lon="18.764688"><ele>784</ele></trkpt>
    <trkpt lat="49.074741" lon="18.765147"><ele>783</ele></trkpt>
    <trkpt lat="49.074203" lon="18.767378"><ele>825</ele></trkpt>
    <trkpt lat="49.073612" lon="18.769128"><ele>851</ele></trkpt>
    <trkpt lat="49.073481" lon="18.769534"><ele>853</ele></trkpt>
    <trkpt lat="49.073473" lon="18.769664"><ele>852</ele></trkpt>
    <trkpt lat="49.073171" lon="18.770545"><ele>864</ele></trkpt>
    <trkpt lat="49.073057" lon="18.771180"><ele>870</ele></trkpt>
    <trkpt lat="49.072970" lon="18.771430"><ele>878</ele></trkpt>
    <trkpt lat="49.072710" lon="18.771816"><ele>890</ele></trkpt>
    <trkpt lat="49.072628" lon="18.772027"><ele>893</ele></trkpt>
    <trkpt lat="49.072362" lon="18.772448"><ele>898</ele></trkpt>
    <trkpt lat="49.072116" lon="18.772711"><ele>905</ele></trkpt>
    <trkpt lat="49.071875" lon="18.773114"><ele>914</ele></trkpt>
    <trkpt lat="49.071634" lon="18.773671"><ele>922</ele></trkpt>
    <trkpt lat="49.071469" lon="18.773875"><ele>925</ele></trkpt>
    <trkpt lat="49.071064" lon="18.774317"><ele>941</ele></trkpt>
    <trkpt lat="49.070790" lon="18.774506"><ele>953</ele></trkpt>
    <trkpt lat="49.069874" lon="18.774991"><ele>979</ele></trkpt>
    <trkpt lat="49.069793" lon="18.775096"><ele>984</ele></trkpt>
    <trkpt lat="49.069524" lon="18.775506"><ele>994</ele></trkpt>
    <trkpt lat="49.069265" lon="18.776173"><ele>1003</ele></trkpt>
    <trkpt lat="49.069217" lon="18.776443"><ele>1004</ele></trkpt>
    <trkpt lat="49.069120" lon="18.776579"><ele>1003</ele></trkpt>
    <trkpt lat="49.068998" lon="18.776630"><ele>999</ele></trkpt>
    <trkpt lat="49.068929" lon="18.776614"><ele>996</ele></trkpt>
    <trkpt lat="49.068867" lon="18.776540"><ele>995</ele></trkpt>
    <trkpt lat="49.068781" lon="18.776184"><ele>1001</ele></trkpt>
    <trkpt lat="49.068746" lon="18.775588"><ele>1003</ele></trkpt>
    <trkpt lat="49.068846" lon="18.774810"><ele>1009</ele></trkpt>
    <trkpt lat="49.069038" lon="18.774280"><ele>1013</ele></trkpt>
    <trkpt lat="49.069425" lon="18.773655"><ele>1014</ele></trkpt>
    <trkpt lat="49.069660" lon="18.773199"><ele>1017</ele></trkpt>
    <trkpt lat="49.070010" lon="18.772237"><ele>1017</ele></trkpt>
    <trkpt lat="49.070117" lon="18.771703"><ele>1013</ele></trkpt>
    <trkpt lat="49.070138" lon="18.771254"><ele>1012</ele></trkpt>
    <trkpt lat="49.070113" lon="18.771052"><ele>1012</ele></trkpt>
    <trkpt lat="49.070073" lon="18.770973"><ele>1011</ele></trkpt>
    <trkpt lat="49.067839" lon="18.773186"><ele>1080</ele></trkpt>
    <trkpt lat="49.067243" lon="18.773813"><ele>1081</ele></trkpt>
    <trkpt lat="49.067069" lon="18.774060"><ele>1089</ele></trkpt>
    <trkpt lat="49.066366" lon="18.774852"><ele>1127</ele></trkpt>
    <trkpt lat="49.066192" lon="18.775112"><ele>1132</ele></trkpt>
    <trkpt lat="49.065530" lon="18.776370"><ele>1154</ele></trkpt>
    <trkpt lat="49.065101" lon="18.776866"><ele>1167</ele></trkpt>
    <trkpt lat="49.064767" lon="18.777317"><ele>1184</ele></trkpt>
    <trkpt lat="49.064525" lon="18.777516"><ele>1192</ele></trkpt>
    <trkpt lat="49.063975" lon="18.778293"><ele>1213</ele></trkpt>
    <trkpt lat="49.063614" lon="18.779128"><ele>1228</ele></trkpt>
    <trkpt lat="49.063575" lon="18.779374"><ele>1233</ele></trkpt>
    <trkpt lat="49.063440" lon="18.779808"><ele>1238</ele></trkpt>
    <trkpt lat="49.063767" lon="18.780482"><ele>1241</ele></trkpt>
    <trkpt lat="49.063874" lon="18.780632"><ele>1243</ele></trkpt>
    <trkpt lat="49.064110" lon="18.781164"><ele>1240</ele></trkpt>
    <trkpt lat="49.064180" lon="18.781635"><ele>1242</ele></trkpt>
    <trkpt lat="49.064328" lon="18.782069"><ele>1248</ele></trkpt>
    <trkpt lat="49.064458" lon="18.782633"><ele>1260</ele></trkpt>
    <trkpt lat="49.064586" lon="18.782979"><ele>1267</ele></trkpt>
    <trkpt lat="49.064589" lon="18.783448"><ele>1277</ele></trkpt>
    <trkpt lat="49.064892" lon="18.784430"><ele>1297</ele></trkpt>
    <trkpt lat="49.064872" lon="18.784861"><ele>1298</ele></trkpt>
    <trkpt lat="49.064892" lon="18.784430"><ele>1297</ele></trkpt>
    <trkpt lat="49.064589" lon="18.783448"><ele>1277</ele></trkpt>
    <trkpt lat="49.064586" lon="18.782979"><ele>1267</ele></trkpt>
    <trkpt lat="49.064458" lon="18.782633"><ele>1260</ele></trkpt>
    <trkpt lat="49.064328" lon="18.782069"><ele>1248</ele></trkpt>
    <trkpt lat="49.064180" lon="18.781635"><ele>1242</ele></trkpt>
    <trkpt lat="49.064110" lon="18.781164"><ele>1240</ele></trkpt>
    <trkpt lat="49.063874" lon="18.780632"><ele>1243</ele></trkpt>
    <trkpt lat="49.063767" lon="18.780482"><ele>1241</ele></trkpt>
    <trkpt lat="49.063440" lon="18.779808"><ele>1238</ele></trkpt>
    <trkpt lat="49.063575" lon="18.779374"><ele>1233</ele></trkpt>
    <trkpt lat="49.063614" lon="18.779128"><ele>1228</ele></trkpt>
    <trkpt lat="49.063975" lon="18.778293"><ele>1213</ele></trkpt>
    <trkpt lat="49.064525" lon="18.777516"><ele>1192</ele></trkpt>
    <trkpt lat="49.064767" lon="18.777317"><ele>1184</ele></trkpt>
    <trkpt lat="49.065101" lon="18.776866"><ele>1167</ele></trkpt>
    <trkpt lat="49.065530" lon="18.776370"><ele>1154</ele></trkpt>
    <trkpt lat="49.066192" lon="18.775112"><ele>1132</ele></trkpt>
    <trkpt lat="49.066366" lon="18.774852"><ele>1127</ele></trkpt>
    <trkpt lat="49.067069" lon="18.774060"><ele>1089</ele></trkpt>
    <trkpt lat="49.067243" lon="18.773813"><ele>1081</ele></trkpt>
    <trkpt lat="49.067839" lon="18.773186"><ele>1080</ele></trkpt>
    <trkpt lat="49.070073" lon="18.770973"><ele>1011</ele></trkpt>
    <trkpt lat="49.070113" lon="18.771052"><ele>1012</ele></trkpt>
    <trkpt lat="49.070138" lon="18.771254"><ele>1012</ele></trkpt>
    <trkpt lat="49.070117" lon="18.771703"><ele>1013</ele></trkpt>
    <trkpt lat="49.070010" lon="18.772237"><ele>1017</ele></trkpt>
    <trkpt lat="49.069660" lon="18.773199"><ele>1017</ele></trkpt>
    <trkpt lat="49.069425" lon="18.773655"><ele>1014</ele></trkpt>
    <trkpt lat="49.069038" lon="18.774280"><ele>1013</ele></trkpt>
    <trkpt lat="49.068846" lon="18.774810"><ele>1009</ele></trkpt>
    <trkpt lat="49.068746" lon="18.775588"><ele>1003</ele></trkpt>
    <trkpt lat="49.068781" lon="18.776184"><ele>1001</ele></trkpt>
    <trkpt lat="49.068867" lon="18.776540"><ele>995</ele></trkpt>
    <trkpt lat="49.068929" lon="18.776614"><ele>996</ele></trkpt>
    <trkpt lat="49.068998" lon="18.776630"><ele>999</ele></trkpt>
    <trkpt lat="49.069120" lon="18.776579"><ele>1003</ele></trkpt>
    <trkpt lat="49.069217" lon="18.776443"><ele>1004</ele></trkpt>
    <trkpt lat="49.069265" lon="18.776173"><ele>1003</ele></trkpt>
    <trkpt lat="49.069524" lon="18.775506"><ele>994</ele></trkpt>
    <trkpt lat="49.069793" lon="18.775096"><ele>984</ele></trkpt>
    <trkpt lat="49.069874" lon="18.774991"><ele>979</ele></trkpt>
    <trkpt lat="49.070790" lon="18.774506"><ele>953</ele></trkpt>
    <trkpt lat="49.071064" lon="18.774317"><ele>941</ele></trkpt>
    <trkpt lat="49.071469" lon="18.773875"><ele>925</ele></trkpt>
    <trkpt lat="49.071634" lon="18.773671"><ele>922</ele></trkpt>
    <trkpt lat="49.071875" lon="18.773114"><ele>914</ele></trkpt>
    <trkpt lat="49.072116" lon="18.772711"><ele>905</ele></trkpt>
    <trkpt lat="49.072362" lon="18.772448"><ele>898</ele></trkpt>
    <trkpt lat="49.072628" lon="18.772027"><ele>893</ele></trkpt>
    <trkpt lat="49.072710" lon="18.771816"><ele>890</ele></trkpt>
    <trkpt lat="49.072970" lon="18.771430"><ele>878</ele></trkpt>
    <trkpt lat="49.073057" lon="18.771180"><ele>870</ele></trkpt>
    <trkpt lat="49.073171" lon="18.770545"><ele>864</ele></trkpt>
    <trkpt lat="49.073473" lon="18.769664"><ele>852</ele></trkpt>
    <trkpt lat="49.073481" lon="18.769534"><ele>853</ele></trkpt>
    <trkpt lat="49.073612" lon="18.769128"><ele>851</ele></trkpt>
    <trkpt lat="49.074203" lon="18.767378"><ele>825</ele></trkpt>
    <trkpt lat="49.074741" lon="18.765147"><ele>783</ele></trkpt>
    <trkpt lat="49.074820" lon="18.764688"><ele>784</ele></trkpt>
    <trkpt lat="49.074899" lon="18.764469"><ele>792</ele></trkpt>
    <trkpt lat="49.075117" lon="18.764321"><ele>798</ele></trkpt>
    <trkpt lat="49.075640" lon="18.764112"><ele>800</ele></trkpt>
    <trkpt lat="49.075908" lon="18.764085"><ele>798</ele></trkpt>
    <trkpt lat="49.076540" lon="18.764117"><ele>792</ele></trkpt>
    <trkpt lat="49.077239" lon="18.764032"><ele>785</ele></trkpt>
    <trkpt lat="49.077988" lon="18.764026"><ele>775</ele></trkpt>
    <trkpt lat="49.078258" lon="18.763951"><ele>767</ele></trkpt>
    <trkpt lat="49.078385" lon="18.763865"><ele>765</ele></trkpt>
    <trkpt lat="49.078796" lon="18.763559"><ele>758</ele></trkpt>
    <trkpt lat="49.079219" lon="18.763135"><ele>750</ele></trkpt>
    <trkpt lat="49.079552" lon="18.762626"><ele>742</ele></trkpt>
    <trkpt lat="49.079814" lon="18.762401"><ele>743</ele></trkpt>
    <trkpt lat="49.080360" lon="18.761650"><ele>737</ele></trkpt>
    <trkpt lat="49.081092" lon="18.760758"><ele>712</ele></trkpt>
    <trkpt lat="49.081291" lon="18.760572"><ele>705</ele></trkpt>
    <trkpt lat="49.081748" lon="18.760248"><ele>701</ele></trkpt>
    <trkpt lat="49.082053" lon="18.759939"><ele>698</ele></trkpt>
    <trkpt lat="49.082392" lon="18.759462"><ele>691</ele></trkpt>
    <trkpt lat="49.083307" lon="18.758540"><ele>680</ele></trkpt>
    <trkpt lat="49.083554" lon="18.758388"><ele>677</ele></trkpt>
    <trkpt lat="49.083662" lon="18.758026"><ele>670</ele></trkpt>
    <trkpt lat="49.083766" lon="18.757428"><ele>666</ele></trkpt>
    <trkpt lat="49.083900" lon="18.756004"><ele>660</ele></trkpt>
    <trkpt lat="49.084012" lon="18.755698"><ele>662</ele></trkpt>
    <trkpt lat="49.084253" lon="18.755250"><ele>658</ele></trkpt>
    <trkpt lat="49.084298" lon="18.755052"><ele>659</ele></trkpt>
    <trkpt lat="49.084351" lon="18.754253"><ele>657</ele></trkpt>
    <trkpt lat="49.084455" lon="18.753298"><ele>652</ele></trkpt>
    <trkpt lat="49.084479" lon="18.752297"><ele>659</ele></trkpt>
    <trkpt lat="49.084442" lon="18.751734"><ele>660</ele></trkpt>
    <trkpt lat="49.084396" lon="18.751469"><ele>653</ele></trkpt>
    <trkpt lat="49.084158" lon="18.750495"><ele>637</ele></trkpt>
    <trkpt lat="49.084020" lon="18.749212"><ele>636</ele></trkpt>
    <trkpt lat="49.083968" lon="18.748007"><ele>635</ele></trkpt>
    <trkpt lat="49.083890" lon="18.747351"><ele>638</ele></trkpt>
    <trkpt lat="49.083935" lon="18.745669"><ele>640</ele></trkpt>
    <trkpt lat="49.083919" lon="18.744127"><ele>637</ele></trkpt>
    <trkpt lat="49.083970" lon="18.742756"><ele>609</ele></trkpt>
    <trkpt lat="49.083965" lon="18.742153"><ele>608</ele></trkpt>
    <trkpt lat="49.083927" lon="18.741549"><ele>606</ele></trkpt>
    <trkpt lat="49.083760" lon="18.740745"><ele>608</ele></trkpt>
    <trkpt lat="49.083565" lon="18.738494"><ele>602</ele></trkpt>
  </trkseg></trk>
</gpx>
