<?xml version="1.0" encoding="UTF-8"?>
<gpx version="1.1" creator="MounTour (OpenStreetMap)" xmlns="http://www.topografix.com/GPX/1/1">
  <metadata><name>Hučavá diera</name><copyright author="OpenStreetMap contributors"><license>https://opendatacommons.org/licenses/odbl/</license></copyright></metadata>
  <trk><name>Hučavá diera</name><trkseg>
    <trkpt lat="49.224900" lon="20.323947"><ele>766</ele></trkpt>
    <trkpt lat="49.224436" lon="20.322626"><ele>765</ele></trkpt>
    <trkpt lat="49.224410" lon="20.322349"><ele>765</ele></trkpt>
    <trkpt lat="49.224444" lon="20.321804"><ele>767</ele></trkpt>
    <trkpt lat="49.224126" lon="20.321285"><ele>771</ele></trkpt>
    <trkpt lat="49.223847" lon="20.320996"><ele>773</ele></trkpt>
    <trkpt lat="49.223762" lon="20.320823"><ele>774</ele></trkpt>
    <trkpt lat="49.223515" lon="20.320635"><ele>776</ele></trkpt>
    <trkpt lat="49.223227" lon="20.320305"><ele>778</ele></trkpt>
    <trkpt lat="49.222808" lon="20.319591"><ele>784</ele></trkpt>
    <trkpt lat="49.222583" lon="20.318903"><ele>791</ele></trkpt>
    <trkpt lat="49.221951" lon="20.318001"><ele>800</ele></trkpt>
    <trkpt lat="49.221205" lon="20.316817"><ele>815</ele></trkpt>
    <trkpt lat="49.219944" lon="20.315367"><ele>837</ele></trkpt>
    <trkpt lat="49.219525" lon="20.314450"><ele>847</ele></trkpt>
    <trkpt lat="49.219300" lon="20.313837"><ele>852</ele></trkpt>
    <trkpt lat="49.219185" lon="20.313384"><ele>853</ele></trkpt>
    <trkpt lat="49.219220" lon="20.312259"><ele>870</ele></trkpt>
    <trkpt lat="49.219168" lon="20.311719"><ele>868</ele></trkpt>
    <trkpt lat="49.219202" lon="20.311492"><ele>870</ele></trkpt>
    <trkpt lat="49.219330" lon="20.311291"><ele>874</ele></trkpt>
    <trkpt lat="49.219448" lon="20.311020"><ele>878</ele></trkpt>
    <trkpt lat="49.219330" lon="20.311291"><ele>874</ele></trkpt>
    <trkpt lat="49.219202" lon="20.311492"><ele>870</ele></trkpt>
    <trkpt lat="49.219168" lon="20.311719"><ele>868</ele></trkpt>
    <trkpt lat="49.219220" lon="20.312259"><ele>870</ele></trkpt>
    <trkpt lat="49.219185" lon="20.313384"><ele>853</ele></trkpt>
    <trkpt lat="49.219300" lon="20.313837"><ele>852</ele></trkpt>
    <trkpt lat="49.219525" lon="20.314450"><ele>847</ele></trkpt>
    <trkpt lat="49.219944" lon="20.315367"><ele>837</ele></trkpt>
    <trkpt lat="49.221205" lon="20.316817"><ele>815</ele></trkpt>
    <trkpt lat="49.221951" lon="20.318001"><ele>800</ele></trkpt>
    <trkpt lat="49.222583" lon="20.318903"><ele>791</ele></trkpt>
    <trkpt lat="49.222808" lon="20.319591"><ele>784</ele></trkpt>
    <trkpt lat="49.223227" lon="20.320305"><ele>778</ele></trkpt>
    <trkpt lat="49.223515" lon="20.320635"><ele>776</ele></trkpt>
    <trkpt lat="49.223762" lon="20.320823"><ele>774</ele></trkpt>
    <trkpt lat="49.223847" lon="20.320996"><ele>773</ele></trkpt>
    <trkpt lat="49.224126" lon="20.321285"><ele>771</ele></trkpt>
    <trkpt lat="49.224444" lon="20.321804"><ele>767</ele></trkpt>
    <trkpt lat="49.224410" lon="20.322349"><ele>765</ele></trkpt>
    <trkpt lat="49.224436" lon="20.322626"><ele>765</ele></trkpt>
    <trkpt lat="49.224900" lon="20.323947"><ele>766</ele></trkpt>
  </trkseg></trk>
</gpx>
