<?xml version="1.0" encoding="UTF-8"?>
<gpx version="1.1" creator="MounTour (OpenStreetMap)" xmlns="http://www.topografix.com/GPX/1/1">
  <metadata><name>Jamské pleso</name><copyright author="OpenStreetMap contributors"><license>https://opendatacommons.org/licenses/odbl/</license></copyright></metadata>
  <trk><name>Jamské pleso</name><trkseg>
    <trkpt lat="49.135220" lon="19.970226"><ele>1176</ele></trkpt>
    <trkpt lat="49.135427" lon="19.970378"><ele>1177</ele></trkpt>
    <trkpt lat="49.135658" lon="19.970677"><ele>1177</ele></trkpt>
    <trkpt lat="49.135829" lon="19.971352"><ele>1180</ele></trkpt>
    <trkpt lat="49.135933" lon="19.971421"><ele>1180</ele></trkpt>
    <trkpt lat="49.136063" lon="19.971593"><ele>1181</ele></trkpt>
    <trkpt lat="49.136347" lon="19.972306"><ele>1188</ele></trkpt>
    <trkpt lat="49.136515" lon="19.972987"><ele>1195</ele></trkpt>
    <trkpt lat="49.136994" lon="19.973719"><ele>1198</ele></trkpt>
    <trkpt lat="49.137091" lon="19.974099"><ele>1202</ele></trkpt>
    <trkpt lat="49.137131" lon="19.974676"><ele>1208</ele></trkpt>
    <trkpt lat="49.137228" lon="19.975036"><ele>1210</ele></trkpt>
    <trkpt lat="49.137512" lon="19.975816"><ele>1218</ele></trkpt>
    <trkpt lat="49.137540" lon="19.976039"><ele>1221</ele></trkpt>
    <trkpt lat="49.137539" lon="19.976220"><ele>1223</ele></trkpt>
    <trkpt lat="49.137481" lon="19.976452"><ele>1226</ele></trkpt>
    <trkpt lat="49.137456" lon="19.976819"><ele>1231</ele></trkpt>
    <trkpt lat="49.137563" lon="19.977291"><ele>1236</ele></trkpt>
    <trkpt lat="49.137593" lon="19.977688"><ele>1241</ele></trkpt>
    <trkpt lat="49.137339" lon="19.978176"><ele>1250</ele></trkpt>
    <trkpt lat="49.137301" lon="19.978675"><ele>1257</ele></trkpt>
    <trkpt lat="49.137191" lon="19.979257"><ele>1267</ele></trkpt>
    <trkpt lat="49.137189" lon="19.979432"><ele>1269</ele></trkpt>
    <trkpt lat="49.137225" lon="19.979664"><ele>1272</ele></trkpt>
    <trkpt lat="49.137454" lon="19.980429"><ele>1280</ele></trkpt>
    <trkpt lat="49.137512" lon="19.980732"><ele>1284</ele></trkpt>
    <trkpt lat="49.137577" lon="19.981516"><ele>1295</ele></trkpt>
    <trkpt lat="49.137563" lon="19.982170"><ele>1302</ele></trkpt>
    <trkpt lat="49.137319" lon="19.983329"><ele>1314</ele></trkpt>
    <trkpt lat="49.137256" lon="19.983468"><ele>1316</ele></trkpt>
    <trkpt lat="49.136767" lon="19.983993"><ele>1321</ele></trkpt>
    <trkpt lat="49.136582" lon="19.984391"><ele>1323</ele></trkpt>
    <trkpt lat="49.136543" lon="19.984608"><ele>1323</ele></trkpt>
    <trkpt lat="49.136521" lon="19.985858"><ele>1325</ele></trkpt>
    <trkpt lat="49.136525" lon="19.986041"><ele>1326</ele></trkpt>
    <trkpt lat="49.136930" lon="19.986443"><ele>1334</ele></trkpt>
    <trkpt lat="49.137326" lon="19.986907"><ele>1344</ele></trkpt>
    <trkpt lat="49.137538" lon="19.987240"><ele>1350</ele></trkpt>
    <trkpt lat="49.137602" lon="19.987481"><ele>1352</ele></trkpt>
    <trkpt lat="49.137607" lon="19.987977"><ele>1356</ele></trkpt>
    <trkpt lat="49.137698" lon="19.989334"><ele>1367</ele></trkpt>
    <trkpt lat="49.137672" lon="19.989608"><ele>1369</ele></trkpt>
    <trkpt lat="49.137703" lon="19.989989"><ele>1374</ele></trkpt>
    <trkpt lat="49.137691" lon="19.990421"><ele>1378</ele></trkpt>
    <trkpt lat="49.137489" lon="19.991555"><ele>1391</ele></trkpt>
    <trkpt lat="49.137551" lon="19.992033"><ele>1399</ele></trkpt>
    <trkpt lat="49.137316" lon="19.992842"><ele>1408</ele></trkpt>
    <trkpt lat="49.136958" lon="19.993505"><ele>1412</ele></trkpt>
    <trkpt lat="49.136679" lon="19.993921"><ele>1412</ele></trkpt>
    <trkpt lat="49.136563" lon="19.994176"><ele>1413</ele></trkpt>
    <trkpt lat="49.136398" lon="19.994779"><ele>1417</ele></trkpt>
    <trkpt lat="49.136180" lon="19.995198"><ele>1418</ele></trkpt>
    <trkpt lat="49.136099" lon="19.995447"><ele>1423</ele></trkpt>
    <trkpt lat="49.135213" lon="19.997412"><ele>1427</ele></trkpt>
    <trkpt lat="49.134961" lon="19.998197"><ele>1431</ele></trkpt>
    <trkpt lat="49.133703" lon="20.000486"><ele>1433</ele></trkpt>
    <trkpt lat="49.133321" lon="20.001567"><ele>1445</ele></trkpt>
    <trkpt lat="49.133179" lon="20.001724"><ele>1442</ele></trkpt>
    <trkpt lat="49.133007" lon="20.002325"><ele>1443</ele></trkpt>
    <trkpt lat="49.132410" lon="20.003546"><ele>1444</ele></trkpt>
    <trkpt lat="49.132125" lon="20.004762"><ele>1447</ele></trkpt>
    <trkpt lat="49.131999" lon="20.005083"><ele>1446</ele></trkpt>
    <trkpt lat="49.131857" lon="20.005782"><ele>1443</ele></trkpt>
    <trkpt lat="49.131887" lon="20.006017"><ele>1444</ele></trkpt>
    <trkpt lat="49.132013" lon="20.006251"><ele>1448</ele></trkpt>
    <trkpt lat="49.132202" lon="20.006488"><ele>1455</ele></trkpt>
    <trkpt lat="49.132268" lon="20.006659"><ele>1458</ele></trkpt>
    <trkpt lat="49.132240" lon="20.006773"><ele>1458</ele></trkpt>
    <trkpt lat="49.132072" lon="20.007001"><ele>1454</ele></trkpt>
    <trkpt lat="49.132037" lon="20.007237"><ele>1454</ele></trkpt>
    <trkpt lat="49.132048" lon="20.007579"><ele>1456</ele></trkpt>
    <trkpt lat="49.132236" lon="20.008201"><ele>1463</ele></trkpt>
    <trkpt lat="49.132249" lon="20.008381"><ele>1464</ele></trkpt>
    <trkpt lat="49.132203" lon="20.008835"><ele>1463</ele></trkpt>
    <trkpt lat="49.132194" lon="20.009288"><ele>1466</ele></trkpt>
    <trkpt lat="49.132072" lon="20.010303"><ele>1462</ele></trkpt>
    <trkpt lat="49.132087" lon="20.010419"><ele>1461</ele></trkpt>
    <trkpt lat="49.132142" lon="20.010528"><ele>1461</ele></trkpt>
    <trkpt lat="49.132396" lon="20.010755"><ele>1465</ele></trkpt>
    <trkpt lat="49.132460" lon="20.010867"><ele>1465</ele></trkpt>
    <trkpt lat="49.132440" lon="20.011589"><ele>1457</ele></trkpt>
    <trkpt lat="49.132401" lon="20.011781"><ele>1455</ele></trkpt>
    <trkpt lat="49.132421" lon="20.011862"><ele>1455</ele></trkpt>
    <trkpt lat="49.132469" lon="20.011894"><ele>1456</ele></trkpt>
    <trkpt lat="49.132733" lon="20.011759"><ele>1457</ele></trkpt>
    <trkpt lat="49.132981" lon="20.011739"><ele>1456</ele></trkpt>
    <trkpt lat="49.132733" lon="20.011759"><ele>1457</ele></trkpt>
    <trkpt lat="49.132469" lon="20.011894"><ele>1456</ele></trkpt>
    <trkpt lat="49.132421" lon="20.011862"><ele>1455</ele></trkpt>
    <trkpt lat="49.132401" lon="20.011781"><ele>1455</ele></trkpt>
    <trkpt lat="49.132440" lon="20.011589"><ele>1457</ele></trkpt>
    <trkpt lat="49.132460" lon="20.010867"><ele>1465</ele></trkpt>
    <trkpt lat="49.132396" lon="20.010755"><ele>1465</ele></trkpt>
    <trkpt lat="49.132142" lon="20.010528"><ele>1461</ele></trkpt>
    <trkpt lat="49.132087" lon="20.010419"><ele>1461</ele></trkpt>
    <trkpt lat="49.132072" lon="20.010303"><ele>1462</ele></trkpt>
    <trkpt lat="49.132194" lon="20.009288"><ele>1466</ele></trkpt>
    <trkpt lat="49.132203" lon="20.008835"><ele>1463</ele></trkpt>
    <trkpt lat="49.132249" lon="20.008381"><ele>1464</ele></trkpt>
    <trkpt lat="49.132236" lon="20.008201"><ele>1463</ele></trkpt>
    <trkpt lat="49.132048" lon="20.007579"><ele>1456</ele></trkpt>
    <trkpt lat="49.132037" lon="20.007237"><ele>1454</ele></trkpt>
    <trkpt lat="49.132072" lon="20.007001"><ele>1454</ele></trkpt>
    <trkpt lat="49.132240" lon="20.006773"><ele>1458</ele></trkpt>
    <trkpt lat="49.132268" lon="20.006659"><ele>1458</ele></trkpt>
    <trkpt lat="49.132202" lon="20.006488"><ele>1455</ele></trkpt>
    <trkpt lat="49.132013" lon="20.006251"><ele>1448</ele></trkpt>
    <trkpt lat="49.131887" lon="20.006017"><ele>1444</ele></trkpt>
    <trkpt lat="49.131857" lon="20.005782"><ele>1443</ele></trkpt>
    <trkpt lat="49.131999" lon="20.005083"><ele>1446</ele></trkpt>
    <trkpt lat="49.132125" lon="20.004762"><ele>1447</ele></trkpt>
    <trkpt lat="49.132410" lon="20.003546"><ele>1444</ele></trkpt>
    <trkpt lat="49.133007" lon="20.002325"><ele>1443</ele></trkpt>
    <trkpt lat="49.133179" lon="20.001724"><ele>1442</ele></trkpt>
    <trkpt lat="49.133321" lon="20.001567"><ele>1445</ele></trkpt>
    <trkpt lat="49.133703" lon="20.000486"><ele>1433</ele></trkpt>
    <trkpt lat="49.134961" lon="19.998197"><ele>1431</ele></trkpt>
    <trkpt lat="49.135213" lon="19.997412"><ele>1427</ele></trkpt>
    <trkpt lat="49.136099" lon="19.995447"><ele>1423</ele></trkpt>
    <trkpt lat="49.136180" lon="19.995198"><ele>1418</ele></trkpt>
    <trkpt lat="49.136398" lon="19.994779"><ele>1417</ele></trkpt>
    <trkpt lat="49.136563" lon="19.994176"><ele>1413</ele></trkpt>
    <trkpt lat="49.136679" lon="19.993921"><ele>1412</ele></trkpt>
    <trkpt lat="49.136958" lon="19.993505"><ele>1412</ele></trkpt>
    <trkpt lat="49.137316" lon="19.992842"><ele>1408</ele></trkpt>
    <trkpt lat="49.137551" lon="19.992033"><ele>1399</ele></trkpt>
    <trkpt lat="49.137489" lon="19.991555"><ele>1391</ele></trkpt>
    <trkpt lat="49.137691" lon="19.990421"><ele>1378</ele></trkpt>
    <trkpt lat="49.137703" lon="19.989989"><ele>1374</ele></trkpt>
    <trkpt lat="49.137672" lon="19.989608"><ele>1369</ele></trkpt>
    <trkpt lat="49.137698" lon="19.989334"><ele>1367</ele></trkpt>
    <trkpt lat="49.137607" lon="19.987977"><ele>1356</ele></trkpt>
    <trkpt lat="49.137602" lon="19.987481"><ele>1352</ele></trkpt>
    <trkpt lat="49.137538" lon="19.987240"><ele>1350</ele></trkpt>
    <trkpt lat="49.137326" lon="19.986907"><ele>1344</ele></trkpt>
    <trkpt lat="49.136930" lon="19.986443"><ele>1334</ele></trkpt>
    <trkpt lat="49.136525" lon="19.986041"><ele>1326</ele></trkpt>
    <trkpt lat="49.136521" lon="19.985858"><ele>1325</ele></trkpt>
    <trkpt lat="49.136543" lon="19.984608"><ele>1323</ele></trkpt>
    <trkpt lat="49.136582" lon="19.984391"><ele>1323</ele></trkpt>
    <trkpt lat="49.136767" lon="19.983993"><ele>1321</ele></trkpt>
    <trkpt lat="49.137256" lon="19.983468"><ele>1316</ele></trkpt>
    <trkpt lat="49.137319" lon="19.983329"><ele>1314</ele></trkpt>
    <trkpt lat="49.137563" lon="19.982170"><ele>1302</ele></trkpt>
    <trkpt lat="49.137577" lon="19.981516"><ele>1295</ele></trkpt>
    <trkpt lat="49.137512" lon="19.980732"><ele>1284</ele></trkpt>
    <trkpt lat="49.137454" lon="19.980429"><ele>1280</ele></trkpt>
    <trkpt lat="49.137225" lon="19.979664"><ele>1272</ele></trkpt>
    <trkpt lat="49.137189" lon="19.979432"><ele>1269</ele></trkpt>
    <trkpt lat="49.137191" lon="19.979257"><ele>1267</ele></trkpt>
    <trkpt lat="49.137301" lon="19.978675"><ele>1257</ele></trkpt>
    <trkpt lat="49.137339" lon="19.978176"><ele>1250</ele></trkpt>
    <trkpt lat="49.137593" lon="19.977688"><ele>1241</ele></trkpt>
    <trkpt lat="49.137563" lon="19.977291"><ele>1236</ele></trkpt>
    <trkpt lat="49.137456" lon="19.976819"><ele>1231</ele></trkpt>
    <trkpt lat="49.137481" lon="19.976452"><ele>1226</ele></trkpt>
    <trkpt lat="49.137539" lon="19.976220"><ele>1223</ele></trkpt>
    <trkpt lat="49.137540" lon="19.976039"><ele>1221</ele></trkpt>
    <trkpt lat="49.137512" lon="19.975816"><ele>1218</ele></trkpt>
    <trkpt lat="49.137228" lon="19.975036"><ele>1210</ele></trkpt>
    <trkpt lat="49.137131" lon="19.974676"><ele>1208</ele></trkpt>
    <trkpt lat="49.137091" lon="19.974099"><ele>1202</ele></trkpt>
    <trkpt lat="49.136994" lon="19.973719"><ele>1198</ele></trkpt>
    <trkpt lat="49.136515" lon="19.972987"><ele>1195</ele></trkpt>
    <trkpt lat="49.136347" lon="19.972306"><ele>1188</ele></trkpt>
    <trkpt lat="49.136063" lon="19.971593"><ele>1181</ele></trkpt>
    <trkpt lat="49.135933" lon="19.971421"><ele>1180</ele></trkpt>
    <trkpt lat="49.135829" lon="19.971352"><ele>1180</ele></trkpt>
    <trkpt lat="49.135658" lon="19.970677"><ele>1177</ele></trkpt>
    <trkpt lat="49.135427" lon="19.970378"><ele>1177</ele></trkpt>
    <trkpt lat="49.135220" lon="19.970226"><ele>1176</ele></trkpt>
  </trkseg></trk>
</gpx>
