<?xml version="1.0" encoding="UTF-8"?>
<gpx version="1.1" creator="MounTour (OpenStreetMap)" xmlns="http://www.topografix.com/GPX/1/1">
  <metadata><name>Kamzík zo Železnej studničky</name><copyright author="OpenStreetMap contributors"><license>https://opendatacommons.org/licenses/odbl/</license></copyright></metadata>
  <trk><name>Kamzík zo Železnej studničky</name><trkseg>
    <trkpt lat="48.190244" lon="17.082094"><ele>233</ele></trkpt>
    <trkpt lat="48.190142" lon="17.082299"><ele>236</ele></trkpt>
    <trkpt lat="48.189959" lon="17.081977"><ele>235</ele></trkpt>
    <trkpt lat="48.189882" lon="17.081757"><ele>231</ele></trkpt>
    <trkpt lat="48.189684" lon="17.080696"><ele>230</ele></trkpt>
    <trkpt lat="48.189639" lon="17.080699"><ele>231</ele></trkpt>
    <trkpt lat="48.189419" lon="17.080148"><ele>230</ele></trkpt>
    <trkpt lat="48.189151" lon="17.079775"><ele>226</ele></trkpt>
    <trkpt lat="48.188217" lon="17.078655"><ele>221</ele></trkpt>
    <trkpt lat="48.187963" lon="17.078524"><ele>222</ele></trkpt>
    <trkpt lat="48.186449" lon="17.078151"><ele>220</ele></trkpt>
    <trkpt lat="48.186209" lon="17.078011"><ele>221</ele></trkpt>
    <trkpt lat="48.185911" lon="17.077737"><ele>217</ele></trkpt>
    <trkpt lat="48.185798" lon="17.077957"><ele>224</ele></trkpt>
    <trkpt lat="48.185628" lon="17.078140"><ele>227</ele></trkpt>
    <trkpt lat="48.185578" lon="17.078297"><ele>232</ele></trkpt>
    <trkpt lat="48.185575" lon="17.078591"><ele>243</ele></trkpt>
    <trkpt lat="48.185757" lon="17.080605"><ele>254</ele></trkpt>
    <trkpt lat="48.185702" lon="17.080752"><ele>255</ele></trkpt>
    <trkpt lat="48.185482" lon="17.080941"><ele>256</ele></trkpt>
    <trkpt lat="48.185217" lon="17.081254"><ele>263</ele></trkpt>
    <trkpt lat="48.184946" lon="17.081843"><ele>271</ele></trkpt>
    <trkpt lat="48.184944" lon="17.082227"><ele>274</ele></trkpt>
    <trkpt lat="48.185082" lon="17.083319"><ele>289</ele></trkpt>
    <trkpt lat="48.185059" lon="17.084837"><ele>301</ele></trkpt>
    <trkpt lat="48.185082" lon="17.085671"><ele>306</ele></trkpt>
    <trkpt lat="48.185044" lon="17.086009"><ele>306</ele></trkpt>
    <trkpt lat="48.184711" lon="17.086982"><ele>316</ele></trkpt>
    <trkpt lat="48.184550" lon="17.087688"><ele>324</ele></trkpt>
    <trkpt lat="48.184599" lon="17.087951"><ele>327</ele></trkpt>
    <trkpt lat="48.184920" lon="17.088787"><ele>344</ele></trkpt>
    <trkpt lat="48.184977" lon="17.089030"><ele>347</ele></trkpt>
    <trkpt lat="48.184900" lon="17.089601"><ele>352</ele></trkpt>
    <trkpt lat="48.184939" lon="17.091013"><ele>374</ele></trkpt>
    <trkpt lat="48.184900" lon="17.091438"><ele>376</ele></trkpt>
    <trkpt lat="48.184913" lon="17.092425"><ele>390</ele></trkpt>
    <trkpt lat="48.184725" lon="17.093290"><ele>394</ele></trkpt>
    <trkpt lat="48.184653" lon="17.093469"><ele>398</ele></trkpt>
    <trkpt lat="48.184570" lon="17.094022"><ele>402</ele></trkpt>
    <trkpt lat="48.184606" lon="17.094117"><ele>402</ele></trkpt>
    <trkpt lat="48.184926" lon="17.094275"><ele>410</ele></trkpt>
    <trkpt lat="48.185141" lon="17.094491"><ele>419</ele></trkpt>
    <trkpt lat="48.184857" lon="17.095015"><ele>409</ele></trkpt>
    <trkpt lat="48.184787" lon="17.094938"><ele>406</ele></trkpt>
    <trkpt lat="48.184712" lon="17.094997"><ele>403</ele></trkpt>
    <trkpt lat="48.184537" lon="17.095393"><ele>400</ele></trkpt>
    <trkpt lat="48.184533" lon="17.095505"><ele>402</ele></trkpt>
    <trkpt lat="48.184449" lon="17.095350"><ele>399</ele></trkpt>
    <trkpt lat="48.184344" lon="17.094748"><ele>400</ele></trkpt>
    <trkpt lat="48.184051" lon="17.094955"><ele>417</ele></trkpt>
    <trkpt lat="48.183972" lon="17.095113"><ele>423</ele></trkpt>
    <trkpt lat="48.183798" lon="17.095140"><ele>428</ele></trkpt>
    <trkpt lat="48.183830" lon="17.095343"><ele>426</ele></trkpt>
    <trkpt lat="48.183685" lon="17.095461"><ele>424</ele></trkpt>
    <trkpt lat="48.183635" lon="17.095353"><ele>424</ele></trkpt>
    <trkpt lat="48.183476" lon="17.095174"><ele>430</ele></trkpt>
    <trkpt lat="48.182681" lon="17.095408"><ele>436</ele></trkpt>
    <trkpt lat="48.182493" lon="17.095363"><ele>435</ele></trkpt>
    <trkpt lat="48.182344" lon="17.095250"><ele>433</ele></trkpt>
    <trkpt lat="48.182283" lon="17.095142"><ele>431</ele></trkpt>
    <trkpt lat="48.181973" lon="17.094203"><ele>439</ele></trkpt>
    <trkpt lat="48.181982" lon="17.094062"><ele>440</ele></trkpt>
    <trkpt lat="48.182063" lon="17.093967"><ele>439</ele></trkpt>
    <trkpt lat="48.181982" lon="17.094062"><ele>440</ele></trkpt>
    <trkpt lat="48.181973" lon="17.094203"><ele>439</ele></trkpt>
    <trkpt lat="48.182283" lon="17.095142"><ele>431</ele></trkpt>
    <trkpt lat="48.182344" lon="17.095250"><ele>433</ele></trkpt>
    <trkpt lat="48.182493" lon="17.095363"><ele>435</ele></trkpt>
    <trkpt lat="48.182681" lon="17.095408"><ele>436</ele></trkpt>
    <trkpt lat="48.183418" lon="17.095169"><ele>432</ele></trkpt>
    <trkpt lat="48.183526" lon="17.095219"><ele>428</ele></trkpt>
    <trkpt lat="48.183685" lon="17.095461"><ele>424</ele></trkpt>
    <trkpt lat="48.183830" lon="17.095343"><ele>426</ele></trkpt>
    <trkpt lat="48.183798" lon="17.095140"><ele>428</ele></trkpt>
    <trkpt lat="48.183972" lon="17.095113"><ele>423</ele></trkpt>
    <trkpt lat="48.184051" lon="17.094955"><ele>417</ele></trkpt>
    <trkpt lat="48.184344" lon="17.094748"><ele>400</ele></trkpt>
    <trkpt lat="48.184449" lon="17.095350"><ele>399</ele></trkpt>
    <trkpt lat="48.184533" lon="17.095505"><ele>402</ele></trkpt>
    <trkpt lat="48.184537" lon="17.095393"><ele>400</ele></trkpt>
    <trkpt lat="48.184712" lon="17.094997"><ele>403</ele></trkpt>
    <trkpt lat="48.184787" lon="17.094938"><ele>406</ele></trkpt>
    <trkpt lat="48.184857" lon="17.095015"><ele>409</ele></trkpt>
    <trkpt lat="48.185141" lon="17.094491"><ele>419</ele></trkpt>
    <trkpt lat="48.184926" lon="17.094275"><ele>410</ele></trkpt>
    <trkpt lat="48.184606" lon="17.094117"><ele>402</ele></trkpt>
    <trkpt lat="48.184570" lon="17.094022"><ele>402</ele></trkpt>
    <trkpt lat="48.184653" lon="17.093469"><ele>398</ele></trkpt>
    <trkpt lat="48.184725" lon="17.093290"><ele>394</ele></trkpt>
    <trkpt lat="48.184913" lon="17.092425"><ele>390</ele></trkpt>
    <trkpt lat="48.184900" lon="17.091438"><ele>376</ele></trkpt>
    <trkpt lat="48.184939" lon="17.091013"><ele>374</ele></trkpt>
    <trkpt lat="48.184900" lon="17.089601"><ele>352</ele></trkpt>
    <trkpt lat="48.184977" lon="17.089030"><ele>347</ele></trkpt>
    <trkpt lat="48.184920" lon="17.088787"><ele>344</ele></trkpt>
    <trkpt lat="48.184599" lon="17.087951"><ele>327</ele></trkpt>
    <trkpt lat="48.184550" lon="17.087688"><ele>324</ele></trkpt>
    <trkpt lat="48.184711" lon="17.086982"><ele>316</ele></trkpt>
    <trkpt lat="48.185044" lon="17.086009"><ele>306</ele></trkpt>
    <trkpt lat="48.185082" lon="17.085671"><ele>306</ele></trkpt>
    <trkpt lat="48.185059" lon="17.084837"><ele>301</ele></trkpt>
    <trkpt lat="48.185082" lon="17.083319"><ele>289</ele></trkpt>
    <trkpt lat="48.184944" lon="17.082227"><ele>274</ele></trkpt>
    <trkpt lat="48.184946" lon="17.081843"><ele>271</ele></trkpt>
    <trkpt lat="48.185217" lon="17.081254"><ele>263</ele></trkpt>
    <trkpt lat="48.185482" lon="17.080941"><ele>256</ele></trkpt>
    <trkpt lat="48.185702" lon="17.080752"><ele>255</ele></trkpt>
    <trkpt lat="48.185757" lon="17.080605"><ele>254</ele></trkpt>
    <trkpt lat="48.185575" lon="17.078591"><ele>243</ele></trkpt>
    <trkpt lat="48.185578" lon="17.078297"><ele>232</ele></trkpt>
    <trkpt lat="48.185628" lon="17.078140"><ele>227</ele></trkpt>
    <trkpt lat="48.185798" lon="17.077957"><ele>224</ele></trkpt>
    <trkpt lat="48.185911" lon="17.077737"><ele>217</ele></trkpt>
    <trkpt lat="48.186209" lon="17.078011"><ele>221</ele></trkpt>
    <trkpt lat="48.186449" lon="17.078151"><ele>220</ele></trkpt>
    <trkpt lat="48.187963" lon="17.078524"><ele>222</ele></trkpt>
    <trkpt lat="48.188217" lon="17.078655"><ele>221</ele></trkpt>
    <trkpt lat="48.189151" lon="17.079775"><ele>226</ele></trkpt>
    <trkpt lat="48.189419" lon="17.080148"><ele>230</ele></trkpt>
    <trkpt lat="48.189639" lon="17.080699"><ele>231</ele></trkpt>
    <trkpt lat="48.189684" lon="17.080696"><ele>230</ele></trkpt>
    <trkpt lat="48.189882" lon="17.081757"><ele>231</ele></trkpt>
    <trkpt lat="48.189959" lon="17.081977"><ele>235</ele></trkpt>
    <trkpt lat="48.190142" lon="17.082299"><ele>236</ele></trkpt>
    <trkpt lat="48.190244" lon="17.082094"><ele>233</ele></trkpt>
  </trkseg></trk>
</gpx>
