<?xml version="1.0" encoding="UTF-8"?>
<gpx version="1.1" creator="MounTour (OpenStreetMap)" xmlns="http://www.topografix.com/GPX/1/1">
  <metadata><name>Kôprovský štít</name><copyright author="OpenStreetMap contributors"><license>https://opendatacommons.org/licenses/odbl/</license></copyright></metadata>
  <trk><name>Kôprovský štít</name><trkseg>
    <trkpt lat="49.130385" lon="20.076317"><ele>1290</ele></trkpt>
    <trkpt lat="49.130415" lon="20.076468"><ele>1292</ele></trkpt>
    <trkpt lat="49.130539" lon="20.076631"><ele>1295</ele></trkpt>
    <trkpt lat="49.132095" lon="20.077356"><ele>1313</ele></trkpt>
    <trkpt lat="49.132263" lon="20.077456"><ele>1316</ele></trkpt>
    <trkpt lat="49.132600" lon="20.077785"><ele>1322</ele></trkpt>
    <trkpt lat="49.132761" lon="20.078057"><ele>1325</ele></trkpt>
    <trkpt lat="49.132977" lon="20.078667"><ele>1330</ele></trkpt>
    <trkpt lat="49.133574" lon="20.079473"><ele>1342</ele></trkpt>
    <trkpt lat="49.133930" lon="20.080106"><ele>1349</ele></trkpt>
    <trkpt lat="49.134158" lon="20.080307"><ele>1351</ele></trkpt>
    <trkpt lat="49.134495" lon="20.080411"><ele>1357</ele></trkpt>
    <trkpt lat="49.134911" lon="20.080395"><ele>1365</ele></trkpt>
    <trkpt lat="49.135031" lon="20.080427"><ele>1367</ele></trkpt>
    <trkpt lat="49.135706" lon="20.080891"><ele>1377</ele></trkpt>
    <trkpt lat="49.136508" lon="20.080913"><ele>1385</ele></trkpt>
    <trkpt lat="49.136871" lon="20.080976"><ele>1387</ele></trkpt>
    <trkpt lat="49.137589" lon="20.081338"><ele>1396</ele></trkpt>
    <trkpt lat="49.137662" lon="20.081314"><ele>1397</ele></trkpt>
    <trkpt lat="49.137734" lon="20.081198"><ele>1398</ele></trkpt>
    <trkpt lat="49.137825" lon="20.080902"><ele>1397</ele></trkpt>
    <trkpt lat="49.137937" lon="20.080769"><ele>1397</ele></trkpt>
    <trkpt lat="49.138507" lon="20.080886"><ele>1403</ele></trkpt>
    <trkpt lat="49.139226" lon="20.080737"><ele>1410</ele></trkpt>
    <trkpt lat="49.139427" lon="20.080744"><ele>1412</ele></trkpt>
    <trkpt lat="49.139758" lon="20.080608"><ele>1411</ele></trkpt>
    <trkpt lat="49.140114" lon="20.080317"><ele>1411</ele></trkpt>
    <trkpt lat="49.140214" lon="20.080122"><ele>1413</ele></trkpt>
    <trkpt lat="49.140245" lon="20.079952"><ele>1415</ele></trkpt>
    <trkpt lat="49.140128" lon="20.079632"><ele>1416</ele></trkpt>
    <trkpt lat="49.140088" lon="20.079424"><ele>1418</ele></trkpt>
    <trkpt lat="49.140111" lon="20.078193"><ele>1431</ele></trkpt>
    <trkpt lat="49.140154" lon="20.078039"><ele>1431</ele></trkpt>
    <trkpt lat="49.140395" lon="20.077633"><ele>1434</ele></trkpt>
    <trkpt lat="49.141061" lon="20.076780"><ele>1445</ele></trkpt>
    <trkpt lat="49.141593" lon="20.075954"><ele>1442</ele></trkpt>
    <trkpt lat="49.141666" lon="20.075946"><ele>1444</ele></trkpt>
    <trkpt lat="49.141707" lon="20.076059"><ele>1448</ele></trkpt>
    <trkpt lat="49.141671" lon="20.076182"><ele>1450</ele></trkpt>
    <trkpt lat="49.141397" lon="20.076624"><ele>1454</ele></trkpt>
    <trkpt lat="49.141225" lon="20.077005"><ele>1458</ele></trkpt>
    <trkpt lat="49.141071" lon="20.077596"><ele>1459</ele></trkpt>
    <trkpt lat="49.141054" lon="20.077824"><ele>1459</ele></trkpt>
    <trkpt lat="49.141083" lon="20.078063"><ele>1460</ele></trkpt>
    <trkpt lat="49.141151" lon="20.078282"><ele>1462</ele></trkpt>
    <trkpt lat="49.141232" lon="20.078402"><ele>1463</ele></trkpt>
    <trkpt lat="49.141373" lon="20.078525"><ele>1465</ele></trkpt>
    <trkpt lat="49.141608" lon="20.078626"><ele>1462</ele></trkpt>
    <trkpt lat="49.141764" lon="20.078619"><ele>1466</ele></trkpt>
    <trkpt lat="49.141854" lon="20.078519"><ele>1470</ele></trkpt>
    <trkpt lat="49.141811" lon="20.078360"><ele>1470</ele></trkpt>
    <trkpt lat="49.141558" lon="20.078049"><ele>1467</ele></trkpt>
    <trkpt lat="49.141530" lon="20.077917"><ele>1468</ele></trkpt>
    <trkpt lat="49.141549" lon="20.077803"><ele>1469</ele></trkpt>
    <trkpt lat="49.141603" lon="20.077683"><ele>1471</ele></trkpt>
    <trkpt lat="49.141694" lon="20.077586"><ele>1474</ele></trkpt>
    <trkpt lat="49.142189" lon="20.077216"><ele>1480</ele></trkpt>
    <trkpt lat="49.142567" lon="20.077018"><ele>1485</ele></trkpt>
    <trkpt lat="49.143132" lon="20.076994"><ele>1489</ele></trkpt>
    <trkpt lat="49.143594" lon="20.077068"><ele>1493</ele></trkpt>
    <trkpt lat="49.144292" lon="20.076813"><ele>1495</ele></trkpt>
    <trkpt lat="49.144540" lon="20.076839"><ele>1497</ele></trkpt>
    <trkpt lat="49.144852" lon="20.077040"><ele>1498</ele></trkpt>
    <trkpt lat="49.145016" lon="20.077208"><ele>1499</ele></trkpt>
    <trkpt lat="49.145239" lon="20.077252"><ele>1499</ele></trkpt>
    <trkpt lat="49.146312" lon="20.077012"><ele>1497</ele></trkpt>
    <trkpt lat="49.146839" lon="20.076969"><ele>1500</ele></trkpt>
    <trkpt lat="49.147889" lon="20.077071"><ele>1498</ele></trkpt>
    <trkpt lat="49.149279" lon="20.077011"><ele>1507</ele></trkpt>
    <trkpt lat="49.150250" lon="20.076737"><ele>1519</ele></trkpt>
    <trkpt lat="49.150649" lon="20.076567"><ele>1523</ele></trkpt>
    <trkpt lat="49.151063" lon="20.076502"><ele>1524</ele></trkpt>
    <trkpt lat="49.151460" lon="20.076513"><ele>1523</ele></trkpt>
    <trkpt lat="49.152576" lon="20.076901"><ele>1531</ele></trkpt>
    <trkpt lat="49.153380" lon="20.077258"><ele>1529</ele></trkpt>
    <trkpt lat="49.153852" lon="20.077364"><ele>1529</ele></trkpt>
    <trkpt lat="49.154095" lon="20.077497"><ele>1530</ele></trkpt>
    <trkpt lat="49.154220" lon="20.077634"><ele>1530</ele></trkpt>
    <trkpt lat="49.154280" lon="20.077619"><ele>1532</ele></trkpt>
    <trkpt lat="49.154328" lon="20.077550"><ele>1534</ele></trkpt>
    <trkpt lat="49.154334" lon="20.077405"><ele>1535</ele></trkpt>
    <trkpt lat="49.154403" lon="20.077287"><ele>1538</ele></trkpt>
    <trkpt lat="49.154762" lon="20.077026"><ele>1539</ele></trkpt>
    <trkpt lat="49.155185" lon="20.076882"><ele>1543</ele></trkpt>
    <trkpt lat="49.155761" lon="20.076112"><ele>1548</ele></trkpt>
    <trkpt lat="49.155925" lon="20.076012"><ele>1547</ele></trkpt>
    <trkpt lat="49.156094" lon="20.075974"><ele>1547</ele></trkpt>
    <trkpt lat="49.157020" lon="20.075850"><ele>1561</ele></trkpt>
    <trkpt lat="49.157469" lon="20.075652"><ele>1561</ele></trkpt>
    <trkpt lat="49.157601" lon="20.075478"><ele>1562</ele></trkpt>
    <trkpt lat="49.158734" lon="20.074696"><ele>1565</ele></trkpt>
    <trkpt lat="49.158774" lon="20.074604"><ele>1564</ele></trkpt>
    <trkpt lat="49.158888" lon="20.074517"><ele>1564</ele></trkpt>
    <trkpt lat="49.158972" lon="20.074157"><ele>1562</ele></trkpt>
    <trkpt lat="49.159162" lon="20.073998"><ele>1562</ele></trkpt>
    <trkpt lat="49.159360" lon="20.073561"><ele>1557</ele></trkpt>
    <trkpt lat="49.159648" lon="20.073371"><ele>1558</ele></trkpt>
    <trkpt lat="49.159932" lon="20.073258"><ele>1564</ele></trkpt>
    <trkpt lat="49.160125" lon="20.073292"><ele>1568</ele></trkpt>
    <trkpt lat="49.160334" lon="20.073215"><ele>1572</ele></trkpt>
    <trkpt lat="49.160560" lon="20.073030"><ele>1574</ele></trkpt>
    <trkpt lat="49.160747" lon="20.072934"><ele>1577</ele></trkpt>
    <trkpt lat="49.160849" lon="20.072778"><ele>1577</ele></trkpt>
    <trkpt lat="49.161266" lon="20.072434"><ele>1582</ele></trkpt>
    <trkpt lat="49.161498" lon="20.072420"><ele>1589</ele></trkpt>
    <trkpt lat="49.161754" lon="20.072121"><ele>1593</ele></trkpt>
    <trkpt lat="49.161940" lon="20.072063"><ele>1598</ele></trkpt>
    <trkpt lat="49.162221" lon="20.071823"><ele>1604</ele></trkpt>
    <trkpt lat="49.162367" lon="20.071866"><ele>1608</ele></trkpt>
    <trkpt lat="49.162497" lon="20.071835"><ele>1611</ele></trkpt>
    <trkpt lat="49.162528" lon="20.071628"><ele>1611</ele></trkpt>
    <trkpt lat="49.162781" lon="20.071387"><ele>1617</ele></trkpt>
    <trkpt lat="49.162831" lon="20.071260"><ele>1618</ele></trkpt>
    <trkpt lat="49.162932" lon="20.071237"><ele>1620</ele></trkpt>
    <trkpt lat="49.163063" lon="20.071023"><ele>1622</ele></trkpt>
    <trkpt lat="49.163224" lon="20.070970"><ele>1626</ele></trkpt>
    <trkpt lat="49.163299" lon="20.070859"><ele>1627</ele></trkpt>
    <trkpt lat="49.163343" lon="20.070646"><ele>1625</ele></trkpt>
    <trkpt lat="49.163483" lon="20.070420"><ele>1625</ele></trkpt>
    <trkpt lat="49.163554" lon="20.070379"><ele>1626</ele></trkpt>
    <trkpt lat="49.163610" lon="20.070246"><ele>1625</ele></trkpt>
    <trkpt lat="49.163797" lon="20.070064"><ele>1626</ele></trkpt>
    <trkpt lat="49.163912" lon="20.070023"><ele>1627</ele></trkpt>
    <trkpt lat="49.164023" lon="20.069778"><ele>1629</ele></trkpt>
    <trkpt lat="49.164138" lon="20.069657"><ele>1631</ele></trkpt>
    <trkpt lat="49.164205" lon="20.069362"><ele>1628</ele></trkpt>
    <trkpt lat="49.164279" lon="20.069248"><ele>1628</ele></trkpt>
    <trkpt lat="49.164428" lon="20.069176"><ele>1631</ele></trkpt>
    <trkpt lat="49.164546" lon="20.069031"><ele>1634</ele></trkpt>
    <trkpt lat="49.164615" lon="20.068843"><ele>1634</ele></trkpt>
    <trkpt lat="49.164754" lon="20.068685"><ele>1636</ele></trkpt>
    <trkpt lat="49.165044" lon="20.068144"><ele>1637</ele></trkpt>
    <trkpt lat="49.165335" lon="20.067845"><ele>1642</ele></trkpt>
    <trkpt lat="49.165461" lon="20.067608"><ele>1644</ele></trkpt>
    <trkpt lat="49.165616" lon="20.067445"><ele>1648</ele></trkpt>
    <trkpt lat="49.165709" lon="20.067120"><ele>1651</ele></trkpt>
    <trkpt lat="49.165687" lon="20.066947"><ele>1651</ele></trkpt>
    <trkpt lat="49.165753" lon="20.066669"><ele>1655</ele></trkpt>
    <trkpt lat="49.165744" lon="20.066644"><ele>1655</ele></trkpt>
    <trkpt lat="49.165613" lon="20.066728"><ele>1655</ele></trkpt>
    <trkpt lat="49.165554" lon="20.066707"><ele>1656</ele></trkpt>
    <trkpt lat="49.165550" lon="20.066606"><ele>1658</ele></trkpt>
    <trkpt lat="49.165602" lon="20.066416"><ele>1663</ele></trkpt>
    <trkpt lat="49.165533" lon="20.066173"><ele>1669</ele></trkpt>
    <trkpt lat="49.165473" lon="20.066066"><ele>1670</ele></trkpt>
    <trkpt lat="49.165485" lon="20.065887"><ele>1672</ele></trkpt>
    <trkpt lat="49.165565" lon="20.065722"><ele>1677</ele></trkpt>
    <trkpt lat="49.165587" lon="20.065557"><ele>1680</ele></trkpt>
    <trkpt lat="49.165733" lon="20.065409"><ele>1688</ele></trkpt>
    <trkpt lat="49.165829" lon="20.065391"><ele>1691</ele></trkpt>
    <trkpt lat="49.165845" lon="20.065327"><ele>1693</ele></trkpt>
    <trkpt lat="49.165908" lon="20.065308"><ele>1696</ele></trkpt>
    <trkpt lat="49.165900" lon="20.065197"><ele>1698</ele></trkpt>
    <trkpt lat="49.165931" lon="20.065100"><ele>1701</ele></trkpt>
    <trkpt lat="49.166149" lon="20.065213"><ele>1708</ele></trkpt>
    <trkpt lat="49.166299" lon="20.065131"><ele>1717</ele></trkpt>
    <trkpt lat="49.166431" lon="20.064716"><ele>1731</ele></trkpt>
    <trkpt lat="49.166507" lon="20.064632"><ele>1734</ele></trkpt>
    <trkpt lat="49.166527" lon="20.064464"><ele>1737</ele></trkpt>
    <trkpt lat="49.166831" lon="20.064061"><ele>1747</ele></trkpt>
    <trkpt lat="49.166976" lon="20.063976"><ele>1751</ele></trkpt>
    <trkpt lat="49.167016" lon="20.064007"><ele>1753</ele></trkpt>
    <trkpt lat="49.167047" lon="20.064114"><ele>1756</ele></trkpt>
    <trkpt lat="49.167030" lon="20.064305"><ele>1758</ele></trkpt>
    <trkpt lat="49.167068" lon="20.064470"><ele>1764</ele></trkpt>
    <trkpt lat="49.167097" lon="20.064498"><ele>1766</ele></trkpt>
    <trkpt lat="49.167142" lon="20.064429"><ele>1767</ele></trkpt>
    <trkpt lat="49.167237" lon="20.064391"><ele>1772</ele></trkpt>
    <trkpt lat="49.167210" lon="20.064635"><ele>1777</ele></trkpt>
    <trkpt lat="49.167307" lon="20.064541"><ele>1780</ele></trkpt>
    <trkpt lat="49.167493" lon="20.064455"><ele>1787</ele></trkpt>
    <trkpt lat="49.167510" lon="20.064476"><ele>1789</ele></trkpt>
    <trkpt lat="49.167440" lon="20.064590"><ele>1789</ele></trkpt>
    <trkpt lat="49.167446" lon="20.064659"><ele>1792</ele></trkpt>
    <trkpt lat="49.167569" lon="20.064700"><ele>1800</ele></trkpt>
    <trkpt lat="49.167503" lon="20.064851"><ele>1800</ele></trkpt>
    <trkpt lat="49.167595" lon="20.064827"><ele>1804</ele></trkpt>
    <trkpt lat="49.167663" lon="20.064726"><ele>1807</ele></trkpt>
    <trkpt lat="49.167642" lon="20.064934"><ele>1807</ele></trkpt>
    <trkpt lat="49.167693" lon="20.064938"><ele>1809</ele></trkpt>
    <trkpt lat="49.167767" lon="20.065040"><ele>1810</ele></trkpt>
    <trkpt lat="49.168076" lon="20.065140"><ele>1820</ele></trkpt>
    <trkpt lat="49.168093" lon="20.065117"><ele>1822</ele></trkpt>
    <trkpt lat="49.168024" lon="20.064912"><ele>1822</ele></trkpt>
    <trkpt lat="49.168023" lon="20.064832"><ele>1823</ele></trkpt>
    <trkpt lat="49.168057" lon="20.064775"><ele>1825</ele></trkpt>
    <trkpt lat="49.168099" lon="20.064773"><ele>1827</ele></trkpt>
    <trkpt lat="49.168251" lon="20.064916"><ele>1833</ele></trkpt>
    <trkpt lat="49.168308" lon="20.064898"><ele>1836</ele></trkpt>
    <trkpt lat="49.168485" lon="20.064641"><ele>1842</ele></trkpt>
    <trkpt lat="49.168672" lon="20.064460"><ele>1846</ele></trkpt>
    <trkpt lat="49.168740" lon="20.064298"><ele>1847</ele></trkpt>
    <trkpt lat="49.168820" lon="20.064232"><ele>1850</ele></trkpt>
    <trkpt lat="49.169112" lon="20.064091"><ele>1857</ele></trkpt>
    <trkpt lat="49.169352" lon="20.063819"><ele>1868</ele></trkpt>
    <trkpt lat="49.169914" lon="20.063638"><ele>1874</ele></trkpt>
    <trkpt lat="49.169973" lon="20.063522"><ele>1876</ele></trkpt>
    <trkpt lat="49.170018" lon="20.063285"><ele>1879</ele></trkpt>
    <trkpt lat="49.170139" lon="20.063102"><ele>1882</ele></trkpt>
    <trkpt lat="49.170327" lon="20.063057"><ele>1884</ele></trkpt>
    <trkpt lat="49.170482" lon="20.062898"><ele>1890</ele></trkpt>
    <trkpt lat="49.170547" lon="20.062728"><ele>1894</ele></trkpt>
    <trkpt lat="49.170682" lon="20.062750"><ele>1899</ele></trkpt>
    <trkpt lat="49.170674" lon="20.062476"><ele>1904</ele></trkpt>
    <trkpt lat="49.170707" lon="20.062481"><ele>1905</ele></trkpt>
    <trkpt lat="49.170802" lon="20.062371"><ele>1912</ele></trkpt>
    <trkpt lat="49.170941" lon="20.062337"><ele>1918</ele></trkpt>
    <trkpt lat="49.171127" lon="20.062215"><ele>1928</ele></trkpt>
    <trkpt lat="49.171449" lon="20.062339"><ele>1932</ele></trkpt>
    <trkpt lat="49.171856" lon="20.062301"><ele>1935</ele></trkpt>
    <trkpt lat="49.171905" lon="20.062140"><ele>1937</ele></trkpt>
    <trkpt lat="49.172338" lon="20.061598"><ele>1939</ele></trkpt>
    <trkpt lat="49.172462" lon="20.061211"><ele>1940</ele></trkpt>
    <trkpt lat="49.172692" lon="20.060914"><ele>1939</ele></trkpt>
    <trkpt lat="49.172847" lon="20.060823"><ele>1939</ele></trkpt>
    <trkpt lat="49.172887" lon="20.060652"><ele>1940</ele></trkpt>
    <trkpt lat="49.172933" lon="20.060598"><ele>1940</ele></trkpt>
    <trkpt lat="49.173090" lon="20.060522"><ele>1940</ele></trkpt>
    <trkpt lat="49.173394" lon="20.060625"><ele>1941</ele></trkpt>
    <trkpt lat="49.173943" lon="20.060642"><ele>1946</ele></trkpt>
    <trkpt lat="49.174055" lon="20.060614"><ele>1947</ele></trkpt>
    <trkpt lat="49.174451" lon="20.060351"><ele>1949</ele></trkpt>
    <trkpt lat="49.174764" lon="20.060281"><ele>1951</ele></trkpt>
    <trkpt lat="49.174899" lon="20.060315"><ele>1952</ele></trkpt>
    <trkpt lat="49.175079" lon="20.060243"><ele>1953</ele></trkpt>
    <trkpt lat="49.175169" lon="20.060147"><ele>1954</ele></trkpt>
    <trkpt lat="49.175372" lon="20.060142"><ele>1954</ele></trkpt>
    <trkpt lat="49.175406" lon="20.060057"><ele>1955</ele></trkpt>
    <trkpt lat="49.175384" lon="20.059774"><ele>1960</ele></trkpt>
    <trkpt lat="49.175655" lon="20.059701"><ele>1960</ele></trkpt>
    <trkpt lat="49.175820" lon="20.059498"><ele>1962</ele></trkpt>
    <trkpt lat="49.175984" lon="20.059447"><ele>1962</ele></trkpt>
    <trkpt lat="49.176055" lon="20.059273"><ele>1964</ele></trkpt>
    <trkpt lat="49.176204" lon="20.059082"><ele>1964</ele></trkpt>
    <trkpt lat="49.176270" lon="20.058774"><ele>1967</ele></trkpt>
    <trkpt lat="49.176275" lon="20.058535"><ele>1970</ele></trkpt>
    <trkpt lat="49.176389" lon="20.058273"><ele>1971</ele></trkpt>
    <trkpt lat="49.176371" lon="20.058160"><ele>1971</ele></trkpt>
    <trkpt lat="49.176394" lon="20.058098"><ele>1971</ele></trkpt>
    <trkpt lat="49.176357" lon="20.057991"><ele>1971</ele></trkpt>
    <trkpt lat="49.176347" lon="20.057709"><ele>1972</ele></trkpt>
    <trkpt lat="49.176457" lon="20.056871"><ele>1980</ele></trkpt>
    <trkpt lat="49.176422" lon="20.056714"><ele>1978</ele></trkpt>
    <trkpt lat="49.176359" lon="20.056604"><ele>1975</ele></trkpt>
    <trkpt lat="49.176375" lon="20.056502"><ele>1976</ele></trkpt>
    <trkpt lat="49.176349" lon="20.056360"><ele>1976</ele></trkpt>
    <trkpt lat="49.176386" lon="20.056139"><ele>1979</ele></trkpt>
    <trkpt lat="49.176364" lon="20.056036"><ele>1979</ele></trkpt>
    <trkpt lat="49.176403" lon="20.055926"><ele>1981</ele></trkpt>
    <trkpt lat="49.176766" lon="20.055482"><ele>1992</ele></trkpt>
    <trkpt lat="49.176698" lon="20.055417"><ele>1994</ele></trkpt>
    <trkpt lat="49.176780" lon="20.055264"><ele>1999</ele></trkpt>
    <trkpt lat="49.176733" lon="20.055196"><ele>2002</ele></trkpt>
    <trkpt lat="49.176781" lon="20.055166"><ele>2003</ele></trkpt>
    <trkpt lat="49.176742" lon="20.055058"><ele>2008</ele></trkpt>
    <trkpt lat="49.176790" lon="20.055044"><ele>2009</ele></trkpt>
    <trkpt lat="49.176685" lon="20.054932"><ele>2014</ele></trkpt>
    <trkpt lat="49.176786" lon="20.054842"><ele>2020</ele></trkpt>
    <trkpt lat="49.176718" lon="20.054768"><ele>2024</ele></trkpt>
    <trkpt lat="49.176623" lon="20.054745"><ele>2024</ele></trkpt>
    <trkpt lat="49.176761" lon="20.054590"><ele>2036</ele></trkpt>
    <trkpt lat="49.176732" lon="20.054534"><ele>2039</ele></trkpt>
    <trkpt lat="49.176416" lon="20.054302"><ele>2045</ele></trkpt>
    <trkpt lat="49.176675" lon="20.054273"><ele>2053</ele></trkpt>
    <trkpt lat="49.176455" lon="20.053960"><ele>2066</ele></trkpt>
    <trkpt lat="49.176790" lon="20.053947"><ele>2074</ele></trkpt>
    <trkpt lat="49.176706" lon="20.053799"><ele>2080</ele></trkpt>
    <trkpt lat="49.176850" lon="20.053849"><ele>2081</ele></trkpt>
    <trkpt lat="49.176780" lon="20.053697"><ele>2088</ele></trkpt>
    <trkpt lat="49.177015" lon="20.053682"><ele>2096</ele></trkpt>
    <trkpt lat="49.177168" lon="20.053761"><ele>2095</ele></trkpt>
    <trkpt lat="49.177239" lon="20.053742"><ele>2098</ele></trkpt>
    <trkpt lat="49.177223" lon="20.053698"><ele>2101</ele></trkpt>
    <trkpt lat="49.177297" lon="20.053652"><ele>2105</ele></trkpt>
    <trkpt lat="49.177236" lon="20.053563"><ele>2110</ele></trkpt>
    <trkpt lat="49.177443" lon="20.053521"><ele>2116</ele></trkpt>
    <trkpt lat="49.177461" lon="20.053483"><ele>2119</ele></trkpt>
    <trkpt lat="49.177376" lon="20.053446"><ele>2120</ele></trkpt>
    <trkpt lat="49.177576" lon="20.053345"><ele>2126</ele></trkpt>
    <trkpt lat="49.177307" lon="20.053090"><ele>2135</ele></trkpt>
    <trkpt lat="49.177295" lon="20.052997"><ele>2136</ele></trkpt>
    <trkpt lat="49.177557" lon="20.053015"><ele>2139</ele></trkpt>
    <trkpt lat="49.177425" lon="20.052762"><ele>2142</ele></trkpt>
    <trkpt lat="49.177466" lon="20.052635"><ele>2143</ele></trkpt>
    <trkpt lat="49.177828" lon="20.052001"><ele>2150</ele></trkpt>
    <trkpt lat="49.178145" lon="20.051265"><ele>2156</ele></trkpt>
    <trkpt lat="49.178251" lon="20.051182"><ele>2161</ele></trkpt>
    <trkpt lat="49.178257" lon="20.050975"><ele>2163</ele></trkpt>
    <trkpt lat="49.178297" lon="20.050837"><ele>2166</ele></trkpt>
    <trkpt lat="49.178417" lon="20.050815"><ele>2171</ele></trkpt>
    <trkpt lat="49.178431" lon="20.050690"><ele>2173</ele></trkpt>
    <trkpt lat="49.178540" lon="20.050642"><ele>2178</ele></trkpt>
    <trkpt lat="49.178752" lon="20.050361"><ele>2192</ele></trkpt>
    <trkpt lat="49.178928" lon="20.050235"><ele>2203</ele></trkpt>
    <trkpt lat="49.179026" lon="20.049991"><ele>2213</ele></trkpt>
    <trkpt lat="49.179308" lon="20.049809"><ele>2230</ele></trkpt>
    <trkpt lat="49.179378" lon="20.049687"><ele>2234</ele></trkpt>
    <trkpt lat="49.179436" lon="20.049671"><ele>2237</ele></trkpt>
    <trkpt lat="49.179803" lon="20.050078"><ele>2246</ele></trkpt>
    <trkpt lat="49.180058" lon="20.049964"><ele>2251</ele></trkpt>
    <trkpt lat="49.180371" lon="20.049908"><ele>2252</ele></trkpt>
    <trkpt lat="49.180625" lon="20.049691"><ele>2257</ele></trkpt>
    <trkpt lat="49.180812" lon="20.049588"><ele>2257</ele></trkpt>
    <trkpt lat="49.181243" lon="20.048937"><ele>2273</ele></trkpt>
    <trkpt lat="49.181454" lon="20.048985"><ele>2275</ele></trkpt>
    <trkpt lat="49.181747" lon="20.048728"><ele>2287</ele></trkpt>
    <trkpt lat="49.181931" lon="20.048485"><ele>2300</ele></trkpt>
    <trkpt lat="49.182374" lon="20.048246"><ele>2294</ele></trkpt>
    <trkpt lat="49.181931" lon="20.048485"><ele>2300</ele></trkpt>
    <trkpt lat="49.181747" lon="20.048728"><ele>2287</ele></trkpt>
    <trkpt lat="49.181454" lon="20.048985"><ele>2275</ele></trkpt>
    <trkpt lat="49.181243" lon="20.048937"><ele>2273</ele></trkpt>
    <trkpt lat="49.180812" lon="20.049588"><ele>2257</ele></trkpt>
    <trkpt lat="49.180625" lon="20.049691"><ele>2257</ele></trkpt>
    <trkpt lat="49.180371" lon="20.049908"><ele>2252</ele></trkpt>
    <trkpt lat="49.180058" lon="20.049964"><ele>2251</ele></trkpt>
    <trkpt lat="49.179803" lon="20.050078"><ele>2246</ele></trkpt>
    <trkpt lat="49.179436" lon="20.049671"><ele>2237</ele></trkpt>
    <trkpt lat="49.179378" lon="20.049687"><ele>2234</ele></trkpt>
    <trkpt lat="49.179308" lon="20.049809"><ele>2230</ele></trkpt>
    <trkpt lat="49.179026" lon="20.049991"><ele>2213</ele></trkpt>
    <trkpt lat="49.178928" lon="20.050235"><ele>2203</ele></trkpt>
    <trkpt lat="49.178752" lon="20.050361"><ele>2192</ele></trkpt>
    <trkpt lat="49.178540" lon="20.050642"><ele>2178</ele></trkpt>
    <trkpt lat="49.178431" lon="20.050690"><ele>2173</ele></trkpt>
    <trkpt lat="49.178417" lon="20.050815"><ele>2171</ele></trkpt>
    <trkpt lat="49.178297" lon="20.050837"><ele>2166</ele></trkpt>
    <trkpt lat="49.178257" lon="20.050975"><ele>2163</ele></trkpt>
    <trkpt lat="49.178251" lon="20.051182"><ele>2161</ele></trkpt>
    <trkpt lat="49.178145" lon="20.051265"><ele>2156</ele></trkpt>
    <trkpt lat="49.177828" lon="20.052001"><ele>2150</ele></trkpt>
    <trkpt lat="49.177466" lon="20.052635"><ele>2143</ele></trkpt>
    <trkpt lat="49.177425" lon="20.052762"><ele>2142</ele></trkpt>
    <trkpt lat="49.177557" lon="20.053015"><ele>2139</ele></trkpt>
    <trkpt lat="49.177295" lon="20.052997"><ele>2136</ele></trkpt>
    <trkpt lat="49.177307" lon="20.053090"><ele>2135</ele></trkpt>
    <trkpt lat="49.177576" lon="20.053345"><ele>2126</ele></trkpt>
    <trkpt lat="49.177376" lon="20.053446"><ele>2120</ele></trkpt>
    <trkpt lat="49.177461" lon="20.053483"><ele>2119</ele></trkpt>
    <trkpt lat="49.177443" lon="20.053521"><ele>2116</ele></trkpt>
    <trkpt lat="49.177236" lon="20.053563"><ele>2110</ele></trkpt>
    <trkpt lat="49.177297" lon="20.053652"><ele>2105</ele></trkpt>
    <trkpt lat="49.177223" lon="20.053698"><ele>2101</ele></trkpt>
    <trkpt lat="49.177239" lon="20.053742"><ele>2098</ele></trkpt>
    <trkpt lat="49.177168" lon="20.053761"><ele>2095</ele></trkpt>
    <trkpt lat="49.177015" lon="20.053682"><ele>2096</ele></trkpt>
    <trkpt lat="49.176780" lon="20.053697"><ele>2088</ele></trkpt>
    <trkpt lat="49.176850" lon="20.053849"><ele>2081</ele></trkpt>
    <trkpt lat="49.176706" lon="20.053799"><ele>2080</ele></trkpt>
    <trkpt lat="49.176790" lon="20.053947"><ele>2074</ele></trkpt>
    <trkpt lat="49.176455" lon="20.053960"><ele>2066</ele></trkpt>
    <trkpt lat="49.176675" lon="20.054273"><ele>2053</ele></trkpt>
    <trkpt lat="49.176416" lon="20.054302"><ele>2045</ele></trkpt>
    <trkpt lat="49.176732" lon="20.054534"><ele>2039</ele></trkpt>
    <trkpt lat="49.176761" lon="20.054590"><ele>2036</ele></trkpt>
    <trkpt lat="49.176623" lon="20.054745"><ele>2024</ele></trkpt>
    <trkpt lat="49.176718" lon="20.054768"><ele>2024</ele></trkpt>
    <trkpt lat="49.176786" lon="20.054842"><ele>2020</ele></trkpt>
    <trkpt lat="49.176685" lon="20.054932"><ele>2014</ele></trkpt>
    <trkpt lat="49.176790" lon="20.055044"><ele>2009</ele></trkpt>
    <trkpt lat="49.176742" lon="20.055058"><ele>2008</ele></trkpt>
    <trkpt lat="49.176781" lon="20.055166"><ele>2003</ele></trkpt>
    <trkpt lat="49.176733" lon="20.055196"><ele>2002</ele></trkpt>
    <trkpt lat="49.176780" lon="20.055264"><ele>1999</ele></trkpt>
    <trkpt lat="49.176698" lon="20.055417"><ele>1994</ele></trkpt>
    <trkpt lat="49.176766" lon="20.055482"><ele>1992</ele></trkpt>
    <trkpt lat="49.176403" lon="20.055926"><ele>1981</ele></trkpt>
    <trkpt lat="49.176364" lon="20.056036"><ele>1979</ele></trkpt>
    <trkpt lat="49.176386" lon="20.056139"><ele>1979</ele></trkpt>
    <trkpt lat="49.176349" lon="20.056360"><ele>1976</ele></trkpt>
    <trkpt lat="49.176375" lon="20.056502"><ele>1976</ele></trkpt>
    <trkpt lat="49.176359" lon="20.056604"><ele>1975</ele></trkpt>
    <trkpt lat="49.176422" lon="20.056714"><ele>1978</ele></trkpt>
    <trkpt lat="49.176457" lon="20.056871"><ele>1980</ele></trkpt>
    <trkpt lat="49.176347" lon="20.057709"><ele>1972</ele></trkpt>
    <trkpt lat="49.176357" lon="20.057991"><ele>1971</ele></trkpt>
    <trkpt lat="49.176394" lon="20.058098"><ele>1971</ele></trkpt>
    <trkpt lat="49.176371" lon="20.058160"><ele>1971</ele></trkpt>
    <trkpt lat="49.176389" lon="20.058273"><ele>1971</ele></trkpt>
    <trkpt lat="49.176275" lon="20.058535"><ele>1970</ele></trkpt>
    <trkpt lat="49.176270" lon="20.058774"><ele>1967</ele></trkpt>
    <trkpt lat="49.176204" lon="20.059082"><ele>1964</ele></trkpt>
    <trkpt lat="49.176055" lon="20.059273"><ele>1964</ele></trkpt>
    <trkpt lat="49.175984" lon="20.059447"><ele>1962</ele></trkpt>
    <trkpt lat="49.175820" lon="20.059498"><ele>1962</ele></trkpt>
    <trkpt lat="49.175655" lon="20.059701"><ele>1960</ele></trkpt>
    <trkpt lat="49.175384" lon="20.059774"><ele>1960</ele></trkpt>
    <trkpt lat="49.175406" lon="20.060057"><ele>1955</ele></trkpt>
    <trkpt lat="49.175372" lon="20.060142"><ele>1954</ele></trkpt>
    <trkpt lat="49.175169" lon="20.060147"><ele>1954</ele></trkpt>
    <trkpt lat="49.175079" lon="20.060243"><ele>1953</ele></trkpt>
    <trkpt lat="49.174899" lon="20.060315"><ele>1952</ele></trkpt>
    <trkpt lat="49.174764" lon="20.060281"><ele>1951</ele></trkpt>
    <trkpt lat="49.174451" lon="20.060351"><ele>1949</ele></trkpt>
    <trkpt lat="49.174055" lon="20.060614"><ele>1947</ele></trkpt>
    <trkpt lat="49.173943" lon="20.060642"><ele>1946</ele></trkpt>
    <trkpt lat="49.173394" lon="20.060625"><ele>1941</ele></trkpt>
    <trkpt lat="49.173090" lon="20.060522"><ele>1940</ele></trkpt>
    <trkpt lat="49.172933" lon="20.060598"><ele>1940</ele></trkpt>
    <trkpt lat="49.172887" lon="20.060652"><ele>1940</ele></trkpt>
    <trkpt lat="49.172847" lon="20.060823"><ele>1939</ele></trkpt>
    <trkpt lat="49.172692" lon="20.060914"><ele>1939</ele></trkpt>
    <trkpt lat="49.172462" lon="20.061211"><ele>1940</ele></trkpt>
    <trkpt lat="49.172338" lon="20.061598"><ele>1939</ele></trkpt>
    <trkpt lat="49.171905" lon="20.062140"><ele>1937</ele></trkpt>
    <trkpt lat="49.171856" lon="20.062301"><ele>1935</ele></trkpt>
    <trkpt lat="49.171449" lon="20.062339"><ele>1932</ele></trkpt>
    <trkpt lat="49.171127" lon="20.062215"><ele>1928</ele></trkpt>
    <trkpt lat="49.170941" lon="20.062337"><ele>1918</ele></trkpt>
    <trkpt lat="49.170802" lon="20.062371"><ele>1912</ele></trkpt>
    <trkpt lat="49.170707" lon="20.062481"><ele>1905</ele></trkpt>
    <trkpt lat="49.170674" lon="20.062476"><ele>1904</ele></trkpt>
    <trkpt lat="49.170682" lon="20.062750"><ele>1899</ele></trkpt>
    <trkpt lat="49.170547" lon="20.062728"><ele>1894</ele></trkpt>
    <trkpt lat="49.170482" lon="20.062898"><ele>1890</ele></trkpt>
    <trkpt lat="49.170327" lon="20.063057"><ele>1884</ele></trkpt>
    <trkpt lat="49.170139" lon="20.063102"><ele>1882</ele></trkpt>
    <trkpt lat="49.170018" lon="20.063285"><ele>1879</ele></trkpt>
    <trkpt lat="49.169973" lon="20.063522"><ele>1876</ele></trkpt>
    <trkpt lat="49.169914" lon="20.063638"><ele>1874</ele></trkpt>
    <trkpt lat="49.169352" lon="20.063819"><ele>1868</ele></trkpt>
    <trkpt lat="49.169112" lon="20.064091"><ele>1857</ele></trkpt>
    <trkpt lat="49.168820" lon="20.064232"><ele>1850</ele></trkpt>
    <trkpt lat="49.168740" lon="20.064298"><ele>1847</ele></trkpt>
    <trkpt lat="49.168672" lon="20.064460"><ele>1846</ele></trkpt>
    <trkpt lat="49.168485" lon="20.064641"><ele>1842</ele></trkpt>
    <trkpt lat="49.168308" lon="20.064898"><ele>1836</ele></trkpt>
    <trkpt lat="49.168251" lon="20.064916"><ele>1833</ele></trkpt>
    <trkpt lat="49.168099" lon="20.064773"><ele>1827</ele></trkpt>
    <trkpt lat="49.168057" lon="20.064775"><ele>1825</ele></trkpt>
    <trkpt lat="49.168023" lon="20.064832"><ele>1823</ele></trkpt>
    <trkpt lat="49.168024" lon="20.064912"><ele>1822</ele></trkpt>
    <trkpt lat="49.168093" lon="20.065117"><ele>1822</ele></trkpt>
    <trkpt lat="49.168076" lon="20.065140"><ele>1820</ele></trkpt>
    <trkpt lat="49.167767" lon="20.065040"><ele>1810</ele></trkpt>
    <trkpt lat="49.167693" lon="20.064938"><ele>1809</ele></trkpt>
    <trkpt lat="49.167642" lon="20.064934"><ele>1807</ele></trkpt>
    <trkpt lat="49.167663" lon="20.064726"><ele>1807</ele></trkpt>
    <trkpt lat="49.167595" lon="20.064827"><ele>1804</ele></trkpt>
    <trkpt lat="49.167503" lon="20.064851"><ele>1800</ele></trkpt>
    <trkpt lat="49.167569" lon="20.064700"><ele>1800</ele></trkpt>
    <trkpt lat="49.167446" lon="20.064659"><ele>1792</ele></trkpt>
    <trkpt lat="49.167440" lon="20.064590"><ele>1789</ele></trkpt>
    <trkpt lat="49.167510" lon="20.064476"><ele>1789</ele></trkpt>
    <trkpt lat="49.167493" lon="20.064455"><ele>1787</ele></trkpt>
    <trkpt lat="49.167307" lon="20.064541"><ele>1780</ele></trkpt>
    <trkpt lat="49.167210" lon="20.064635"><ele>1777</ele></trkpt>
    <trkpt lat="49.167237" lon="20.064391"><ele>1772</ele></trkpt>
    <trkpt lat="49.167142" lon="20.064429"><ele>1767</ele></trkpt>
    <trkpt lat="49.167097" lon="20.064498"><ele>1766</ele></trkpt>
    <trkpt lat="49.167068" lon="20.064470"><ele>1764</ele></trkpt>
    <trkpt lat="49.167030" lon="20.064305"><ele>1758</ele></trkpt>
    <trkpt lat="49.167047" lon="20.064114"><ele>1756</ele></trkpt>
    <trkpt lat="49.167016" lon="20.064007"><ele>1753</ele></trkpt>
    <trkpt lat="49.166976" lon="20.063976"><ele>1751</ele></trkpt>
    <trkpt lat="49.166831" lon="20.064061"><ele>1747</ele></trkpt>
    <trkpt lat="49.166527" lon="20.064464"><ele>1737</ele></trkpt>
    <trkpt lat="49.166507" lon="20.064632"><ele>1734</ele></trkpt>
    <trkpt lat="49.166431" lon="20.064716"><ele>1731</ele></trkpt>
    <trkpt lat="49.166299" lon="20.065131"><ele>1717</ele></trkpt>
    <trkpt lat="49.166149" lon="20.065213"><ele>1708</ele></trkpt>
    <trkpt lat="49.165931" lon="20.065100"><ele>1701</ele></trkpt>
    <trkpt lat="49.165900" lon="20.065197"><ele>1698</ele></trkpt>
    <trkpt lat="49.165908" lon="20.065308"><ele>1696</ele></trkpt>
    <trkpt lat="49.165845" lon="20.065327"><ele>1693</ele></trkpt>
    <trkpt lat="49.165829" lon="20.065391"><ele>1691</ele></trkpt>
    <trkpt lat="49.165733" lon="20.065409"><ele>1688</ele></trkpt>
    <trkpt lat="49.165587" lon="20.065557"><ele>1680</ele></trkpt>
    <trkpt lat="49.165565" lon="20.065722"><ele>1677</ele></trkpt>
    <trkpt lat="49.165485" lon="20.065887"><ele>1672</ele></trkpt>
    <trkpt lat="49.165473" lon="20.066066"><ele>1670</ele></trkpt>
    <trkpt lat="49.165533" lon="20.066173"><ele>1669</ele></trkpt>
    <trkpt lat="49.165602" lon="20.066416"><ele>1663</ele></trkpt>
    <trkpt lat="49.165550" lon="20.066606"><ele>1658</ele></trkpt>
    <trkpt lat="49.165554" lon="20.066707"><ele>1656</ele></trkpt>
    <trkpt lat="49.165613" lon="20.066728"><ele>1655</ele></trkpt>
    <trkpt lat="49.165744" lon="20.066644"><ele>1655</ele></trkpt>
    <trkpt lat="49.165753" lon="20.066669"><ele>1655</ele></trkpt>
    <trkpt lat="49.165687" lon="20.066947"><ele>1651</ele></trkpt>
    <trkpt lat="49.165709" lon="20.067120"><ele>1651</ele></trkpt>
    <trkpt lat="49.165616" lon="20.067445"><ele>1648</ele></trkpt>
    <trkpt lat="49.165461" lon="20.067608"><ele>1644</ele></trkpt>
    <trkpt lat="49.165335" lon="20.067845"><ele>1642</ele></trkpt>
    <trkpt lat="49.165044" lon="20.068144"><ele>1637</ele></trkpt>
    <trkpt lat="49.164754" lon="20.068685"><ele>1636</ele></trkpt>
    <trkpt lat="49.164615" lon="20.068843"><ele>1634</ele></trkpt>
    <trkpt lat="49.164546" lon="20.069031"><ele>1634</ele></trkpt>
    <trkpt lat="49.164428" lon="20.069176"><ele>1631</ele></trkpt>
    <trkpt lat="49.164279" lon="20.069248"><ele>1628</ele></trkpt>
    <trkpt lat="49.164205" lon="20.069362"><ele>1628</ele></trkpt>
    <trkpt lat="49.164138" lon="20.069657"><ele>1631</ele></trkpt>
    <trkpt lat="49.164023" lon="20.069778"><ele>1629</ele></trkpt>
    <trkpt lat="49.163912" lon="20.070023"><ele>1627</ele></trkpt>
    <trkpt lat="49.163797" lon="20.070064"><ele>1626</ele></trkpt>
    <trkpt lat="49.163610" lon="20.070246"><ele>1625</ele></trkpt>
    <trkpt lat="49.163554" lon="20.070379"><ele>1626</ele></trkpt>
    <trkpt lat="49.163483" lon="20.070420"><ele>1625</ele></trkpt>
    <trkpt lat="49.163343" lon="20.070646"><ele>1625</ele></trkpt>
    <trkpt lat="49.163299" lon="20.070859"><ele>1627</ele></trkpt>
    <trkpt lat="49.163224" lon="20.070970"><ele>1626</ele></trkpt>
    <trkpt lat="49.163063" lon="20.071023"><ele>1622</ele></trkpt>
    <trkpt lat="49.162932" lon="20.071237"><ele>1620</ele></trkpt>
    <trkpt lat="49.162831" lon="20.071260"><ele>1618</ele></trkpt>
    <trkpt lat="49.162781" lon="20.071387"><ele>1617</ele></trkpt>
    <trkpt lat="49.162528" lon="20.071628"><ele>1611</ele></trkpt>
    <trkpt lat="49.162497" lon="20.071835"><ele>1611</ele></trkpt>
    <trkpt lat="49.162367" lon="20.071866"><ele>1608</ele></trkpt>
    <trkpt lat="49.162221" lon="20.071823"><ele>1604</ele></trkpt>
    <trkpt lat="49.161940" lon="20.072063"><ele>1598</ele></trkpt>
    <trkpt lat="49.161754" lon="20.072121"><ele>1593</ele></trkpt>
    <trkpt lat="49.161498" lon="20.072420"><ele>1589</ele></trkpt>
    <trkpt lat="49.161266" lon="20.072434"><ele>1582</ele></trkpt>
    <trkpt lat="49.160849" lon="20.072778"><ele>1577</ele></trkpt>
    <trkpt lat="49.160747" lon="20.072934"><ele>1577</ele></trkpt>
    <trkpt lat="49.160560" lon="20.073030"><ele>1574</ele></trkpt>
    <trkpt lat="49.160334" lon="20.073215"><ele>1572</ele></trkpt>
    <trkpt lat="49.160125" lon="20.073292"><ele>1568</ele></trkpt>
    <trkpt lat="49.159932" lon="20.073258"><ele>1564</ele></trkpt>
    <trkpt lat="49.159648" lon="20.073371"><ele>1558</ele></trkpt>
    <trkpt lat="49.159360" lon="20.073561"><ele>1557</ele></trkpt>
    <trkpt lat="49.159162" lon="20.073998"><ele>1562</ele></trkpt>
    <trkpt lat="49.158972" lon="20.074157"><ele>1562</ele></trkpt>
    <trkpt lat="49.158888" lon="20.074517"><ele>1564</ele></trkpt>
    <trkpt lat="49.158774" lon="20.074604"><ele>1564</ele></trkpt>
    <trkpt lat="49.158734" lon="20.074696"><ele>1565</ele></trkpt>
    <trkpt lat="49.157601" lon="20.075478"><ele>1562</ele></trkpt>
    <trkpt lat="49.157469" lon="20.075652"><ele>1561</ele></trkpt>
    <trkpt lat="49.157020" lon="20.075850"><ele>1561</ele></trkpt>
    <trkpt lat="49.156094" lon="20.075974"><ele>1547</ele></trkpt>
    <trkpt lat="49.155925" lon="20.076012"><ele>1547</ele></trkpt>
    <trkpt lat="49.155761" lon="20.076112"><ele>1548</ele></trkpt>
    <trkpt lat="49.155185" lon="20.076882"><ele>1543</ele></trkpt>
    <trkpt lat="49.154762" lon="20.077026"><ele>1539</ele></trkpt>
    <trkpt lat="49.154403" lon="20.077287"><ele>1538</ele></trkpt>
    <trkpt lat="49.154334" lon="20.077405"><ele>1535</ele></trkpt>
    <trkpt lat="49.154328" lon="20.077550"><ele>1534</ele></trkpt>
    <trkpt lat="49.154280" lon="20.077619"><ele>1532</ele></trkpt>
    <trkpt lat="49.154220" lon="20.077634"><ele>1530</ele></trkpt>
    <trkpt lat="49.154095" lon="20.077497"><ele>1530</ele></trkpt>
    <trkpt lat="49.153852" lon="20.077364"><ele>1529</ele></trkpt>
    <trkpt lat="49.153380" lon="20.077258"><ele>1529</ele></trkpt>
    <trkpt lat="49.152576" lon="20.076901"><ele>1531</ele></trkpt>
    <trkpt lat="49.151460" lon="20.076513"><ele>1523</ele></trkpt>
    <trkpt lat="49.151063" lon="20.076502"><ele>1524</ele></trkpt>
    <trkpt lat="49.150649" lon="20.076567"><ele>1523</ele></trkpt>
    <trkpt lat="49.150250" lon="20.076737"><ele>1519</ele></trkpt>
    <trkpt lat="49.149279" lon="20.077011"><ele>1507</ele></trkpt>
    <trkpt lat="49.147889" lon="20.077071"><ele>1498</ele></trkpt>
    <trkpt lat="49.146839" lon="20.076969"><ele>1500</ele></trkpt>
    <trkpt lat="49.146312" lon="20.077012"><ele>1497</ele></trkpt>
    <trkpt lat="49.145239" lon="20.077252"><ele>1499</ele></trkpt>
    <trkpt lat="49.145016" lon="20.077208"><ele>1499</ele></trkpt>
    <trkpt lat="49.144852" lon="20.077040"><ele>1498</ele></trkpt>
    <trkpt lat="49.144540" lon="20.076839"><ele>1497</ele></trkpt>
    <trkpt lat="49.144292" lon="20.076813"><ele>1495</ele></trkpt>
    <trkpt lat="49.143594" lon="20.077068"><ele>1493</ele></trkpt>
    <trkpt lat="49.143132" lon="20.076994"><ele>1489</ele></trkpt>
    <trkpt lat="49.142567" lon="20.077018"><ele>1485</ele></trkpt>
    <trkpt lat="49.142189" lon="20.077216"><ele>1480</ele></trkpt>
    <trkpt lat="49.141694" lon="20.077586"><ele>1474</ele></trkpt>
    <trkpt lat="49.141603" lon="20.077683"><ele>1471</ele></trkpt>
    <trkpt lat="49.141549" lon="20.077803"><ele>1469</ele></trkpt>
    <trkpt lat="49.141530" lon="20.077917"><ele>1468</ele></trkpt>
    <trkpt lat="49.141558" lon="20.078049"><ele>1467</ele></trkpt>
    <trkpt lat="49.141811" lon="20.078360"><ele>1470</ele></trkpt>
    <trkpt lat="49.141854" lon="20.078519"><ele>1470</ele></trkpt>
    <trkpt lat="49.141764" lon="20.078619"><ele>1466</ele></trkpt>
    <trkpt lat="49.141608" lon="20.078626"><ele>1462</ele></trkpt>
    <trkpt lat="49.141373" lon="20.078525"><ele>1465</ele></trkpt>
    <trkpt lat="49.141232" lon="20.078402"><ele>1463</ele></trkpt>
    <trkpt lat="49.141151" lon="20.078282"><ele>1462</ele></trkpt>
    <trkpt lat="49.141083" lon="20.078063"><ele>1460</ele></trkpt>
    <trkpt lat="49.141054" lon="20.077824"><ele>1459</ele></trkpt>
    <trkpt lat="49.141071" lon="20.077596"><ele>1459</ele></trkpt>
    <trkpt lat="49.141225" lon="20.077005"><ele>1458</ele></trkpt>
    <trkpt lat="49.141397" lon="20.076624"><ele>1454</ele></trkpt>
    <trkpt lat="49.141671" lon="20.076182"><ele>1450</ele></trkpt>
    <trkpt lat="49.141707" lon="20.076059"><ele>1448</ele></trkpt>
    <trkpt lat="49.141666" lon="20.075946"><ele>1444</ele></trkpt>
    <trkpt lat="49.141593" lon="20.075954"><ele>1442</ele></trkpt>
    <trkpt lat="49.141061" lon="20.076780"><ele>1445</ele></trkpt>
    <trkpt lat="49.140395" lon="20.077633"><ele>1434</ele></trkpt>
    <trkpt lat="49.140154" lon="20.078039"><ele>1431</ele></trkpt>
    <trkpt lat="49.140111" lon="20.078193"><ele>1431</ele></trkpt>
    <trkpt lat="49.140088" lon="20.079424"><ele>1418</ele></trkpt>
    <trkpt lat="49.140128" lon="20.079632"><ele>1416</ele></trkpt>
    <trkpt lat="49.140245" lon="20.079952"><ele>1415</ele></trkpt>
    <trkpt lat="49.140214" lon="20.080122"><ele>1413</ele></trkpt>
    <trkpt lat="49.140114" lon="20.080317"><ele>1411</ele></trkpt>
    <trkpt lat="49.139758" lon="20.080608"><ele>1411</ele></trkpt>
    <trkpt lat="49.139427" lon="20.080744"><ele>1412</ele></trkpt>
    <trkpt lat="49.139226" lon="20.080737"><ele>1410</ele></trkpt>
    <trkpt lat="49.138507" lon="20.080886"><ele>1403</ele></trkpt>
    <trkpt lat="49.137937" lon="20.080769"><ele>1397</ele></trkpt>
    <trkpt lat="49.137825" lon="20.080902"><ele>1397</ele></trkpt>
    <trkpt lat="49.137734" lon="20.081198"><ele>1398</ele></trkpt>
    <trkpt lat="49.137662" lon="20.081314"><ele>1397</ele></trkpt>
    <trkpt lat="49.137589" lon="20.081338"><ele>1396</ele></trkpt>
    <trkpt lat="49.136871" lon="20.080976"><ele>1387</ele></trkpt>
    <trkpt lat="49.136508" lon="20.080913"><ele>1385</ele></trkpt>
    <trkpt lat="49.135706" lon="20.080891"><ele>1377</ele></trkpt>
    <trkpt lat="49.135031" lon="20.080427"><ele>1367</ele></trkpt>
    <trkpt lat="49.134911" lon="20.080395"><ele>1365</ele></trkpt>
    <trkpt lat="49.134495" lon="20.080411"><ele>1357</ele></trkpt>
    <trkpt lat="49.134158" lon="20.080307"><ele>1351</ele></trkpt>
    <trkpt lat="49.133930" lon="20.080106"><ele>1349</ele></trkpt>
    <trkpt lat="49.133574" lon="20.079473"><ele>1342</ele></trkpt>
    <trkpt lat="49.132977" lon="20.078667"><ele>1330</ele></trkpt>
    <trkpt lat="49.132761" lon="20.078057"><ele>1325</ele></trkpt>
    <trkpt lat="49.132600" lon="20.077785"><ele>1322</ele></trkpt>
    <trkpt lat="49.132263" lon="20.077456"><ele>1316</ele></trkpt>
    <trkpt lat="49.132095" lon="20.077356"><ele>1313</ele></trkpt>
    <trkpt lat="49.130539" lon="20.076631"><ele>1295</ele></trkpt>
    <trkpt lat="49.130415" lon="20.076468"><ele>1292</ele></trkpt>
    <trkpt lat="49.130385" lon="20.076317"><ele>1290</ele></trkpt>
  </trkseg></trk>
</gpx>
