<?xml version="1.0" encoding="UTF-8"?>
<gpx version="1.1" creator="MounTour (OpenStreetMap)" xmlns="http://www.topografix.com/GPX/1/1">
  <metadata><name>Kráľova skala</name><copyright author="OpenStreetMap contributors"><license>https://opendatacommons.org/licenses/odbl/</license></copyright></metadata>
  <trk><name>Kráľova skala</name><trkseg>
    <trkpt lat="48.851698" lon="20.187955"><ele>888</ele></trkpt>
    <trkpt lat="48.851552" lon="20.187601"><ele>884</ele></trkpt>
    <trkpt lat="48.851157" lon="20.187262"><ele>882</ele></trkpt>
    <trkpt lat="48.851475" lon="20.186123"><ele>878</ele></trkpt>
    <trkpt lat="48.851585" lon="20.185963"><ele>877</ele></trkpt>
    <trkpt lat="48.851517" lon="20.185302"><ele>876</ele></trkpt>
    <trkpt lat="48.851552" lon="20.185012"><ele>876</ele></trkpt>
    <trkpt lat="48.851961" lon="20.184087"><ele>878</ele></trkpt>
    <trkpt lat="48.852748" lon="20.182145"><ele>894</ele></trkpt>
    <trkpt lat="48.852813" lon="20.181936"><ele>897</ele></trkpt>
    <trkpt lat="48.852830" lon="20.181335"><ele>902</ele></trkpt>
    <trkpt lat="48.852858" lon="20.181206"><ele>904</ele></trkpt>
    <trkpt lat="48.853110" lon="20.180691"><ele>908</ele></trkpt>
    <trkpt lat="48.853749" lon="20.179715"><ele>924</ele></trkpt>
    <trkpt lat="48.853982" lon="20.179125"><ele>926</ele></trkpt>
    <trkpt lat="48.854073" lon="20.178755"><ele>932</ele></trkpt>
    <trkpt lat="48.854196" lon="20.178626"><ele>938</ele></trkpt>
    <trkpt lat="48.854370" lon="20.178323"><ele>950</ele></trkpt>
    <trkpt lat="48.854679" lon="20.178004"><ele>967</ele></trkpt>
    <trkpt lat="48.855051" lon="20.177490"><ele>982</ele></trkpt>
    <trkpt lat="48.855311" lon="20.177236"><ele>991</ele></trkpt>
    <trkpt lat="48.855857" lon="20.176514"><ele>1011</ele></trkpt>
    <trkpt lat="48.857138" lon="20.175115"><ele>1063</ele></trkpt>
    <trkpt lat="48.857989" lon="20.173899"><ele>1088</ele></trkpt>
    <trkpt lat="48.858168" lon="20.173703"><ele>1094</ele></trkpt>
    <trkpt lat="48.858436" lon="20.173312"><ele>1108</ele></trkpt>
    <trkpt lat="48.858580" lon="20.173201"><ele>1113</ele></trkpt>
    <trkpt lat="48.859299" lon="20.172178"><ele>1148</ele></trkpt>
    <trkpt lat="48.859730" lon="20.171365"><ele>1166</ele></trkpt>
    <trkpt lat="48.859834" lon="20.170946"><ele>1171</ele></trkpt>
    <trkpt lat="48.860290" lon="20.170610"><ele>1183</ele></trkpt>
    <trkpt lat="48.860561" lon="20.170521"><ele>1191</ele></trkpt>
    <trkpt lat="48.860995" lon="20.170118"><ele>1211</ele></trkpt>
    <trkpt lat="48.861085" lon="20.170021"><ele>1216</ele></trkpt>
    <trkpt lat="48.861118" lon="20.169913"><ele>1220</ele></trkpt>
    <trkpt lat="48.861232" lon="20.169801"><ele>1226</ele></trkpt>
    <trkpt lat="48.861502" lon="20.169677"><ele>1238</ele></trkpt>
    <trkpt lat="48.861632" lon="20.169646"><ele>1243</ele></trkpt>
    <trkpt lat="48.861820" lon="20.169674"><ele>1250</ele></trkpt>
    <trkpt lat="48.862078" lon="20.169601"><ele>1259</ele></trkpt>
    <trkpt lat="48.862660" lon="20.169638"><ele>1278</ele></trkpt>
    <trkpt lat="48.862773" lon="20.169561"><ele>1284</ele></trkpt>
    <trkpt lat="48.862800" lon="20.169615"><ele>1283</ele></trkpt>
    <trkpt lat="48.863086" lon="20.169621"><ele>1290</ele></trkpt>
    <trkpt lat="48.863178" lon="20.169589"><ele>1293</ele></trkpt>
    <trkpt lat="48.863399" lon="20.169341"><ele>1301</ele></trkpt>
    <trkpt lat="48.863180" lon="20.168979"><ele>1301</ele></trkpt>
    <trkpt lat="48.862854" lon="20.168311"><ele>1303</ele></trkpt>
    <trkpt lat="48.862752" lon="20.168068"><ele>1300</ele></trkpt>
    <trkpt lat="48.862674" lon="20.167702"><ele>1303</ele></trkpt>
    <trkpt lat="48.862935" lon="20.167615"><ele>1314</ele></trkpt>
    <trkpt lat="48.863094" lon="20.167643"><ele>1321</ele></trkpt>
    <trkpt lat="48.863184" lon="20.167610"><ele>1324</ele></trkpt>
    <trkpt lat="48.863240" lon="20.167476"><ele>1327</ele></trkpt>
    <trkpt lat="48.863332" lon="20.167423"><ele>1331</ele></trkpt>
    <trkpt lat="48.863531" lon="20.167468"><ele>1338</ele></trkpt>
    <trkpt lat="48.863696" lon="20.167361"><ele>1345</ele></trkpt>
    <trkpt lat="48.863857" lon="20.167374"><ele>1352</ele></trkpt>
    <trkpt lat="48.864023" lon="20.167227"><ele>1361</ele></trkpt>
    <trkpt lat="48.864206" lon="20.166923"><ele>1371</ele></trkpt>
    <trkpt lat="48.863978" lon="20.166310"><ele>1369</ele></trkpt>
    <trkpt lat="48.863908" lon="20.165878"><ele>1366</ele></trkpt>
    <trkpt lat="48.864084" lon="20.164553"><ele>1369</ele></trkpt>
    <trkpt lat="48.864088" lon="20.164319"><ele>1369</ele></trkpt>
    <trkpt lat="48.864032" lon="20.164114"><ele>1366</ele></trkpt>
    <trkpt lat="48.864025" lon="20.163147"><ele>1365</ele></trkpt>
    <trkpt lat="48.863978" lon="20.162710"><ele>1367</ele></trkpt>
    <trkpt lat="48.864056" lon="20.162613"><ele>1370</ele></trkpt>
    <trkpt lat="48.864202" lon="20.162536"><ele>1377</ele></trkpt>
    <trkpt lat="48.864437" lon="20.162512"><ele>1384</ele></trkpt>
    <trkpt lat="48.865052" lon="20.162036"><ele>1408</ele></trkpt>
    <trkpt lat="48.865119" lon="20.161908"><ele>1410</ele></trkpt>
    <trkpt lat="48.865193" lon="20.161570"><ele>1414</ele></trkpt>
    <trkpt lat="48.865350" lon="20.161503"><ele>1418</ele></trkpt>
    <trkpt lat="48.865496" lon="20.161344"><ele>1422</ele></trkpt>
    <trkpt lat="48.865549" lon="20.161259"><ele>1425</ele></trkpt>
    <trkpt lat="48.865527" lon="20.161136"><ele>1427</ele></trkpt>
    <trkpt lat="48.865547" lon="20.161083"><ele>1428</ele></trkpt>
    <trkpt lat="48.865611" lon="20.161036"><ele>1430</ele></trkpt>
    <trkpt lat="48.865817" lon="20.161083"><ele>1433</ele></trkpt>
    <trkpt lat="48.865946" lon="20.160878"><ele>1440</ele></trkpt>
    <trkpt lat="48.866293" lon="20.160694"><ele>1453</ele></trkpt>
    <trkpt lat="48.866505" lon="20.160533"><ele>1459</ele></trkpt>
    <trkpt lat="48.866529" lon="20.160496"><ele>1459</ele></trkpt>
    <trkpt lat="48.866518" lon="20.160353"><ele>1459</ele></trkpt>
    <trkpt lat="48.866707" lon="20.160435"><ele>1464</ele></trkpt>
    <trkpt lat="48.866816" lon="20.160562"><ele>1467</ele></trkpt>
    <trkpt lat="48.866913" lon="20.160856"><ele>1470</ele></trkpt>
    <trkpt lat="48.867157" lon="20.162046"><ele>1480</ele></trkpt>
    <trkpt lat="48.867486" lon="20.162642"><ele>1493</ele></trkpt>
    <trkpt lat="48.867680" lon="20.162626"><ele>1500</ele></trkpt>
    <trkpt lat="48.868534" lon="20.163063"><ele>1531</ele></trkpt>
    <trkpt lat="48.868752" lon="20.162989"><ele>1536</ele></trkpt>
    <trkpt lat="48.868837" lon="20.163123"><ele>1538</ele></trkpt>
    <trkpt lat="48.869037" lon="20.163199"><ele>1544</ele></trkpt>
    <trkpt lat="48.869228" lon="20.163240"><ele>1548</ele></trkpt>
    <trkpt lat="48.869402" lon="20.163174"><ele>1552</ele></trkpt>
    <trkpt lat="48.869506" lon="20.163268"><ele>1554</ele></trkpt>
    <trkpt lat="48.869620" lon="20.163269"><ele>1557</ele></trkpt>
    <trkpt lat="48.869695" lon="20.163449"><ele>1560</ele></trkpt>
    <trkpt lat="48.869812" lon="20.163540"><ele>1563</ele></trkpt>
    <trkpt lat="48.870083" lon="20.163572"><ele>1570</ele></trkpt>
    <trkpt lat="48.870147" lon="20.163663"><ele>1572</ele></trkpt>
    <trkpt lat="48.870325" lon="20.163626"><ele>1576</ele></trkpt>
    <trkpt lat="48.870537" lon="20.163646"><ele>1582</ele></trkpt>
    <trkpt lat="48.870707" lon="20.163561"><ele>1586</ele></trkpt>
    <trkpt lat="48.870741" lon="20.163480"><ele>1586</ele></trkpt>
    <trkpt lat="48.870837" lon="20.163427"><ele>1588</ele></trkpt>
    <trkpt lat="48.870948" lon="20.163268"><ele>1591</ele></trkpt>
    <trkpt lat="48.871058" lon="20.163292"><ele>1592</ele></trkpt>
    <trkpt lat="48.871183" lon="20.163161"><ele>1595</ele></trkpt>
    <trkpt lat="48.871222" lon="20.163090"><ele>1596</ele></trkpt>
    <trkpt lat="48.871227" lon="20.162851"><ele>1599</ele></trkpt>
    <trkpt lat="48.871311" lon="20.162759"><ele>1602</ele></trkpt>
    <trkpt lat="48.871378" lon="20.162465"><ele>1609</ele></trkpt>
    <trkpt lat="48.871564" lon="20.162411"><ele>1611</ele></trkpt>
    <trkpt lat="48.871561" lon="20.162243"><ele>1615</ele></trkpt>
    <trkpt lat="48.871412" lon="20.162112"><ele>1616</ele></trkpt>
    <trkpt lat="48.871393" lon="20.162045"><ele>1618</ele></trkpt>
    <trkpt lat="48.871406" lon="20.161867"><ele>1621</ele></trkpt>
    <trkpt lat="48.871369" lon="20.161756"><ele>1621</ele></trkpt>
    <trkpt lat="48.871428" lon="20.161214"><ele>1628</ele></trkpt>
    <trkpt lat="48.871409" lon="20.161065"><ele>1631</ele></trkpt>
    <trkpt lat="48.871496" lon="20.160803"><ele>1637</ele></trkpt>
    <trkpt lat="48.871426" lon="20.160623"><ele>1643</ele></trkpt>
    <trkpt lat="48.871455" lon="20.160472"><ele>1646</ele></trkpt>
    <trkpt lat="48.871368" lon="20.159727"><ele>1664</ele></trkpt>
    <trkpt lat="48.871293" lon="20.159545"><ele>1662</ele></trkpt>
    <trkpt lat="48.871384" lon="20.159411"><ele>1666</ele></trkpt>
    <trkpt lat="48.871350" lon="20.159254"><ele>1664</ele></trkpt>
    <trkpt lat="48.871415" lon="20.159186"><ele>1664</ele></trkpt>
    <trkpt lat="48.871511" lon="20.158769"><ele>1670</ele></trkpt>
    <trkpt lat="48.871437" lon="20.158465"><ele>1678</ele></trkpt>
    <trkpt lat="48.871468" lon="20.158053"><ele>1685</ele></trkpt>
    <trkpt lat="48.871654" lon="20.157863"><ele>1687</ele></trkpt>
    <trkpt lat="48.871700" lon="20.157678"><ele>1686</ele></trkpt>
    <trkpt lat="48.871654" lon="20.157863"><ele>1687</ele></trkpt>
    <trkpt lat="48.871468" lon="20.158053"><ele>1685</ele></trkpt>
    <trkpt lat="48.871437" lon="20.158465"><ele>1678</ele></trkpt>
    <trkpt lat="48.871511" lon="20.158769"><ele>1670</ele></trkpt>
    <trkpt lat="48.871415" lon="20.159186"><ele>1664</ele></trkpt>
    <trkpt lat="48.871350" lon="20.159254"><ele>1664</ele></trkpt>
    <trkpt lat="48.871384" lon="20.159411"><ele>1666</ele></trkpt>
    <trkpt lat="48.871293" lon="20.159545"><ele>1662</ele></trkpt>
    <trkpt lat="48.871368" lon="20.159727"><ele>1664</ele></trkpt>
    <trkpt lat="48.871455" lon="20.160472"><ele>1646</ele></trkpt>
    <trkpt lat="48.871426" lon="20.160623"><ele>1643</ele></trkpt>
    <trkpt lat="48.871496" lon="20.160803"><ele>1637</ele></trkpt>
    <trkpt lat="48.871409" lon="20.161065"><ele>1631</ele></trkpt>
    <trkpt lat="48.871428" lon="20.161214"><ele>1628</ele></trkpt>
    <trkpt lat="48.871369" lon="20.161756"><ele>1621</ele></trkpt>
    <trkpt lat="48.871406" lon="20.161867"><ele>1621</ele></trkpt>
    <trkpt lat="48.871393" lon="20.162045"><ele>1618</ele></trkpt>
    <trkpt lat="48.871412" lon="20.162112"><ele>1616</ele></trkpt>
    <trkpt lat="48.871561" lon="20.162243"><ele>1615</ele></trkpt>
    <trkpt lat="48.871564" lon="20.162411"><ele>1611</ele></trkpt>
    <trkpt lat="48.871378" lon="20.162465"><ele>1609</ele></trkpt>
    <trkpt lat="48.871311" lon="20.162759"><ele>1602</ele></trkpt>
    <trkpt lat="48.871227" lon="20.162851"><ele>1599</ele></trkpt>
    <trkpt lat="48.871222" lon="20.163090"><ele>1596</ele></trkpt>
    <trkpt lat="48.871183" lon="20.163161"><ele>1595</ele></trkpt>
    <trkpt lat="48.871058" lon="20.163292"><ele>1592</ele></trkpt>
    <trkpt lat="48.870948" lon="20.163268"><ele>1591</ele></trkpt>
    <trkpt lat="48.870837" lon="20.163427"><ele>1588</ele></trkpt>
    <trkpt lat="48.870741" lon="20.163480"><ele>1586</ele></trkpt>
    <trkpt lat="48.870707" lon="20.163561"><ele>1586</ele></trkpt>
    <trkpt lat="48.870537" lon="20.163646"><ele>1582</ele></trkpt>
    <trkpt lat="48.870325" lon="20.163626"><ele>1576</ele></trkpt>
    <trkpt lat="48.870147" lon="20.163663"><ele>1572</ele></trkpt>
    <trkpt lat="48.870083" lon="20.163572"><ele>1570</ele></trkpt>
    <trkpt lat="48.869812" lon="20.163540"><ele>1563</ele></trkpt>
    <trkpt lat="48.869695" lon="20.163449"><ele>1560</ele></trkpt>
    <trkpt lat="48.869620" lon="20.163269"><ele>1557</ele></trkpt>
    <trkpt lat="48.869506" lon="20.163268"><ele>1554</ele></trkpt>
    <trkpt lat="48.869402" lon="20.163174"><ele>1552</ele></trkpt>
    <trkpt lat="48.869228" lon="20.163240"><ele>1548</ele></trkpt>
    <trkpt lat="48.869037" lon="20.163199"><ele>1544</ele></trkpt>
    <trkpt lat="48.868837" lon="20.163123"><ele>1538</ele></trkpt>
    <trkpt lat="48.868752" lon="20.162989"><ele>1536</ele></trkpt>
    <trkpt lat="48.868534" lon="20.163063"><ele>1531</ele></trkpt>
    <trkpt lat="48.867680" lon="20.162626"><ele>1500</ele></trkpt>
    <trkpt lat="48.867486" lon="20.162642"><ele>1493</ele></trkpt>
    <trkpt lat="48.867157" lon="20.162046"><ele>1480</ele></trkpt>
    <trkpt lat="48.866913" lon="20.160856"><ele>1470</ele></trkpt>
    <trkpt lat="48.866816" lon="20.160562"><ele>1467</ele></trkpt>
    <trkpt lat="48.866707" lon="20.160435"><ele>1464</ele></trkpt>
    <trkpt lat="48.866518" lon="20.160353"><ele>1459</ele></trkpt>
    <trkpt lat="48.866529" lon="20.160496"><ele>1459</ele></trkpt>
    <trkpt lat="48.866505" lon="20.160533"><ele>1459</ele></trkpt>
    <trkpt lat="48.866293" lon="20.160694"><ele>1453</ele></trkpt>
    <trkpt lat="48.865946" lon="20.160878"><ele>1440</ele></trkpt>
    <trkpt lat="48.865817" lon="20.161083"><ele>1433</ele></trkpt>
    <trkpt lat="48.865611" lon="20.161036"><ele>1430</ele></trkpt>
    <trkpt lat="48.865547" lon="20.161083"><ele>1428</ele></trkpt>
    <trkpt lat="48.865527" lon="20.161136"><ele>1427</ele></trkpt>
    <trkpt lat="48.865549" lon="20.161259"><ele>1425</ele></trkpt>
    <trkpt lat="48.865496" lon="20.161344"><ele>1422</ele></trkpt>
    <trkpt lat="48.865350" lon="20.161503"><ele>1418</ele></trkpt>
    <trkpt lat="48.865193" lon="20.161570"><ele>1414</ele></trkpt>
    <trkpt lat="48.865119" lon="20.161908"><ele>1410</ele></trkpt>
    <trkpt lat="48.865052" lon="20.162036"><ele>1408</ele></trkpt>
    <trkpt lat="48.864437" lon="20.162512"><ele>1384</ele></trkpt>
    <trkpt lat="48.864202" lon="20.162536"><ele>1377</ele></trkpt>
    <trkpt lat="48.864056" lon="20.162613"><ele>1370</ele></trkpt>
    <trkpt lat="48.863978" lon="20.162710"><ele>1367</ele></trkpt>
    <trkpt lat="48.864025" lon="20.163147"><ele>1365</ele></trkpt>
    <trkpt lat="48.864032" lon="20.164114"><ele>1366</ele></trkpt>
    <trkpt lat="48.864088" lon="20.164319"><ele>1369</ele></trkpt>
    <trkpt lat="48.864084" lon="20.164553"><ele>1369</ele></trkpt>
    <trkpt lat="48.863908" lon="20.165878"><ele>1366</ele></trkpt>
    <trkpt lat="48.863978" lon="20.166310"><ele>1369</ele></trkpt>
    <trkpt lat="48.864206" lon="20.166923"><ele>1371</ele></trkpt>
    <trkpt lat="48.864023" lon="20.167227"><ele>1361</ele></trkpt>
    <trkpt lat="48.863857" lon="20.167374"><ele>1352</ele></trkpt>
    <trkpt lat="48.863696" lon="20.167361"><ele>1345</ele></trkpt>
    <trkpt lat="48.863531" lon="20.167468"><ele>1338</ele></trkpt>
    <trkpt lat="48.863332" lon="20.167423"><ele>1331</ele></trkpt>
    <trkpt lat="48.863240" lon="20.167476"><ele>1327</ele></trkpt>
    <trkpt lat="48.863184" lon="20.167610"><ele>1324</ele></trkpt>
    <trkpt lat="48.863094" lon="20.167643"><ele>1321</ele></trkpt>
    <trkpt lat="48.862935" lon="20.167615"><ele>1314</ele></trkpt>
    <trkpt lat="48.862674" lon="20.167702"><ele>1303</ele></trkpt>
    <trkpt lat="48.862752" lon="20.168068"><ele>1300</ele></trkpt>
    <trkpt lat="48.862854" lon="20.168311"><ele>1303</ele></trkpt>
    <trkpt lat="48.863180" lon="20.168979"><ele>1301</ele></trkpt>
    <trkpt lat="48.863399" lon="20.169341"><ele>1301</ele></trkpt>
    <trkpt lat="48.863178" lon="20.169589"><ele>1293</ele></trkpt>
    <trkpt lat="48.863086" lon="20.169621"><ele>1290</ele></trkpt>
    <trkpt lat="48.862800" lon="20.169615"><ele>1283</ele></trkpt>
    <trkpt lat="48.862773" lon="20.169561"><ele>1284</ele></trkpt>
    <trkpt lat="48.862660" lon="20.169638"><ele>1278</ele></trkpt>
    <trkpt lat="48.862078" lon="20.169601"><ele>1259</ele></trkpt>
    <trkpt lat="48.861820" lon="20.169674"><ele>1250</ele></trkpt>
    <trkpt lat="48.861632" lon="20.169646"><ele>1243</ele></trkpt>
    <trkpt lat="48.861502" lon="20.169677"><ele>1238</ele></trkpt>
    <trkpt lat="48.861232" lon="20.169801"><ele>1226</ele></trkpt>
    <trkpt lat="48.861118" lon="20.169913"><ele>1220</ele></trkpt>
    <trkpt lat="48.861085" lon="20.170021"><ele>1216</ele></trkpt>
    <trkpt lat="48.860995" lon="20.170118"><ele>1211</ele></trkpt>
    <trkpt lat="48.860561" lon="20.170521"><ele>1191</ele></trkpt>
    <trkpt lat="48.860290" lon="20.170610"><ele>1183</ele></trkpt>
    <trkpt lat="48.859834" lon="20.170946"><ele>1171</ele></trkpt>
    <trkpt lat="48.859730" lon="20.171365"><ele>1166</ele></trkpt>
    <trkpt lat="48.859299" lon="20.172178"><ele>1148</ele></trkpt>
    <trkpt lat="48.858580" lon="20.173201"><ele>1113</ele></trkpt>
    <trkpt lat="48.858436" lon="20.173312"><ele>1108</ele></trkpt>
    <trkpt lat="48.858168" lon="20.173703"><ele>1094</ele></trkpt>
    <trkpt lat="48.857989" lon="20.173899"><ele>1088</ele></trkpt>
    <trkpt lat="48.857138" lon="20.175115"><ele>1063</ele></trkpt>
    <trkpt lat="48.855857" lon="20.176514"><ele>1011</ele></trkpt>
    <trkpt lat="48.855311" lon="20.177236"><ele>991</ele></trkpt>
    <trkpt lat="48.855051" lon="20.177490"><ele>982</ele></trkpt>
    <trkpt lat="48.854679" lon="20.178004"><ele>967</ele></trkpt>
    <trkpt lat="48.854370" lon="20.178323"><ele>950</ele></trkpt>
    <trkpt lat="48.854196" lon="20.178626"><ele>938</ele></trkpt>
    <trkpt lat="48.854073" lon="20.178755"><ele>932</ele></trkpt>
    <trkpt lat="48.853982" lon="20.179125"><ele>926</ele></trkpt>
    <trkpt lat="48.853749" lon="20.179715"><ele>924</ele></trkpt>
    <trkpt lat="48.853110" lon="20.180691"><ele>908</ele></trkpt>
    <trkpt lat="48.852858" lon="20.181206"><ele>904</ele></trkpt>
    <trkpt lat="48.852830" lon="20.181335"><ele>902</ele></trkpt>
    <trkpt lat="48.852813" lon="20.181936"><ele>897</ele></trkpt>
    <trkpt lat="48.852748" lon="20.182145"><ele>894</ele></trkpt>
    <trkpt lat="48.851961" lon="20.184087"><ele>878</ele></trkpt>
    <trkpt lat="48.851552" lon="20.185012"><ele>876</ele></trkpt>
    <trkpt lat="48.851517" lon="20.185302"><ele>876</ele></trkpt>
    <trkpt lat="48.851585" lon="20.185963"><ele>877</ele></trkpt>
    <trkpt lat="48.851475" lon="20.186123"><ele>878</ele></trkpt>
    <trkpt lat="48.851157" lon="20.187262"><ele>882</ele></trkpt>
    <trkpt lat="48.851552" lon="20.187601"><ele>884</ele></trkpt>
    <trkpt lat="48.851698" lon="20.187955"><ele>888</ele></trkpt>
  </trkseg></trk>
</gpx>
