<?xml version="1.0" encoding="UTF-8"?>
<gpx version="1.1" creator="MounTour (OpenStreetMap)" xmlns="http://www.topografix.com/GPX/1/1">
  <metadata><name>Kriváň</name><copyright author="OpenStreetMap contributors"><license>https://opendatacommons.org/licenses/odbl/</license></copyright></metadata>
  <trk><name>Kriváň</name><trkseg>
    <trkpt lat="49.139943" lon="19.966307"><ele>1138</ele></trkpt>
    <trkpt lat="49.140067" lon="19.966651"><ele>1143</ele></trkpt>
    <trkpt lat="49.140314" lon="19.967057"><ele>1154</ele></trkpt>
    <trkpt lat="49.140588" lon="19.967399"><ele>1163</ele></trkpt>
    <trkpt lat="49.140954" lon="19.967696"><ele>1174</ele></trkpt>
    <trkpt lat="49.141682" lon="19.968486"><ele>1196</ele></trkpt>
    <trkpt lat="49.142120" lon="19.968692"><ele>1203</ele></trkpt>
    <trkpt lat="49.142414" lon="19.968582"><ele>1208</ele></trkpt>
    <trkpt lat="49.142982" lon="19.968663"><ele>1220</ele></trkpt>
    <trkpt lat="49.143494" lon="19.968354"><ele>1231</ele></trkpt>
    <trkpt lat="49.143636" lon="19.968161"><ele>1234</ele></trkpt>
    <trkpt lat="49.144200" lon="19.967721"><ele>1245</ele></trkpt>
    <trkpt lat="49.144352" lon="19.967657"><ele>1248</ele></trkpt>
    <trkpt lat="49.144620" lon="19.967756"><ele>1261</ele></trkpt>
    <trkpt lat="49.144724" lon="19.968217"><ele>1275</ele></trkpt>
    <trkpt lat="49.144864" lon="19.969261"><ele>1278</ele></trkpt>
    <trkpt lat="49.144915" lon="19.969446"><ele>1280</ele></trkpt>
    <trkpt lat="49.144934" lon="19.969483"><ele>1282</ele></trkpt>
    <trkpt lat="49.145166" lon="19.969060"><ele>1296</ele></trkpt>
    <trkpt lat="49.145249" lon="19.968997"><ele>1300</ele></trkpt>
    <trkpt lat="49.145198" lon="19.969271"><ele>1296</ele></trkpt>
    <trkpt lat="49.145157" lon="19.969888"><ele>1296</ele></trkpt>
    <trkpt lat="49.145192" lon="19.969870"><ele>1298</ele></trkpt>
    <trkpt lat="49.145294" lon="19.969604"><ele>1303</ele></trkpt>
    <trkpt lat="49.145380" lon="19.969499"><ele>1307</ele></trkpt>
    <trkpt lat="49.145411" lon="19.969522"><ele>1309</ele></trkpt>
    <trkpt lat="49.145435" lon="19.969849"><ele>1313</ele></trkpt>
    <trkpt lat="49.145486" lon="19.969860"><ele>1316</ele></trkpt>
    <trkpt lat="49.145542" lon="19.969658"><ele>1318</ele></trkpt>
    <trkpt lat="49.145636" lon="19.969521"><ele>1321</ele></trkpt>
    <trkpt lat="49.145685" lon="19.969756"><ele>1327</ele></trkpt>
    <trkpt lat="49.145741" lon="19.969802"><ele>1330</ele></trkpt>
    <trkpt lat="49.145927" lon="19.969486"><ele>1336</ele></trkpt>
    <trkpt lat="49.146131" lon="19.969312"><ele>1343</ele></trkpt>
    <trkpt lat="49.146169" lon="19.969352"><ele>1345</ele></trkpt>
    <trkpt lat="49.146190" lon="19.969672"><ele>1351</ele></trkpt>
    <trkpt lat="49.146350" lon="19.970221"><ele>1362</ele></trkpt>
    <trkpt lat="49.146587" lon="19.969866"><ele>1370</ele></trkpt>
    <trkpt lat="49.146661" lon="19.970084"><ele>1375</ele></trkpt>
    <trkpt lat="49.146817" lon="19.970065"><ele>1380</ele></trkpt>
    <trkpt lat="49.147377" lon="19.970250"><ele>1397</ele></trkpt>
    <trkpt lat="49.147547" lon="19.970151"><ele>1403</ele></trkpt>
    <trkpt lat="49.147959" lon="19.969765"><ele>1414</ele></trkpt>
    <trkpt lat="49.149100" lon="19.969247"><ele>1443</ele></trkpt>
    <trkpt lat="49.149298" lon="19.969178"><ele>1446</ele></trkpt>
    <trkpt lat="49.150026" lon="19.969086"><ele>1458</ele></trkpt>
    <trkpt lat="49.150273" lon="19.968971"><ele>1462</ele></trkpt>
    <trkpt lat="49.150315" lon="19.969033"><ele>1465</ele></trkpt>
    <trkpt lat="49.150226" lon="19.969296"><ele>1470</ele></trkpt>
    <trkpt lat="49.149584" lon="19.970489"><ele>1482</ele></trkpt>
    <trkpt lat="49.149544" lon="19.971042"><ele>1485</ele></trkpt>
    <trkpt lat="49.149601" lon="19.971152"><ele>1488</ele></trkpt>
    <trkpt lat="49.149752" lon="19.971323"><ele>1492</ele></trkpt>
    <trkpt lat="49.150361" lon="19.971742"><ele>1509</ele></trkpt>
    <trkpt lat="49.150475" lon="19.971908"><ele>1507</ele></trkpt>
    <trkpt lat="49.151414" lon="19.972619"><ele>1531</ele></trkpt>
    <trkpt lat="49.151852" lon="19.973043"><ele>1542</ele></trkpt>
    <trkpt lat="49.152299" lon="19.973273"><ele>1553</ele></trkpt>
    <trkpt lat="49.152841" lon="19.973808"><ele>1566</ele></trkpt>
    <trkpt lat="49.153322" lon="19.975047"><ele>1584</ele></trkpt>
    <trkpt lat="49.153491" lon="19.975215"><ele>1590</ele></trkpt>
    <trkpt lat="49.153750" lon="19.975381"><ele>1598</ele></trkpt>
    <trkpt lat="49.153844" lon="19.975615"><ele>1604</ele></trkpt>
    <trkpt lat="49.153892" lon="19.975829"><ele>1608</ele></trkpt>
    <trkpt lat="49.153931" lon="19.976446"><ele>1617</ele></trkpt>
    <trkpt lat="49.153917" lon="19.976706"><ele>1622</ele></trkpt>
    <trkpt lat="49.153712" lon="19.977661"><ele>1637</ele></trkpt>
    <trkpt lat="49.153712" lon="19.977785"><ele>1641</ele></trkpt>
    <trkpt lat="49.153750" lon="19.977838"><ele>1643</ele></trkpt>
    <trkpt lat="49.154090" lon="19.977745"><ele>1649</ele></trkpt>
    <trkpt lat="49.154306" lon="19.977632"><ele>1654</ele></trkpt>
    <trkpt lat="49.154717" lon="19.977254"><ele>1660</ele></trkpt>
    <trkpt lat="49.154762" lon="19.977236"><ele>1662</ele></trkpt>
    <trkpt lat="49.154790" lon="19.977297"><ele>1664</ele></trkpt>
    <trkpt lat="49.154705" lon="19.978091"><ele>1678</ele></trkpt>
    <trkpt lat="49.154665" lon="19.978951"><ele>1694</ele></trkpt>
    <trkpt lat="49.154441" lon="19.979724"><ele>1708</ele></trkpt>
    <trkpt lat="49.154329" lon="19.979995"><ele>1711</ele></trkpt>
    <trkpt lat="49.154006" lon="19.980601"><ele>1722</ele></trkpt>
    <trkpt lat="49.154017" lon="19.980644"><ele>1724</ele></trkpt>
    <trkpt lat="49.154261" lon="19.980588"><ele>1726</ele></trkpt>
    <trkpt lat="49.154394" lon="19.980507"><ele>1726</ele></trkpt>
    <trkpt lat="49.154655" lon="19.980464"><ele>1731</ele></trkpt>
    <trkpt lat="49.156112" lon="19.979681"><ele>1770</ele></trkpt>
    <trkpt lat="49.156183" lon="19.979678"><ele>1772</ele></trkpt>
    <trkpt lat="49.155796" lon="19.981907"><ele>1805</ele></trkpt>
    <trkpt lat="49.155827" lon="19.982074"><ele>1810</ele></trkpt>
    <trkpt lat="49.156289" lon="19.981843"><ele>1822</ele></trkpt>
    <trkpt lat="49.156318" lon="19.981906"><ele>1825</ele></trkpt>
    <trkpt lat="49.156204" lon="19.982656"><ele>1835</ele></trkpt>
    <trkpt lat="49.156069" lon="19.982973"><ele>1839</ele></trkpt>
    <trkpt lat="49.155914" lon="19.983565"><ele>1848</ele></trkpt>
    <trkpt lat="49.155794" lon="19.983840"><ele>1851</ele></trkpt>
    <trkpt lat="49.155711" lon="19.984580"><ele>1860</ele></trkpt>
    <trkpt lat="49.155792" lon="19.984962"><ele>1865</ele></trkpt>
    <trkpt lat="49.156253" lon="19.985660"><ele>1886</ele></trkpt>
    <trkpt lat="49.156619" lon="19.986387"><ele>1904</ele></trkpt>
    <trkpt lat="49.156793" lon="19.986852"><ele>1911</ele></trkpt>
    <trkpt lat="49.157102" lon="19.987387"><ele>1926</ele></trkpt>
    <trkpt lat="49.157207" lon="19.987683"><ele>1932</ele></trkpt>
    <trkpt lat="49.157405" lon="19.988456"><ele>1948</ele></trkpt>
    <trkpt lat="49.157446" lon="19.988716"><ele>1951</ele></trkpt>
    <trkpt lat="49.157760" lon="19.989771"><ele>1975</ele></trkpt>
    <trkpt lat="49.157801" lon="19.990808"><ele>1992</ele></trkpt>
    <trkpt lat="49.157770" lon="19.991149"><ele>1993</ele></trkpt>
    <trkpt lat="49.157765" lon="19.991869"><ele>2001</ele></trkpt>
    <trkpt lat="49.157812" lon="19.992581"><ele>2014</ele></trkpt>
    <trkpt lat="49.157908" lon="19.993129"><ele>2029</ele></trkpt>
    <trkpt lat="49.157991" lon="19.992863"><ele>2032</ele></trkpt>
    <trkpt lat="49.158042" lon="19.993049"><ele>2039</ele></trkpt>
    <trkpt lat="49.158068" lon="19.993441"><ele>2046</ele></trkpt>
    <trkpt lat="49.158054" lon="19.993906"><ele>2051</ele></trkpt>
    <trkpt lat="49.158094" lon="19.994225"><ele>2060</ele></trkpt>
    <trkpt lat="49.158029" lon="19.994858"><ele>2066</ele></trkpt>
    <trkpt lat="49.157999" lon="19.994946"><ele>2066</ele></trkpt>
    <trkpt lat="49.157942" lon="19.995792"><ele>2077</ele></trkpt>
    <trkpt lat="49.158005" lon="19.996259"><ele>2086</ele></trkpt>
    <trkpt lat="49.157940" lon="19.996558"><ele>2088</ele></trkpt>
    <trkpt lat="49.157982" lon="19.997157"><ele>2102</ele></trkpt>
    <trkpt lat="49.157814" lon="19.997486"><ele>2109</ele></trkpt>
    <trkpt lat="49.157554" lon="19.997751"><ele>2122</ele></trkpt>
    <trkpt lat="49.157681" lon="19.997885"><ele>2130</ele></trkpt>
    <trkpt lat="49.157424" lon="19.998035"><ele>2142</ele></trkpt>
    <trkpt lat="49.157424" lon="19.998143"><ele>2149</ele></trkpt>
    <trkpt lat="49.157162" lon="19.998295"><ele>2168</ele></trkpt>
    <trkpt lat="49.157136" lon="19.998422"><ele>2177</ele></trkpt>
    <trkpt lat="49.156888" lon="19.998486"><ele>2186</ele></trkpt>
    <trkpt lat="49.156780" lon="19.998422"><ele>2185</ele></trkpt>
    <trkpt lat="49.156630" lon="19.998422"><ele>2185</ele></trkpt>
    <trkpt lat="49.156566" lon="19.998465"><ele>2184</ele></trkpt>
    <trkpt lat="49.156780" lon="19.998744"><ele>2194</ele></trkpt>
    <trkpt lat="49.156845" lon="19.998958"><ele>2201</ele></trkpt>
    <trkpt lat="49.156995" lon="19.999194"><ele>2212</ele></trkpt>
    <trkpt lat="49.157059" lon="19.999409"><ele>2219</ele></trkpt>
    <trkpt lat="49.157166" lon="19.999516"><ele>2225</ele></trkpt>
    <trkpt lat="49.157188" lon="19.999859"><ele>2233</ele></trkpt>
    <trkpt lat="49.157274" lon="19.999967"><ele>2235</ele></trkpt>
    <trkpt lat="49.157488" lon="20.000010"><ele>2247</ele></trkpt>
    <trkpt lat="49.157639" lon="20.000246"><ele>2254</ele></trkpt>
    <trkpt lat="49.157660" lon="20.000396"><ele>2259</ele></trkpt>
    <trkpt lat="49.157767" lon="20.000525"><ele>2266</ele></trkpt>
    <trkpt lat="49.157917" lon="20.000546"><ele>2270</ele></trkpt>
    <trkpt lat="49.158132" lon="20.000761"><ele>2279</ele></trkpt>
    <trkpt lat="49.158304" lon="20.000868"><ele>2284</ele></trkpt>
    <trkpt lat="49.158390" lon="20.000825"><ele>2286</ele></trkpt>
    <trkpt lat="49.158497" lon="20.000868"><ele>2287</ele></trkpt>
    <trkpt lat="49.158762" lon="20.001131"><ele>2296</ele></trkpt>
    <trkpt lat="49.159137" lon="20.001391"><ele>2312</ele></trkpt>
    <trkpt lat="49.159306" lon="20.001259"><ele>2310</ele></trkpt>
    <trkpt lat="49.159513" lon="20.001332"><ele>2312</ele></trkpt>
    <trkpt lat="49.159741" lon="20.001254"><ele>2314</ele></trkpt>
    <trkpt lat="49.159806" lon="20.001318"><ele>2315</ele></trkpt>
    <trkpt lat="49.159956" lon="20.001318"><ele>2320</ele></trkpt>
    <trkpt lat="49.160256" lon="20.001147"><ele>2335</ele></trkpt>
    <trkpt lat="49.160385" lon="20.001168"><ele>2340</ele></trkpt>
    <trkpt lat="49.160707" lon="20.001018"><ele>2345</ele></trkpt>
    <trkpt lat="49.160814" lon="20.001104"><ele>2345</ele></trkpt>
    <trkpt lat="49.161136" lon="20.000954"><ele>2338</ele></trkpt>
    <trkpt lat="49.161329" lon="20.000696"><ele>2338</ele></trkpt>
    <trkpt lat="49.161694" lon="20.000460"><ele>2353</ele></trkpt>
    <trkpt lat="49.161758" lon="20.000525"><ele>2352</ele></trkpt>
    <trkpt lat="49.161866" lon="20.000439"><ele>2360</ele></trkpt>
    <trkpt lat="49.162014" lon="20.000473"><ele>2364</ele></trkpt>
    <trkpt lat="49.162069" lon="20.000567"><ele>2359</ele></trkpt>
    <trkpt lat="49.162123" lon="20.000456"><ele>2370</ele></trkpt>
    <trkpt lat="49.162161" lon="20.000494"><ele>2369</ele></trkpt>
    <trkpt lat="49.162185" lon="20.000426"><ele>2376</ele></trkpt>
    <trkpt lat="49.162247" lon="20.000474"><ele>2375</ele></trkpt>
    <trkpt lat="49.162315" lon="20.000449"><ele>2380</ele></trkpt>
    <trkpt lat="49.162352" lon="20.000548"><ele>2374</ele></trkpt>
    <trkpt lat="49.162456" lon="20.000551"><ele>2379</ele></trkpt>
    <trkpt lat="49.162560" lon="20.000442"><ele>2390</ele></trkpt>
    <trkpt lat="49.162586" lon="20.000366"><ele>2395</ele></trkpt>
    <trkpt lat="49.162618" lon="20.000346"><ele>2396</ele></trkpt>
    <trkpt lat="49.162654" lon="20.000404"><ele>2392</ele></trkpt>
    <trkpt lat="49.162813" lon="20.000199"><ele>2403</ele></trkpt>
    <trkpt lat="49.162839" lon="20.000048"><ele>2410</ele></trkpt>
    <trkpt lat="49.162813" lon="20.000199"><ele>2403</ele></trkpt>
    <trkpt lat="49.162779" lon="20.000246"><ele>2401</ele></trkpt>
    <trkpt lat="49.162668" lon="20.000350"><ele>2396</ele></trkpt>
    <trkpt lat="49.162654" lon="20.000404"><ele>2392</ele></trkpt>
    <trkpt lat="49.162618" lon="20.000346"><ele>2396</ele></trkpt>
    <trkpt lat="49.162586" lon="20.000366"><ele>2395</ele></trkpt>
    <trkpt lat="49.162560" lon="20.000442"><ele>2390</ele></trkpt>
    <trkpt lat="49.162456" lon="20.000551"><ele>2379</ele></trkpt>
    <trkpt lat="49.162352" lon="20.000548"><ele>2374</ele></trkpt>
    <trkpt lat="49.162315" lon="20.000449"><ele>2380</ele></trkpt>
    <trkpt lat="49.162247" lon="20.000474"><ele>2375</ele></trkpt>
    <trkpt lat="49.162185" lon="20.000426"><ele>2376</ele></trkpt>
    <trkpt lat="49.162161" lon="20.000494"><ele>2369</ele></trkpt>
    <trkpt lat="49.162123" lon="20.000456"><ele>2370</ele></trkpt>
    <trkpt lat="49.162069" lon="20.000567"><ele>2359</ele></trkpt>
    <trkpt lat="49.162014" lon="20.000473"><ele>2364</ele></trkpt>
    <trkpt lat="49.161866" lon="20.000439"><ele>2360</ele></trkpt>
    <trkpt lat="49.161758" lon="20.000525"><ele>2352</ele></trkpt>
    <trkpt lat="49.161694" lon="20.000460"><ele>2353</ele></trkpt>
    <trkpt lat="49.161329" lon="20.000696"><ele>2338</ele></trkpt>
    <trkpt lat="49.161136" lon="20.000954"><ele>2338</ele></trkpt>
    <trkpt lat="49.160814" lon="20.001104"><ele>2345</ele></trkpt>
    <trkpt lat="49.160707" lon="20.001018"><ele>2345</ele></trkpt>
    <trkpt lat="49.160385" lon="20.001168"><ele>2340</ele></trkpt>
    <trkpt lat="49.160256" lon="20.001147"><ele>2335</ele></trkpt>
    <trkpt lat="49.159956" lon="20.001318"><ele>2320</ele></trkpt>
    <trkpt lat="49.159806" lon="20.001318"><ele>2315</ele></trkpt>
    <trkpt lat="49.159741" lon="20.001254"><ele>2314</ele></trkpt>
    <trkpt lat="49.159513" lon="20.001332"><ele>2312</ele></trkpt>
    <trkpt lat="49.159306" lon="20.001259"><ele>2310</ele></trkpt>
    <trkpt lat="49.159137" lon="20.001391"><ele>2312</ele></trkpt>
    <trkpt lat="49.158762" lon="20.001131"><ele>2296</ele></trkpt>
    <trkpt lat="49.158497" lon="20.000868"><ele>2287</ele></trkpt>
    <trkpt lat="49.158390" lon="20.000825"><ele>2286</ele></trkpt>
    <trkpt lat="49.158304" lon="20.000868"><ele>2284</ele></trkpt>
    <trkpt lat="49.158132" lon="20.000761"><ele>2279</ele></trkpt>
    <trkpt lat="49.157917" lon="20.000546"><ele>2270</ele></trkpt>
    <trkpt lat="49.157767" lon="20.000525"><ele>2266</ele></trkpt>
    <trkpt lat="49.157660" lon="20.000396"><ele>2259</ele></trkpt>
    <trkpt lat="49.157639" lon="20.000246"><ele>2254</ele></trkpt>
    <trkpt lat="49.157488" lon="20.000010"><ele>2247</ele></trkpt>
    <trkpt lat="49.157274" lon="19.999967"><ele>2235</ele></trkpt>
    <trkpt lat="49.157188" lon="19.999859"><ele>2233</ele></trkpt>
    <trkpt lat="49.157166" lon="19.999516"><ele>2225</ele></trkpt>
    <trkpt lat="49.157059" lon="19.999409"><ele>2219</ele></trkpt>
    <trkpt lat="49.156995" lon="19.999194"><ele>2212</ele></trkpt>
    <trkpt lat="49.156845" lon="19.998958"><ele>2201</ele></trkpt>
    <trkpt lat="49.156780" lon="19.998744"><ele>2194</ele></trkpt>
    <trkpt lat="49.156566" lon="19.998465"><ele>2184</ele></trkpt>
    <trkpt lat="49.156630" lon="19.998422"><ele>2185</ele></trkpt>
    <trkpt lat="49.156780" lon="19.998422"><ele>2185</ele></trkpt>
    <trkpt lat="49.156888" lon="19.998486"><ele>2186</ele></trkpt>
    <trkpt lat="49.157136" lon="19.998422"><ele>2177</ele></trkpt>
    <trkpt lat="49.157162" lon="19.998295"><ele>2168</ele></trkpt>
    <trkpt lat="49.157424" lon="19.998143"><ele>2149</ele></trkpt>
    <trkpt lat="49.157424" lon="19.998035"><ele>2142</ele></trkpt>
    <trkpt lat="49.157681" lon="19.997885"><ele>2130</ele></trkpt>
    <trkpt lat="49.157554" lon="19.997751"><ele>2122</ele></trkpt>
    <trkpt lat="49.157814" lon="19.997486"><ele>2109</ele></trkpt>
    <trkpt lat="49.157982" lon="19.997157"><ele>2102</ele></trkpt>
    <trkpt lat="49.157940" lon="19.996558"><ele>2088</ele></trkpt>
    <trkpt lat="49.158005" lon="19.996259"><ele>2086</ele></trkpt>
    <trkpt lat="49.157942" lon="19.995792"><ele>2077</ele></trkpt>
    <trkpt lat="49.157999" lon="19.994946"><ele>2066</ele></trkpt>
    <trkpt lat="49.158029" lon="19.994858"><ele>2066</ele></trkpt>
    <trkpt lat="49.158094" lon="19.994225"><ele>2060</ele></trkpt>
    <trkpt lat="49.158054" lon="19.993906"><ele>2051</ele></trkpt>
    <trkpt lat="49.158068" lon="19.993441"><ele>2046</ele></trkpt>
    <trkpt lat="49.158042" lon="19.993049"><ele>2039</ele></trkpt>
    <trkpt lat="49.157991" lon="19.992863"><ele>2032</ele></trkpt>
    <trkpt lat="49.157908" lon="19.993129"><ele>2029</ele></trkpt>
    <trkpt lat="49.157812" lon="19.992581"><ele>2014</ele></trkpt>
    <trkpt lat="49.157765" lon="19.991869"><ele>2001</ele></trkpt>
    <trkpt lat="49.157770" lon="19.991149"><ele>1993</ele></trkpt>
    <trkpt lat="49.157801" lon="19.990808"><ele>1992</ele></trkpt>
    <trkpt lat="49.157760" lon="19.989771"><ele>1975</ele></trkpt>
    <trkpt lat="49.157446" lon="19.988716"><ele>1951</ele></trkpt>
    <trkpt lat="49.157405" lon="19.988456"><ele>1948</ele></trkpt>
    <trkpt lat="49.157207" lon="19.987683"><ele>1932</ele></trkpt>
    <trkpt lat="49.157102" lon="19.987387"><ele>1926</ele></trkpt>
    <trkpt lat="49.156793" lon="19.986852"><ele>1911</ele></trkpt>
    <trkpt lat="49.156619" lon="19.986387"><ele>1904</ele></trkpt>
    <trkpt lat="49.156253" lon="19.985660"><ele>1886</ele></trkpt>
    <trkpt lat="49.155792" lon="19.984962"><ele>1865</ele></trkpt>
    <trkpt lat="49.155711" lon="19.984580"><ele>1860</ele></trkpt>
    <trkpt lat="49.155794" lon="19.983840"><ele>1851</ele></trkpt>
    <trkpt lat="49.155914" lon="19.983565"><ele>1848</ele></trkpt>
    <trkpt lat="49.156069" lon="19.982973"><ele>1839</ele></trkpt>
    <trkpt lat="49.156204" lon="19.982656"><ele>1835</ele></trkpt>
    <trkpt lat="49.156318" lon="19.981906"><ele>1825</ele></trkpt>
    <trkpt lat="49.156289" lon="19.981843"><ele>1822</ele></trkpt>
    <trkpt lat="49.155827" lon="19.982074"><ele>1810</ele></trkpt>
    <trkpt lat="49.155796" lon="19.981907"><ele>1805</ele></trkpt>
    <trkpt lat="49.156183" lon="19.979678"><ele>1772</ele></trkpt>
    <trkpt lat="49.156112" lon="19.979681"><ele>1770</ele></trkpt>
    <trkpt lat="49.154655" lon="19.980464"><ele>1731</ele></trkpt>
    <trkpt lat="49.154394" lon="19.980507"><ele>1726</ele></trkpt>
    <trkpt lat="49.154261" lon="19.980588"><ele>1726</ele></trkpt>
    <trkpt lat="49.154017" lon="19.980644"><ele>1724</ele></trkpt>
    <trkpt lat="49.154006" lon="19.980601"><ele>1722</ele></trkpt>
    <trkpt lat="49.154329" lon="19.979995"><ele>1711</ele></trkpt>
    <trkpt lat="49.154441" lon="19.979724"><ele>1708</ele></trkpt>
    <trkpt lat="49.154665" lon="19.978951"><ele>1694</ele></trkpt>
    <trkpt lat="49.154705" lon="19.978091"><ele>1678</ele></trkpt>
    <trkpt lat="49.154790" lon="19.977297"><ele>1664</ele></trkpt>
    <trkpt lat="49.154762" lon="19.977236"><ele>1662</ele></trkpt>
    <trkpt lat="49.154717" lon="19.977254"><ele>1660</ele></trkpt>
    <trkpt lat="49.154306" lon="19.977632"><ele>1654</ele></trkpt>
    <trkpt lat="49.154090" lon="19.977745"><ele>1649</ele></trkpt>
    <trkpt lat="49.153750" lon="19.977838"><ele>1643</ele></trkpt>
    <trkpt lat="49.153712" lon="19.977785"><ele>1641</ele></trkpt>
    <trkpt lat="49.153712" lon="19.977661"><ele>1637</ele></trkpt>
    <trkpt lat="49.153917" lon="19.976706"><ele>1622</ele></trkpt>
    <trkpt lat="49.153931" lon="19.976446"><ele>1617</ele></trkpt>
    <trkpt lat="49.153892" lon="19.975829"><ele>1608</ele></trkpt>
    <trkpt lat="49.153844" lon="19.975615"><ele>1604</ele></trkpt>
    <trkpt lat="49.153750" lon="19.975381"><ele>1598</ele></trkpt>
    <trkpt lat="49.153491" lon="19.975215"><ele>1590</ele></trkpt>
    <trkpt lat="49.153322" lon="19.975047"><ele>1584</ele></trkpt>
    <trkpt lat="49.152841" lon="19.973808"><ele>1566</ele></trkpt>
    <trkpt lat="49.152299" lon="19.973273"><ele>1553</ele></trkpt>
    <trkpt lat="49.151852" lon="19.973043"><ele>1542</ele></trkpt>
    <trkpt lat="49.151414" lon="19.972619"><ele>1531</ele></trkpt>
    <trkpt lat="49.150475" lon="19.971908"><ele>1507</ele></trkpt>
    <trkpt lat="49.150361" lon="19.971742"><ele>1509</ele></trkpt>
    <trkpt lat="49.149752" lon="19.971323"><ele>1492</ele></trkpt>
    <trkpt lat="49.149601" lon="19.971152"><ele>1488</ele></trkpt>
    <trkpt lat="49.149544" lon="19.971042"><ele>1485</ele></trkpt>
    <trkpt lat="49.149584" lon="19.970489"><ele>1482</ele></trkpt>
    <trkpt lat="49.150226" lon="19.969296"><ele>1470</ele></trkpt>
    <trkpt lat="49.150315" lon="19.969033"><ele>1465</ele></trkpt>
    <trkpt lat="49.150273" lon="19.968971"><ele>1462</ele></trkpt>
    <trkpt lat="49.150026" lon="19.969086"><ele>1458</ele></trkpt>
    <trkpt lat="49.149298" lon="19.969178"><ele>1446</ele></trkpt>
    <trkpt lat="49.149100" lon="19.969247"><ele>1443</ele></trkpt>
    <trkpt lat="49.147959" lon="19.969765"><ele>1414</ele></trkpt>
    <trkpt lat="49.147547" lon="19.970151"><ele>1403</ele></trkpt>
    <trkpt lat="49.147377" lon="19.970250"><ele>1397</ele></trkpt>
    <trkpt lat="49.146817" lon="19.970065"><ele>1380</ele></trkpt>
    <trkpt lat="49.146661" lon="19.970084"><ele>1375</ele></trkpt>
    <trkpt lat="49.146587" lon="19.969866"><ele>1370</ele></trkpt>
    <trkpt lat="49.146350" lon="19.970221"><ele>1362</ele></trkpt>
    <trkpt lat="49.146190" lon="19.969672"><ele>1351</ele></trkpt>
    <trkpt lat="49.146169" lon="19.969352"><ele>1345</ele></trkpt>
    <trkpt lat="49.146131" lon="19.969312"><ele>1343</ele></trkpt>
    <trkpt lat="49.145927" lon="19.969486"><ele>1336</ele></trkpt>
    <trkpt lat="49.145741" lon="19.969802"><ele>1330</ele></trkpt>
    <trkpt lat="49.145685" lon="19.969756"><ele>1327</ele></trkpt>
    <trkpt lat="49.145636" lon="19.969521"><ele>1321</ele></trkpt>
    <trkpt lat="49.145542" lon="19.969658"><ele>1318</ele></trkpt>
    <trkpt lat="49.145486" lon="19.969860"><ele>1316</ele></trkpt>
    <trkpt lat="49.145435" lon="19.969849"><ele>1313</ele></trkpt>
    <trkpt lat="49.145411" lon="19.969522"><ele>1309</ele></trkpt>
    <trkpt lat="49.145380" lon="19.969499"><ele>1307</ele></trkpt>
    <trkpt lat="49.145294" lon="19.969604"><ele>1303</ele></trkpt>
    <trkpt lat="49.145192" lon="19.969870"><ele>1298</ele></trkpt>
    <trkpt lat="49.145157" lon="19.969888"><ele>1296</ele></trkpt>
    <trkpt lat="49.145198" lon="19.969271"><ele>1296</ele></trkpt>
    <trkpt lat="49.145249" lon="19.968997"><ele>1300</ele></trkpt>
    <trkpt lat="49.145166" lon="19.969060"><ele>1296</ele></trkpt>
    <trkpt lat="49.144934" lon="19.969483"><ele>1282</ele></trkpt>
    <trkpt lat="49.144915" lon="19.969446"><ele>1280</ele></trkpt>
    <trkpt lat="49.144864" lon="19.969261"><ele>1278</ele></trkpt>
    <trkpt lat="49.144724" lon="19.968217"><ele>1275</ele></trkpt>
    <trkpt lat="49.144620" lon="19.967756"><ele>1261</ele></trkpt>
    <trkpt lat="49.144352" lon="19.967657"><ele>1248</ele></trkpt>
    <trkpt lat="49.144200" lon="19.967721"><ele>1245</ele></trkpt>
    <trkpt lat="49.143636" lon="19.968161"><ele>1234</ele></trkpt>
    <trkpt lat="49.143494" lon="19.968354"><ele>1231</ele></trkpt>
    <trkpt lat="49.142982" lon="19.968663"><ele>1220</ele></trkpt>
    <trkpt lat="49.142414" lon="19.968582"><ele>1208</ele></trkpt>
    <trkpt lat="49.142120" lon="19.968692"><ele>1203</ele></trkpt>
    <trkpt lat="49.141682" lon="19.968486"><ele>1196</ele></trkpt>
    <trkpt lat="49.140954" lon="19.967696"><ele>1174</ele></trkpt>
    <trkpt lat="49.140588" lon="19.967399"><ele>1163</ele></trkpt>
    <trkpt lat="49.140314" lon="19.967057"><ele>1154</ele></trkpt>
    <trkpt lat="49.140067" lon="19.966651"><ele>1143</ele></trkpt>
    <trkpt lat="49.139943" lon="19.966307"><ele>1138</ele></trkpt>
  </trkseg></trk>
</gpx>
