<?xml version="1.0" encoding="UTF-8"?>
<gpx version="1.1" creator="MounTour (OpenStreetMap)" xmlns="http://www.topografix.com/GPX/1/1">
  <metadata><name>Kuchyňa</name><copyright author="OpenStreetMap contributors"><license>https://opendatacommons.org/licenses/odbl/</license></copyright></metadata>
  <trk><name>Kuchyňa</name><trkseg>
    <trkpt lat="48.417276" lon="17.188935"><ele>299</ele></trkpt>
    <trkpt lat="48.417356" lon="17.189308"><ele>304</ele></trkpt>
    <trkpt lat="48.417724" lon="17.189997"><ele>317</ele></trkpt>
    <trkpt lat="48.418175" lon="17.190333"><ele>316</ele></trkpt>
    <trkpt lat="48.418411" lon="17.190752"><ele>313</ele></trkpt>
    <trkpt lat="48.418537" lon="17.190909"><ele>309</ele></trkpt>
    <trkpt lat="48.418905" lon="17.191062"><ele>309</ele></trkpt>
    <trkpt lat="48.419070" lon="17.191165"><ele>310</ele></trkpt>
    <trkpt lat="48.419107" lon="17.191245"><ele>311</ele></trkpt>
    <trkpt lat="48.419132" lon="17.191607"><ele>317</ele></trkpt>
    <trkpt lat="48.419087" lon="17.192303"><ele>323</ele></trkpt>
    <trkpt lat="48.419119" lon="17.192474"><ele>325</ele></trkpt>
    <trkpt lat="48.419071" lon="17.192850"><ele>328</ele></trkpt>
    <trkpt lat="48.418854" lon="17.193172"><ele>333</ele></trkpt>
    <trkpt lat="48.418610" lon="17.194432"><ele>345</ele></trkpt>
    <trkpt lat="48.418619" lon="17.194741"><ele>345</ele></trkpt>
    <trkpt lat="48.418673" lon="17.195155"><ele>347</ele></trkpt>
    <trkpt lat="48.418895" lon="17.196592"><ele>354</ele></trkpt>
    <trkpt lat="48.419089" lon="17.197640"><ele>359</ele></trkpt>
    <trkpt lat="48.419224" lon="17.198101"><ele>357</ele></trkpt>
    <trkpt lat="48.419457" lon="17.198136"><ele>355</ele></trkpt>
    <trkpt lat="48.419697" lon="17.197925"><ele>360</ele></trkpt>
    <trkpt lat="48.419782" lon="17.197934"><ele>363</ele></trkpt>
    <trkpt lat="48.420138" lon="17.198262"><ele>378</ele></trkpt>
    <trkpt lat="48.420297" lon="17.198281"><ele>381</ele></trkpt>
    <trkpt lat="48.420338" lon="17.198217"><ele>382</ele></trkpt>
    <trkpt lat="48.420423" lon="17.196861"><ele>385</ele></trkpt>
    <trkpt lat="48.420516" lon="17.196467"><ele>388</ele></trkpt>
    <trkpt lat="48.420561" lon="17.196894"><ele>392</ele></trkpt>
    <trkpt lat="48.420679" lon="17.197485"><ele>399</ele></trkpt>
    <trkpt lat="48.420896" lon="17.198089"><ele>406</ele></trkpt>
    <trkpt lat="48.420949" lon="17.198443"><ele>407</ele></trkpt>
    <trkpt lat="48.421085" lon="17.197973"><ele>417</ele></trkpt>
    <trkpt lat="48.421138" lon="17.197928"><ele>420</ele></trkpt>
    <trkpt lat="48.421127" lon="17.197768"><ele>422</ele></trkpt>
    <trkpt lat="48.421205" lon="17.197400"><ele>427</ele></trkpt>
    <trkpt lat="48.421127" lon="17.197768"><ele>422</ele></trkpt>
    <trkpt lat="48.421138" lon="17.197928"><ele>420</ele></trkpt>
    <trkpt lat="48.421085" lon="17.197973"><ele>417</ele></trkpt>
    <trkpt lat="48.420949" lon="17.198443"><ele>407</ele></trkpt>
    <trkpt lat="48.420896" lon="17.198089"><ele>406</ele></trkpt>
    <trkpt lat="48.420679" lon="17.197485"><ele>399</ele></trkpt>
    <trkpt lat="48.420561" lon="17.196894"><ele>392</ele></trkpt>
    <trkpt lat="48.420516" lon="17.196467"><ele>388</ele></trkpt>
    <trkpt lat="48.420423" lon="17.196861"><ele>385</ele></trkpt>
    <trkpt lat="48.420338" lon="17.198217"><ele>382</ele></trkpt>
    <trkpt lat="48.420297" lon="17.198281"><ele>381</ele></trkpt>
    <trkpt lat="48.420138" lon="17.198262"><ele>378</ele></trkpt>
    <trkpt lat="48.419782" lon="17.197934"><ele>363</ele></trkpt>
    <trkpt lat="48.419697" lon="17.197925"><ele>360</ele></trkpt>
    <trkpt lat="48.419457" lon="17.198136"><ele>355</ele></trkpt>
    <trkpt lat="48.419224" lon="17.198101"><ele>357</ele></trkpt>
    <trkpt lat="48.419089" lon="17.197640"><ele>359</ele></trkpt>
    <trkpt lat="48.418895" lon="17.196592"><ele>354</ele></trkpt>
    <trkpt lat="48.418673" lon="17.195155"><ele>347</ele></trkpt>
    <trkpt lat="48.418619" lon="17.194741"><ele>345</ele></trkpt>
    <trkpt lat="48.418610" lon="17.194432"><ele>345</ele></trkpt>
    <trkpt lat="48.418854" lon="17.193172"><ele>333</ele></trkpt>
    <trkpt lat="48.419071" lon="17.192850"><ele>328</ele></trkpt>
    <trkpt lat="48.419119" lon="17.192474"><ele>325</ele></trkpt>
    <trkpt lat="48.419087" lon="17.192303"><ele>323</ele></trkpt>
    <trkpt lat="48.419132" lon="17.191607"><ele>317</ele></trkpt>
    <trkpt lat="48.419107" lon="17.191245"><ele>311</ele></trkpt>
    <trkpt lat="48.419070" lon="17.191165"><ele>310</ele></trkpt>
    <trkpt lat="48.418905" lon="17.191062"><ele>309</ele></trkpt>
    <trkpt lat="48.418537" lon="17.190909"><ele>309</ele></trkpt>
    <trkpt lat="48.418411" lon="17.190752"><ele>313</ele></trkpt>
    <trkpt lat="48.418175" lon="17.190333"><ele>316</ele></trkpt>
    <trkpt lat="48.417724" lon="17.189997"><ele>317</ele></trkpt>
    <trkpt lat="48.417356" lon="17.189308"><ele>304</ele></trkpt>
    <trkpt lat="48.417276" lon="17.188935"><ele>299</ele></trkpt>
  </trkseg></trk>
</gpx>
