<?xml version="1.0" encoding="UTF-8"?>
<gpx version="1.1" creator="MounTour (OpenStreetMap)" xmlns="http://www.topografix.com/GPX/1/1">
  <metadata><name>Kukla</name><copyright author="OpenStreetMap contributors"><license>https://opendatacommons.org/licenses/odbl/</license></copyright></metadata>
  <trk><name>Kukla</name><trkseg>
    <trkpt lat="48.376138" lon="17.304538"><ele>443</ele></trkpt>
    <trkpt lat="48.376120" lon="17.304889"><ele>442</ele></trkpt>
    <trkpt lat="48.376157" lon="17.305262"><ele>439</ele></trkpt>
    <trkpt lat="48.376432" lon="17.305698"><ele>443</ele></trkpt>
    <trkpt lat="48.376515" lon="17.306016"><ele>442</ele></trkpt>
    <trkpt lat="48.376647" lon="17.306806"><ele>441</ele></trkpt>
    <trkpt lat="48.376890" lon="17.307278"><ele>452</ele></trkpt>
    <trkpt lat="48.376981" lon="17.307593"><ele>455</ele></trkpt>
    <trkpt lat="48.377422" lon="17.308220"><ele>458</ele></trkpt>
    <trkpt lat="48.377673" lon="17.308920"><ele>461</ele></trkpt>
    <trkpt lat="48.377917" lon="17.309850"><ele>467</ele></trkpt>
    <trkpt lat="48.378018" lon="17.310013"><ele>470</ele></trkpt>
    <trkpt lat="48.378465" lon="17.310295"><ele>479</ele></trkpt>
    <trkpt lat="48.378731" lon="17.310228"><ele>483</ele></trkpt>
    <trkpt lat="48.378927" lon="17.310247"><ele>485</ele></trkpt>
    <trkpt lat="48.379269" lon="17.310493"><ele>487</ele></trkpt>
    <trkpt lat="48.379697" lon="17.311004"><ele>488</ele></trkpt>
    <trkpt lat="48.379862" lon="17.311066"><ele>488</ele></trkpt>
    <trkpt lat="48.379949" lon="17.311159"><ele>489</ele></trkpt>
    <trkpt lat="48.380257" lon="17.311656"><ele>495</ele></trkpt>
    <trkpt lat="48.380375" lon="17.311976"><ele>493</ele></trkpt>
    <trkpt lat="48.380511" lon="17.312236"><ele>489</ele></trkpt>
    <trkpt lat="48.380650" lon="17.312380"><ele>491</ele></trkpt>
    <trkpt lat="48.381025" lon="17.312505"><ele>501</ele></trkpt>
    <trkpt lat="48.381269" lon="17.312665"><ele>502</ele></trkpt>
    <trkpt lat="48.381355" lon="17.312655"><ele>503</ele></trkpt>
    <trkpt lat="48.381634" lon="17.312555"><ele>508</ele></trkpt>
    <trkpt lat="48.381976" lon="17.312138"><ele>511</ele></trkpt>
    <trkpt lat="48.382363" lon="17.312301"><ele>516</ele></trkpt>
    <trkpt lat="48.382828" lon="17.312871"><ele>527</ele></trkpt>
    <trkpt lat="48.382841" lon="17.312963"><ele>528</ele></trkpt>
    <trkpt lat="48.382917" lon="17.313111"><ele>530</ele></trkpt>
    <trkpt lat="48.382769" lon="17.313278"><ele>529</ele></trkpt>
    <trkpt lat="48.383317" lon="17.314144"><ele>544</ele></trkpt>
    <trkpt lat="48.383377" lon="17.314302"><ele>546</ele></trkpt>
    <trkpt lat="48.383353" lon="17.314508"><ele>550</ele></trkpt>
    <trkpt lat="48.383382" lon="17.314678"><ele>553</ele></trkpt>
    <trkpt lat="48.383335" lon="17.314970"><ele>556</ele></trkpt>
    <trkpt lat="48.383598" lon="17.316205"><ele>558</ele></trkpt>
    <trkpt lat="48.383676" lon="17.316722"><ele>561</ele></trkpt>
    <trkpt lat="48.383791" lon="17.316970"><ele>564</ele></trkpt>
    <trkpt lat="48.383860" lon="17.317501"><ele>565</ele></trkpt>
    <trkpt lat="48.383791" lon="17.316970"><ele>564</ele></trkpt>
    <trkpt lat="48.383676" lon="17.316722"><ele>561</ele></trkpt>
    <trkpt lat="48.383598" lon="17.316205"><ele>558</ele></trkpt>
    <trkpt lat="48.383335" lon="17.314970"><ele>556</ele></trkpt>
    <trkpt lat="48.383382" lon="17.314678"><ele>553</ele></trkpt>
    <trkpt lat="48.383353" lon="17.314508"><ele>550</ele></trkpt>
    <trkpt lat="48.383377" lon="17.314302"><ele>546</ele></trkpt>
    <trkpt lat="48.383317" lon="17.314144"><ele>544</ele></trkpt>
    <trkpt lat="48.382769" lon="17.313278"><ele>529</ele></trkpt>
    <trkpt lat="48.382917" lon="17.313111"><ele>530</ele></trkpt>
    <trkpt lat="48.382841" lon="17.312963"><ele>528</ele></trkpt>
    <trkpt lat="48.382828" lon="17.312871"><ele>527</ele></trkpt>
    <trkpt lat="48.382363" lon="17.312301"><ele>516</ele></trkpt>
    <trkpt lat="48.381976" lon="17.312138"><ele>511</ele></trkpt>
    <trkpt lat="48.381634" lon="17.312555"><ele>508</ele></trkpt>
    <trkpt lat="48.381355" lon="17.312655"><ele>503</ele></trkpt>
    <trkpt lat="48.381269" lon="17.312665"><ele>502</ele></trkpt>
    <trkpt lat="48.381025" lon="17.312505"><ele>501</ele></trkpt>
    <trkpt lat="48.380650" lon="17.312380"><ele>491</ele></trkpt>
    <trkpt lat="48.380511" lon="17.312236"><ele>489</ele></trkpt>
    <trkpt lat="48.380375" lon="17.311976"><ele>493</ele></trkpt>
    <trkpt lat="48.380257" lon="17.311656"><ele>495</ele></trkpt>
    <trkpt lat="48.379949" lon="17.311159"><ele>489</ele></trkpt>
    <trkpt lat="48.379862" lon="17.311066"><ele>488</ele></trkpt>
    <trkpt lat="48.379697" lon="17.311004"><ele>488</ele></trkpt>
    <trkpt lat="48.379269" lon="17.310493"><ele>487</ele></trkpt>
    <trkpt lat="48.378927" lon="17.310247"><ele>485</ele></trkpt>
    <trkpt lat="48.378731" lon="17.310228"><ele>483</ele></trkpt>
    <trkpt lat="48.378465" lon="17.310295"><ele>479</ele></trkpt>
    <trkpt lat="48.378018" lon="17.310013"><ele>470</ele></trkpt>
    <trkpt lat="48.377917" lon="17.309850"><ele>467</ele></trkpt>
    <trkpt lat="48.377673" lon="17.308920"><ele>461</ele></trkpt>
    <trkpt lat="48.377422" lon="17.308220"><ele>458</ele></trkpt>
    <trkpt lat="48.376981" lon="17.307593"><ele>455</ele></trkpt>
    <trkpt lat="48.376890" lon="17.307278"><ele>452</ele></trkpt>
    <trkpt lat="48.376647" lon="17.306806"><ele>441</ele></trkpt>
    <trkpt lat="48.376515" lon="17.306016"><ele>442</ele></trkpt>
    <trkpt lat="48.376432" lon="17.305698"><ele>443</ele></trkpt>
    <trkpt lat="48.376157" lon="17.305262"><ele>439</ele></trkpt>
    <trkpt lat="48.376120" lon="17.304889"><ele>442</ele></trkpt>
    <trkpt lat="48.376138" lon="17.304538"><ele>443</ele></trkpt>
  </trkseg></trk>
</gpx>
