<?xml version="1.0" encoding="UTF-8"?>
<gpx version="1.1" creator="MounTour (OpenStreetMap)" xmlns="http://www.topografix.com/GPX/1/1">
  <metadata><name>Lúčna</name><copyright author="OpenStreetMap contributors"><license>https://opendatacommons.org/licenses/odbl/</license></copyright></metadata>
  <trk><name>Lúčna</name><trkseg>
    <trkpt lat="49.244555" lon="19.710999"><ele>1025</ele></trkpt>
    <trkpt lat="49.244555" lon="19.710892"><ele>1024</ele></trkpt>
    <trkpt lat="49.244708" lon="19.710905"><ele>1021</ele></trkpt>
    <trkpt lat="49.244801" lon="19.711131"><ele>1024</ele></trkpt>
    <trkpt lat="49.244644" lon="19.712254"><ele>1033</ele></trkpt>
    <trkpt lat="49.244639" lon="19.713590"><ele>1045</ele></trkpt>
    <trkpt lat="49.244864" lon="19.715565"><ele>1055</ele></trkpt>
    <trkpt lat="49.244957" lon="19.716749"><ele>1062</ele></trkpt>
    <trkpt lat="49.244947" lon="19.719951"><ele>1088</ele></trkpt>
    <trkpt lat="49.244931" lon="19.720172"><ele>1090</ele></trkpt>
    <trkpt lat="49.244863" lon="19.720443"><ele>1093</ele></trkpt>
    <trkpt lat="49.244762" lon="19.720683"><ele>1095</ele></trkpt>
    <trkpt lat="49.244023" lon="19.721361"><ele>1109</ele></trkpt>
    <trkpt lat="49.243859" lon="19.721789"><ele>1111</ele></trkpt>
    <trkpt lat="49.243807" lon="19.722133"><ele>1115</ele></trkpt>
    <trkpt lat="49.243836" lon="19.723105"><ele>1119</ele></trkpt>
    <trkpt lat="49.243725" lon="19.724196"><ele>1122</ele></trkpt>
    <trkpt lat="49.243701" lon="19.724761"><ele>1123</ele></trkpt>
    <trkpt lat="49.243728" lon="19.725529"><ele>1122</ele></trkpt>
    <trkpt lat="49.243697" lon="19.725694"><ele>1121</ele></trkpt>
    <trkpt lat="49.243628" lon="19.725835"><ele>1121</ele></trkpt>
    <trkpt lat="49.243488" lon="19.725978"><ele>1125</ele></trkpt>
    <trkpt lat="49.243163" lon="19.726170"><ele>1131</ele></trkpt>
    <trkpt lat="49.242979" lon="19.726339"><ele>1129</ele></trkpt>
    <trkpt lat="49.241591" lon="19.728630"><ele>1144</ele></trkpt>
    <trkpt lat="49.241380" lon="19.729420"><ele>1144</ele></trkpt>
    <trkpt lat="49.240560" lon="19.731022"><ele>1147</ele></trkpt>
    <trkpt lat="49.239810" lon="19.733033"><ele>1163</ele></trkpt>
    <trkpt lat="49.239724" lon="19.733332"><ele>1161</ele></trkpt>
    <trkpt lat="49.239453" lon="19.734656"><ele>1164</ele></trkpt>
    <trkpt lat="49.239322" lon="19.735549"><ele>1168</ele></trkpt>
    <trkpt lat="49.239292" lon="19.736052"><ele>1170</ele></trkpt>
    <trkpt lat="49.239311" lon="19.736516"><ele>1173</ele></trkpt>
    <trkpt lat="49.239426" lon="19.737416"><ele>1179</ele></trkpt>
    <trkpt lat="49.239369" lon="19.737956"><ele>1178</ele></trkpt>
    <trkpt lat="49.239200" lon="19.738813"><ele>1182</ele></trkpt>
    <trkpt lat="49.239067" lon="19.739329"><ele>1184</ele></trkpt>
    <trkpt lat="49.238897" lon="19.739813"><ele>1190</ele></trkpt>
    <trkpt lat="49.237872" lon="19.741616"><ele>1197</ele></trkpt>
    <trkpt lat="49.237602" lon="19.742220"><ele>1201</ele></trkpt>
    <trkpt lat="49.237243" lon="19.742314"><ele>1201</ele></trkpt>
    <trkpt lat="49.237083" lon="19.742399"><ele>1202</ele></trkpt>
    <trkpt lat="49.236788" lon="19.742797"><ele>1212</ele></trkpt>
    <trkpt lat="49.236481" lon="19.743112"><ele>1215</ele></trkpt>
    <trkpt lat="49.236177" lon="19.743656"><ele>1219</ele></trkpt>
    <trkpt lat="49.235945" lon="19.744232"><ele>1228</ele></trkpt>
    <trkpt lat="49.235804" lon="19.744684"><ele>1231</ele></trkpt>
    <trkpt lat="49.235460" lon="19.745403"><ele>1241</ele></trkpt>
    <trkpt lat="49.235024" lon="19.745956"><ele>1247</ele></trkpt>
    <trkpt lat="49.234311" lon="19.746449"><ele>1260</ele></trkpt>
    <trkpt lat="49.234028" lon="19.746873"><ele>1254</ele></trkpt>
    <trkpt lat="49.233928" lon="19.747184"><ele>1254</ele></trkpt>
    <trkpt lat="49.233922" lon="19.747399"><ele>1257</ele></trkpt>
    <trkpt lat="49.233693" lon="19.748143"><ele>1270</ele></trkpt>
    <trkpt lat="49.233435" lon="19.748612"><ele>1276</ele></trkpt>
    <trkpt lat="49.233231" lon="19.749235"><ele>1271</ele></trkpt>
    <trkpt lat="49.233114" lon="19.749483"><ele>1273</ele></trkpt>
    <trkpt lat="49.233012" lon="19.749612"><ele>1276</ele></trkpt>
    <trkpt lat="49.232868" lon="19.750068"><ele>1281</ele></trkpt>
    <trkpt lat="49.232771" lon="19.750489"><ele>1285</ele></trkpt>
    <trkpt lat="49.232688" lon="19.751200"><ele>1287</ele></trkpt>
    <trkpt lat="49.232292" lon="19.752007"><ele>1295</ele></trkpt>
    <trkpt lat="49.231946" lon="19.752423"><ele>1303</ele></trkpt>
    <trkpt lat="49.231845" lon="19.752620"><ele>1305</ele></trkpt>
    <trkpt lat="49.231571" lon="19.752930"><ele>1308</ele></trkpt>
    <trkpt lat="49.231377" lon="19.753000"><ele>1310</ele></trkpt>
    <trkpt lat="49.231259" lon="19.753092"><ele>1312</ele></trkpt>
    <trkpt lat="49.230852" lon="19.753575"><ele>1315</ele></trkpt>
    <trkpt lat="49.230417" lon="19.753836"><ele>1321</ele></trkpt>
    <trkpt lat="49.230366" lon="19.754069"><ele>1321</ele></trkpt>
    <trkpt lat="49.230352" lon="19.754300"><ele>1321</ele></trkpt>
    <trkpt lat="49.230256" lon="19.754532"><ele>1321</ele></trkpt>
    <trkpt lat="49.230060" lon="19.754700"><ele>1323</ele></trkpt>
    <trkpt lat="49.229909" lon="19.754966"><ele>1324</ele></trkpt>
    <trkpt lat="49.229828" lon="19.755210"><ele>1325</ele></trkpt>
    <trkpt lat="49.229793" lon="19.755446"><ele>1326</ele></trkpt>
    <trkpt lat="49.229812" lon="19.755667"><ele>1326</ele></trkpt>
    <trkpt lat="49.229761" lon="19.755912"><ele>1328</ele></trkpt>
    <trkpt lat="49.229523" lon="19.756621"><ele>1334</ele></trkpt>
    <trkpt lat="49.229775" lon="19.757060"><ele>1338</ele></trkpt>
    <trkpt lat="49.229835" lon="19.757538"><ele>1345</ele></trkpt>
    <trkpt lat="49.229705" lon="19.758251"><ele>1348</ele></trkpt>
    <trkpt lat="49.229597" lon="19.758627"><ele>1356</ele></trkpt>
    <trkpt lat="49.229518" lon="19.759580"><ele>1363</ele></trkpt>
    <trkpt lat="49.229425" lon="19.760288"><ele>1370</ele></trkpt>
    <trkpt lat="49.229368" lon="19.761233"><ele>1383</ele></trkpt>
    <trkpt lat="49.229510" lon="19.762299"><ele>1399</ele></trkpt>
    <trkpt lat="49.229866" lon="19.762900"><ele>1416</ele></trkpt>
    <trkpt lat="49.230476" lon="19.763055"><ele>1444</ele></trkpt>
    <trkpt lat="49.230958" lon="19.763368"><ele>1466</ele></trkpt>
    <trkpt lat="49.231308" lon="19.763396"><ele>1478</ele></trkpt>
    <trkpt lat="49.231522" lon="19.763461"><ele>1484</ele></trkpt>
    <trkpt lat="49.231718" lon="19.763605"><ele>1489</ele></trkpt>
    <trkpt lat="49.231929" lon="19.763859"><ele>1498</ele></trkpt>
    <trkpt lat="49.231972" lon="19.763858"><ele>1500</ele></trkpt>
    <trkpt lat="49.232014" lon="19.763686"><ele>1501</ele></trkpt>
    <trkpt lat="49.232016" lon="19.763199"><ele>1507</ele></trkpt>
    <trkpt lat="49.231941" lon="19.762663"><ele>1516</ele></trkpt>
    <trkpt lat="49.231807" lon="19.762334"><ele>1519</ele></trkpt>
    <trkpt lat="49.231800" lon="19.762173"><ele>1521</ele></trkpt>
    <trkpt lat="49.231832" lon="19.762071"><ele>1522</ele></trkpt>
    <trkpt lat="49.232146" lon="19.762063"><ele>1533</ele></trkpt>
    <trkpt lat="49.232501" lon="19.762167"><ele>1543</ele></trkpt>
    <trkpt lat="49.232886" lon="19.762462"><ele>1552</ele></trkpt>
    <trkpt lat="49.233109" lon="19.762792"><ele>1559</ele></trkpt>
    <trkpt lat="49.233486" lon="19.763456"><ele>1570</ele></trkpt>
    <trkpt lat="49.233662" lon="19.764046"><ele>1576</ele></trkpt>
    <trkpt lat="49.233788" lon="19.764255"><ele>1579</ele></trkpt>
    <trkpt lat="49.234131" lon="19.764610"><ele>1585</ele></trkpt>
    <trkpt lat="49.234228" lon="19.764767"><ele>1588</ele></trkpt>
    <trkpt lat="49.234403" lon="19.764874"><ele>1589</ele></trkpt>
    <trkpt lat="49.234507" lon="19.765042"><ele>1594</ele></trkpt>
    <trkpt lat="49.234665" lon="19.765139"><ele>1595</ele></trkpt>
    <trkpt lat="49.235168" lon="19.765576"><ele>1605</ele></trkpt>
    <trkpt lat="49.235387" lon="19.765678"><ele>1609</ele></trkpt>
    <trkpt lat="49.235946" lon="19.765823"><ele>1620</ele></trkpt>
    <trkpt lat="49.236285" lon="19.766056"><ele>1631</ele></trkpt>
    <trkpt lat="49.236394" lon="19.766209"><ele>1636</ele></trkpt>
    <trkpt lat="49.236564" lon="19.766655"><ele>1648</ele></trkpt>
    <trkpt lat="49.236584" lon="19.766779"><ele>1649</ele></trkpt>
    <trkpt lat="49.236623" lon="19.766572"><ele>1649</ele></trkpt>
    <trkpt lat="49.236584" lon="19.766779"><ele>1649</ele></trkpt>
    <trkpt lat="49.236564" lon="19.766655"><ele>1648</ele></trkpt>
    <trkpt lat="49.236394" lon="19.766209"><ele>1636</ele></trkpt>
    <trkpt lat="49.236285" lon="19.766056"><ele>1631</ele></trkpt>
    <trkpt lat="49.235946" lon="19.765823"><ele>1620</ele></trkpt>
    <trkpt lat="49.235387" lon="19.765678"><ele>1609</ele></trkpt>
    <trkpt lat="49.235168" lon="19.765576"><ele>1605</ele></trkpt>
    <trkpt lat="49.234665" lon="19.765139"><ele>1595</ele></trkpt>
    <trkpt lat="49.234507" lon="19.765042"><ele>1594</ele></trkpt>
    <trkpt lat="49.234403" lon="19.764874"><ele>1589</ele></trkpt>
    <trkpt lat="49.234228" lon="19.764767"><ele>1588</ele></trkpt>
    <trkpt lat="49.234131" lon="19.764610"><ele>1585</ele></trkpt>
    <trkpt lat="49.233788" lon="19.764255"><ele>1579</ele></trkpt>
    <trkpt lat="49.233662" lon="19.764046"><ele>1576</ele></trkpt>
    <trkpt lat="49.233486" lon="19.763456"><ele>1570</ele></trkpt>
    <trkpt lat="49.233109" lon="19.762792"><ele>1559</ele></trkpt>
    <trkpt lat="49.232886" lon="19.762462"><ele>1552</ele></trkpt>
    <trkpt lat="49.232501" lon="19.762167"><ele>1543</ele></trkpt>
    <trkpt lat="49.232146" lon="19.762063"><ele>1533</ele></trkpt>
    <trkpt lat="49.231832" lon="19.762071"><ele>1522</ele></trkpt>
    <trkpt lat="49.231800" lon="19.762173"><ele>1521</ele></trkpt>
    <trkpt lat="49.231807" lon="19.762334"><ele>1519</ele></trkpt>
    <trkpt lat="49.231941" lon="19.762663"><ele>1516</ele></trkpt>
    <trkpt lat="49.232016" lon="19.763199"><ele>1507</ele></trkpt>
    <trkpt lat="49.232014" lon="19.763686"><ele>1501</ele></trkpt>
    <trkpt lat="49.231972" lon="19.763858"><ele>1500</ele></trkpt>
    <trkpt lat="49.231929" lon="19.763859"><ele>1498</ele></trkpt>
    <trkpt lat="49.231718" lon="19.763605"><ele>1489</ele></trkpt>
    <trkpt lat="49.231522" lon="19.763461"><ele>1484</ele></trkpt>
    <trkpt lat="49.231308" lon="19.763396"><ele>1478</ele></trkpt>
    <trkpt lat="49.230958" lon="19.763368"><ele>1466</ele></trkpt>
    <trkpt lat="49.230476" lon="19.763055"><ele>1444</ele></trkpt>
    <trkpt lat="49.229866" lon="19.762900"><ele>1416</ele></trkpt>
    <trkpt lat="49.229510" lon="19.762299"><ele>1399</ele></trkpt>
    <trkpt lat="49.229368" lon="19.761233"><ele>1383</ele></trkpt>
    <trkpt lat="49.229425" lon="19.760288"><ele>1370</ele></trkpt>
    <trkpt lat="49.229518" lon="19.759580"><ele>1363</ele></trkpt>
    <trkpt lat="49.229597" lon="19.758627"><ele>1356</ele></trkpt>
    <trkpt lat="49.229705" lon="19.758251"><ele>1348</ele></trkpt>
    <trkpt lat="49.229835" lon="19.757538"><ele>1345</ele></trkpt>
    <trkpt lat="49.229775" lon="19.757060"><ele>1338</ele></trkpt>
    <trkpt lat="49.229523" lon="19.756621"><ele>1334</ele></trkpt>
    <trkpt lat="49.229761" lon="19.755912"><ele>1328</ele></trkpt>
    <trkpt lat="49.229812" lon="19.755667"><ele>1326</ele></trkpt>
    <trkpt lat="49.229793" lon="19.755446"><ele>1326</ele></trkpt>
    <trkpt lat="49.229828" lon="19.755210"><ele>1325</ele></trkpt>
    <trkpt lat="49.229909" lon="19.754966"><ele>1324</ele></trkpt>
    <trkpt lat="49.230060" lon="19.754700"><ele>1323</ele></trkpt>
    <trkpt lat="49.230256" lon="19.754532"><ele>1321</ele></trkpt>
    <trkpt lat="49.230352" lon="19.754300"><ele>1321</ele></trkpt>
    <trkpt lat="49.230366" lon="19.754069"><ele>1321</ele></trkpt>
    <trkpt lat="49.230417" lon="19.753836"><ele>1321</ele></trkpt>
    <trkpt lat="49.230852" lon="19.753575"><ele>1315</ele></trkpt>
    <trkpt lat="49.231259" lon="19.753092"><ele>1312</ele></trkpt>
    <trkpt lat="49.231377" lon="19.753000"><ele>1310</ele></trkpt>
    <trkpt lat="49.231571" lon="19.752930"><ele>1308</ele></trkpt>
    <trkpt lat="49.231845" lon="19.752620"><ele>1305</ele></trkpt>
    <trkpt lat="49.231946" lon="19.752423"><ele>1303</ele></trkpt>
    <trkpt lat="49.232292" lon="19.752007"><ele>1295</ele></trkpt>
    <trkpt lat="49.232688" lon="19.751200"><ele>1287</ele></trkpt>
    <trkpt lat="49.232771" lon="19.750489"><ele>1285</ele></trkpt>
    <trkpt lat="49.232868" lon="19.750068"><ele>1281</ele></trkpt>
    <trkpt lat="49.233012" lon="19.749612"><ele>1276</ele></trkpt>
    <trkpt lat="49.233114" lon="19.749483"><ele>1273</ele></trkpt>
    <trkpt lat="49.233231" lon="19.749235"><ele>1271</ele></trkpt>
    <trkpt lat="49.233435" lon="19.748612"><ele>1276</ele></trkpt>
    <trkpt lat="49.233693" lon="19.748143"><ele>1270</ele></trkpt>
    <trkpt lat="49.233922" lon="19.747399"><ele>1257</ele></trkpt>
    <trkpt lat="49.233928" lon="19.747184"><ele>1254</ele></trkpt>
    <trkpt lat="49.234028" lon="19.746873"><ele>1254</ele></trkpt>
    <trkpt lat="49.234311" lon="19.746449"><ele>1260</ele></trkpt>
    <trkpt lat="49.235024" lon="19.745956"><ele>1247</ele></trkpt>
    <trkpt lat="49.235460" lon="19.745403"><ele>1241</ele></trkpt>
    <trkpt lat="49.235804" lon="19.744684"><ele>1231</ele></trkpt>
    <trkpt lat="49.235945" lon="19.744232"><ele>1228</ele></trkpt>
    <trkpt lat="49.236177" lon="19.743656"><ele>1219</ele></trkpt>
    <trkpt lat="49.236481" lon="19.743112"><ele>1215</ele></trkpt>
    <trkpt lat="49.236788" lon="19.742797"><ele>1212</ele></trkpt>
    <trkpt lat="49.237083" lon="19.742399"><ele>1202</ele></trkpt>
    <trkpt lat="49.237243" lon="19.742314"><ele>1201</ele></trkpt>
    <trkpt lat="49.237602" lon="19.742220"><ele>1201</ele></trkpt>
    <trkpt lat="49.237872" lon="19.741616"><ele>1197</ele></trkpt>
    <trkpt lat="49.238897" lon="19.739813"><ele>1190</ele></trkpt>
    <trkpt lat="49.239067" lon="19.739329"><ele>1184</ele></trkpt>
    <trkpt lat="49.239200" lon="19.738813"><ele>1182</ele></trkpt>
    <trkpt lat="49.239369" lon="19.737956"><ele>1178</ele></trkpt>
    <trkpt lat="49.239426" lon="19.737416"><ele>1179</ele></trkpt>
    <trkpt lat="49.239311" lon="19.736516"><ele>1173</ele></trkpt>
    <trkpt lat="49.239292" lon="19.736052"><ele>1170</ele></trkpt>
    <trkpt lat="49.239322" lon="19.735549"><ele>1168</ele></trkpt>
    <trkpt lat="49.239453" lon="19.734656"><ele>1164</ele></trkpt>
    <trkpt lat="49.239724" lon="19.733332"><ele>1161</ele></trkpt>
    <trkpt lat="49.239810" lon="19.733033"><ele>1163</ele></trkpt>
    <trkpt lat="49.240560" lon="19.731022"><ele>1147</ele></trkpt>
    <trkpt lat="49.241380" lon="19.729420"><ele>1144</ele></trkpt>
    <trkpt lat="49.241591" lon="19.728630"><ele>1144</ele></trkpt>
    <trkpt lat="49.242979" lon="19.726339"><ele>1129</ele></trkpt>
    <trkpt lat="49.243163" lon="19.726170"><ele>1131</ele></trkpt>
    <trkpt lat="49.243488" lon="19.725978"><ele>1125</ele></trkpt>
    <trkpt lat="49.243628" lon="19.725835"><ele>1121</ele></trkpt>
    <trkpt lat="49.243697" lon="19.725694"><ele>1121</ele></trkpt>
    <trkpt lat="49.243728" lon="19.725529"><ele>1122</ele></trkpt>
    <trkpt lat="49.243701" lon="19.724761"><ele>1123</ele></trkpt>
    <trkpt lat="49.243725" lon="19.724196"><ele>1122</ele></trkpt>
    <trkpt lat="49.243836" lon="19.723105"><ele>1119</ele></trkpt>
    <trkpt lat="49.243807" lon="19.722133"><ele>1115</ele></trkpt>
    <trkpt lat="49.243859" lon="19.721789"><ele>1111</ele></trkpt>
    <trkpt lat="49.244023" lon="19.721361"><ele>1109</ele></trkpt>
    <trkpt lat="49.244762" lon="19.720683"><ele>1095</ele></trkpt>
    <trkpt lat="49.244863" lon="19.720443"><ele>1093</ele></trkpt>
    <trkpt lat="49.244931" lon="19.720172"><ele>1090</ele></trkpt>
    <trkpt lat="49.244947" lon="19.719951"><ele>1088</ele></trkpt>
    <trkpt lat="49.244957" lon="19.716749"><ele>1062</ele></trkpt>
    <trkpt lat="49.244864" lon="19.715565"><ele>1055</ele></trkpt>
    <trkpt lat="49.244639" lon="19.713590"><ele>1045</ele></trkpt>
    <trkpt lat="49.244644" lon="19.712254"><ele>1033</ele></trkpt>
    <trkpt lat="49.244801" lon="19.711131"><ele>1024</ele></trkpt>
    <trkpt lat="49.244708" lon="19.710905"><ele>1021</ele></trkpt>
    <trkpt lat="49.244555" lon="19.710892"><ele>1024</ele></trkpt>
    <trkpt lat="49.244555" lon="19.710999"><ele>1025</ele></trkpt>
  </trkseg></trk>
</gpx>
