<?xml version="1.0" encoding="UTF-8"?>
<gpx version="1.1" creator="MounTour (OpenStreetMap)" xmlns="http://www.topografix.com/GPX/1/1">
  <metadata><name>Malá Baňa</name><copyright author="OpenStreetMap contributors"><license>https://opendatacommons.org/licenses/odbl/</license></copyright></metadata>
  <trk><name>Malá Baňa</name><trkseg>
    <trkpt lat="48.215160" lon="17.143381"><ele>211</ele></trkpt>
    <trkpt lat="48.214838" lon="17.144053"><ele>203</ele></trkpt>
    <trkpt lat="48.214737" lon="17.143914"><ele>210</ele></trkpt>
    <trkpt lat="48.214726" lon="17.143766"><ele>214</ele></trkpt>
    <trkpt lat="48.215119" lon="17.141782"><ele>241</ele></trkpt>
    <trkpt lat="48.215330" lon="17.141358"><ele>247</ele></trkpt>
    <trkpt lat="48.215330" lon="17.141164"><ele>251</ele></trkpt>
    <trkpt lat="48.215381" lon="17.140968"><ele>251</ele></trkpt>
    <trkpt lat="48.215881" lon="17.139786"><ele>257</ele></trkpt>
    <trkpt lat="48.216083" lon="17.138838"><ele>264</ele></trkpt>
    <trkpt lat="48.216080" lon="17.138672"><ele>267</ele></trkpt>
    <trkpt lat="48.216267" lon="17.137884"><ele>271</ele></trkpt>
    <trkpt lat="48.216286" lon="17.137493"><ele>278</ele></trkpt>
    <trkpt lat="48.216380" lon="17.136865"><ele>284</ele></trkpt>
    <trkpt lat="48.216487" lon="17.136515"><ele>285</ele></trkpt>
    <trkpt lat="48.216568" lon="17.136028"><ele>290</ele></trkpt>
    <trkpt lat="48.216887" lon="17.135370"><ele>296</ele></trkpt>
    <trkpt lat="48.216931" lon="17.135198"><ele>298</ele></trkpt>
    <trkpt lat="48.217051" lon="17.135042"><ele>299</ele></trkpt>
    <trkpt lat="48.217275" lon="17.134138"><ele>313</ele></trkpt>
    <trkpt lat="48.217306" lon="17.133230"><ele>320</ele></trkpt>
    <trkpt lat="48.217137" lon="17.132693"><ele>326</ele></trkpt>
    <trkpt lat="48.217072" lon="17.132342"><ele>330</ele></trkpt>
    <trkpt lat="48.216988" lon="17.131614"><ele>337</ele></trkpt>
    <trkpt lat="48.216999" lon="17.131147"><ele>338</ele></trkpt>
    <trkpt lat="48.216935" lon="17.130926"><ele>338</ele></trkpt>
    <trkpt lat="48.216937" lon="17.130814"><ele>338</ele></trkpt>
    <trkpt lat="48.217336" lon="17.130067"><ele>360</ele></trkpt>
    <trkpt lat="48.217762" lon="17.129170"><ele>365</ele></trkpt>
    <trkpt lat="48.217868" lon="17.129235"><ele>366</ele></trkpt>
    <trkpt lat="48.217929" lon="17.129383"><ele>366</ele></trkpt>
    <trkpt lat="48.218041" lon="17.129509"><ele>367</ele></trkpt>
    <trkpt lat="48.218143" lon="17.129558"><ele>365</ele></trkpt>
    <trkpt lat="48.218041" lon="17.129509"><ele>367</ele></trkpt>
    <trkpt lat="48.217929" lon="17.129383"><ele>366</ele></trkpt>
    <trkpt lat="48.217868" lon="17.129235"><ele>366</ele></trkpt>
    <trkpt lat="48.217762" lon="17.129170"><ele>365</ele></trkpt>
    <trkpt lat="48.217336" lon="17.130067"><ele>360</ele></trkpt>
    <trkpt lat="48.216937" lon="17.130814"><ele>338</ele></trkpt>
    <trkpt lat="48.216935" lon="17.130926"><ele>338</ele></trkpt>
    <trkpt lat="48.216999" lon="17.131147"><ele>338</ele></trkpt>
    <trkpt lat="48.216988" lon="17.131614"><ele>337</ele></trkpt>
    <trkpt lat="48.217072" lon="17.132342"><ele>330</ele></trkpt>
    <trkpt lat="48.217137" lon="17.132693"><ele>326</ele></trkpt>
    <trkpt lat="48.217306" lon="17.133230"><ele>320</ele></trkpt>
    <trkpt lat="48.217275" lon="17.134138"><ele>313</ele></trkpt>
    <trkpt lat="48.217051" lon="17.135042"><ele>299</ele></trkpt>
    <trkpt lat="48.216931" lon="17.135198"><ele>298</ele></trkpt>
    <trkpt lat="48.216887" lon="17.135370"><ele>296</ele></trkpt>
    <trkpt lat="48.216568" lon="17.136028"><ele>290</ele></trkpt>
    <trkpt lat="48.216487" lon="17.136515"><ele>285</ele></trkpt>
    <trkpt lat="48.216380" lon="17.136865"><ele>284</ele></trkpt>
    <trkpt lat="48.216286" lon="17.137493"><ele>278</ele></trkpt>
    <trkpt lat="48.216267" lon="17.137884"><ele>271</ele></trkpt>
    <trkpt lat="48.216080" lon="17.138672"><ele>267</ele></trkpt>
    <trkpt lat="48.216083" lon="17.138838"><ele>264</ele></trkpt>
    <trkpt lat="48.215881" lon="17.139786"><ele>257</ele></trkpt>
    <trkpt lat="48.215381" lon="17.140968"><ele>251</ele></trkpt>
    <trkpt lat="48.215330" lon="17.141164"><ele>251</ele></trkpt>
    <trkpt lat="48.215330" lon="17.141358"><ele>247</ele></trkpt>
    <trkpt lat="48.215119" lon="17.141782"><ele>241</ele></trkpt>
    <trkpt lat="48.214726" lon="17.143766"><ele>214</ele></trkpt>
    <trkpt lat="48.214737" lon="17.143914"><ele>210</ele></trkpt>
    <trkpt lat="48.214838" lon="17.144053"><ele>203</ele></trkpt>
    <trkpt lat="48.215160" lon="17.143381"><ele>211</ele></trkpt>
  </trkseg></trk>
</gpx>
