<?xml version="1.0" encoding="UTF-8"?>
<gpx version="1.1" creator="MounTour (OpenStreetMap)" xmlns="http://www.topografix.com/GPX/1/1">
  <metadata><name>Malinský vrch</name><copyright author="OpenStreetMap contributors"><license>https://opendatacommons.org/licenses/odbl/</license></copyright></metadata>
  <trk><name>Malinský vrch</name><trkseg>
    <trkpt lat="48.247412" lon="17.068470"><ele>255</ele></trkpt>
    <trkpt lat="48.247325" lon="17.068896"><ele>261</ele></trkpt>
    <trkpt lat="48.247251" lon="17.068925"><ele>266</ele></trkpt>
    <trkpt lat="48.247158" lon="17.068630"><ele>269</ele></trkpt>
    <trkpt lat="48.247002" lon="17.068614"><ele>275</ele></trkpt>
    <trkpt lat="48.246928" lon="17.069108"><ele>279</ele></trkpt>
    <trkpt lat="48.246736" lon="17.069271"><ele>287</ele></trkpt>
    <trkpt lat="48.246387" lon="17.069428"><ele>298</ele></trkpt>
    <trkpt lat="48.246301" lon="17.069566"><ele>300</ele></trkpt>
    <trkpt lat="48.246278" lon="17.069567"><ele>301</ele></trkpt>
    <trkpt lat="48.246199" lon="17.069367"><ele>302</ele></trkpt>
    <trkpt lat="48.246073" lon="17.069608"><ele>305</ele></trkpt>
    <trkpt lat="48.246025" lon="17.069585"><ele>305</ele></trkpt>
    <trkpt lat="48.246004" lon="17.069691"><ele>306</ele></trkpt>
    <trkpt lat="48.245746" lon="17.069972"><ele>303</ele></trkpt>
    <trkpt lat="48.245583" lon="17.070245"><ele>304</ele></trkpt>
    <trkpt lat="48.245076" lon="17.070678"><ele>322</ele></trkpt>
    <trkpt lat="48.244981" lon="17.070986"><ele>328</ele></trkpt>
    <trkpt lat="48.244898" lon="17.071134"><ele>331</ele></trkpt>
    <trkpt lat="48.244748" lon="17.071713"><ele>341</ele></trkpt>
    <trkpt lat="48.244607" lon="17.072035"><ele>346</ele></trkpt>
    <trkpt lat="48.244163" lon="17.072713"><ele>359</ele></trkpt>
    <trkpt lat="48.243635" lon="17.073245"><ele>362</ele></trkpt>
    <trkpt lat="48.243403" lon="17.073732"><ele>369</ele></trkpt>
    <trkpt lat="48.243172" lon="17.074342"><ele>378</ele></trkpt>
    <trkpt lat="48.242441" lon="17.075303"><ele>386</ele></trkpt>
    <trkpt lat="48.242146" lon="17.075805"><ele>388</ele></trkpt>
    <trkpt lat="48.241997" lon="17.076270"><ele>389</ele></trkpt>
    <trkpt lat="48.241905" lon="17.076791"><ele>390</ele></trkpt>
    <trkpt lat="48.241847" lon="17.077933"><ele>393</ele></trkpt>
    <trkpt lat="48.241339" lon="17.078584"><ele>388</ele></trkpt>
    <trkpt lat="48.240977" lon="17.079283"><ele>384</ele></trkpt>
    <trkpt lat="48.240494" lon="17.079797"><ele>383</ele></trkpt>
    <trkpt lat="48.239845" lon="17.081133"><ele>378</ele></trkpt>
    <trkpt lat="48.239753" lon="17.081432"><ele>372</ele></trkpt>
    <trkpt lat="48.239687" lon="17.081768"><ele>378</ele></trkpt>
    <trkpt lat="48.239573" lon="17.082901"><ele>392</ele></trkpt>
    <trkpt lat="48.239590" lon="17.083072"><ele>394</ele></trkpt>
    <trkpt lat="48.239564" lon="17.083671"><ele>402</ele></trkpt>
    <trkpt lat="48.239452" lon="17.084452"><ele>409</ele></trkpt>
    <trkpt lat="48.239423" lon="17.085004"><ele>417</ele></trkpt>
    <trkpt lat="48.239375" lon="17.085172"><ele>419</ele></trkpt>
    <trkpt lat="48.239364" lon="17.085490"><ele>424</ele></trkpt>
    <trkpt lat="48.239177" lon="17.086614"><ele>432</ele></trkpt>
    <trkpt lat="48.239208" lon="17.086906"><ele>436</ele></trkpt>
    <trkpt lat="48.238411" lon="17.088218"><ele>446</ele></trkpt>
    <trkpt lat="48.237826" lon="17.089090"><ele>444</ele></trkpt>
    <trkpt lat="48.237034" lon="17.089987"><ele>444</ele></trkpt>
    <trkpt lat="48.236142" lon="17.091305"><ele>443</ele></trkpt>
    <trkpt lat="48.235968" lon="17.091489"><ele>442</ele></trkpt>
    <trkpt lat="48.235207" lon="17.092071"><ele>440</ele></trkpt>
    <trkpt lat="48.234545" lon="17.093097"><ele>442</ele></trkpt>
    <trkpt lat="48.234100" lon="17.093673"><ele>440</ele></trkpt>
    <trkpt lat="48.234545" lon="17.093097"><ele>442</ele></trkpt>
    <trkpt lat="48.235207" lon="17.092071"><ele>440</ele></trkpt>
    <trkpt lat="48.235968" lon="17.091489"><ele>442</ele></trkpt>
    <trkpt lat="48.236142" lon="17.091305"><ele>443</ele></trkpt>
    <trkpt lat="48.237034" lon="17.089987"><ele>444</ele></trkpt>
    <trkpt lat="48.237826" lon="17.089090"><ele>444</ele></trkpt>
    <trkpt lat="48.238411" lon="17.088218"><ele>446</ele></trkpt>
    <trkpt lat="48.239208" lon="17.086906"><ele>436</ele></trkpt>
    <trkpt lat="48.239177" lon="17.086614"><ele>432</ele></trkpt>
    <trkpt lat="48.239364" lon="17.085490"><ele>424</ele></trkpt>
    <trkpt lat="48.239375" lon="17.085172"><ele>419</ele></trkpt>
    <trkpt lat="48.239423" lon="17.085004"><ele>417</ele></trkpt>
    <trkpt lat="48.239452" lon="17.084452"><ele>409</ele></trkpt>
    <trkpt lat="48.239564" lon="17.083671"><ele>402</ele></trkpt>
    <trkpt lat="48.239590" lon="17.083072"><ele>394</ele></trkpt>
    <trkpt lat="48.239573" lon="17.082901"><ele>392</ele></trkpt>
    <trkpt lat="48.239687" lon="17.081768"><ele>378</ele></trkpt>
    <trkpt lat="48.239753" lon="17.081432"><ele>372</ele></trkpt>
    <trkpt lat="48.239845" lon="17.081133"><ele>378</ele></trkpt>
    <trkpt lat="48.240494" lon="17.079797"><ele>383</ele></trkpt>
    <trkpt lat="48.240977" lon="17.079283"><ele>384</ele></trkpt>
    <trkpt lat="48.241339" lon="17.078584"><ele>388</ele></trkpt>
    <trkpt lat="48.241847" lon="17.077933"><ele>393</ele></trkpt>
    <trkpt lat="48.241905" lon="17.076791"><ele>390</ele></trkpt>
    <trkpt lat="48.241997" lon="17.076270"><ele>389</ele></trkpt>
    <trkpt lat="48.242146" lon="17.075805"><ele>388</ele></trkpt>
    <trkpt lat="48.242441" lon="17.075303"><ele>386</ele></trkpt>
    <trkpt lat="48.243172" lon="17.074342"><ele>378</ele></trkpt>
    <trkpt lat="48.243403" lon="17.073732"><ele>369</ele></trkpt>
    <trkpt lat="48.243635" lon="17.073245"><ele>362</ele></trkpt>
    <trkpt lat="48.244163" lon="17.072713"><ele>359</ele></trkpt>
    <trkpt lat="48.244607" lon="17.072035"><ele>346</ele></trkpt>
    <trkpt lat="48.244748" lon="17.071713"><ele>341</ele></trkpt>
    <trkpt lat="48.244898" lon="17.071134"><ele>331</ele></trkpt>
    <trkpt lat="48.244981" lon="17.070986"><ele>328</ele></trkpt>
    <trkpt lat="48.245076" lon="17.070678"><ele>322</ele></trkpt>
    <trkpt lat="48.245583" lon="17.070245"><ele>304</ele></trkpt>
    <trkpt lat="48.245746" lon="17.069972"><ele>303</ele></trkpt>
    <trkpt lat="48.246004" lon="17.069691"><ele>306</ele></trkpt>
    <trkpt lat="48.246025" lon="17.069585"><ele>305</ele></trkpt>
    <trkpt lat="48.246073" lon="17.069608"><ele>305</ele></trkpt>
    <trkpt lat="48.246199" lon="17.069367"><ele>302</ele></trkpt>
    <trkpt lat="48.246278" lon="17.069567"><ele>301</ele></trkpt>
    <trkpt lat="48.246301" lon="17.069566"><ele>300</ele></trkpt>
    <trkpt lat="48.246387" lon="17.069428"><ele>298</ele></trkpt>
    <trkpt lat="48.246736" lon="17.069271"><ele>287</ele></trkpt>
    <trkpt lat="48.246928" lon="17.069108"><ele>279</ele></trkpt>
    <trkpt lat="48.247002" lon="17.068614"><ele>275</ele></trkpt>
    <trkpt lat="48.247158" lon="17.068630"><ele>269</ele></trkpt>
    <trkpt lat="48.247251" lon="17.068925"><ele>266</ele></trkpt>
    <trkpt lat="48.247325" lon="17.068896"><ele>261</ele></trkpt>
    <trkpt lat="48.247412" lon="17.068470"><ele>255</ele></trkpt>
  </trkseg></trk>
</gpx>
