<?xml version="1.0" encoding="UTF-8"?>
<gpx version="1.1" creator="MounTour (OpenStreetMap)" xmlns="http://www.topografix.com/GPX/1/1">
  <metadata><name>Malý Baranec</name><copyright author="OpenStreetMap contributors"><license>https://opendatacommons.org/licenses/odbl/</license></copyright></metadata>
  <trk><name>Malý Baranec</name><trkseg>
    <trkpt lat="49.133146" lon="19.789485"><ele>907</ele></trkpt>
    <trkpt lat="49.133561" lon="19.788682"><ele>925</ele></trkpt>
    <trkpt lat="49.133764" lon="19.787965"><ele>943</ele></trkpt>
    <trkpt lat="49.133943" lon="19.787737"><ele>950</ele></trkpt>
    <trkpt lat="49.133927" lon="19.787636"><ele>951</ele></trkpt>
    <trkpt lat="49.134014" lon="19.787710"><ele>949</ele></trkpt>
    <trkpt lat="49.134051" lon="19.787490"><ele>952</ele></trkpt>
    <trkpt lat="49.134137" lon="19.787337"><ele>956</ele></trkpt>
    <trkpt lat="49.134366" lon="19.787388"><ele>956</ele></trkpt>
    <trkpt lat="49.134388" lon="19.787049"><ele>961</ele></trkpt>
    <trkpt lat="49.134450" lon="19.786845"><ele>964</ele></trkpt>
    <trkpt lat="49.134761" lon="19.786265"><ele>973</ele></trkpt>
    <trkpt lat="49.134989" lon="19.785705"><ele>984</ele></trkpt>
    <trkpt lat="49.135246" lon="19.785853"><ele>987</ele></trkpt>
    <trkpt lat="49.135466" lon="19.785849"><ele>993</ele></trkpt>
    <trkpt lat="49.135856" lon="19.785743"><ele>1001</ele></trkpt>
    <trkpt lat="49.136088" lon="19.785631"><ele>1003</ele></trkpt>
    <trkpt lat="49.136137" lon="19.785722"><ele>1002</ele></trkpt>
    <trkpt lat="49.136167" lon="19.785717"><ele>1003</ele></trkpt>
    <trkpt lat="49.136209" lon="19.785802"><ele>1003</ele></trkpt>
    <trkpt lat="49.136214" lon="19.785942"><ele>1006</ele></trkpt>
    <trkpt lat="49.136293" lon="19.785956"><ele>1007</ele></trkpt>
    <trkpt lat="49.136219" lon="19.786087"><ele>1009</ele></trkpt>
    <trkpt lat="49.136231" lon="19.786345"><ele>1015</ele></trkpt>
    <trkpt lat="49.136142" lon="19.786620"><ele>1020</ele></trkpt>
    <trkpt lat="49.136162" lon="19.786712"><ele>1022</ele></trkpt>
    <trkpt lat="49.136181" lon="19.786740"><ele>1023</ele></trkpt>
    <trkpt lat="49.136240" lon="19.786675"><ele>1024</ele></trkpt>
    <trkpt lat="49.136344" lon="19.786660"><ele>1027</ele></trkpt>
    <trkpt lat="49.136285" lon="19.786785"><ele>1026</ele></trkpt>
    <trkpt lat="49.136282" lon="19.786888"><ele>1027</ele></trkpt>
    <trkpt lat="49.136693" lon="19.787848"><ele>1048</ele></trkpt>
    <trkpt lat="49.136799" lon="19.787592"><ele>1055</ele></trkpt>
    <trkpt lat="49.137005" lon="19.787354"><ele>1065</ele></trkpt>
    <trkpt lat="49.137202" lon="19.787273"><ele>1074</ele></trkpt>
    <trkpt lat="49.137311" lon="19.787583"><ele>1081</ele></trkpt>
    <trkpt lat="49.137605" lon="19.787982"><ele>1094</ele></trkpt>
    <trkpt lat="49.137665" lon="19.787999"><ele>1097</ele></trkpt>
    <trkpt lat="49.137982" lon="19.787423"><ele>1114</ele></trkpt>
    <trkpt lat="49.138197" lon="19.787175"><ele>1122</ele></trkpt>
    <trkpt lat="49.138210" lon="19.787549"><ele>1126</ele></trkpt>
    <trkpt lat="49.138261" lon="19.787755"><ele>1128</ele></trkpt>
    <trkpt lat="49.138448" lon="19.788025"><ele>1137</ele></trkpt>
    <trkpt lat="49.138514" lon="19.788187"><ele>1138</ele></trkpt>
    <trkpt lat="49.138579" lon="19.788013"><ele>1143</ele></trkpt>
    <trkpt lat="49.138694" lon="19.788007"><ele>1148</ele></trkpt>
    <trkpt lat="49.138785" lon="19.788095"><ele>1151</ele></trkpt>
    <trkpt lat="49.138855" lon="19.788100"><ele>1153</ele></trkpt>
    <trkpt lat="49.138863" lon="19.788179"><ele>1153</ele></trkpt>
    <trkpt lat="49.139087" lon="19.788230"><ele>1164</ele></trkpt>
    <trkpt lat="49.139152" lon="19.788372"><ele>1165</ele></trkpt>
    <trkpt lat="49.139247" lon="19.788475"><ele>1169</ele></trkpt>
    <trkpt lat="49.139217" lon="19.787691"><ele>1176</ele></trkpt>
    <trkpt lat="49.139348" lon="19.787592"><ele>1184</ele></trkpt>
    <trkpt lat="49.139438" lon="19.787655"><ele>1188</ele></trkpt>
    <trkpt lat="49.139577" lon="19.787839"><ele>1191</ele></trkpt>
    <trkpt lat="49.139795" lon="19.787969"><ele>1201</ele></trkpt>
    <trkpt lat="49.139826" lon="19.787693"><ele>1206</ele></trkpt>
    <trkpt lat="49.139913" lon="19.787377"><ele>1217</ele></trkpt>
    <trkpt lat="49.140026" lon="19.787520"><ele>1222</ele></trkpt>
    <trkpt lat="49.140092" lon="19.787549"><ele>1226</ele></trkpt>
    <trkpt lat="49.140129" lon="19.787689"><ele>1227</ele></trkpt>
    <trkpt lat="49.140187" lon="19.787706"><ele>1231</ele></trkpt>
    <trkpt lat="49.140211" lon="19.787774"><ele>1232</ele></trkpt>
    <trkpt lat="49.140305" lon="19.787576"><ele>1240</ele></trkpt>
    <trkpt lat="49.140586" lon="19.787666"><ele>1248</ele></trkpt>
    <trkpt lat="49.140648" lon="19.787624"><ele>1250</ele></trkpt>
    <trkpt lat="49.140707" lon="19.787475"><ele>1254</ele></trkpt>
    <trkpt lat="49.140940" lon="19.787604"><ele>1258</ele></trkpt>
    <trkpt lat="49.140994" lon="19.787589"><ele>1259</ele></trkpt>
    <trkpt lat="49.141016" lon="19.787379"><ele>1261</ele></trkpt>
    <trkpt lat="49.141076" lon="19.787280"><ele>1262</ele></trkpt>
    <trkpt lat="49.141134" lon="19.787277"><ele>1264</ele></trkpt>
    <trkpt lat="49.141211" lon="19.787393"><ele>1267</ele></trkpt>
    <trkpt lat="49.141348" lon="19.787443"><ele>1270</ele></trkpt>
    <trkpt lat="49.141649" lon="19.787234"><ele>1286</ele></trkpt>
    <trkpt lat="49.141674" lon="19.787120"><ele>1288</ele></trkpt>
    <trkpt lat="49.141750" lon="19.786986"><ele>1291</ele></trkpt>
    <trkpt lat="49.141802" lon="19.786960"><ele>1292</ele></trkpt>
    <trkpt lat="49.142086" lon="19.787070"><ele>1299</ele></trkpt>
    <trkpt lat="49.142292" lon="19.786691"><ele>1305</ele></trkpt>
    <trkpt lat="49.142416" lon="19.786711"><ele>1312</ele></trkpt>
    <trkpt lat="49.142578" lon="19.786258"><ele>1318</ele></trkpt>
    <trkpt lat="49.143044" lon="19.785853"><ele>1343</ele></trkpt>
    <trkpt lat="49.143263" lon="19.785788"><ele>1346</ele></trkpt>
    <trkpt lat="49.143620" lon="19.785430"><ele>1351</ele></trkpt>
    <trkpt lat="49.143722" lon="19.785388"><ele>1355</ele></trkpt>
    <trkpt lat="49.143844" lon="19.785193"><ele>1361</ele></trkpt>
    <trkpt lat="49.143924" lon="19.785242"><ele>1364</ele></trkpt>
    <trkpt lat="49.144394" lon="19.785084"><ele>1384</ele></trkpt>
    <trkpt lat="49.144541" lon="19.785114"><ele>1389</ele></trkpt>
    <trkpt lat="49.144834" lon="19.785088"><ele>1396</ele></trkpt>
    <trkpt lat="49.145347" lon="19.784951"><ele>1410</ele></trkpt>
    <trkpt lat="49.146327" lon="19.783950"><ele>1447</ele></trkpt>
    <trkpt lat="49.146391" lon="19.783754"><ele>1451</ele></trkpt>
    <trkpt lat="49.146620" lon="19.783389"><ele>1463</ele></trkpt>
    <trkpt lat="49.146756" lon="19.783093"><ele>1473</ele></trkpt>
    <trkpt lat="49.147200" lon="19.782085"><ele>1494</ele></trkpt>
    <trkpt lat="49.147286" lon="19.781809"><ele>1497</ele></trkpt>
    <trkpt lat="49.147428" lon="19.781108"><ele>1507</ele></trkpt>
    <trkpt lat="49.147425" lon="19.780833"><ele>1511</ele></trkpt>
    <trkpt lat="49.147461" lon="19.780599"><ele>1515</ele></trkpt>
    <trkpt lat="49.147439" lon="19.780488"><ele>1517</ele></trkpt>
    <trkpt lat="49.147489" lon="19.779922"><ele>1529</ele></trkpt>
    <trkpt lat="49.147472" lon="19.779748"><ele>1533</ele></trkpt>
    <trkpt lat="49.147599" lon="19.779414"><ele>1539</ele></trkpt>
    <trkpt lat="49.147607" lon="19.779222"><ele>1544</ele></trkpt>
    <trkpt lat="49.147751" lon="19.778511"><ele>1553</ele></trkpt>
    <trkpt lat="49.147871" lon="19.778275"><ele>1557</ele></trkpt>
    <trkpt lat="49.147880" lon="19.778132"><ele>1558</ele></trkpt>
    <trkpt lat="49.147970" lon="19.777971"><ele>1562</ele></trkpt>
    <trkpt lat="49.148059" lon="19.777929"><ele>1564</ele></trkpt>
    <trkpt lat="49.148097" lon="19.777864"><ele>1565</ele></trkpt>
    <trkpt lat="49.148141" lon="19.777669"><ele>1568</ele></trkpt>
    <trkpt lat="49.148321" lon="19.777510"><ele>1574</ele></trkpt>
    <trkpt lat="49.148351" lon="19.777433"><ele>1575</ele></trkpt>
    <trkpt lat="49.148519" lon="19.777378"><ele>1577</ele></trkpt>
    <trkpt lat="49.148685" lon="19.777040"><ele>1584</ele></trkpt>
    <trkpt lat="49.148782" lon="19.776674"><ele>1593</ele></trkpt>
    <trkpt lat="49.148913" lon="19.776604"><ele>1596</ele></trkpt>
    <trkpt lat="49.149015" lon="19.776446"><ele>1599</ele></trkpt>
    <trkpt lat="49.149097" lon="19.776091"><ele>1607</ele></trkpt>
    <trkpt lat="49.149137" lon="19.776064"><ele>1609</ele></trkpt>
    <trkpt lat="49.149182" lon="19.775820"><ele>1612</ele></trkpt>
    <trkpt lat="49.149280" lon="19.775651"><ele>1614</ele></trkpt>
    <trkpt lat="49.149288" lon="19.775451"><ele>1616</ele></trkpt>
    <trkpt lat="49.149326" lon="19.775350"><ele>1618</ele></trkpt>
    <trkpt lat="49.149307" lon="19.775077"><ele>1620</ele></trkpt>
    <trkpt lat="49.149432" lon="19.774920"><ele>1622</ele></trkpt>
    <trkpt lat="49.149460" lon="19.774440"><ele>1625</ele></trkpt>
    <trkpt lat="49.149522" lon="19.774164"><ele>1625</ele></trkpt>
    <trkpt lat="49.149615" lon="19.773929"><ele>1625</ele></trkpt>
    <trkpt lat="49.149678" lon="19.773614"><ele>1629</ele></trkpt>
    <trkpt lat="49.150096" lon="19.773061"><ele>1638</ele></trkpt>
    <trkpt lat="49.150249" lon="19.773021"><ele>1638</ele></trkpt>
    <trkpt lat="49.150299" lon="19.772698"><ele>1645</ele></trkpt>
    <trkpt lat="49.150393" lon="19.772434"><ele>1648</ele></trkpt>
    <trkpt lat="49.150408" lon="19.772215"><ele>1655</ele></trkpt>
    <trkpt lat="49.150457" lon="19.772121"><ele>1657</ele></trkpt>
    <trkpt lat="49.150422" lon="19.772033"><ele>1660</ele></trkpt>
    <trkpt lat="49.150601" lon="19.771630"><ele>1672</ele></trkpt>
    <trkpt lat="49.150733" lon="19.771544"><ele>1675</ele></trkpt>
    <trkpt lat="49.150761" lon="19.771421"><ele>1678</ele></trkpt>
    <trkpt lat="49.150800" lon="19.771386"><ele>1680</ele></trkpt>
    <trkpt lat="49.151026" lon="19.771335"><ele>1682</ele></trkpt>
    <trkpt lat="49.151064" lon="19.771293"><ele>1683</ele></trkpt>
    <trkpt lat="49.151091" lon="19.771169"><ele>1687</ele></trkpt>
    <trkpt lat="49.151283" lon="19.771050"><ele>1691</ele></trkpt>
    <trkpt lat="49.151375" lon="19.770843"><ele>1696</ele></trkpt>
    <trkpt lat="49.151432" lon="19.770797"><ele>1698</ele></trkpt>
    <trkpt lat="49.151582" lon="19.770284"><ele>1709</ele></trkpt>
    <trkpt lat="49.151693" lon="19.770316"><ele>1711</ele></trkpt>
    <trkpt lat="49.151750" lon="19.770260"><ele>1712</ele></trkpt>
    <trkpt lat="49.151722" lon="19.770151"><ele>1713</ele></trkpt>
    <trkpt lat="49.151780" lon="19.769969"><ele>1716</ele></trkpt>
    <trkpt lat="49.151874" lon="19.770005"><ele>1717</ele></trkpt>
    <trkpt lat="49.151991" lon="19.769946"><ele>1717</ele></trkpt>
    <trkpt lat="49.152029" lon="19.769820"><ele>1718</ele></trkpt>
    <trkpt lat="49.152426" lon="19.769158"><ele>1729</ele></trkpt>
    <trkpt lat="49.152977" lon="19.768422"><ele>1747</ele></trkpt>
    <trkpt lat="49.153415" lon="19.767733"><ele>1761</ele></trkpt>
    <trkpt lat="49.153920" lon="19.767357"><ele>1771</ele></trkpt>
    <trkpt lat="49.154227" lon="19.767229"><ele>1777</ele></trkpt>
    <trkpt lat="49.154461" lon="19.767052"><ele>1784</ele></trkpt>
    <trkpt lat="49.154503" lon="19.766961"><ele>1787</ele></trkpt>
    <trkpt lat="49.154681" lon="19.766862"><ele>1791</ele></trkpt>
    <trkpt lat="49.154863" lon="19.766395"><ele>1796</ele></trkpt>
    <trkpt lat="49.155189" lon="19.765260"><ele>1809</ele></trkpt>
    <trkpt lat="49.155417" lon="19.764927"><ele>1814</ele></trkpt>
    <trkpt lat="49.155473" lon="19.764715"><ele>1820</ele></trkpt>
    <trkpt lat="49.155522" lon="19.764640"><ele>1821</ele></trkpt>
    <trkpt lat="49.155543" lon="19.764436"><ele>1826</ele></trkpt>
    <trkpt lat="49.155669" lon="19.764064"><ele>1830</ele></trkpt>
    <trkpt lat="49.155961" lon="19.763484"><ele>1842</ele></trkpt>
    <trkpt lat="49.156036" lon="19.763187"><ele>1848</ele></trkpt>
    <trkpt lat="49.156154" lon="19.762312"><ele>1858</ele></trkpt>
    <trkpt lat="49.156334" lon="19.761298"><ele>1871</ele></trkpt>
    <trkpt lat="49.156562" lon="19.760475"><ele>1879</ele></trkpt>
    <trkpt lat="49.156690" lon="19.760268"><ele>1884</ele></trkpt>
    <trkpt lat="49.157274" lon="19.758801"><ele>1903</ele></trkpt>
    <trkpt lat="49.157930" lon="19.757616"><ele>1930</ele></trkpt>
    <trkpt lat="49.158078" lon="19.757232"><ele>1940</ele></trkpt>
    <trkpt lat="49.158190" lon="19.756816"><ele>1944</ele></trkpt>
    <trkpt lat="49.158262" lon="19.756671"><ele>1945</ele></trkpt>
    <trkpt lat="49.158394" lon="19.756532"><ele>1945</ele></trkpt>
    <trkpt lat="49.158469" lon="19.756379"><ele>1943</ele></trkpt>
    <trkpt lat="49.158758" lon="19.756226"><ele>1941</ele></trkpt>
    <trkpt lat="49.159230" lon="19.755835"><ele>1934</ele></trkpt>
    <trkpt lat="49.159637" lon="19.755684"><ele>1928</ele></trkpt>
    <trkpt lat="49.159776" lon="19.755553"><ele>1926</ele></trkpt>
    <trkpt lat="49.160169" lon="19.755491"><ele>1918</ele></trkpt>
    <trkpt lat="49.160441" lon="19.755266"><ele>1915</ele></trkpt>
    <trkpt lat="49.160937" lon="19.755180"><ele>1921</ele></trkpt>
    <trkpt lat="49.161177" lon="19.755038"><ele>1924</ele></trkpt>
    <trkpt lat="49.161439" lon="19.755027"><ele>1930</ele></trkpt>
    <trkpt lat="49.161940" lon="19.754826"><ele>1944</ele></trkpt>
    <trkpt lat="49.162117" lon="19.754697"><ele>1951</ele></trkpt>
    <trkpt lat="49.162305" lon="19.754483"><ele>1958</ele></trkpt>
    <trkpt lat="49.162605" lon="19.754300"><ele>1966</ele></trkpt>
    <trkpt lat="49.162814" lon="19.754115"><ele>1972</ele></trkpt>
    <trkpt lat="49.163033" lon="19.754019"><ele>1976</ele></trkpt>
    <trkpt lat="49.163913" lon="19.753335"><ele>1994</ele></trkpt>
    <trkpt lat="49.164271" lon="19.752954"><ele>2005</ele></trkpt>
    <trkpt lat="49.164599" lon="19.752479"><ele>2020</ele></trkpt>
    <trkpt lat="49.165053" lon="19.752160"><ele>2033</ele></trkpt>
    <trkpt lat="49.165183" lon="19.752018"><ele>2037</ele></trkpt>
    <trkpt lat="49.165692" lon="19.751827"><ele>2038</ele></trkpt>
    <trkpt lat="49.165183" lon="19.752018"><ele>2037</ele></trkpt>
    <trkpt lat="49.165053" lon="19.752160"><ele>2033</ele></trkpt>
    <trkpt lat="49.164599" lon="19.752479"><ele>2020</ele></trkpt>
    <trkpt lat="49.164271" lon="19.752954"><ele>2005</ele></trkpt>
    <trkpt lat="49.163913" lon="19.753335"><ele>1994</ele></trkpt>
    <trkpt lat="49.163033" lon="19.754019"><ele>1976</ele></trkpt>
    <trkpt lat="49.162814" lon="19.754115"><ele>1972</ele></trkpt>
    <trkpt lat="49.162605" lon="19.754300"><ele>1966</ele></trkpt>
    <trkpt lat="49.162305" lon="19.754483"><ele>1958</ele></trkpt>
    <trkpt lat="49.162117" lon="19.754697"><ele>1951</ele></trkpt>
    <trkpt lat="49.161940" lon="19.754826"><ele>1944</ele></trkpt>
    <trkpt lat="49.161439" lon="19.755027"><ele>1930</ele></trkpt>
    <trkpt lat="49.161177" lon="19.755038"><ele>1924</ele></trkpt>
    <trkpt lat="49.160937" lon="19.755180"><ele>1921</ele></trkpt>
    <trkpt lat="49.160441" lon="19.755266"><ele>1915</ele></trkpt>
    <trkpt lat="49.160169" lon="19.755491"><ele>1918</ele></trkpt>
    <trkpt lat="49.159776" lon="19.755553"><ele>1926</ele></trkpt>
    <trkpt lat="49.159637" lon="19.755684"><ele>1928</ele></trkpt>
    <trkpt lat="49.159230" lon="19.755835"><ele>1934</ele></trkpt>
    <trkpt lat="49.158758" lon="19.756226"><ele>1941</ele></trkpt>
    <trkpt lat="49.158469" lon="19.756379"><ele>1943</ele></trkpt>
    <trkpt lat="49.158394" lon="19.756532"><ele>1945</ele></trkpt>
    <trkpt lat="49.158262" lon="19.756671"><ele>1945</ele></trkpt>
    <trkpt lat="49.158190" lon="19.756816"><ele>1944</ele></trkpt>
    <trkpt lat="49.158078" lon="19.757232"><ele>1940</ele></trkpt>
    <trkpt lat="49.157930" lon="19.757616"><ele>1930</ele></trkpt>
    <trkpt lat="49.157274" lon="19.758801"><ele>1903</ele></trkpt>
    <trkpt lat="49.156690" lon="19.760268"><ele>1884</ele></trkpt>
    <trkpt lat="49.156562" lon="19.760475"><ele>1879</ele></trkpt>
    <trkpt lat="49.156334" lon="19.761298"><ele>1871</ele></trkpt>
    <trkpt lat="49.156154" lon="19.762312"><ele>1858</ele></trkpt>
    <trkpt lat="49.156036" lon="19.763187"><ele>1848</ele></trkpt>
    <trkpt lat="49.155961" lon="19.763484"><ele>1842</ele></trkpt>
    <trkpt lat="49.155669" lon="19.764064"><ele>1830</ele></trkpt>
    <trkpt lat="49.155543" lon="19.764436"><ele>1826</ele></trkpt>
    <trkpt lat="49.155522" lon="19.764640"><ele>1821</ele></trkpt>
    <trkpt lat="49.155473" lon="19.764715"><ele>1820</ele></trkpt>
    <trkpt lat="49.155417" lon="19.764927"><ele>1814</ele></trkpt>
    <trkpt lat="49.155189" lon="19.765260"><ele>1809</ele></trkpt>
    <trkpt lat="49.154863" lon="19.766395"><ele>1796</ele></trkpt>
    <trkpt lat="49.154681" lon="19.766862"><ele>1791</ele></trkpt>
    <trkpt lat="49.154503" lon="19.766961"><ele>1787</ele></trkpt>
    <trkpt lat="49.154461" lon="19.767052"><ele>1784</ele></trkpt>
    <trkpt lat="49.154227" lon="19.767229"><ele>1777</ele></trkpt>
    <trkpt lat="49.153920" lon="19.767357"><ele>1771</ele></trkpt>
    <trkpt lat="49.153415" lon="19.767733"><ele>1761</ele></trkpt>
    <trkpt lat="49.152977" lon="19.768422"><ele>1747</ele></trkpt>
    <trkpt lat="49.152426" lon="19.769158"><ele>1729</ele></trkpt>
    <trkpt lat="49.152029" lon="19.769820"><ele>1718</ele></trkpt>
    <trkpt lat="49.151991" lon="19.769946"><ele>1717</ele></trkpt>
    <trkpt lat="49.151874" lon="19.770005"><ele>1717</ele></trkpt>
    <trkpt lat="49.151780" lon="19.769969"><ele>1716</ele></trkpt>
    <trkpt lat="49.151722" lon="19.770151"><ele>1713</ele></trkpt>
    <trkpt lat="49.151750" lon="19.770260"><ele>1712</ele></trkpt>
    <trkpt lat="49.151693" lon="19.770316"><ele>1711</ele></trkpt>
    <trkpt lat="49.151582" lon="19.770284"><ele>1709</ele></trkpt>
    <trkpt lat="49.151432" lon="19.770797"><ele>1698</ele></trkpt>
    <trkpt lat="49.151375" lon="19.770843"><ele>1696</ele></trkpt>
    <trkpt lat="49.151283" lon="19.771050"><ele>1691</ele></trkpt>
    <trkpt lat="49.151091" lon="19.771169"><ele>1687</ele></trkpt>
    <trkpt lat="49.151064" lon="19.771293"><ele>1683</ele></trkpt>
    <trkpt lat="49.151026" lon="19.771335"><ele>1682</ele></trkpt>
    <trkpt lat="49.150800" lon="19.771386"><ele>1680</ele></trkpt>
    <trkpt lat="49.150761" lon="19.771421"><ele>1678</ele></trkpt>
    <trkpt lat="49.150733" lon="19.771544"><ele>1675</ele></trkpt>
    <trkpt lat="49.150601" lon="19.771630"><ele>1672</ele></trkpt>
    <trkpt lat="49.150422" lon="19.772033"><ele>1660</ele></trkpt>
    <trkpt lat="49.150457" lon="19.772121"><ele>1657</ele></trkpt>
    <trkpt lat="49.150408" lon="19.772215"><ele>1655</ele></trkpt>
    <trkpt lat="49.150393" lon="19.772434"><ele>1648</ele></trkpt>
    <trkpt lat="49.150299" lon="19.772698"><ele>1645</ele></trkpt>
    <trkpt lat="49.150249" lon="19.773021"><ele>1638</ele></trkpt>
    <trkpt lat="49.150096" lon="19.773061"><ele>1638</ele></trkpt>
    <trkpt lat="49.149678" lon="19.773614"><ele>1629</ele></trkpt>
    <trkpt lat="49.149615" lon="19.773929"><ele>1625</ele></trkpt>
    <trkpt lat="49.149522" lon="19.774164"><ele>1625</ele></trkpt>
    <trkpt lat="49.149460" lon="19.774440"><ele>1625</ele></trkpt>
    <trkpt lat="49.149432" lon="19.774920"><ele>1622</ele></trkpt>
    <trkpt lat="49.149307" lon="19.775077"><ele>1620</ele></trkpt>
    <trkpt lat="49.149326" lon="19.775350"><ele>1618</ele></trkpt>
    <trkpt lat="49.149288" lon="19.775451"><ele>1616</ele></trkpt>
    <trkpt lat="49.149280" lon="19.775651"><ele>1614</ele></trkpt>
    <trkpt lat="49.149182" lon="19.775820"><ele>1612</ele></trkpt>
    <trkpt lat="49.149137" lon="19.776064"><ele>1609</ele></trkpt>
    <trkpt lat="49.149097" lon="19.776091"><ele>1607</ele></trkpt>
    <trkpt lat="49.149015" lon="19.776446"><ele>1599</ele></trkpt>
    <trkpt lat="49.148913" lon="19.776604"><ele>1596</ele></trkpt>
    <trkpt lat="49.148782" lon="19.776674"><ele>1593</ele></trkpt>
    <trkpt lat="49.148685" lon="19.777040"><ele>1584</ele></trkpt>
    <trkpt lat="49.148519" lon="19.777378"><ele>1577</ele></trkpt>
    <trkpt lat="49.148351" lon="19.777433"><ele>1575</ele></trkpt>
    <trkpt lat="49.148321" lon="19.777510"><ele>1574</ele></trkpt>
    <trkpt lat="49.148141" lon="19.777669"><ele>1568</ele></trkpt>
    <trkpt lat="49.148097" lon="19.777864"><ele>1565</ele></trkpt>
    <trkpt lat="49.148059" lon="19.777929"><ele>1564</ele></trkpt>
    <trkpt lat="49.147970" lon="19.777971"><ele>1562</ele></trkpt>
    <trkpt lat="49.147880" lon="19.778132"><ele>1558</ele></trkpt>
    <trkpt lat="49.147871" lon="19.778275"><ele>1557</ele></trkpt>
    <trkpt lat="49.147751" lon="19.778511"><ele>1553</ele></trkpt>
    <trkpt lat="49.147607" lon="19.779222"><ele>1544</ele></trkpt>
    <trkpt lat="49.147599" lon="19.779414"><ele>1539</ele></trkpt>
    <trkpt lat="49.147472" lon="19.779748"><ele>1533</ele></trkpt>
    <trkpt lat="49.147489" lon="19.779922"><ele>1529</ele></trkpt>
    <trkpt lat="49.147439" lon="19.780488"><ele>1517</ele></trkpt>
    <trkpt lat="49.147461" lon="19.780599"><ele>1515</ele></trkpt>
    <trkpt lat="49.147425" lon="19.780833"><ele>1511</ele></trkpt>
    <trkpt lat="49.147428" lon="19.781108"><ele>1507</ele></trkpt>
    <trkpt lat="49.147286" lon="19.781809"><ele>1497</ele></trkpt>
    <trkpt lat="49.147200" lon="19.782085"><ele>1494</ele></trkpt>
    <trkpt lat="49.146756" lon="19.783093"><ele>1473</ele></trkpt>
    <trkpt lat="49.146620" lon="19.783389"><ele>1463</ele></trkpt>
    <trkpt lat="49.146391" lon="19.783754"><ele>1451</ele></trkpt>
    <trkpt lat="49.146327" lon="19.783950"><ele>1447</ele></trkpt>
    <trkpt lat="49.145347" lon="19.784951"><ele>1410</ele></trkpt>
    <trkpt lat="49.144834" lon="19.785088"><ele>1396</ele></trkpt>
    <trkpt lat="49.144541" lon="19.785114"><ele>1389</ele></trkpt>
    <trkpt lat="49.144394" lon="19.785084"><ele>1384</ele></trkpt>
    <trkpt lat="49.143924" lon="19.785242"><ele>1364</ele></trkpt>
    <trkpt lat="49.143844" lon="19.785193"><ele>1361</ele></trkpt>
    <trkpt lat="49.143722" lon="19.785388"><ele>1355</ele></trkpt>
    <trkpt lat="49.143620" lon="19.785430"><ele>1351</ele></trkpt>
    <trkpt lat="49.143263" lon="19.785788"><ele>1346</ele></trkpt>
    <trkpt lat="49.143044" lon="19.785853"><ele>1343</ele></trkpt>
    <trkpt lat="49.142578" lon="19.786258"><ele>1318</ele></trkpt>
    <trkpt lat="49.142416" lon="19.786711"><ele>1312</ele></trkpt>
    <trkpt lat="49.142292" lon="19.786691"><ele>1305</ele></trkpt>
    <trkpt lat="49.142086" lon="19.787070"><ele>1299</ele></trkpt>
    <trkpt lat="49.141802" lon="19.786960"><ele>1292</ele></trkpt>
    <trkpt lat="49.141750" lon="19.786986"><ele>1291</ele></trkpt>
    <trkpt lat="49.141674" lon="19.787120"><ele>1288</ele></trkpt>
    <trkpt lat="49.141649" lon="19.787234"><ele>1286</ele></trkpt>
    <trkpt lat="49.141348" lon="19.787443"><ele>1270</ele></trkpt>
    <trkpt lat="49.141211" lon="19.787393"><ele>1267</ele></trkpt>
    <trkpt lat="49.141134" lon="19.787277"><ele>1264</ele></trkpt>
    <trkpt lat="49.141076" lon="19.787280"><ele>1262</ele></trkpt>
    <trkpt lat="49.141016" lon="19.787379"><ele>1261</ele></trkpt>
    <trkpt lat="49.140994" lon="19.787589"><ele>1259</ele></trkpt>
    <trkpt lat="49.140940" lon="19.787604"><ele>1258</ele></trkpt>
    <trkpt lat="49.140707" lon="19.787475"><ele>1254</ele></trkpt>
    <trkpt lat="49.140648" lon="19.787624"><ele>1250</ele></trkpt>
    <trkpt lat="49.140586" lon="19.787666"><ele>1248</ele></trkpt>
    <trkpt lat="49.140305" lon="19.787576"><ele>1240</ele></trkpt>
    <trkpt lat="49.140211" lon="19.787774"><ele>1232</ele></trkpt>
    <trkpt lat="49.140187" lon="19.787706"><ele>1231</ele></trkpt>
    <trkpt lat="49.140129" lon="19.787689"><ele>1227</ele></trkpt>
    <trkpt lat="49.140092" lon="19.787549"><ele>1226</ele></trkpt>
    <trkpt lat="49.140026" lon="19.787520"><ele>1222</ele></trkpt>
    <trkpt lat="49.139913" lon="19.787377"><ele>1217</ele></trkpt>
    <trkpt lat="49.139826" lon="19.787693"><ele>1206</ele></trkpt>
    <trkpt lat="49.139795" lon="19.787969"><ele>1201</ele></trkpt>
    <trkpt lat="49.139577" lon="19.787839"><ele>1191</ele></trkpt>
    <trkpt lat="49.139438" lon="19.787655"><ele>1188</ele></trkpt>
    <trkpt lat="49.139348" lon="19.787592"><ele>1184</ele></trkpt>
    <trkpt lat="49.139217" lon="19.787691"><ele>1176</ele></trkpt>
    <trkpt lat="49.139247" lon="19.788475"><ele>1169</ele></trkpt>
    <trkpt lat="49.139152" lon="19.788372"><ele>1165</ele></trkpt>
    <trkpt lat="49.139087" lon="19.788230"><ele>1164</ele></trkpt>
    <trkpt lat="49.138863" lon="19.788179"><ele>1153</ele></trkpt>
    <trkpt lat="49.138855" lon="19.788100"><ele>1153</ele></trkpt>
    <trkpt lat="49.138785" lon="19.788095"><ele>1151</ele></trkpt>
    <trkpt lat="49.138694" lon="19.788007"><ele>1148</ele></trkpt>
    <trkpt lat="49.138579" lon="19.788013"><ele>1143</ele></trkpt>
    <trkpt lat="49.138514" lon="19.788187"><ele>1138</ele></trkpt>
    <trkpt lat="49.138448" lon="19.788025"><ele>1137</ele></trkpt>
    <trkpt lat="49.138261" lon="19.787755"><ele>1128</ele></trkpt>
    <trkpt lat="49.138210" lon="19.787549"><ele>1126</ele></trkpt>
    <trkpt lat="49.138197" lon="19.787175"><ele>1122</ele></trkpt>
    <trkpt lat="49.137982" lon="19.787423"><ele>1114</ele></trkpt>
    <trkpt lat="49.137665" lon="19.787999"><ele>1097</ele></trkpt>
    <trkpt lat="49.137605" lon="19.787982"><ele>1094</ele></trkpt>
    <trkpt lat="49.137311" lon="19.787583"><ele>1081</ele></trkpt>
    <trkpt lat="49.137202" lon="19.787273"><ele>1074</ele></trkpt>
    <trkpt lat="49.137005" lon="19.787354"><ele>1065</ele></trkpt>
    <trkpt lat="49.136799" lon="19.787592"><ele>1055</ele></trkpt>
    <trkpt lat="49.136693" lon="19.787848"><ele>1048</ele></trkpt>
    <trkpt lat="49.136282" lon="19.786888"><ele>1027</ele></trkpt>
    <trkpt lat="49.136285" lon="19.786785"><ele>1026</ele></trkpt>
    <trkpt lat="49.136344" lon="19.786660"><ele>1027</ele></trkpt>
    <trkpt lat="49.136240" lon="19.786675"><ele>1024</ele></trkpt>
    <trkpt lat="49.136181" lon="19.786740"><ele>1023</ele></trkpt>
    <trkpt lat="49.136162" lon="19.786712"><ele>1022</ele></trkpt>
    <trkpt lat="49.136142" lon="19.786620"><ele>1020</ele></trkpt>
    <trkpt lat="49.136231" lon="19.786345"><ele>1015</ele></trkpt>
    <trkpt lat="49.136219" lon="19.786087"><ele>1009</ele></trkpt>
    <trkpt lat="49.136293" lon="19.785956"><ele>1007</ele></trkpt>
    <trkpt lat="49.136214" lon="19.785942"><ele>1006</ele></trkpt>
    <trkpt lat="49.136209" lon="19.785802"><ele>1003</ele></trkpt>
    <trkpt lat="49.136167" lon="19.785717"><ele>1003</ele></trkpt>
    <trkpt lat="49.136137" lon="19.785722"><ele>1002</ele></trkpt>
    <trkpt lat="49.136088" lon="19.785631"><ele>1003</ele></trkpt>
    <trkpt lat="49.135856" lon="19.785743"><ele>1001</ele></trkpt>
    <trkpt lat="49.135466" lon="19.785849"><ele>993</ele></trkpt>
    <trkpt lat="49.135246" lon="19.785853"><ele>987</ele></trkpt>
    <trkpt lat="49.134989" lon="19.785705"><ele>984</ele></trkpt>
    <trkpt lat="49.134761" lon="19.786265"><ele>973</ele></trkpt>
    <trkpt lat="49.134450" lon="19.786845"><ele>964</ele></trkpt>
    <trkpt lat="49.134388" lon="19.787049"><ele>961</ele></trkpt>
    <trkpt lat="49.134366" lon="19.787388"><ele>956</ele></trkpt>
    <trkpt lat="49.134137" lon="19.787337"><ele>956</ele></trkpt>
    <trkpt lat="49.134051" lon="19.787490"><ele>952</ele></trkpt>
    <trkpt lat="49.134014" lon="19.787710"><ele>949</ele></trkpt>
    <trkpt lat="49.133927" lon="19.787636"><ele>951</ele></trkpt>
    <trkpt lat="49.133943" lon="19.787737"><ele>950</ele></trkpt>
    <trkpt lat="49.133764" lon="19.787965"><ele>943</ele></trkpt>
    <trkpt lat="49.133561" lon="19.788682"><ele>925</ele></trkpt>
    <trkpt lat="49.133146" lon="19.789485"><ele>907</ele></trkpt>
  </trkseg></trk>
</gpx>
