<?xml version="1.0" encoding="UTF-8"?>
<gpx version="1.1" creator="MounTour (OpenStreetMap)" xmlns="http://www.topografix.com/GPX/1/1">
  <metadata><name>Malý Rozsutec</name><copyright author="OpenStreetMap contributors"><license>https://opendatacommons.org/licenses/odbl/</license></copyright></metadata>
  <trk><name>Malý Rozsutec</name><trkseg>
    <trkpt lat="49.257595" lon="19.066754"><ele>569</ele></trkpt>
    <trkpt lat="49.257628" lon="19.066885"><ele>569</ele></trkpt>
    <trkpt lat="49.257595" lon="19.067010"><ele>569</ele></trkpt>
    <trkpt lat="49.257162" lon="19.067304"><ele>572</ele></trkpt>
    <trkpt lat="49.257038" lon="19.067835"><ele>577</ele></trkpt>
    <trkpt lat="49.256912" lon="19.068196"><ele>588</ele></trkpt>
    <trkpt lat="49.256601" lon="19.068704"><ele>599</ele></trkpt>
    <trkpt lat="49.256460" lon="19.068830"><ele>600</ele></trkpt>
    <trkpt lat="49.256268" lon="19.069141"><ele>605</ele></trkpt>
    <trkpt lat="49.256033" lon="19.069640"><ele>615</ele></trkpt>
    <trkpt lat="49.256043" lon="19.070313"><ele>627</ele></trkpt>
    <trkpt lat="49.255798" lon="19.071651"><ele>651</ele></trkpt>
    <trkpt lat="49.255774" lon="19.072000"><ele>656</ele></trkpt>
    <trkpt lat="49.255826" lon="19.072442"><ele>663</ele></trkpt>
    <trkpt lat="49.255786" lon="19.072716"><ele>665</ele></trkpt>
    <trkpt lat="49.255581" lon="19.073465"><ele>673</ele></trkpt>
    <trkpt lat="49.255547" lon="19.073735"><ele>675</ele></trkpt>
    <trkpt lat="49.255321" lon="19.074296"><ele>683</ele></trkpt>
    <trkpt lat="49.255259" lon="19.074529"><ele>686</ele></trkpt>
    <trkpt lat="49.254885" lon="19.075052"><ele>698</ele></trkpt>
    <trkpt lat="49.254634" lon="19.075535"><ele>705</ele></trkpt>
    <trkpt lat="49.254473" lon="19.075860"><ele>708</ele></trkpt>
    <trkpt lat="49.254201" lon="19.076731"><ele>716</ele></trkpt>
    <trkpt lat="49.254062" lon="19.076871"><ele>718</ele></trkpt>
    <trkpt lat="49.253962" lon="19.077094"><ele>723</ele></trkpt>
    <trkpt lat="49.253879" lon="19.077162"><ele>725</ele></trkpt>
    <trkpt lat="49.253698" lon="19.077213"><ele>726</ele></trkpt>
    <trkpt lat="49.253389" lon="19.077096"><ele>727</ele></trkpt>
    <trkpt lat="49.253218" lon="19.077236"><ele>730</ele></trkpt>
    <trkpt lat="49.253179" lon="19.077405"><ele>731</ele></trkpt>
    <trkpt lat="49.253218" lon="19.077555"><ele>733</ele></trkpt>
    <trkpt lat="49.253337" lon="19.077778"><ele>735</ele></trkpt>
    <trkpt lat="49.253395" lon="19.078279"><ele>737</ele></trkpt>
    <trkpt lat="49.253196" lon="19.081672"><ele>725</ele></trkpt>
    <trkpt lat="49.253109" lon="19.082044"><ele>729</ele></trkpt>
    <trkpt lat="49.252870" lon="19.082663"><ele>736</ele></trkpt>
    <trkpt lat="49.252948" lon="19.082970"><ele>730</ele></trkpt>
    <trkpt lat="49.252815" lon="19.083084"><ele>731</ele></trkpt>
    <trkpt lat="49.252721" lon="19.083240"><ele>736</ele></trkpt>
    <trkpt lat="49.252674" lon="19.083427"><ele>741</ele></trkpt>
    <trkpt lat="49.252701" lon="19.083727"><ele>743</ele></trkpt>
    <trkpt lat="49.252666" lon="19.083992"><ele>750</ele></trkpt>
    <trkpt lat="49.252526" lon="19.084508"><ele>766</ele></trkpt>
    <trkpt lat="49.252803" lon="19.085380"><ele>765</ele></trkpt>
    <trkpt lat="49.252890" lon="19.085783"><ele>768</ele></trkpt>
    <trkpt lat="49.252713" lon="19.086137"><ele>779</ele></trkpt>
    <trkpt lat="49.252733" lon="19.087093"><ele>785</ele></trkpt>
    <trkpt lat="49.252874" lon="19.087694"><ele>789</ele></trkpt>
    <trkpt lat="49.252772" lon="19.088030"><ele>794</ele></trkpt>
    <trkpt lat="49.252772" lon="19.088193"><ele>796</ele></trkpt>
    <trkpt lat="49.252670" lon="19.088433"><ele>801</ele></trkpt>
    <trkpt lat="49.252682" lon="19.088692"><ele>802</ele></trkpt>
    <trkpt lat="49.252748" lon="19.089004"><ele>802</ele></trkpt>
    <trkpt lat="49.252819" lon="19.089082"><ele>800</ele></trkpt>
    <trkpt lat="49.253057" lon="19.089913"><ele>802</ele></trkpt>
    <trkpt lat="49.253918" lon="19.092140"><ele>803</ele></trkpt>
    <trkpt lat="49.253796" lon="19.092277"><ele>807</ele></trkpt>
    <trkpt lat="49.253737" lon="19.092406"><ele>810</ele></trkpt>
    <trkpt lat="49.253722" lon="19.092541"><ele>811</ele></trkpt>
    <trkpt lat="49.253771" lon="19.092795"><ele>812</ele></trkpt>
    <trkpt lat="49.253754" lon="19.093051"><ele>812</ele></trkpt>
    <trkpt lat="49.253559" lon="19.093198"><ele>817</ele></trkpt>
    <trkpt lat="49.253550" lon="19.093259"><ele>818</ele></trkpt>
    <trkpt lat="49.253896" lon="19.093617"><ele>814</ele></trkpt>
    <trkpt lat="49.254124" lon="19.094058"><ele>826</ele></trkpt>
    <trkpt lat="49.253983" lon="19.094174"><ele>829</ele></trkpt>
    <trkpt lat="49.253576" lon="19.094324"><ele>839</ele></trkpt>
    <trkpt lat="49.253431" lon="19.094338"><ele>843</ele></trkpt>
    <trkpt lat="49.253095" lon="19.094292"><ele>848</ele></trkpt>
    <trkpt lat="49.252828" lon="19.094308"><ele>855</ele></trkpt>
    <trkpt lat="49.252414" lon="19.094214"><ele>865</ele></trkpt>
    <trkpt lat="49.251886" lon="19.093916"><ele>873</ele></trkpt>
    <trkpt lat="49.251694" lon="19.093869"><ele>880</ele></trkpt>
    <trkpt lat="49.251255" lon="19.094085"><ele>901</ele></trkpt>
    <trkpt lat="49.251117" lon="19.094048"><ele>906</ele></trkpt>
    <trkpt lat="49.251036" lon="19.094072"><ele>910</ele></trkpt>
    <trkpt lat="49.250948" lon="19.093986"><ele>912</ele></trkpt>
    <trkpt lat="49.250822" lon="19.093947"><ele>917</ele></trkpt>
    <trkpt lat="49.250799" lon="19.093458"><ele>926</ele></trkpt>
    <trkpt lat="49.250766" lon="19.093362"><ele>930</ele></trkpt>
    <trkpt lat="49.250689" lon="19.093331"><ele>933</ele></trkpt>
    <trkpt lat="49.250607" lon="19.093078"><ele>943</ele></trkpt>
    <trkpt lat="49.250539" lon="19.092983"><ele>949</ele></trkpt>
    <trkpt lat="49.250469" lon="19.092903"><ele>956</ele></trkpt>
    <trkpt lat="49.250240" lon="19.092822"><ele>969</ele></trkpt>
    <trkpt lat="49.250028" lon="19.092878"><ele>974</ele></trkpt>
    <trkpt lat="49.249578" lon="19.091832"><ele>1011</ele></trkpt>
    <trkpt lat="49.249329" lon="19.091647"><ele>1025</ele></trkpt>
    <trkpt lat="49.249224" lon="19.091650"><ele>1030</ele></trkpt>
    <trkpt lat="49.249105" lon="19.091677"><ele>1035</ele></trkpt>
    <trkpt lat="49.248909" lon="19.091864"><ele>1042</ele></trkpt>
    <trkpt lat="49.248611" lon="19.091827"><ele>1053</ele></trkpt>
    <trkpt lat="49.248428" lon="19.091883"><ele>1062</ele></trkpt>
    <trkpt lat="49.248109" lon="19.092927"><ele>1074</ele></trkpt>
    <trkpt lat="49.247962" lon="19.093173"><ele>1080</ele></trkpt>
    <trkpt lat="49.247755" lon="19.093332"><ele>1089</ele></trkpt>
    <trkpt lat="49.247422" lon="19.093688"><ele>1104</ele></trkpt>
    <trkpt lat="49.247293" lon="19.093659"><ele>1112</ele></trkpt>
    <trkpt lat="49.247228" lon="19.093699"><ele>1115</ele></trkpt>
    <trkpt lat="49.246910" lon="19.094268"><ele>1117</ele></trkpt>
    <trkpt lat="49.246710" lon="19.095233"><ele>1127</ele></trkpt>
    <trkpt lat="49.246584" lon="19.096027"><ele>1136</ele></trkpt>
    <trkpt lat="49.246570" lon="19.096287"><ele>1140</ele></trkpt>
    <trkpt lat="49.246607" lon="19.096515"><ele>1145</ele></trkpt>
    <trkpt lat="49.246564" lon="19.096883"><ele>1156</ele></trkpt>
    <trkpt lat="49.246537" lon="19.097073"><ele>1162</ele></trkpt>
    <trkpt lat="49.246378" lon="19.097538"><ele>1172</ele></trkpt>
    <trkpt lat="49.246355" lon="19.097952"><ele>1182</ele></trkpt>
    <trkpt lat="49.246413" lon="19.098241"><ele>1192</ele></trkpt>
    <trkpt lat="49.246469" lon="19.098219"><ele>1193</ele></trkpt>
    <trkpt lat="49.246608" lon="19.098260"><ele>1197</ele></trkpt>
    <trkpt lat="49.246552" lon="19.098700"><ele>1206</ele></trkpt>
    <trkpt lat="49.246558" lon="19.098883"><ele>1213</ele></trkpt>
    <trkpt lat="49.246487" lon="19.099042"><ele>1221</ele></trkpt>
    <trkpt lat="49.246378" lon="19.099122"><ele>1227</ele></trkpt>
    <trkpt lat="49.246281" lon="19.099256"><ele>1228</ele></trkpt>
    <trkpt lat="49.246239" lon="19.099346"><ele>1229</ele></trkpt>
    <trkpt lat="49.246254" lon="19.099408"><ele>1233</ele></trkpt>
    <trkpt lat="49.246221" lon="19.099568"><ele>1238</ele></trkpt>
    <trkpt lat="49.246292" lon="19.099990"><ele>1256</ele></trkpt>
    <trkpt lat="49.246469" lon="19.100224"><ele>1265</ele></trkpt>
    <trkpt lat="49.246398" lon="19.100580"><ele>1284</ele></trkpt>
    <trkpt lat="49.246442" lon="19.100762"><ele>1292</ele></trkpt>
    <trkpt lat="49.246541" lon="19.100915"><ele>1301</ele></trkpt>
    <trkpt lat="49.246506" lon="19.101039"><ele>1306</ele></trkpt>
    <trkpt lat="49.246510" lon="19.101233"><ele>1315</ele></trkpt>
    <trkpt lat="49.246590" lon="19.101482"><ele>1326</ele></trkpt>
    <trkpt lat="49.246476" lon="19.101621"><ele>1324</ele></trkpt>
    <trkpt lat="49.246590" lon="19.101482"><ele>1326</ele></trkpt>
    <trkpt lat="49.246510" lon="19.101233"><ele>1315</ele></trkpt>
    <trkpt lat="49.246506" lon="19.101039"><ele>1306</ele></trkpt>
    <trkpt lat="49.246541" lon="19.100915"><ele>1301</ele></trkpt>
    <trkpt lat="49.246442" lon="19.100762"><ele>1292</ele></trkpt>
    <trkpt lat="49.246398" lon="19.100580"><ele>1284</ele></trkpt>
    <trkpt lat="49.246469" lon="19.100224"><ele>1265</ele></trkpt>
    <trkpt lat="49.246292" lon="19.099990"><ele>1256</ele></trkpt>
    <trkpt lat="49.246221" lon="19.099568"><ele>1238</ele></trkpt>
    <trkpt lat="49.246254" lon="19.099408"><ele>1233</ele></trkpt>
    <trkpt lat="49.246239" lon="19.099346"><ele>1229</ele></trkpt>
    <trkpt lat="49.246281" lon="19.099256"><ele>1228</ele></trkpt>
    <trkpt lat="49.246378" lon="19.099122"><ele>1227</ele></trkpt>
    <trkpt lat="49.246487" lon="19.099042"><ele>1221</ele></trkpt>
    <trkpt lat="49.246558" lon="19.098883"><ele>1213</ele></trkpt>
    <trkpt lat="49.246552" lon="19.098700"><ele>1206</ele></trkpt>
    <trkpt lat="49.246608" lon="19.098260"><ele>1197</ele></trkpt>
    <trkpt lat="49.246469" lon="19.098219"><ele>1193</ele></trkpt>
    <trkpt lat="49.246413" lon="19.098241"><ele>1192</ele></trkpt>
    <trkpt lat="49.246355" lon="19.097952"><ele>1182</ele></trkpt>
    <trkpt lat="49.246378" lon="19.097538"><ele>1172</ele></trkpt>
    <trkpt lat="49.246537" lon="19.097073"><ele>1162</ele></trkpt>
    <trkpt lat="49.246564" lon="19.096883"><ele>1156</ele></trkpt>
    <trkpt lat="49.246607" lon="19.096515"><ele>1145</ele></trkpt>
    <trkpt lat="49.246570" lon="19.096287"><ele>1140</ele></trkpt>
    <trkpt lat="49.246584" lon="19.096027"><ele>1136</ele></trkpt>
    <trkpt lat="49.246710" lon="19.095233"><ele>1127</ele></trkpt>
    <trkpt lat="49.246910" lon="19.094268"><ele>1117</ele></trkpt>
    <trkpt lat="49.247228" lon="19.093699"><ele>1115</ele></trkpt>
    <trkpt lat="49.247293" lon="19.093659"><ele>1112</ele></trkpt>
    <trkpt lat="49.247422" lon="19.093688"><ele>1104</ele></trkpt>
    <trkpt lat="49.247755" lon="19.093332"><ele>1089</ele></trkpt>
    <trkpt lat="49.247962" lon="19.093173"><ele>1080</ele></trkpt>
    <trkpt lat="49.248109" lon="19.092927"><ele>1074</ele></trkpt>
    <trkpt lat="49.248428" lon="19.091883"><ele>1062</ele></trkpt>
    <trkpt lat="49.248611" lon="19.091827"><ele>1053</ele></trkpt>
    <trkpt lat="49.248909" lon="19.091864"><ele>1042</ele></trkpt>
    <trkpt lat="49.249105" lon="19.091677"><ele>1035</ele></trkpt>
    <trkpt lat="49.249224" lon="19.091650"><ele>1030</ele></trkpt>
    <trkpt lat="49.249329" lon="19.091647"><ele>1025</ele></trkpt>
    <trkpt lat="49.249578" lon="19.091832"><ele>1011</ele></trkpt>
    <trkpt lat="49.250028" lon="19.092878"><ele>974</ele></trkpt>
    <trkpt lat="49.250240" lon="19.092822"><ele>969</ele></trkpt>
    <trkpt lat="49.250469" lon="19.092903"><ele>956</ele></trkpt>
    <trkpt lat="49.250539" lon="19.092983"><ele>949</ele></trkpt>
    <trkpt lat="49.250607" lon="19.093078"><ele>943</ele></trkpt>
    <trkpt lat="49.250689" lon="19.093331"><ele>933</ele></trkpt>
    <trkpt lat="49.250766" lon="19.093362"><ele>930</ele></trkpt>
    <trkpt lat="49.250799" lon="19.093458"><ele>926</ele></trkpt>
    <trkpt lat="49.250822" lon="19.093947"><ele>917</ele></trkpt>
    <trkpt lat="49.250948" lon="19.093986"><ele>912</ele></trkpt>
    <trkpt lat="49.251036" lon="19.094072"><ele>910</ele></trkpt>
    <trkpt lat="49.251117" lon="19.094048"><ele>906</ele></trkpt>
    <trkpt lat="49.251255" lon="19.094085"><ele>901</ele></trkpt>
    <trkpt lat="49.251694" lon="19.093869"><ele>880</ele></trkpt>
    <trkpt lat="49.251886" lon="19.093916"><ele>873</ele></trkpt>
    <trkpt lat="49.252414" lon="19.094214"><ele>865</ele></trkpt>
    <trkpt lat="49.252828" lon="19.094308"><ele>855</ele></trkpt>
    <trkpt lat="49.253095" lon="19.094292"><ele>848</ele></trkpt>
    <trkpt lat="49.253431" lon="19.094338"><ele>843</ele></trkpt>
    <trkpt lat="49.253576" lon="19.094324"><ele>839</ele></trkpt>
    <trkpt lat="49.253983" lon="19.094174"><ele>829</ele></trkpt>
    <trkpt lat="49.254124" lon="19.094058"><ele>826</ele></trkpt>
    <trkpt lat="49.253896" lon="19.093617"><ele>814</ele></trkpt>
    <trkpt lat="49.253550" lon="19.093259"><ele>818</ele></trkpt>
    <trkpt lat="49.253559" lon="19.093198"><ele>817</ele></trkpt>
    <trkpt lat="49.253754" lon="19.093051"><ele>812</ele></trkpt>
    <trkpt lat="49.253771" lon="19.092795"><ele>812</ele></trkpt>
    <trkpt lat="49.253722" lon="19.092541"><ele>811</ele></trkpt>
    <trkpt lat="49.253737" lon="19.092406"><ele>810</ele></trkpt>
    <trkpt lat="49.253796" lon="19.092277"><ele>807</ele></trkpt>
    <trkpt lat="49.253918" lon="19.092140"><ele>803</ele></trkpt>
    <trkpt lat="49.253057" lon="19.089913"><ele>802</ele></trkpt>
    <trkpt lat="49.252819" lon="19.089082"><ele>800</ele></trkpt>
    <trkpt lat="49.252748" lon="19.089004"><ele>802</ele></trkpt>
    <trkpt lat="49.252682" lon="19.088692"><ele>802</ele></trkpt>
    <trkpt lat="49.252670" lon="19.088433"><ele>801</ele></trkpt>
    <trkpt lat="49.252772" lon="19.088193"><ele>796</ele></trkpt>
    <trkpt lat="49.252772" lon="19.088030"><ele>794</ele></trkpt>
    <trkpt lat="49.252874" lon="19.087694"><ele>789</ele></trkpt>
    <trkpt lat="49.252733" lon="19.087093"><ele>785</ele></trkpt>
    <trkpt lat="49.252713" lon="19.086137"><ele>779</ele></trkpt>
    <trkpt lat="49.252890" lon="19.085783"><ele>768</ele></trkpt>
    <trkpt lat="49.252803" lon="19.085380"><ele>765</ele></trkpt>
    <trkpt lat="49.252526" lon="19.084508"><ele>766</ele></trkpt>
    <trkpt lat="49.252666" lon="19.083992"><ele>750</ele></trkpt>
    <trkpt lat="49.252701" lon="19.083727"><ele>743</ele></trkpt>
    <trkpt lat="49.252674" lon="19.083427"><ele>741</ele></trkpt>
    <trkpt lat="49.252721" lon="19.083240"><ele>736</ele></trkpt>
    <trkpt lat="49.252815" lon="19.083084"><ele>731</ele></trkpt>
    <trkpt lat="49.252948" lon="19.082970"><ele>730</ele></trkpt>
    <trkpt lat="49.252870" lon="19.082663"><ele>736</ele></trkpt>
    <trkpt lat="49.253109" lon="19.082044"><ele>729</ele></trkpt>
    <trkpt lat="49.253196" lon="19.081672"><ele>725</ele></trkpt>
    <trkpt lat="49.253395" lon="19.078279"><ele>737</ele></trkpt>
    <trkpt lat="49.253337" lon="19.077778"><ele>735</ele></trkpt>
    <trkpt lat="49.253218" lon="19.077555"><ele>733</ele></trkpt>
    <trkpt lat="49.253179" lon="19.077405"><ele>731</ele></trkpt>
    <trkpt lat="49.253218" lon="19.077236"><ele>730</ele></trkpt>
    <trkpt lat="49.253389" lon="19.077096"><ele>727</ele></trkpt>
    <trkpt lat="49.253698" lon="19.077213"><ele>726</ele></trkpt>
    <trkpt lat="49.253879" lon="19.077162"><ele>725</ele></trkpt>
    <trkpt lat="49.253962" lon="19.077094"><ele>723</ele></trkpt>
    <trkpt lat="49.254062" lon="19.076871"><ele>718</ele></trkpt>
    <trkpt lat="49.254201" lon="19.076731"><ele>716</ele></trkpt>
    <trkpt lat="49.254473" lon="19.075860"><ele>708</ele></trkpt>
    <trkpt lat="49.254634" lon="19.075535"><ele>705</ele></trkpt>
    <trkpt lat="49.254885" lon="19.075052"><ele>698</ele></trkpt>
    <trkpt lat="49.255259" lon="19.074529"><ele>686</ele></trkpt>
    <trkpt lat="49.255321" lon="19.074296"><ele>683</ele></trkpt>
    <trkpt lat="49.255547" lon="19.073735"><ele>675</ele></trkpt>
    <trkpt lat="49.255581" lon="19.073465"><ele>673</ele></trkpt>
    <trkpt lat="49.255786" lon="19.072716"><ele>665</ele></trkpt>
    <trkpt lat="49.255826" lon="19.072442"><ele>663</ele></trkpt>
    <trkpt lat="49.255774" lon="19.072000"><ele>656</ele></trkpt>
    <trkpt lat="49.255798" lon="19.071651"><ele>651</ele></trkpt>
    <trkpt lat="49.256043" lon="19.070313"><ele>627</ele></trkpt>
    <trkpt lat="49.256033" lon="19.069640"><ele>615</ele></trkpt>
    <trkpt lat="49.256268" lon="19.069141"><ele>605</ele></trkpt>
    <trkpt lat="49.256460" lon="19.068830"><ele>600</ele></trkpt>
    <trkpt lat="49.256601" lon="19.068704"><ele>599</ele></trkpt>
    <trkpt lat="49.256912" lon="19.068196"><ele>588</ele></trkpt>
    <trkpt lat="49.257038" lon="19.067835"><ele>577</ele></trkpt>
    <trkpt lat="49.257162" lon="19.067304"><ele>572</ele></trkpt>
    <trkpt lat="49.257595" lon="19.067010"><ele>569</ele></trkpt>
    <trkpt lat="49.257628" lon="19.066885"><ele>569</ele></trkpt>
    <trkpt lat="49.257595" lon="19.066754"><ele>569</ele></trkpt>
  </trkseg></trk>
</gpx>
