<?xml version="1.0" encoding="UTF-8"?>
<gpx version="1.1" creator="MounTour (OpenStreetMap)" xmlns="http://www.topografix.com/GPX/1/1">
  <metadata><name>Malý Kriváň</name><copyright author="OpenStreetMap contributors"><license>https://opendatacommons.org/licenses/odbl/</license></copyright></metadata>
  <trk><name>Malý Kriváň</name><trkseg>
    <trkpt lat="49.212419" lon="19.038784"><ele>700</ele></trkpt>
    <trkpt lat="49.212159" lon="19.038452"><ele>695</ele></trkpt>
    <trkpt lat="49.211585" lon="19.038549"><ele>708</ele></trkpt>
    <trkpt lat="49.211057" lon="19.038312"><ele>732</ele></trkpt>
    <trkpt lat="49.210838" lon="19.038023"><ele>725</ele></trkpt>
    <trkpt lat="49.210673" lon="19.037661"><ele>729</ele></trkpt>
    <trkpt lat="49.210102" lon="19.037107"><ele>743</ele></trkpt>
    <trkpt lat="49.210014" lon="19.036857"><ele>743</ele></trkpt>
    <trkpt lat="49.209909" lon="19.036365"><ele>749</ele></trkpt>
    <trkpt lat="49.209530" lon="19.035472"><ele>760</ele></trkpt>
    <trkpt lat="49.209413" lon="19.035004"><ele>766</ele></trkpt>
    <trkpt lat="49.209329" lon="19.034803"><ele>774</ele></trkpt>
    <trkpt lat="49.209234" lon="19.034707"><ele>777</ele></trkpt>
    <trkpt lat="49.208821" lon="19.034547"><ele>785</ele></trkpt>
    <trkpt lat="49.208679" lon="19.034409"><ele>787</ele></trkpt>
    <trkpt lat="49.208393" lon="19.033787"><ele>797</ele></trkpt>
    <trkpt lat="49.208036" lon="19.032844"><ele>809</ele></trkpt>
    <trkpt lat="49.207830" lon="19.032585"><ele>815</ele></trkpt>
    <trkpt lat="49.207387" lon="19.032299"><ele>818</ele></trkpt>
    <trkpt lat="49.207046" lon="19.031743"><ele>829</ele></trkpt>
    <trkpt lat="49.206818" lon="19.031533"><ele>832</ele></trkpt>
    <trkpt lat="49.206569" lon="19.031143"><ele>838</ele></trkpt>
    <trkpt lat="49.206444" lon="19.030812"><ele>841</ele></trkpt>
    <trkpt lat="49.206336" lon="19.030718"><ele>842</ele></trkpt>
    <trkpt lat="49.206197" lon="19.030487"><ele>845</ele></trkpt>
    <trkpt lat="49.206141" lon="19.030016"><ele>847</ele></trkpt>
    <trkpt lat="49.205817" lon="19.029033"><ele>868</ele></trkpt>
    <trkpt lat="49.205693" lon="19.028343"><ele>884</ele></trkpt>
    <trkpt lat="49.205302" lon="19.027785"><ele>893</ele></trkpt>
    <trkpt lat="49.204766" lon="19.027228"><ele>908</ele></trkpt>
    <trkpt lat="49.204599" lon="19.026827"><ele>917</ele></trkpt>
    <trkpt lat="49.204453" lon="19.026621"><ele>922</ele></trkpt>
    <trkpt lat="49.204041" lon="19.026233"><ele>936</ele></trkpt>
    <trkpt lat="49.203874" lon="19.026211"><ele>936</ele></trkpt>
    <trkpt lat="49.203769" lon="19.026109"><ele>940</ele></trkpt>
    <trkpt lat="49.203554" lon="19.025437"><ele>960</ele></trkpt>
    <trkpt lat="49.203376" lon="19.025136"><ele>962</ele></trkpt>
    <trkpt lat="49.203204" lon="19.024568"><ele>977</ele></trkpt>
    <trkpt lat="49.203074" lon="19.024317"><ele>981</ele></trkpt>
    <trkpt lat="49.203087" lon="19.024245"><ele>984</ele></trkpt>
    <trkpt lat="49.203181" lon="19.024245"><ele>988</ele></trkpt>
    <trkpt lat="49.203767" lon="19.024439"><ele>1007</ele></trkpt>
    <trkpt lat="49.203763" lon="19.024322"><ele>1012</ele></trkpt>
    <trkpt lat="49.203684" lon="19.024085"><ele>1020</ele></trkpt>
    <trkpt lat="49.203706" lon="19.024013"><ele>1023</ele></trkpt>
    <trkpt lat="49.204104" lon="19.024018"><ele>1029</ele></trkpt>
    <trkpt lat="49.204227" lon="19.023882"><ele>1029</ele></trkpt>
    <trkpt lat="49.204252" lon="19.023649"><ele>1032</ele></trkpt>
    <trkpt lat="49.204152" lon="19.023358"><ele>1041</ele></trkpt>
    <trkpt lat="49.204139" lon="19.022999"><ele>1051</ele></trkpt>
    <trkpt lat="49.203914" lon="19.022494"><ele>1061</ele></trkpt>
    <trkpt lat="49.203745" lon="19.021966"><ele>1073</ele></trkpt>
    <trkpt lat="49.203676" lon="19.021613"><ele>1081</ele></trkpt>
    <trkpt lat="49.203676" lon="19.021253"><ele>1089</ele></trkpt>
    <trkpt lat="49.203645" lon="19.021147"><ele>1091</ele></trkpt>
    <trkpt lat="49.203495" lon="19.020758"><ele>1106</ele></trkpt>
    <trkpt lat="49.203178" lon="19.020330"><ele>1131</ele></trkpt>
    <trkpt lat="49.203094" lon="19.020091"><ele>1143</ele></trkpt>
    <trkpt lat="49.202817" lon="19.019997"><ele>1156</ele></trkpt>
    <trkpt lat="49.202798" lon="19.019946"><ele>1157</ele></trkpt>
    <trkpt lat="49.202899" lon="19.019434"><ele>1165</ele></trkpt>
    <trkpt lat="49.203007" lon="19.019167"><ele>1168</ele></trkpt>
    <trkpt lat="49.203032" lon="19.018941"><ele>1173</ele></trkpt>
    <trkpt lat="49.203188" lon="19.018361"><ele>1181</ele></trkpt>
    <trkpt lat="49.203303" lon="19.017663"><ele>1192</ele></trkpt>
    <trkpt lat="49.203421" lon="19.017194"><ele>1198</ele></trkpt>
    <trkpt lat="49.203555" lon="19.016883"><ele>1200</ele></trkpt>
    <trkpt lat="49.203715" lon="19.016595"><ele>1202</ele></trkpt>
    <trkpt lat="49.203783" lon="19.016547"><ele>1204</ele></trkpt>
    <trkpt lat="49.203805" lon="19.016451"><ele>1205</ele></trkpt>
    <trkpt lat="49.204271" lon="19.015642"><ele>1227</ele></trkpt>
    <trkpt lat="49.203578" lon="19.015261"><ele>1233</ele></trkpt>
    <trkpt lat="49.203172" lon="19.014888"><ele>1244</ele></trkpt>
    <trkpt lat="49.203039" lon="19.014876"><ele>1247</ele></trkpt>
    <trkpt lat="49.202867" lon="19.014722"><ele>1253</ele></trkpt>
    <trkpt lat="49.202774" lon="19.014715"><ele>1256</ele></trkpt>
    <trkpt lat="49.202668" lon="19.014555"><ele>1257</ele></trkpt>
    <trkpt lat="49.201863" lon="19.014373"><ele>1270</ele></trkpt>
    <trkpt lat="49.201412" lon="19.014437"><ele>1276</ele></trkpt>
    <trkpt lat="49.201262" lon="19.014394"><ele>1279</ele></trkpt>
    <trkpt lat="49.201176" lon="19.014459"><ele>1282</ele></trkpt>
    <trkpt lat="49.201005" lon="19.014459"><ele>1287</ele></trkpt>
    <trkpt lat="49.200761" lon="19.014571"><ele>1293</ele></trkpt>
    <trkpt lat="49.200318" lon="19.014630"><ele>1304</ele></trkpt>
    <trkpt lat="49.200125" lon="19.014459"><ele>1308</ele></trkpt>
    <trkpt lat="49.199438" lon="19.014459"><ele>1325</ele></trkpt>
    <trkpt lat="49.199309" lon="19.014394"><ele>1328</ele></trkpt>
    <trkpt lat="49.199288" lon="19.014330"><ele>1327</ele></trkpt>
    <trkpt lat="49.198987" lon="19.014287"><ele>1337</ele></trkpt>
    <trkpt lat="49.198709" lon="19.014502"><ele>1351</ele></trkpt>
    <trkpt lat="49.198408" lon="19.014523"><ele>1363</ele></trkpt>
    <trkpt lat="49.198189" lon="19.014465"><ele>1371</ele></trkpt>
    <trkpt lat="49.198125" lon="19.014354"><ele>1372</ele></trkpt>
    <trkpt lat="49.197968" lon="19.014388"><ele>1377</ele></trkpt>
    <trkpt lat="49.197853" lon="19.014298"><ele>1379</ele></trkpt>
    <trkpt lat="49.197740" lon="19.014401"><ele>1384</ele></trkpt>
    <trkpt lat="49.197349" lon="19.014261"><ele>1395</ele></trkpt>
    <trkpt lat="49.197025" lon="19.014293"><ele>1407</ele></trkpt>
    <trkpt lat="49.196702" lon="19.014252"><ele>1420</ele></trkpt>
    <trkpt lat="49.196544" lon="19.014067"><ele>1427</ele></trkpt>
    <trkpt lat="49.196284" lon="19.014145"><ele>1437</ele></trkpt>
    <trkpt lat="49.196244" lon="19.014211"><ele>1438</ele></trkpt>
    <trkpt lat="49.195991" lon="19.014251"><ele>1446</ele></trkpt>
    <trkpt lat="49.195799" lon="19.014063"><ele>1455</ele></trkpt>
    <trkpt lat="49.195494" lon="19.014000"><ele>1463</ele></trkpt>
    <trkpt lat="49.195419" lon="19.014046"><ele>1463</ele></trkpt>
    <trkpt lat="49.195232" lon="19.014009"><ele>1466</ele></trkpt>
    <trkpt lat="49.195122" lon="19.014060"><ele>1465</ele></trkpt>
    <trkpt lat="49.194983" lon="19.014060"><ele>1467</ele></trkpt>
    <trkpt lat="49.194898" lon="19.013981"><ele>1471</ele></trkpt>
    <trkpt lat="49.194869" lon="19.014039"><ele>1470</ele></trkpt>
    <trkpt lat="49.194824" lon="19.014044"><ele>1471</ele></trkpt>
    <trkpt lat="49.194740" lon="19.013977"><ele>1475</ele></trkpt>
    <trkpt lat="49.194384" lon="19.014110"><ele>1482</ele></trkpt>
    <trkpt lat="49.193941" lon="19.014117"><ele>1495</ele></trkpt>
    <trkpt lat="49.193840" lon="19.014046"><ele>1499</ele></trkpt>
    <trkpt lat="49.193374" lon="19.013944"><ele>1509</ele></trkpt>
    <trkpt lat="49.192920" lon="19.013895"><ele>1515</ele></trkpt>
    <trkpt lat="49.192894" lon="19.013643"><ele>1511</ele></trkpt>
    <trkpt lat="49.192912" lon="19.013441"><ele>1507</ele></trkpt>
    <trkpt lat="49.192978" lon="19.013246"><ele>1505</ele></trkpt>
    <trkpt lat="49.193071" lon="19.012529"><ele>1496</ele></trkpt>
    <trkpt lat="49.193069" lon="19.012210"><ele>1493</ele></trkpt>
    <trkpt lat="49.192937" lon="19.011254"><ele>1484</ele></trkpt>
    <trkpt lat="49.192875" lon="19.011088"><ele>1482</ele></trkpt>
    <trkpt lat="49.192592" lon="19.010667"><ele>1477</ele></trkpt>
    <trkpt lat="49.192372" lon="19.010411"><ele>1473</ele></trkpt>
    <trkpt lat="49.192083" lon="19.009845"><ele>1471</ele></trkpt>
    <trkpt lat="49.191993" lon="19.009540"><ele>1469</ele></trkpt>
    <trkpt lat="49.191912" lon="19.008929"><ele>1467</ele></trkpt>
    <trkpt lat="49.191914" lon="19.008647"><ele>1465</ele></trkpt>
    <trkpt lat="49.192029" lon="19.008046"><ele>1462</ele></trkpt>
    <trkpt lat="49.192108" lon="19.007863"><ele>1463</ele></trkpt>
    <trkpt lat="49.192190" lon="19.007148"><ele>1456</ele></trkpt>
    <trkpt lat="49.192206" lon="19.006053"><ele>1446</ele></trkpt>
    <trkpt lat="49.192096" lon="19.005243"><ele>1442</ele></trkpt>
    <trkpt lat="49.192020" lon="19.005041"><ele>1440</ele></trkpt>
    <trkpt lat="49.191978" lon="19.004770"><ele>1440</ele></trkpt>
    <trkpt lat="49.191827" lon="19.004217"><ele>1437</ele></trkpt>
    <trkpt lat="49.191783" lon="19.004130"><ele>1436</ele></trkpt>
    <trkpt lat="49.191710" lon="19.004085"><ele>1435</ele></trkpt>
    <trkpt lat="49.191429" lon="19.004060"><ele>1436</ele></trkpt>
    <trkpt lat="49.191361" lon="19.003976"><ele>1437</ele></trkpt>
    <trkpt lat="49.191172" lon="19.003864"><ele>1440</ele></trkpt>
    <trkpt lat="49.191054" lon="19.003840"><ele>1442</ele></trkpt>
    <trkpt lat="49.190940" lon="19.003923"><ele>1442</ele></trkpt>
    <trkpt lat="49.190714" lon="19.003805"><ele>1445</ele></trkpt>
    <trkpt lat="49.190628" lon="19.003612"><ele>1448</ele></trkpt>
    <trkpt lat="49.190533" lon="19.003507"><ele>1448</ele></trkpt>
    <trkpt lat="49.188870" lon="19.002588"><ele>1500</ele></trkpt>
    <trkpt lat="49.188601" lon="19.002299"><ele>1512</ele></trkpt>
    <trkpt lat="49.188463" lon="19.002294"><ele>1517</ele></trkpt>
    <trkpt lat="49.188318" lon="19.002191"><ele>1524</ele></trkpt>
    <trkpt lat="49.187913" lon="19.002330"><ele>1539</ele></trkpt>
    <trkpt lat="49.187617" lon="19.002332"><ele>1543</ele></trkpt>
    <trkpt lat="49.187438" lon="19.001931"><ele>1553</ele></trkpt>
    <trkpt lat="49.187355" lon="19.001622"><ele>1553</ele></trkpt>
    <trkpt lat="49.187153" lon="19.001219"><ele>1554</ele></trkpt>
    <trkpt lat="49.186825" lon="19.000737"><ele>1564</ele></trkpt>
    <trkpt lat="49.186697" lon="19.000637"><ele>1569</ele></trkpt>
    <trkpt lat="49.186462" lon="19.000353"><ele>1576</ele></trkpt>
    <trkpt lat="49.186235" lon="18.999953"><ele>1589</ele></trkpt>
    <trkpt lat="49.186065" lon="18.999787"><ele>1586</ele></trkpt>
    <trkpt lat="49.185993" lon="18.999578"><ele>1588</ele></trkpt>
    <trkpt lat="49.185723" lon="18.999194"><ele>1592</ele></trkpt>
    <trkpt lat="49.185620" lon="18.999148"><ele>1591</ele></trkpt>
    <trkpt lat="49.185542" lon="18.998952"><ele>1595</ele></trkpt>
    <trkpt lat="49.185469" lon="18.998860"><ele>1597</ele></trkpt>
    <trkpt lat="49.185232" lon="18.998705"><ele>1597</ele></trkpt>
    <trkpt lat="49.185074" lon="18.998671"><ele>1595</ele></trkpt>
    <trkpt lat="49.184743" lon="18.998366"><ele>1599</ele></trkpt>
    <trkpt lat="49.184666" lon="18.998357"><ele>1601</ele></trkpt>
    <trkpt lat="49.184555" lon="18.998251"><ele>1605</ele></trkpt>
    <trkpt lat="49.184474" lon="18.998268"><ele>1607</ele></trkpt>
    <trkpt lat="49.184302" lon="18.998102"><ele>1614</ele></trkpt>
    <trkpt lat="49.184216" lon="18.998079"><ele>1618</ele></trkpt>
    <trkpt lat="49.184024" lon="18.997902"><ele>1622</ele></trkpt>
    <trkpt lat="49.183864" lon="18.997817"><ele>1626</ele></trkpt>
    <trkpt lat="49.183495" lon="18.997109"><ele>1619</ele></trkpt>
    <trkpt lat="49.183341" lon="18.996610"><ele>1622</ele></trkpt>
    <trkpt lat="49.183241" lon="18.996451"><ele>1621</ele></trkpt>
    <trkpt lat="49.183228" lon="18.996357"><ele>1622</ele></trkpt>
    <trkpt lat="49.182946" lon="18.995624"><ele>1628</ele></trkpt>
    <trkpt lat="49.182885" lon="18.995373"><ele>1630</ele></trkpt>
    <trkpt lat="49.182765" lon="18.995116"><ele>1637</ele></trkpt>
    <trkpt lat="49.182668" lon="18.994592"><ele>1638</ele></trkpt>
    <trkpt lat="49.182526" lon="18.994428"><ele>1642</ele></trkpt>
    <trkpt lat="49.182360" lon="18.994047"><ele>1646</ele></trkpt>
    <trkpt lat="49.182304" lon="18.993786"><ele>1649</ele></trkpt>
    <trkpt lat="49.182003" lon="18.993409"><ele>1652</ele></trkpt>
    <trkpt lat="49.181873" lon="18.993374"><ele>1654</ele></trkpt>
    <trkpt lat="49.181810" lon="18.993301"><ele>1655</ele></trkpt>
    <trkpt lat="49.181645" lon="18.992912"><ele>1654</ele></trkpt>
    <trkpt lat="49.181195" lon="18.992851"><ele>1661</ele></trkpt>
    <trkpt lat="49.181133" lon="18.992896"><ele>1662</ele></trkpt>
    <trkpt lat="49.181106" lon="18.992997"><ele>1663</ele></trkpt>
    <trkpt lat="49.181133" lon="18.992896"><ele>1662</ele></trkpt>
    <trkpt lat="49.181195" lon="18.992851"><ele>1661</ele></trkpt>
    <trkpt lat="49.181645" lon="18.992912"><ele>1654</ele></trkpt>
    <trkpt lat="49.181810" lon="18.993301"><ele>1655</ele></trkpt>
    <trkpt lat="49.181873" lon="18.993374"><ele>1654</ele></trkpt>
    <trkpt lat="49.182003" lon="18.993409"><ele>1652</ele></trkpt>
    <trkpt lat="49.182304" lon="18.993786"><ele>1649</ele></trkpt>
    <trkpt lat="49.182360" lon="18.994047"><ele>1646</ele></trkpt>
    <trkpt lat="49.182526" lon="18.994428"><ele>1642</ele></trkpt>
    <trkpt lat="49.182668" lon="18.994592"><ele>1638</ele></trkpt>
    <trkpt lat="49.182765" lon="18.995116"><ele>1637</ele></trkpt>
    <trkpt lat="49.182885" lon="18.995373"><ele>1630</ele></trkpt>
    <trkpt lat="49.182946" lon="18.995624"><ele>1628</ele></trkpt>
    <trkpt lat="49.183228" lon="18.996357"><ele>1622</ele></trkpt>
    <trkpt lat="49.183241" lon="18.996451"><ele>1621</ele></trkpt>
    <trkpt lat="49.183341" lon="18.996610"><ele>1622</ele></trkpt>
    <trkpt lat="49.183495" lon="18.997109"><ele>1619</ele></trkpt>
    <trkpt lat="49.183864" lon="18.997817"><ele>1626</ele></trkpt>
    <trkpt lat="49.184024" lon="18.997902"><ele>1622</ele></trkpt>
    <trkpt lat="49.184216" lon="18.998079"><ele>1618</ele></trkpt>
    <trkpt lat="49.184302" lon="18.998102"><ele>1614</ele></trkpt>
    <trkpt lat="49.184474" lon="18.998268"><ele>1607</ele></trkpt>
    <trkpt lat="49.184555" lon="18.998251"><ele>1605</ele></trkpt>
    <trkpt lat="49.184666" lon="18.998357"><ele>1601</ele></trkpt>
    <trkpt lat="49.184743" lon="18.998366"><ele>1599</ele></trkpt>
    <trkpt lat="49.185074" lon="18.998671"><ele>1595</ele></trkpt>
    <trkpt lat="49.185232" lon="18.998705"><ele>1597</ele></trkpt>
    <trkpt lat="49.185469" lon="18.998860"><ele>1597</ele></trkpt>
    <trkpt lat="49.185542" lon="18.998952"><ele>1595</ele></trkpt>
    <trkpt lat="49.185620" lon="18.999148"><ele>1591</ele></trkpt>
    <trkpt lat="49.185723" lon="18.999194"><ele>1592</ele></trkpt>
    <trkpt lat="49.185993" lon="18.999578"><ele>1588</ele></trkpt>
    <trkpt lat="49.186065" lon="18.999787"><ele>1586</ele></trkpt>
    <trkpt lat="49.186235" lon="18.999953"><ele>1589</ele></trkpt>
    <trkpt lat="49.186462" lon="19.000353"><ele>1576</ele></trkpt>
    <trkpt lat="49.186697" lon="19.000637"><ele>1569</ele></trkpt>
    <trkpt lat="49.186825" lon="19.000737"><ele>1564</ele></trkpt>
    <trkpt lat="49.187153" lon="19.001219"><ele>1554</ele></trkpt>
    <trkpt lat="49.187355" lon="19.001622"><ele>1553</ele></trkpt>
    <trkpt lat="49.187438" lon="19.001931"><ele>1553</ele></trkpt>
    <trkpt lat="49.187617" lon="19.002332"><ele>1543</ele></trkpt>
    <trkpt lat="49.187913" lon="19.002330"><ele>1539</ele></trkpt>
    <trkpt lat="49.188318" lon="19.002191"><ele>1524</ele></trkpt>
    <trkpt lat="49.188463" lon="19.002294"><ele>1517</ele></trkpt>
    <trkpt lat="49.188601" lon="19.002299"><ele>1512</ele></trkpt>
    <trkpt lat="49.188870" lon="19.002588"><ele>1500</ele></trkpt>
    <trkpt lat="49.190533" lon="19.003507"><ele>1448</ele></trkpt>
    <trkpt lat="49.190628" lon="19.003612"><ele>1448</ele></trkpt>
    <trkpt lat="49.190714" lon="19.003805"><ele>1445</ele></trkpt>
    <trkpt lat="49.190940" lon="19.003923"><ele>1442</ele></trkpt>
    <trkpt lat="49.191054" lon="19.003840"><ele>1442</ele></trkpt>
    <trkpt lat="49.191172" lon="19.003864"><ele>1440</ele></trkpt>
    <trkpt lat="49.191361" lon="19.003976"><ele>1437</ele></trkpt>
    <trkpt lat="49.191429" lon="19.004060"><ele>1436</ele></trkpt>
    <trkpt lat="49.191710" lon="19.004085"><ele>1435</ele></trkpt>
    <trkpt lat="49.191783" lon="19.004130"><ele>1436</ele></trkpt>
    <trkpt lat="49.191827" lon="19.004217"><ele>1437</ele></trkpt>
    <trkpt lat="49.191978" lon="19.004770"><ele>1440</ele></trkpt>
    <trkpt lat="49.192020" lon="19.005041"><ele>1440</ele></trkpt>
    <trkpt lat="49.192096" lon="19.005243"><ele>1442</ele></trkpt>
    <trkpt lat="49.192206" lon="19.006053"><ele>1446</ele></trkpt>
    <trkpt lat="49.192190" lon="19.007148"><ele>1456</ele></trkpt>
    <trkpt lat="49.192108" lon="19.007863"><ele>1463</ele></trkpt>
    <trkpt lat="49.192029" lon="19.008046"><ele>1462</ele></trkpt>
    <trkpt lat="49.191914" lon="19.008647"><ele>1465</ele></trkpt>
    <trkpt lat="49.191912" lon="19.008929"><ele>1467</ele></trkpt>
    <trkpt lat="49.191993" lon="19.009540"><ele>1469</ele></trkpt>
    <trkpt lat="49.192083" lon="19.009845"><ele>1471</ele></trkpt>
    <trkpt lat="49.192372" lon="19.010411"><ele>1473</ele></trkpt>
    <trkpt lat="49.192592" lon="19.010667"><ele>1477</ele></trkpt>
    <trkpt lat="49.192875" lon="19.011088"><ele>1482</ele></trkpt>
    <trkpt lat="49.192937" lon="19.011254"><ele>1484</ele></trkpt>
    <trkpt lat="49.193069" lon="19.012210"><ele>1493</ele></trkpt>
    <trkpt lat="49.193071" lon="19.012529"><ele>1496</ele></trkpt>
    <trkpt lat="49.192978" lon="19.013246"><ele>1505</ele></trkpt>
    <trkpt lat="49.192912" lon="19.013441"><ele>1507</ele></trkpt>
    <trkpt lat="49.192894" lon="19.013643"><ele>1511</ele></trkpt>
    <trkpt lat="49.192920" lon="19.013895"><ele>1515</ele></trkpt>
    <trkpt lat="49.193374" lon="19.013944"><ele>1509</ele></trkpt>
    <trkpt lat="49.193840" lon="19.014046"><ele>1499</ele></trkpt>
    <trkpt lat="49.193941" lon="19.014117"><ele>1495</ele></trkpt>
    <trkpt lat="49.194384" lon="19.014110"><ele>1482</ele></trkpt>
    <trkpt lat="49.194740" lon="19.013977"><ele>1475</ele></trkpt>
    <trkpt lat="49.194824" lon="19.014044"><ele>1471</ele></trkpt>
    <trkpt lat="49.194869" lon="19.014039"><ele>1470</ele></trkpt>
    <trkpt lat="49.194898" lon="19.013981"><ele>1471</ele></trkpt>
    <trkpt lat="49.194983" lon="19.014060"><ele>1467</ele></trkpt>
    <trkpt lat="49.195122" lon="19.014060"><ele>1465</ele></trkpt>
    <trkpt lat="49.195232" lon="19.014009"><ele>1466</ele></trkpt>
    <trkpt lat="49.195419" lon="19.014046"><ele>1463</ele></trkpt>
    <trkpt lat="49.195494" lon="19.014000"><ele>1463</ele></trkpt>
    <trkpt lat="49.195799" lon="19.014063"><ele>1455</ele></trkpt>
    <trkpt lat="49.195991" lon="19.014251"><ele>1446</ele></trkpt>
    <trkpt lat="49.196244" lon="19.014211"><ele>1438</ele></trkpt>
    <trkpt lat="49.196284" lon="19.014145"><ele>1437</ele></trkpt>
    <trkpt lat="49.196544" lon="19.014067"><ele>1427</ele></trkpt>
    <trkpt lat="49.196702" lon="19.014252"><ele>1420</ele></trkpt>
    <trkpt lat="49.197025" lon="19.014293"><ele>1407</ele></trkpt>
    <trkpt lat="49.197349" lon="19.014261"><ele>1395</ele></trkpt>
    <trkpt lat="49.197740" lon="19.014401"><ele>1384</ele></trkpt>
    <trkpt lat="49.197853" lon="19.014298"><ele>1379</ele></trkpt>
    <trkpt lat="49.197968" lon="19.014388"><ele>1377</ele></trkpt>
    <trkpt lat="49.198125" lon="19.014354"><ele>1372</ele></trkpt>
    <trkpt lat="49.198189" lon="19.014465"><ele>1371</ele></trkpt>
    <trkpt lat="49.198408" lon="19.014523"><ele>1363</ele></trkpt>
    <trkpt lat="49.198709" lon="19.014502"><ele>1351</ele></trkpt>
    <trkpt lat="49.198987" lon="19.014287"><ele>1337</ele></trkpt>
    <trkpt lat="49.199288" lon="19.014330"><ele>1327</ele></trkpt>
    <trkpt lat="49.199309" lon="19.014394"><ele>1328</ele></trkpt>
    <trkpt lat="49.199438" lon="19.014459"><ele>1325</ele></trkpt>
    <trkpt lat="49.200125" lon="19.014459"><ele>1308</ele></trkpt>
    <trkpt lat="49.200318" lon="19.014630"><ele>1304</ele></trkpt>
    <trkpt lat="49.200761" lon="19.014571"><ele>1293</ele></trkpt>
    <trkpt lat="49.201005" lon="19.014459"><ele>1287</ele></trkpt>
    <trkpt lat="49.201176" lon="19.014459"><ele>1282</ele></trkpt>
    <trkpt lat="49.201262" lon="19.014394"><ele>1279</ele></trkpt>
    <trkpt lat="49.201412" lon="19.014437"><ele>1276</ele></trkpt>
    <trkpt lat="49.201863" lon="19.014373"><ele>1270</ele></trkpt>
    <trkpt lat="49.202668" lon="19.014555"><ele>1257</ele></trkpt>
    <trkpt lat="49.202774" lon="19.014715"><ele>1256</ele></trkpt>
    <trkpt lat="49.202867" lon="19.014722"><ele>1253</ele></trkpt>
    <trkpt lat="49.203039" lon="19.014876"><ele>1247</ele></trkpt>
    <trkpt lat="49.203172" lon="19.014888"><ele>1244</ele></trkpt>
    <trkpt lat="49.203578" lon="19.015261"><ele>1233</ele></trkpt>
    <trkpt lat="49.204271" lon="19.015642"><ele>1227</ele></trkpt>
    <trkpt lat="49.203805" lon="19.016451"><ele>1205</ele></trkpt>
    <trkpt lat="49.203783" lon="19.016547"><ele>1204</ele></trkpt>
    <trkpt lat="49.203715" lon="19.016595"><ele>1202</ele></trkpt>
    <trkpt lat="49.203555" lon="19.016883"><ele>1200</ele></trkpt>
    <trkpt lat="49.203421" lon="19.017194"><ele>1198</ele></trkpt>
    <trkpt lat="49.203303" lon="19.017663"><ele>1192</ele></trkpt>
    <trkpt lat="49.203188" lon="19.018361"><ele>1181</ele></trkpt>
    <trkpt lat="49.203032" lon="19.018941"><ele>1173</ele></trkpt>
    <trkpt lat="49.203007" lon="19.019167"><ele>1168</ele></trkpt>
    <trkpt lat="49.202899" lon="19.019434"><ele>1165</ele></trkpt>
    <trkpt lat="49.202798" lon="19.019946"><ele>1157</ele></trkpt>
    <trkpt lat="49.202817" lon="19.019997"><ele>1156</ele></trkpt>
    <trkpt lat="49.203094" lon="19.020091"><ele>1143</ele></trkpt>
    <trkpt lat="49.203178" lon="19.020330"><ele>1131</ele></trkpt>
    <trkpt lat="49.203495" lon="19.020758"><ele>1106</ele></trkpt>
    <trkpt lat="49.203645" lon="19.021147"><ele>1091</ele></trkpt>
    <trkpt lat="49.203676" lon="19.021253"><ele>1089</ele></trkpt>
    <trkpt lat="49.203676" lon="19.021613"><ele>1081</ele></trkpt>
    <trkpt lat="49.203745" lon="19.021966"><ele>1073</ele></trkpt>
    <trkpt lat="49.203914" lon="19.022494"><ele>1061</ele></trkpt>
    <trkpt lat="49.204139" lon="19.022999"><ele>1051</ele></trkpt>
    <trkpt lat="49.204152" lon="19.023358"><ele>1041</ele></trkpt>
    <trkpt lat="49.204252" lon="19.023649"><ele>1032</ele></trkpt>
    <trkpt lat="49.204227" lon="19.023882"><ele>1029</ele></trkpt>
    <trkpt lat="49.204104" lon="19.024018"><ele>1029</ele></trkpt>
    <trkpt lat="49.203706" lon="19.024013"><ele>1023</ele></trkpt>
    <trkpt lat="49.203684" lon="19.024085"><ele>1020</ele></trkpt>
    <trkpt lat="49.203763" lon="19.024322"><ele>1012</ele></trkpt>
    <trkpt lat="49.203767" lon="19.024439"><ele>1007</ele></trkpt>
    <trkpt lat="49.203181" lon="19.024245"><ele>988</ele></trkpt>
    <trkpt lat="49.203087" lon="19.024245"><ele>984</ele></trkpt>
    <trkpt lat="49.203074" lon="19.024317"><ele>981</ele></trkpt>
    <trkpt lat="49.203204" lon="19.024568"><ele>977</ele></trkpt>
    <trkpt lat="49.203376" lon="19.025136"><ele>962</ele></trkpt>
    <trkpt lat="49.203554" lon="19.025437"><ele>960</ele></trkpt>
    <trkpt lat="49.203769" lon="19.026109"><ele>940</ele></trkpt>
    <trkpt lat="49.203874" lon="19.026211"><ele>936</ele></trkpt>
    <trkpt lat="49.204041" lon="19.026233"><ele>936</ele></trkpt>
    <trkpt lat="49.204453" lon="19.026621"><ele>922</ele></trkpt>
    <trkpt lat="49.204599" lon="19.026827"><ele>917</ele></trkpt>
    <trkpt lat="49.204766" lon="19.027228"><ele>908</ele></trkpt>
    <trkpt lat="49.205302" lon="19.027785"><ele>893</ele></trkpt>
    <trkpt lat="49.205693" lon="19.028343"><ele>884</ele></trkpt>
    <trkpt lat="49.205817" lon="19.029033"><ele>868</ele></trkpt>
    <trkpt lat="49.206141" lon="19.030016"><ele>847</ele></trkpt>
    <trkpt lat="49.206197" lon="19.030487"><ele>845</ele></trkpt>
    <trkpt lat="49.206336" lon="19.030718"><ele>842</ele></trkpt>
    <trkpt lat="49.206444" lon="19.030812"><ele>841</ele></trkpt>
    <trkpt lat="49.206569" lon="19.031143"><ele>838</ele></trkpt>
    <trkpt lat="49.206818" lon="19.031533"><ele>832</ele></trkpt>
    <trkpt lat="49.207046" lon="19.031743"><ele>829</ele></trkpt>
    <trkpt lat="49.207387" lon="19.032299"><ele>818</ele></trkpt>
    <trkpt lat="49.207830" lon="19.032585"><ele>815</ele></trkpt>
    <trkpt lat="49.208036" lon="19.032844"><ele>809</ele></trkpt>
    <trkpt lat="49.208393" lon="19.033787"><ele>797</ele></trkpt>
    <trkpt lat="49.208679" lon="19.034409"><ele>787</ele></trkpt>
    <trkpt lat="49.208821" lon="19.034547"><ele>785</ele></trkpt>
    <trkpt lat="49.209234" lon="19.034707"><ele>777</ele></trkpt>
    <trkpt lat="49.209329" lon="19.034803"><ele>774</ele></trkpt>
    <trkpt lat="49.209413" lon="19.035004"><ele>766</ele></trkpt>
    <trkpt lat="49.209530" lon="19.035472"><ele>760</ele></trkpt>
    <trkpt lat="49.209909" lon="19.036365"><ele>749</ele></trkpt>
    <trkpt lat="49.210014" lon="19.036857"><ele>743</ele></trkpt>
    <trkpt lat="49.210102" lon="19.037107"><ele>743</ele></trkpt>
    <trkpt lat="49.210673" lon="19.037661"><ele>729</ele></trkpt>
    <trkpt lat="49.210838" lon="19.038023"><ele>725</ele></trkpt>
    <trkpt lat="49.211057" lon="19.038312"><ele>732</ele></trkpt>
    <trkpt lat="49.211585" lon="19.038549"><ele>708</ele></trkpt>
    <trkpt lat="49.212159" lon="19.038452"><ele>695</ele></trkpt>
    <trkpt lat="49.212419" lon="19.038784"><ele>700</ele></trkpt>
  </trkseg></trk>
</gpx>
