<?xml version="1.0" encoding="UTF-8"?>
<gpx version="1.1" creator="MounTour (OpenStreetMap)" xmlns="http://www.topografix.com/GPX/1/1">
  <metadata><name>Marcelov hrad</name><copyright author="OpenStreetMap contributors"><license>https://opendatacommons.org/licenses/odbl/</license></copyright></metadata>
  <trk><name>Marcelov hrad</name><trkseg>
    <trkpt lat="48.970515" lon="20.397507"><ele>537</ele></trkpt>
    <trkpt lat="48.970640" lon="20.397686"><ele>538</ele></trkpt>
    <trkpt lat="48.969854" lon="20.398584"><ele>536</ele></trkpt>
    <trkpt lat="48.969678" lon="20.398883"><ele>536</ele></trkpt>
    <trkpt lat="48.969080" lon="20.400772"><ele>538</ele></trkpt>
    <trkpt lat="48.968777" lon="20.401855"><ele>536</ele></trkpt>
    <trkpt lat="48.968474" lon="20.402623"><ele>535</ele></trkpt>
    <trkpt lat="48.968147" lon="20.403752"><ele>535</ele></trkpt>
    <trkpt lat="48.967647" lon="20.405097"><ele>535</ele></trkpt>
    <trkpt lat="48.967100" lon="20.406217"><ele>535</ele></trkpt>
    <trkpt lat="48.967107" lon="20.406344"><ele>535</ele></trkpt>
    <trkpt lat="48.966986" lon="20.406241"><ele>535</ele></trkpt>
    <trkpt lat="48.966828" lon="20.406194"><ele>535</ele></trkpt>
    <trkpt lat="48.966488" lon="20.406285"><ele>534</ele></trkpt>
    <trkpt lat="48.965383" lon="20.406650"><ele>534</ele></trkpt>
    <trkpt lat="48.965004" lon="20.406875"><ele>534</ele></trkpt>
    <trkpt lat="48.964728" lon="20.407115"><ele>535</ele></trkpt>
    <trkpt lat="48.964609" lon="20.407115"><ele>536</ele></trkpt>
    <trkpt lat="48.964081" lon="20.406875"><ele>537</ele></trkpt>
    <trkpt lat="48.963482" lon="20.406259"><ele>540</ele></trkpt>
    <trkpt lat="48.963003" lon="20.405704"><ele>541</ele></trkpt>
    <trkpt lat="48.962669" lon="20.405421"><ele>544</ele></trkpt>
    <trkpt lat="48.962263" lon="20.405168"><ele>552</ele></trkpt>
    <trkpt lat="48.961507" lon="20.404820"><ele>571</ele></trkpt>
    <trkpt lat="48.960954" lon="20.404711"><ele>594</ele></trkpt>
    <trkpt lat="48.960326" lon="20.404855"><ele>605</ele></trkpt>
    <trkpt lat="48.960057" lon="20.404869"><ele>612</ele></trkpt>
    <trkpt lat="48.959769" lon="20.404939"><ele>619</ele></trkpt>
    <trkpt lat="48.959276" lon="20.405331"><ele>630</ele></trkpt>
    <trkpt lat="48.959218" lon="20.405450"><ele>632</ele></trkpt>
    <trkpt lat="48.959146" lon="20.405863"><ele>639</ele></trkpt>
    <trkpt lat="48.959155" lon="20.406042"><ele>644</ele></trkpt>
    <trkpt lat="48.959007" lon="20.406514"><ele>651</ele></trkpt>
    <trkpt lat="48.959028" lon="20.406753"><ele>655</ele></trkpt>
    <trkpt lat="48.958929" lon="20.407736"><ele>663</ele></trkpt>
    <trkpt lat="48.958960" lon="20.407942"><ele>663</ele></trkpt>
    <trkpt lat="48.958929" lon="20.407736"><ele>663</ele></trkpt>
    <trkpt lat="48.959028" lon="20.406753"><ele>655</ele></trkpt>
    <trkpt lat="48.959007" lon="20.406514"><ele>651</ele></trkpt>
    <trkpt lat="48.959155" lon="20.406042"><ele>644</ele></trkpt>
    <trkpt lat="48.959146" lon="20.405863"><ele>639</ele></trkpt>
    <trkpt lat="48.959218" lon="20.405450"><ele>632</ele></trkpt>
    <trkpt lat="48.959276" lon="20.405331"><ele>630</ele></trkpt>
    <trkpt lat="48.959769" lon="20.404939"><ele>619</ele></trkpt>
    <trkpt lat="48.960057" lon="20.404869"><ele>612</ele></trkpt>
    <trkpt lat="48.960326" lon="20.404855"><ele>605</ele></trkpt>
    <trkpt lat="48.960954" lon="20.404711"><ele>594</ele></trkpt>
    <trkpt lat="48.961507" lon="20.404820"><ele>571</ele></trkpt>
    <trkpt lat="48.962263" lon="20.405168"><ele>552</ele></trkpt>
    <trkpt lat="48.962669" lon="20.405421"><ele>544</ele></trkpt>
    <trkpt lat="48.963003" lon="20.405704"><ele>541</ele></trkpt>
    <trkpt lat="48.963482" lon="20.406259"><ele>540</ele></trkpt>
    <trkpt lat="48.964081" lon="20.406875"><ele>537</ele></trkpt>
    <trkpt lat="48.964609" lon="20.407115"><ele>536</ele></trkpt>
    <trkpt lat="48.964728" lon="20.407115"><ele>535</ele></trkpt>
    <trkpt lat="48.965004" lon="20.406875"><ele>534</ele></trkpt>
    <trkpt lat="48.965383" lon="20.406650"><ele>534</ele></trkpt>
    <trkpt lat="48.966488" lon="20.406285"><ele>534</ele></trkpt>
    <trkpt lat="48.966828" lon="20.406194"><ele>535</ele></trkpt>
    <trkpt lat="48.966986" lon="20.406241"><ele>535</ele></trkpt>
    <trkpt lat="48.967107" lon="20.406344"><ele>535</ele></trkpt>
    <trkpt lat="48.967100" lon="20.406217"><ele>535</ele></trkpt>
    <trkpt lat="48.967647" lon="20.405097"><ele>535</ele></trkpt>
    <trkpt lat="48.968147" lon="20.403752"><ele>535</ele></trkpt>
    <trkpt lat="48.968474" lon="20.402623"><ele>535</ele></trkpt>
    <trkpt lat="48.968777" lon="20.401855"><ele>536</ele></trkpt>
    <trkpt lat="48.969080" lon="20.400772"><ele>538</ele></trkpt>
    <trkpt lat="48.969678" lon="20.398883"><ele>536</ele></trkpt>
    <trkpt lat="48.969854" lon="20.398584"><ele>536</ele></trkpt>
    <trkpt lat="48.970640" lon="20.397686"><ele>538</ele></trkpt>
    <trkpt lat="48.970515" lon="20.397507"><ele>537</ele></trkpt>
  </trkseg></trk>
</gpx>
