<?xml version="1.0" encoding="UTF-8"?>
<gpx version="1.1" creator="MounTour (OpenStreetMap)" xmlns="http://www.topografix.com/GPX/1/1">
  <metadata><name>Medvedia hlava</name><copyright author="OpenStreetMap contributors"><license>https://opendatacommons.org/licenses/odbl/</license></copyright></metadata>
  <trk><name>Medvedia hlava</name><trkseg>
    <trkpt lat="48.931134" lon="20.513071"><ele>546</ele></trkpt>
    <trkpt lat="48.930787" lon="20.512942"><ele>554</ele></trkpt>
    <trkpt lat="48.928905" lon="20.511862"><ele>573</ele></trkpt>
    <trkpt lat="48.928494" lon="20.511709"><ele>578</ele></trkpt>
    <trkpt lat="48.928322" lon="20.511721"><ele>579</ele></trkpt>
    <trkpt lat="48.928210" lon="20.511809"><ele>579</ele></trkpt>
    <trkpt lat="48.927708" lon="20.512533"><ele>589</ele></trkpt>
    <trkpt lat="48.927514" lon="20.512746"><ele>593</ele></trkpt>
    <trkpt lat="48.927307" lon="20.512861"><ele>597</ele></trkpt>
    <trkpt lat="48.927154" lon="20.512887"><ele>599</ele></trkpt>
    <trkpt lat="48.926255" lon="20.512682"><ele>609</ele></trkpt>
    <trkpt lat="48.925784" lon="20.512633"><ele>609</ele></trkpt>
    <trkpt lat="48.925182" lon="20.512741"><ele>610</ele></trkpt>
    <trkpt lat="48.925083" lon="20.512708"><ele>611</ele></trkpt>
    <trkpt lat="48.924969" lon="20.512588"><ele>613</ele></trkpt>
    <trkpt lat="48.924893" lon="20.512427"><ele>615</ele></trkpt>
    <trkpt lat="48.924666" lon="20.511477"><ele>620</ele></trkpt>
    <trkpt lat="48.924263" lon="20.510544"><ele>624</ele></trkpt>
    <trkpt lat="48.924158" lon="20.510198"><ele>622</ele></trkpt>
    <trkpt lat="48.923671" lon="20.507506"><ele>639</ele></trkpt>
    <trkpt lat="48.923542" lon="20.507126"><ele>642</ele></trkpt>
    <trkpt lat="48.923375" lon="20.506783"><ele>643</ele></trkpt>
    <trkpt lat="48.923030" lon="20.506424"><ele>650</ele></trkpt>
    <trkpt lat="48.922647" lon="20.506266"><ele>658</ele></trkpt>
    <trkpt lat="48.922404" lon="20.506250"><ele>664</ele></trkpt>
    <trkpt lat="48.922230" lon="20.506306"><ele>664</ele></trkpt>
    <trkpt lat="48.921778" lon="20.506684"><ele>660</ele></trkpt>
    <trkpt lat="48.921652" lon="20.506716"><ele>660</ele></trkpt>
    <trkpt lat="48.921445" lon="20.506641"><ele>660</ele></trkpt>
    <trkpt lat="48.921095" lon="20.506169"><ele>667</ele></trkpt>
    <trkpt lat="48.920858" lon="20.505922"><ele>670</ele></trkpt>
    <trkpt lat="48.920120" lon="20.504755"><ele>682</ele></trkpt>
    <trkpt lat="48.919840" lon="20.504112"><ele>686</ele></trkpt>
    <trkpt lat="48.919356" lon="20.502800"><ele>691</ele></trkpt>
    <trkpt lat="48.919223" lon="20.502188"><ele>696</ele></trkpt>
    <trkpt lat="48.919120" lon="20.500987"><ele>705</ele></trkpt>
    <trkpt lat="48.918923" lon="20.499890"><ele>714</ele></trkpt>
    <trkpt lat="48.918889" lon="20.499260"><ele>718</ele></trkpt>
    <trkpt lat="48.918649" lon="20.496817"><ele>731</ele></trkpt>
    <trkpt lat="48.918639" lon="20.496116"><ele>737</ele></trkpt>
    <trkpt lat="48.918708" lon="20.495432"><ele>741</ele></trkpt>
    <trkpt lat="48.918819" lon="20.495100"><ele>742</ele></trkpt>
    <trkpt lat="48.919039" lon="20.494768"><ele>746</ele></trkpt>
    <trkpt lat="48.919095" lon="20.494548"><ele>751</ele></trkpt>
    <trkpt lat="48.919040" lon="20.494135"><ele>759</ele></trkpt>
    <trkpt lat="48.918946" lon="20.493869"><ele>758</ele></trkpt>
    <trkpt lat="48.918577" lon="20.493029"><ele>765</ele></trkpt>
    <trkpt lat="48.918421" lon="20.492792"><ele>766</ele></trkpt>
    <trkpt lat="48.918171" lon="20.492530"><ele>768</ele></trkpt>
    <trkpt lat="48.917413" lon="20.491905"><ele>775</ele></trkpt>
    <trkpt lat="48.917212" lon="20.491878"><ele>774</ele></trkpt>
    <trkpt lat="48.916542" lon="20.492147"><ele>779</ele></trkpt>
    <trkpt lat="48.916330" lon="20.492074"><ele>783</ele></trkpt>
    <trkpt lat="48.916223" lon="20.491951"><ele>785</ele></trkpt>
    <trkpt lat="48.915786" lon="20.491008"><ele>796</ele></trkpt>
    <trkpt lat="48.915018" lon="20.490081"><ele>809</ele></trkpt>
    <trkpt lat="48.914810" lon="20.489749"><ele>809</ele></trkpt>
    <trkpt lat="48.914744" lon="20.489400"><ele>811</ele></trkpt>
    <trkpt lat="48.914726" lon="20.488850"><ele>814</ele></trkpt>
    <trkpt lat="48.914662" lon="20.488616"><ele>818</ele></trkpt>
    <trkpt lat="48.914106" lon="20.487329"><ele>818</ele></trkpt>
    <trkpt lat="48.913827" lon="20.487138"><ele>819</ele></trkpt>
    <trkpt lat="48.913763" lon="20.487168"><ele>819</ele></trkpt>
    <trkpt lat="48.913682" lon="20.487264"><ele>820</ele></trkpt>
    <trkpt lat="48.913503" lon="20.487763"><ele>827</ele></trkpt>
    <trkpt lat="48.913419" lon="20.487894"><ele>827</ele></trkpt>
    <trkpt lat="48.913336" lon="20.487992"><ele>827</ele></trkpt>
    <trkpt lat="48.913055" lon="20.488163"><ele>831</ele></trkpt>
    <trkpt lat="48.912983" lon="20.488265"><ele>832</ele></trkpt>
    <trkpt lat="48.912818" lon="20.488660"><ele>834</ele></trkpt>
    <trkpt lat="48.912568" lon="20.489027"><ele>838</ele></trkpt>
    <trkpt lat="48.912361" lon="20.489193"><ele>842</ele></trkpt>
    <trkpt lat="48.912163" lon="20.489459"><ele>847</ele></trkpt>
    <trkpt lat="48.912110" lon="20.489609"><ele>849</ele></trkpt>
    <trkpt lat="48.912039" lon="20.490164"><ele>856</ele></trkpt>
    <trkpt lat="48.911705" lon="20.491073"><ele>875</ele></trkpt>
    <trkpt lat="48.911525" lon="20.491721"><ele>881</ele></trkpt>
    <trkpt lat="48.911363" lon="20.492105"><ele>883</ele></trkpt>
    <trkpt lat="48.910608" lon="20.491808"><ele>899</ele></trkpt>
    <trkpt lat="48.910332" lon="20.491555"><ele>904</ele></trkpt>
    <trkpt lat="48.909846" lon="20.491226"><ele>905</ele></trkpt>
    <trkpt lat="48.909705" lon="20.491295"><ele>905</ele></trkpt>
    <trkpt lat="48.909846" lon="20.491226"><ele>905</ele></trkpt>
    <trkpt lat="48.910332" lon="20.491555"><ele>904</ele></trkpt>
    <trkpt lat="48.910608" lon="20.491808"><ele>899</ele></trkpt>
    <trkpt lat="48.911363" lon="20.492105"><ele>883</ele></trkpt>
    <trkpt lat="48.911525" lon="20.491721"><ele>881</ele></trkpt>
    <trkpt lat="48.911705" lon="20.491073"><ele>875</ele></trkpt>
    <trkpt lat="48.912039" lon="20.490164"><ele>856</ele></trkpt>
    <trkpt lat="48.912110" lon="20.489609"><ele>849</ele></trkpt>
    <trkpt lat="48.912163" lon="20.489459"><ele>847</ele></trkpt>
    <trkpt lat="48.912361" lon="20.489193"><ele>842</ele></trkpt>
    <trkpt lat="48.912568" lon="20.489027"><ele>838</ele></trkpt>
    <trkpt lat="48.912818" lon="20.488660"><ele>834</ele></trkpt>
    <trkpt lat="48.912983" lon="20.488265"><ele>832</ele></trkpt>
    <trkpt lat="48.913055" lon="20.488163"><ele>831</ele></trkpt>
    <trkpt lat="48.913336" lon="20.487992"><ele>827</ele></trkpt>
    <trkpt lat="48.913419" lon="20.487894"><ele>827</ele></trkpt>
    <trkpt lat="48.913503" lon="20.487763"><ele>827</ele></trkpt>
    <trkpt lat="48.913682" lon="20.487264"><ele>820</ele></trkpt>
    <trkpt lat="48.913763" lon="20.487168"><ele>819</ele></trkpt>
    <trkpt lat="48.913827" lon="20.487138"><ele>819</ele></trkpt>
    <trkpt lat="48.914106" lon="20.487329"><ele>818</ele></trkpt>
    <trkpt lat="48.914662" lon="20.488616"><ele>818</ele></trkpt>
    <trkpt lat="48.914726" lon="20.488850"><ele>814</ele></trkpt>
    <trkpt lat="48.914744" lon="20.489400"><ele>811</ele></trkpt>
    <trkpt lat="48.914810" lon="20.489749"><ele>809</ele></trkpt>
    <trkpt lat="48.915018" lon="20.490081"><ele>809</ele></trkpt>
    <trkpt lat="48.915786" lon="20.491008"><ele>796</ele></trkpt>
    <trkpt lat="48.916223" lon="20.491951"><ele>785</ele></trkpt>
    <trkpt lat="48.916330" lon="20.492074"><ele>783</ele></trkpt>
    <trkpt lat="48.916542" lon="20.492147"><ele>779</ele></trkpt>
    <trkpt lat="48.917212" lon="20.491878"><ele>774</ele></trkpt>
    <trkpt lat="48.917413" lon="20.491905"><ele>775</ele></trkpt>
    <trkpt lat="48.918171" lon="20.492530"><ele>768</ele></trkpt>
    <trkpt lat="48.918421" lon="20.492792"><ele>766</ele></trkpt>
    <trkpt lat="48.918577" lon="20.493029"><ele>765</ele></trkpt>
    <trkpt lat="48.918946" lon="20.493869"><ele>758</ele></trkpt>
    <trkpt lat="48.919040" lon="20.494135"><ele>759</ele></trkpt>
    <trkpt lat="48.919095" lon="20.494548"><ele>751</ele></trkpt>
    <trkpt lat="48.919039" lon="20.494768"><ele>746</ele></trkpt>
    <trkpt lat="48.918819" lon="20.495100"><ele>742</ele></trkpt>
    <trkpt lat="48.918708" lon="20.495432"><ele>741</ele></trkpt>
    <trkpt lat="48.918639" lon="20.496116"><ele>737</ele></trkpt>
    <trkpt lat="48.918649" lon="20.496817"><ele>731</ele></trkpt>
    <trkpt lat="48.918889" lon="20.499260"><ele>718</ele></trkpt>
    <trkpt lat="48.918923" lon="20.499890"><ele>714</ele></trkpt>
    <trkpt lat="48.919120" lon="20.500987"><ele>705</ele></trkpt>
    <trkpt lat="48.919223" lon="20.502188"><ele>696</ele></trkpt>
    <trkpt lat="48.919356" lon="20.502800"><ele>691</ele></trkpt>
    <trkpt lat="48.919840" lon="20.504112"><ele>686</ele></trkpt>
    <trkpt lat="48.920120" lon="20.504755"><ele>682</ele></trkpt>
    <trkpt lat="48.920858" lon="20.505922"><ele>670</ele></trkpt>
    <trkpt lat="48.921095" lon="20.506169"><ele>667</ele></trkpt>
    <trkpt lat="48.921445" lon="20.506641"><ele>660</ele></trkpt>
    <trkpt lat="48.921652" lon="20.506716"><ele>660</ele></trkpt>
    <trkpt lat="48.921778" lon="20.506684"><ele>660</ele></trkpt>
    <trkpt lat="48.922230" lon="20.506306"><ele>664</ele></trkpt>
    <trkpt lat="48.922404" lon="20.506250"><ele>664</ele></trkpt>
    <trkpt lat="48.922647" lon="20.506266"><ele>658</ele></trkpt>
    <trkpt lat="48.923030" lon="20.506424"><ele>650</ele></trkpt>
    <trkpt lat="48.923375" lon="20.506783"><ele>643</ele></trkpt>
    <trkpt lat="48.923542" lon="20.507126"><ele>642</ele></trkpt>
    <trkpt lat="48.923671" lon="20.507506"><ele>639</ele></trkpt>
    <trkpt lat="48.924158" lon="20.510198"><ele>622</ele></trkpt>
    <trkpt lat="48.924263" lon="20.510544"><ele>624</ele></trkpt>
    <trkpt lat="48.924666" lon="20.511477"><ele>620</ele></trkpt>
    <trkpt lat="48.924893" lon="20.512427"><ele>615</ele></trkpt>
    <trkpt lat="48.924969" lon="20.512588"><ele>613</ele></trkpt>
    <trkpt lat="48.925083" lon="20.512708"><ele>611</ele></trkpt>
    <trkpt lat="48.925182" lon="20.512741"><ele>610</ele></trkpt>
    <trkpt lat="48.925784" lon="20.512633"><ele>609</ele></trkpt>
    <trkpt lat="48.926255" lon="20.512682"><ele>609</ele></trkpt>
    <trkpt lat="48.927154" lon="20.512887"><ele>599</ele></trkpt>
    <trkpt lat="48.927307" lon="20.512861"><ele>597</ele></trkpt>
    <trkpt lat="48.927514" lon="20.512746"><ele>593</ele></trkpt>
    <trkpt lat="48.927708" lon="20.512533"><ele>589</ele></trkpt>
    <trkpt lat="48.928210" lon="20.511809"><ele>579</ele></trkpt>
    <trkpt lat="48.928322" lon="20.511721"><ele>579</ele></trkpt>
    <trkpt lat="48.928494" lon="20.511709"><ele>578</ele></trkpt>
    <trkpt lat="48.928905" lon="20.511862"><ele>573</ele></trkpt>
    <trkpt lat="48.930787" lon="20.512942"><ele>554</ele></trkpt>
    <trkpt lat="48.931134" lon="20.513071"><ele>546</ele></trkpt>
  </trkseg></trk>
</gpx>
