<?xml version="1.0" encoding="UTF-8"?>
<gpx version="1.1" creator="MounTour (OpenStreetMap)" xmlns="http://www.topografix.com/GPX/1/1">
  <metadata><name>Minčol</name><copyright author="OpenStreetMap contributors"><license>https://opendatacommons.org/licenses/odbl/</license></copyright></metadata>
  <trk><name>Minčol</name><trkseg>
    <trkpt lat="49.267873" lon="19.267404"><ele>1105</ele></trkpt>
    <trkpt lat="49.268091" lon="19.267627"><ele>1107</ele></trkpt>
    <trkpt lat="49.268212" lon="19.267679"><ele>1112</ele></trkpt>
    <trkpt lat="49.268259" lon="19.267651"><ele>1115</ele></trkpt>
    <trkpt lat="49.268310" lon="19.267470"><ele>1120</ele></trkpt>
    <trkpt lat="49.268235" lon="19.266811"><ele>1125</ele></trkpt>
    <trkpt lat="49.268298" lon="19.266731"><ele>1128</ele></trkpt>
    <trkpt lat="49.268659" lon="19.266616"><ele>1139</ele></trkpt>
    <trkpt lat="49.268810" lon="19.266509"><ele>1142</ele></trkpt>
    <trkpt lat="49.269359" lon="19.265929"><ele>1169</ele></trkpt>
    <trkpt lat="49.269291" lon="19.265705"><ele>1172</ele></trkpt>
    <trkpt lat="49.269454" lon="19.265681"><ele>1180</ele></trkpt>
    <trkpt lat="49.269698" lon="19.265393"><ele>1201</ele></trkpt>
    <trkpt lat="49.269779" lon="19.265253"><ele>1207</ele></trkpt>
    <trkpt lat="49.269934" lon="19.264703"><ele>1221</ele></trkpt>
    <trkpt lat="49.270034" lon="19.264508"><ele>1228</ele></trkpt>
    <trkpt lat="49.270092" lon="19.264052"><ele>1239</ele></trkpt>
    <trkpt lat="49.270356" lon="19.263266"><ele>1264</ele></trkpt>
    <trkpt lat="49.270561" lon="19.263231"><ele>1273</ele></trkpt>
    <trkpt lat="49.270955" lon="19.262920"><ele>1284</ele></trkpt>
    <trkpt lat="49.271256" lon="19.262804"><ele>1292</ele></trkpt>
    <trkpt lat="49.271422" lon="19.262595"><ele>1297</ele></trkpt>
    <trkpt lat="49.271961" lon="19.262114"><ele>1306</ele></trkpt>
    <trkpt lat="49.271816" lon="19.261404"><ele>1308</ele></trkpt>
    <trkpt lat="49.271777" lon="19.260956"><ele>1310</ele></trkpt>
    <trkpt lat="49.271806" lon="19.260772"><ele>1311</ele></trkpt>
    <trkpt lat="49.271796" lon="19.260424"><ele>1312</ele></trkpt>
    <trkpt lat="49.271895" lon="19.259698"><ele>1315</ele></trkpt>
    <trkpt lat="49.271898" lon="19.259213"><ele>1318</ele></trkpt>
    <trkpt lat="49.271840" lon="19.258580"><ele>1321</ele></trkpt>
    <trkpt lat="49.271924" lon="19.258288"><ele>1323</ele></trkpt>
    <trkpt lat="49.271934" lon="19.258035"><ele>1325</ele></trkpt>
    <trkpt lat="49.271991" lon="19.257712"><ele>1326</ele></trkpt>
    <trkpt lat="49.271895" lon="19.256643"><ele>1334</ele></trkpt>
    <trkpt lat="49.271900" lon="19.256387"><ele>1336</ele></trkpt>
    <trkpt lat="49.271747" lon="19.255646"><ele>1342</ele></trkpt>
    <trkpt lat="49.271666" lon="19.255428"><ele>1344</ele></trkpt>
    <trkpt lat="49.271549" lon="19.254881"><ele>1349</ele></trkpt>
    <trkpt lat="49.271433" lon="19.253964"><ele>1359</ele></trkpt>
    <trkpt lat="49.271293" lon="19.253521"><ele>1364</ele></trkpt>
    <trkpt lat="49.271531" lon="19.252034"><ele>1379</ele></trkpt>
    <trkpt lat="49.271586" lon="19.251510"><ele>1383</ele></trkpt>
    <trkpt lat="49.271600" lon="19.251219"><ele>1385</ele></trkpt>
    <trkpt lat="49.271532" lon="19.250318"><ele>1388</ele></trkpt>
    <trkpt lat="49.271627" lon="19.249525"><ele>1393</ele></trkpt>
    <trkpt lat="49.271598" lon="19.249315"><ele>1394</ele></trkpt>
    <trkpt lat="49.271817" lon="19.248507"><ele>1393</ele></trkpt>
    <trkpt lat="49.271598" lon="19.249315"><ele>1394</ele></trkpt>
    <trkpt lat="49.271627" lon="19.249525"><ele>1393</ele></trkpt>
    <trkpt lat="49.271532" lon="19.250318"><ele>1388</ele></trkpt>
    <trkpt lat="49.271600" lon="19.251219"><ele>1385</ele></trkpt>
    <trkpt lat="49.271586" lon="19.251510"><ele>1383</ele></trkpt>
    <trkpt lat="49.271531" lon="19.252034"><ele>1379</ele></trkpt>
    <trkpt lat="49.271293" lon="19.253521"><ele>1364</ele></trkpt>
    <trkpt lat="49.271433" lon="19.253964"><ele>1359</ele></trkpt>
    <trkpt lat="49.271549" lon="19.254881"><ele>1349</ele></trkpt>
    <trkpt lat="49.271666" lon="19.255428"><ele>1344</ele></trkpt>
    <trkpt lat="49.271747" lon="19.255646"><ele>1342</ele></trkpt>
    <trkpt lat="49.271900" lon="19.256387"><ele>1336</ele></trkpt>
    <trkpt lat="49.271895" lon="19.256643"><ele>1334</ele></trkpt>
    <trkpt lat="49.271991" lon="19.257712"><ele>1326</ele></trkpt>
    <trkpt lat="49.271934" lon="19.258035"><ele>1325</ele></trkpt>
    <trkpt lat="49.271924" lon="19.258288"><ele>1323</ele></trkpt>
    <trkpt lat="49.271840" lon="19.258580"><ele>1321</ele></trkpt>
    <trkpt lat="49.271898" lon="19.259213"><ele>1318</ele></trkpt>
    <trkpt lat="49.271895" lon="19.259698"><ele>1315</ele></trkpt>
    <trkpt lat="49.271796" lon="19.260424"><ele>1312</ele></trkpt>
    <trkpt lat="49.271806" lon="19.260772"><ele>1311</ele></trkpt>
    <trkpt lat="49.271777" lon="19.260956"><ele>1310</ele></trkpt>
    <trkpt lat="49.271816" lon="19.261404"><ele>1308</ele></trkpt>
    <trkpt lat="49.271961" lon="19.262114"><ele>1306</ele></trkpt>
    <trkpt lat="49.271422" lon="19.262595"><ele>1297</ele></trkpt>
    <trkpt lat="49.271256" lon="19.262804"><ele>1292</ele></trkpt>
    <trkpt lat="49.270955" lon="19.262920"><ele>1284</ele></trkpt>
    <trkpt lat="49.270561" lon="19.263231"><ele>1273</ele></trkpt>
    <trkpt lat="49.270356" lon="19.263266"><ele>1264</ele></trkpt>
    <trkpt lat="49.270092" lon="19.264052"><ele>1239</ele></trkpt>
    <trkpt lat="49.270034" lon="19.264508"><ele>1228</ele></trkpt>
    <trkpt lat="49.269934" lon="19.264703"><ele>1221</ele></trkpt>
    <trkpt lat="49.269779" lon="19.265253"><ele>1207</ele></trkpt>
    <trkpt lat="49.269698" lon="19.265393"><ele>1201</ele></trkpt>
    <trkpt lat="49.269454" lon="19.265681"><ele>1180</ele></trkpt>
    <trkpt lat="49.269291" lon="19.265705"><ele>1172</ele></trkpt>
    <trkpt lat="49.269359" lon="19.265929"><ele>1169</ele></trkpt>
    <trkpt lat="49.268810" lon="19.266509"><ele>1142</ele></trkpt>
    <trkpt lat="49.268659" lon="19.266616"><ele>1139</ele></trkpt>
    <trkpt lat="49.268298" lon="19.266731"><ele>1128</ele></trkpt>
    <trkpt lat="49.268235" lon="19.266811"><ele>1125</ele></trkpt>
    <trkpt lat="49.268310" lon="19.267470"><ele>1120</ele></trkpt>
    <trkpt lat="49.268259" lon="19.267651"><ele>1115</ele></trkpt>
    <trkpt lat="49.268212" lon="19.267679"><ele>1112</ele></trkpt>
    <trkpt lat="49.268091" lon="19.267627"><ele>1107</ele></trkpt>
    <trkpt lat="49.267873" lon="19.267404"><ele>1105</ele></trkpt>
  </trkseg></trk>
</gpx>
