<?xml version="1.0" encoding="UTF-8"?>
<gpx version="1.1" creator="MounTour (OpenStreetMap)" xmlns="http://www.topografix.com/GPX/1/1">
  <metadata><name>Minčol</name><copyright author="OpenStreetMap contributors"><license>https://opendatacommons.org/licenses/odbl/</license></copyright></metadata>
  <trk><name>Minčol</name><trkseg>
    <trkpt lat="49.094479" lon="18.833898"><ele>1261</ele></trkpt>
    <trkpt lat="49.094793" lon="18.833701"><ele>1266</ele></trkpt>
    <trkpt lat="49.094969" lon="18.832836"><ele>1281</ele></trkpt>
    <trkpt lat="49.095099" lon="18.832414"><ele>1282</ele></trkpt>
    <trkpt lat="49.095002" lon="18.830983"><ele>1307</ele></trkpt>
    <trkpt lat="49.094811" lon="18.830091"><ele>1321</ele></trkpt>
    <trkpt lat="49.094807" lon="18.829894"><ele>1324</ele></trkpt>
    <trkpt lat="49.094684" lon="18.829024"><ele>1338</ele></trkpt>
    <trkpt lat="49.094676" lon="18.828400"><ele>1347</ele></trkpt>
    <trkpt lat="49.094760" lon="18.827353"><ele>1362</ele></trkpt>
    <trkpt lat="49.095125" lon="18.826357"><ele>1377</ele></trkpt>
    <trkpt lat="49.095232" lon="18.826239"><ele>1380</ele></trkpt>
    <trkpt lat="49.095885" lon="18.823074"><ele>1442</ele></trkpt>
    <trkpt lat="49.095870" lon="18.822775"><ele>1442</ele></trkpt>
    <trkpt lat="49.095819" lon="18.822653"><ele>1442</ele></trkpt>
    <trkpt lat="49.095832" lon="18.822564"><ele>1442</ele></trkpt>
    <trkpt lat="49.096059" lon="18.821942"><ele>1441</ele></trkpt>
    <trkpt lat="49.096181" lon="18.821741"><ele>1443</ele></trkpt>
    <trkpt lat="49.096059" lon="18.820989"><ele>1443</ele></trkpt>
    <trkpt lat="49.095955" lon="18.820749"><ele>1443</ele></trkpt>
    <trkpt lat="49.096254" lon="18.819734"><ele>1449</ele></trkpt>
    <trkpt lat="49.096378" lon="18.819447"><ele>1451</ele></trkpt>
    <trkpt lat="49.096187" lon="18.818247"><ele>1453</ele></trkpt>
    <trkpt lat="49.096297" lon="18.818067"><ele>1453</ele></trkpt>
    <trkpt lat="49.096629" lon="18.818192"><ele>1454</ele></trkpt>
    <trkpt lat="49.096731" lon="18.818170"><ele>1454</ele></trkpt>
    <trkpt lat="49.097799" lon="18.817809"><ele>1449</ele></trkpt>
    <trkpt lat="49.098013" lon="18.817579"><ele>1446</ele></trkpt>
    <trkpt lat="49.098220" lon="18.817472"><ele>1443</ele></trkpt>
    <trkpt lat="49.098745" lon="18.817384"><ele>1438</ele></trkpt>
    <trkpt lat="49.099123" lon="18.817238"><ele>1436</ele></trkpt>
    <trkpt lat="49.099216" lon="18.817231"><ele>1435</ele></trkpt>
    <trkpt lat="49.099409" lon="18.817356"><ele>1434</ele></trkpt>
    <trkpt lat="49.099486" lon="18.817365"><ele>1433</ele></trkpt>
    <trkpt lat="49.099866" lon="18.817292"><ele>1434</ele></trkpt>
    <trkpt lat="49.100010" lon="18.817375"><ele>1434</ele></trkpt>
    <trkpt lat="49.100961" lon="18.817638"><ele>1430</ele></trkpt>
    <trkpt lat="49.101346" lon="18.817693"><ele>1425</ele></trkpt>
    <trkpt lat="49.102143" lon="18.817661"><ele>1409</ele></trkpt>
    <trkpt lat="49.102524" lon="18.817805"><ele>1402</ele></trkpt>
    <trkpt lat="49.103380" lon="18.818352"><ele>1399</ele></trkpt>
    <trkpt lat="49.104953" lon="18.819182"><ele>1406</ele></trkpt>
    <trkpt lat="49.105210" lon="18.819484"><ele>1403</ele></trkpt>
    <trkpt lat="49.105455" lon="18.819956"><ele>1399</ele></trkpt>
    <trkpt lat="49.106453" lon="18.820991"><ele>1391</ele></trkpt>
    <trkpt lat="49.107288" lon="18.821544"><ele>1382</ele></trkpt>
    <trkpt lat="49.107891" lon="18.822046"><ele>1376</ele></trkpt>
    <trkpt lat="49.108117" lon="18.822190"><ele>1374</ele></trkpt>
    <trkpt lat="49.108715" lon="18.822452"><ele>1360</ele></trkpt>
    <trkpt lat="49.109007" lon="18.822493"><ele>1355</ele></trkpt>
    <trkpt lat="49.109529" lon="18.822450"><ele>1343</ele></trkpt>
    <trkpt lat="49.109658" lon="18.822415"><ele>1340</ele></trkpt>
    <trkpt lat="49.109822" lon="18.822286"><ele>1335</ele></trkpt>
    <trkpt lat="49.110154" lon="18.822273"><ele>1327</ele></trkpt>
    <trkpt lat="49.110895" lon="18.822394"><ele>1314</ele></trkpt>
    <trkpt lat="49.111469" lon="18.822944"><ele>1314</ele></trkpt>
    <trkpt lat="49.111893" lon="18.823441"><ele>1314</ele></trkpt>
    <trkpt lat="49.113424" lon="18.824486"><ele>1312</ele></trkpt>
    <trkpt lat="49.113813" lon="18.824578"><ele>1309</ele></trkpt>
    <trkpt lat="49.113909" lon="18.824651"><ele>1308</ele></trkpt>
    <trkpt lat="49.114191" lon="18.825156"><ele>1302</ele></trkpt>
    <trkpt lat="49.114564" lon="18.825624"><ele>1296</ele></trkpt>
    <trkpt lat="49.114816" lon="18.825878"><ele>1290</ele></trkpt>
    <trkpt lat="49.115280" lon="18.826534"><ele>1287</ele></trkpt>
    <trkpt lat="49.115999" lon="18.827340"><ele>1298</ele></trkpt>
    <trkpt lat="49.116081" lon="18.827342"><ele>1300</ele></trkpt>
    <trkpt lat="49.116272" lon="18.827243"><ele>1302</ele></trkpt>
    <trkpt lat="49.116480" lon="18.827302"><ele>1302</ele></trkpt>
    <trkpt lat="49.116847" lon="18.827629"><ele>1303</ele></trkpt>
    <trkpt lat="49.117280" lon="18.827852"><ele>1299</ele></trkpt>
    <trkpt lat="49.117522" lon="18.828153"><ele>1298</ele></trkpt>
    <trkpt lat="49.117739" lon="18.828259"><ele>1293</ele></trkpt>
    <trkpt lat="49.118130" lon="18.828363"><ele>1285</ele></trkpt>
    <trkpt lat="49.118258" lon="18.828324"><ele>1283</ele></trkpt>
    <trkpt lat="49.118897" lon="18.828380"><ele>1273</ele></trkpt>
    <trkpt lat="49.119622" lon="18.828303"><ele>1264</ele></trkpt>
    <trkpt lat="49.120100" lon="18.828185"><ele>1262</ele></trkpt>
    <trkpt lat="49.120588" lon="18.828145"><ele>1269</ele></trkpt>
    <trkpt lat="49.120935" lon="18.827975"><ele>1275</ele></trkpt>
    <trkpt lat="49.122371" lon="18.827667"><ele>1313</ele></trkpt>
    <trkpt lat="49.122453" lon="18.827604"><ele>1315</ele></trkpt>
    <trkpt lat="49.122998" lon="18.827513"><ele>1332</ele></trkpt>
    <trkpt lat="49.123272" lon="18.827350"><ele>1342</ele></trkpt>
    <trkpt lat="49.123605" lon="18.827272"><ele>1352</ele></trkpt>
    <trkpt lat="49.123840" lon="18.827236"><ele>1357</ele></trkpt>
    <trkpt lat="49.124046" lon="18.827282"><ele>1359</ele></trkpt>
    <trkpt lat="49.123840" lon="18.827236"><ele>1357</ele></trkpt>
    <trkpt lat="49.123605" lon="18.827272"><ele>1352</ele></trkpt>
    <trkpt lat="49.123272" lon="18.827350"><ele>1342</ele></trkpt>
    <trkpt lat="49.122998" lon="18.827513"><ele>1332</ele></trkpt>
    <trkpt lat="49.122453" lon="18.827604"><ele>1315</ele></trkpt>
    <trkpt lat="49.122371" lon="18.827667"><ele>1313</ele></trkpt>
    <trkpt lat="49.120935" lon="18.827975"><ele>1275</ele></trkpt>
    <trkpt lat="49.120588" lon="18.828145"><ele>1269</ele></trkpt>
    <trkpt lat="49.120100" lon="18.828185"><ele>1262</ele></trkpt>
    <trkpt lat="49.119622" lon="18.828303"><ele>1264</ele></trkpt>
    <trkpt lat="49.118897" lon="18.828380"><ele>1273</ele></trkpt>
    <trkpt lat="49.118258" lon="18.828324"><ele>1283</ele></trkpt>
    <trkpt lat="49.118130" lon="18.828363"><ele>1285</ele></trkpt>
    <trkpt lat="49.117739" lon="18.828259"><ele>1293</ele></trkpt>
    <trkpt lat="49.117522" lon="18.828153"><ele>1298</ele></trkpt>
    <trkpt lat="49.117280" lon="18.827852"><ele>1299</ele></trkpt>
    <trkpt lat="49.116847" lon="18.827629"><ele>1303</ele></trkpt>
    <trkpt lat="49.116480" lon="18.827302"><ele>1302</ele></trkpt>
    <trkpt lat="49.116272" lon="18.827243"><ele>1302</ele></trkpt>
    <trkpt lat="49.116081" lon="18.827342"><ele>1300</ele></trkpt>
    <trkpt lat="49.115999" lon="18.827340"><ele>1298</ele></trkpt>
    <trkpt lat="49.115280" lon="18.826534"><ele>1287</ele></trkpt>
    <trkpt lat="49.114816" lon="18.825878"><ele>1290</ele></trkpt>
    <trkpt lat="49.114564" lon="18.825624"><ele>1296</ele></trkpt>
    <trkpt lat="49.114191" lon="18.825156"><ele>1302</ele></trkpt>
    <trkpt lat="49.113909" lon="18.824651"><ele>1308</ele></trkpt>
    <trkpt lat="49.113813" lon="18.824578"><ele>1309</ele></trkpt>
    <trkpt lat="49.113424" lon="18.824486"><ele>1312</ele></trkpt>
    <trkpt lat="49.111893" lon="18.823441"><ele>1314</ele></trkpt>
    <trkpt lat="49.111469" lon="18.822944"><ele>1314</ele></trkpt>
    <trkpt lat="49.110895" lon="18.822394"><ele>1314</ele></trkpt>
    <trkpt lat="49.110154" lon="18.822273"><ele>1327</ele></trkpt>
    <trkpt lat="49.109822" lon="18.822286"><ele>1335</ele></trkpt>
    <trkpt lat="49.109658" lon="18.822415"><ele>1340</ele></trkpt>
    <trkpt lat="49.109529" lon="18.822450"><ele>1343</ele></trkpt>
    <trkpt lat="49.109007" lon="18.822493"><ele>1355</ele></trkpt>
    <trkpt lat="49.108715" lon="18.822452"><ele>1360</ele></trkpt>
    <trkpt lat="49.108117" lon="18.822190"><ele>1374</ele></trkpt>
    <trkpt lat="49.107891" lon="18.822046"><ele>1376</ele></trkpt>
    <trkpt lat="49.107288" lon="18.821544"><ele>1382</ele></trkpt>
    <trkpt lat="49.106453" lon="18.820991"><ele>1391</ele></trkpt>
    <trkpt lat="49.105455" lon="18.819956"><ele>1399</ele></trkpt>
    <trkpt lat="49.105210" lon="18.819484"><ele>1403</ele></trkpt>
    <trkpt lat="49.104953" lon="18.819182"><ele>1406</ele></trkpt>
    <trkpt lat="49.103380" lon="18.818352"><ele>1399</ele></trkpt>
    <trkpt lat="49.102524" lon="18.817805"><ele>1402</ele></trkpt>
    <trkpt lat="49.102143" lon="18.817661"><ele>1409</ele></trkpt>
    <trkpt lat="49.101346" lon="18.817693"><ele>1425</ele></trkpt>
    <trkpt lat="49.100961" lon="18.817638"><ele>1430</ele></trkpt>
    <trkpt lat="49.100010" lon="18.817375"><ele>1434</ele></trkpt>
    <trkpt lat="49.099866" lon="18.817292"><ele>1434</ele></trkpt>
    <trkpt lat="49.099486" lon="18.817365"><ele>1433</ele></trkpt>
    <trkpt lat="49.099409" lon="18.817356"><ele>1434</ele></trkpt>
    <trkpt lat="49.099216" lon="18.817231"><ele>1435</ele></trkpt>
    <trkpt lat="49.099123" lon="18.817238"><ele>1436</ele></trkpt>
    <trkpt lat="49.098745" lon="18.817384"><ele>1438</ele></trkpt>
    <trkpt lat="49.098220" lon="18.817472"><ele>1443</ele></trkpt>
    <trkpt lat="49.098013" lon="18.817579"><ele>1446</ele></trkpt>
    <trkpt lat="49.097799" lon="18.817809"><ele>1449</ele></trkpt>
    <trkpt lat="49.096731" lon="18.818170"><ele>1454</ele></trkpt>
    <trkpt lat="49.096629" lon="18.818192"><ele>1454</ele></trkpt>
    <trkpt lat="49.096297" lon="18.818067"><ele>1453</ele></trkpt>
    <trkpt lat="49.096187" lon="18.818247"><ele>1453</ele></trkpt>
    <trkpt lat="49.096378" lon="18.819447"><ele>1451</ele></trkpt>
    <trkpt lat="49.096254" lon="18.819734"><ele>1449</ele></trkpt>
    <trkpt lat="49.095955" lon="18.820749"><ele>1443</ele></trkpt>
    <trkpt lat="49.096059" lon="18.820989"><ele>1443</ele></trkpt>
    <trkpt lat="49.096181" lon="18.821741"><ele>1443</ele></trkpt>
    <trkpt lat="49.096059" lon="18.821942"><ele>1441</ele></trkpt>
    <trkpt lat="49.095832" lon="18.822564"><ele>1442</ele></trkpt>
    <trkpt lat="49.095819" lon="18.822653"><ele>1442</ele></trkpt>
    <trkpt lat="49.095870" lon="18.822775"><ele>1442</ele></trkpt>
    <trkpt lat="49.095885" lon="18.823074"><ele>1442</ele></trkpt>
    <trkpt lat="49.095232" lon="18.826239"><ele>1380</ele></trkpt>
    <trkpt lat="49.095125" lon="18.826357"><ele>1377</ele></trkpt>
    <trkpt lat="49.094760" lon="18.827353"><ele>1362</ele></trkpt>
    <trkpt lat="49.094676" lon="18.828400"><ele>1347</ele></trkpt>
    <trkpt lat="49.094684" lon="18.829024"><ele>1338</ele></trkpt>
    <trkpt lat="49.094807" lon="18.829894"><ele>1324</ele></trkpt>
    <trkpt lat="49.094811" lon="18.830091"><ele>1321</ele></trkpt>
    <trkpt lat="49.095002" lon="18.830983"><ele>1307</ele></trkpt>
    <trkpt lat="49.095099" lon="18.832414"><ele>1282</ele></trkpt>
    <trkpt lat="49.094969" lon="18.832836"><ele>1281</ele></trkpt>
    <trkpt lat="49.094793" lon="18.833701"><ele>1266</ele></trkpt>
    <trkpt lat="49.094479" lon="18.833898"><ele>1261</ele></trkpt>
  </trkseg></trk>
</gpx>
