<?xml version="1.0" encoding="UTF-8"?>
<gpx version="1.1" creator="MounTour (OpenStreetMap)" xmlns="http://www.topografix.com/GPX/1/1">
  <metadata><name>Mohyla generála Milana Rastislava Štefánika</name><copyright author="OpenStreetMap contributors"><license>https://opendatacommons.org/licenses/odbl/</license></copyright></metadata>
  <trk><name>Mohyla generála Milana Rastislava Štefánika</name><trkseg>
    <trkpt lat="48.672925" lon="17.581479"><ele>314</ele></trkpt>
    <trkpt lat="48.673065" lon="17.581362"><ele>313</ele></trkpt>
    <trkpt lat="48.673132" lon="17.581103"><ele>313</ele></trkpt>
    <trkpt lat="48.673280" lon="17.581060"><ele>313</ele></trkpt>
    <trkpt lat="48.674021" lon="17.581025"><ele>318</ele></trkpt>
    <trkpt lat="48.674487" lon="17.581068"><ele>323</ele></trkpt>
    <trkpt lat="48.674783" lon="17.580953"><ele>330</ele></trkpt>
    <trkpt lat="48.675647" lon="17.580880"><ele>343</ele></trkpt>
    <trkpt lat="48.676446" lon="17.580969"><ele>362</ele></trkpt>
    <trkpt lat="48.676653" lon="17.581038"><ele>370</ele></trkpt>
    <trkpt lat="48.676752" lon="17.580965"><ele>376</ele></trkpt>
    <trkpt lat="48.676785" lon="17.580834"><ele>377</ele></trkpt>
    <trkpt lat="48.676724" lon="17.580599"><ele>374</ele></trkpt>
    <trkpt lat="48.676784" lon="17.580220"><ele>373</ele></trkpt>
    <trkpt lat="48.676961" lon="17.580106"><ele>378</ele></trkpt>
    <trkpt lat="48.677061" lon="17.579898"><ele>379</ele></trkpt>
    <trkpt lat="48.677122" lon="17.579848"><ele>381</ele></trkpt>
    <trkpt lat="48.677591" lon="17.579948"><ele>391</ele></trkpt>
    <trkpt lat="48.677952" lon="17.579972"><ele>399</ele></trkpt>
    <trkpt lat="48.678239" lon="17.579898"><ele>407</ele></trkpt>
    <trkpt lat="48.678322" lon="17.579924"><ele>410</ele></trkpt>
    <trkpt lat="48.678596" lon="17.580165"><ele>420</ele></trkpt>
    <trkpt lat="48.678885" lon="17.580218"><ele>432</ele></trkpt>
    <trkpt lat="48.679155" lon="17.580140"><ele>438</ele></trkpt>
    <trkpt lat="48.679794" lon="17.579514"><ele>448</ele></trkpt>
    <trkpt lat="48.679938" lon="17.578375"><ele>456</ele></trkpt>
    <trkpt lat="48.680134" lon="17.577440"><ele>461</ele></trkpt>
    <trkpt lat="48.679990" lon="17.576570"><ele>463</ele></trkpt>
    <trkpt lat="48.679756" lon="17.574648"><ele>468</ele></trkpt>
    <trkpt lat="48.679811" lon="17.574427"><ele>470</ele></trkpt>
    <trkpt lat="48.680299" lon="17.573277"><ele>480</ele></trkpt>
    <trkpt lat="48.680408" lon="17.572919"><ele>484</ele></trkpt>
    <trkpt lat="48.680479" lon="17.572650"><ele>486</ele></trkpt>
    <trkpt lat="48.680557" lon="17.571924"><ele>492</ele></trkpt>
    <trkpt lat="48.680876" lon="17.570931"><ele>506</ele></trkpt>
    <trkpt lat="48.680936" lon="17.570409"><ele>516</ele></trkpt>
    <trkpt lat="48.680772" lon="17.569156"><ele>523</ele></trkpt>
    <trkpt lat="48.680550" lon="17.568359"><ele>525</ele></trkpt>
    <trkpt lat="48.680374" lon="17.567442"><ele>523</ele></trkpt>
    <trkpt lat="48.679978" lon="17.566386"><ele>532</ele></trkpt>
    <trkpt lat="48.679875" lon="17.565927"><ele>534</ele></trkpt>
    <trkpt lat="48.679777" lon="17.565647"><ele>534</ele></trkpt>
    <trkpt lat="48.679828" lon="17.565587"><ele>533</ele></trkpt>
    <trkpt lat="48.679887" lon="17.565315"><ele>533</ele></trkpt>
    <trkpt lat="48.679897" lon="17.563968"><ele>530</ele></trkpt>
    <trkpt lat="48.679862" lon="17.563490"><ele>530</ele></trkpt>
    <trkpt lat="48.679897" lon="17.563968"><ele>530</ele></trkpt>
    <trkpt lat="48.679887" lon="17.565315"><ele>533</ele></trkpt>
    <trkpt lat="48.679828" lon="17.565587"><ele>533</ele></trkpt>
    <trkpt lat="48.679777" lon="17.565647"><ele>534</ele></trkpt>
    <trkpt lat="48.679875" lon="17.565927"><ele>534</ele></trkpt>
    <trkpt lat="48.679978" lon="17.566386"><ele>532</ele></trkpt>
    <trkpt lat="48.680374" lon="17.567442"><ele>523</ele></trkpt>
    <trkpt lat="48.680550" lon="17.568359"><ele>525</ele></trkpt>
    <trkpt lat="48.680772" lon="17.569156"><ele>523</ele></trkpt>
    <trkpt lat="48.680936" lon="17.570409"><ele>516</ele></trkpt>
    <trkpt lat="48.680876" lon="17.570931"><ele>506</ele></trkpt>
    <trkpt lat="48.680557" lon="17.571924"><ele>492</ele></trkpt>
    <trkpt lat="48.680479" lon="17.572650"><ele>486</ele></trkpt>
    <trkpt lat="48.680408" lon="17.572919"><ele>484</ele></trkpt>
    <trkpt lat="48.680299" lon="17.573277"><ele>480</ele></trkpt>
    <trkpt lat="48.679811" lon="17.574427"><ele>470</ele></trkpt>
    <trkpt lat="48.679756" lon="17.574648"><ele>468</ele></trkpt>
    <trkpt lat="48.679990" lon="17.576570"><ele>463</ele></trkpt>
    <trkpt lat="48.680134" lon="17.577440"><ele>461</ele></trkpt>
    <trkpt lat="48.679938" lon="17.578375"><ele>456</ele></trkpt>
    <trkpt lat="48.679794" lon="17.579514"><ele>448</ele></trkpt>
    <trkpt lat="48.679155" lon="17.580140"><ele>438</ele></trkpt>
    <trkpt lat="48.678885" lon="17.580218"><ele>432</ele></trkpt>
    <trkpt lat="48.678596" lon="17.580165"><ele>420</ele></trkpt>
    <trkpt lat="48.678322" lon="17.579924"><ele>410</ele></trkpt>
    <trkpt lat="48.678239" lon="17.579898"><ele>407</ele></trkpt>
    <trkpt lat="48.677952" lon="17.579972"><ele>399</ele></trkpt>
    <trkpt lat="48.677591" lon="17.579948"><ele>391</ele></trkpt>
    <trkpt lat="48.677122" lon="17.579848"><ele>381</ele></trkpt>
    <trkpt lat="48.677061" lon="17.579898"><ele>379</ele></trkpt>
    <trkpt lat="48.676961" lon="17.580106"><ele>378</ele></trkpt>
    <trkpt lat="48.676784" lon="17.580220"><ele>373</ele></trkpt>
    <trkpt lat="48.676724" lon="17.580599"><ele>374</ele></trkpt>
    <trkpt lat="48.676785" lon="17.580834"><ele>377</ele></trkpt>
    <trkpt lat="48.676752" lon="17.580965"><ele>376</ele></trkpt>
    <trkpt lat="48.676653" lon="17.581038"><ele>370</ele></trkpt>
    <trkpt lat="48.676446" lon="17.580969"><ele>362</ele></trkpt>
    <trkpt lat="48.675647" lon="17.580880"><ele>343</ele></trkpt>
    <trkpt lat="48.674783" lon="17.580953"><ele>330</ele></trkpt>
    <trkpt lat="48.674487" lon="17.581068"><ele>323</ele></trkpt>
    <trkpt lat="48.674021" lon="17.581025"><ele>318</ele></trkpt>
    <trkpt lat="48.673280" lon="17.581060"><ele>313</ele></trkpt>
    <trkpt lat="48.673132" lon="17.581103"><ele>313</ele></trkpt>
    <trkpt lat="48.673065" lon="17.581362"><ele>313</ele></trkpt>
    <trkpt lat="48.672925" lon="17.581479"><ele>314</ele></trkpt>
  </trkseg></trk>
</gpx>
