<?xml version="1.0" encoding="UTF-8"?>
<gpx version="1.1" creator="MounTour (OpenStreetMap)" xmlns="http://www.topografix.com/GPX/1/1">
  <metadata><name>Nálepkove vodopády</name><copyright author="OpenStreetMap contributors"><license>https://opendatacommons.org/licenses/odbl/</license></copyright></metadata>
  <trk><name>Nálepkove vodopády</name><trkseg>
    <trkpt lat="48.870905" lon="20.400432"><ele>814</ele></trkpt>
    <trkpt lat="48.870945" lon="20.400356"><ele>815</ele></trkpt>
    <trkpt lat="48.871070" lon="20.399643"><ele>819</ele></trkpt>
    <trkpt lat="48.871116" lon="20.399551"><ele>820</ele></trkpt>
    <trkpt lat="48.871404" lon="20.399324"><ele>828</ele></trkpt>
    <trkpt lat="48.871648" lon="20.398899"><ele>835</ele></trkpt>
    <trkpt lat="48.871925" lon="20.398682"><ele>839</ele></trkpt>
    <trkpt lat="48.872271" lon="20.398254"><ele>856</ele></trkpt>
    <trkpt lat="48.872464" lon="20.398082"><ele>861</ele></trkpt>
    <trkpt lat="48.872933" lon="20.397361"><ele>875</ele></trkpt>
    <trkpt lat="48.873013" lon="20.397324"><ele>876</ele></trkpt>
    <trkpt lat="48.873160" lon="20.397337"><ele>878</ele></trkpt>
    <trkpt lat="48.874325" lon="20.397000"><ele>926</ele></trkpt>
    <trkpt lat="48.874707" lon="20.396661"><ele>951</ele></trkpt>
    <trkpt lat="48.874748" lon="20.396587"><ele>956</ele></trkpt>
    <trkpt lat="48.874808" lon="20.396668"><ele>960</ele></trkpt>
    <trkpt lat="48.874866" lon="20.396571"><ele>966</ele></trkpt>
    <trkpt lat="48.875150" lon="20.396604"><ele>986</ele></trkpt>
    <trkpt lat="48.875181" lon="20.396638"><ele>987</ele></trkpt>
    <trkpt lat="48.875176" lon="20.396744"><ele>989</ele></trkpt>
    <trkpt lat="48.875276" lon="20.396720"><ele>993</ele></trkpt>
    <trkpt lat="48.875387" lon="20.396793"><ele>998</ele></trkpt>
    <trkpt lat="48.875611" lon="20.396718"><ele>1003</ele></trkpt>
    <trkpt lat="48.875742" lon="20.396732"><ele>1005</ele></trkpt>
    <trkpt lat="48.875836" lon="20.396685"><ele>1007</ele></trkpt>
    <trkpt lat="48.875909" lon="20.396711"><ele>1008</ele></trkpt>
    <trkpt lat="48.876022" lon="20.396573"><ele>1012</ele></trkpt>
    <trkpt lat="48.876624" lon="20.396804"><ele>1019</ele></trkpt>
    <trkpt lat="48.876794" lon="20.396978"><ele>1020</ele></trkpt>
    <trkpt lat="48.876960" lon="20.397041"><ele>1023</ele></trkpt>
    <trkpt lat="48.877340" lon="20.397113"><ele>1024</ele></trkpt>
    <trkpt lat="48.877632" lon="20.397084"><ele>1025</ele></trkpt>
    <trkpt lat="48.878323" lon="20.397181"><ele>1030</ele></trkpt>
    <trkpt lat="48.878810" lon="20.397335"><ele>1036</ele></trkpt>
    <trkpt lat="48.878928" lon="20.397256"><ele>1038</ele></trkpt>
    <trkpt lat="48.879073" lon="20.397022"><ele>1043</ele></trkpt>
    <trkpt lat="48.879170" lon="20.396946"><ele>1046</ele></trkpt>
    <trkpt lat="48.879617" lon="20.396888"><ele>1040</ele></trkpt>
    <trkpt lat="48.879470" lon="20.396763"><ele>1046</ele></trkpt>
    <trkpt lat="48.879375" lon="20.396523"><ele>1049</ele></trkpt>
    <trkpt lat="48.878635" lon="20.395529"><ele>1053</ele></trkpt>
    <trkpt lat="48.878467" lon="20.395361"><ele>1052</ele></trkpt>
    <trkpt lat="48.878131" lon="20.395130"><ele>1046</ele></trkpt>
    <trkpt lat="48.877887" lon="20.395103"><ele>1040</ele></trkpt>
    <trkpt lat="48.877802" lon="20.394983"><ele>1038</ele></trkpt>
    <trkpt lat="48.877609" lon="20.394817"><ele>1037</ele></trkpt>
    <trkpt lat="48.877446" lon="20.394565"><ele>1033</ele></trkpt>
    <trkpt lat="48.877213" lon="20.394494"><ele>1023</ele></trkpt>
    <trkpt lat="48.877040" lon="20.394573"><ele>1021</ele></trkpt>
    <trkpt lat="48.876506" lon="20.394940"><ele>1027</ele></trkpt>
    <trkpt lat="48.876207" lon="20.395246"><ele>1030</ele></trkpt>
    <trkpt lat="48.875540" lon="20.395237"><ele>1034</ele></trkpt>
    <trkpt lat="48.875127" lon="20.395052"><ele>1031</ele></trkpt>
    <trkpt lat="48.874840" lon="20.394371"><ele>1037</ele></trkpt>
    <trkpt lat="48.874806" lon="20.394139"><ele>1038</ele></trkpt>
    <trkpt lat="48.874727" lon="20.393968"><ele>1036</ele></trkpt>
    <trkpt lat="48.874447" lon="20.392726"><ele>1037</ele></trkpt>
    <trkpt lat="48.874342" lon="20.392637"><ele>1038</ele></trkpt>
    <trkpt lat="48.873773" lon="20.392410"><ele>1036</ele></trkpt>
    <trkpt lat="48.873369" lon="20.392379"><ele>1032</ele></trkpt>
    <trkpt lat="48.873201" lon="20.392232"><ele>1027</ele></trkpt>
    <trkpt lat="48.873118" lon="20.392031"><ele>1021</ele></trkpt>
    <trkpt lat="48.872624" lon="20.391558"><ele>1016</ele></trkpt>
    <trkpt lat="48.872377" lon="20.391459"><ele>1013</ele></trkpt>
    <trkpt lat="48.871855" lon="20.391493"><ele>998</ele></trkpt>
    <trkpt lat="48.871461" lon="20.391638"><ele>981</ele></trkpt>
    <trkpt lat="48.871146" lon="20.391805"><ele>971</ele></trkpt>
    <trkpt lat="48.870820" lon="20.391829"><ele>956</ele></trkpt>
    <trkpt lat="48.870781" lon="20.391693"><ele>952</ele></trkpt>
    <trkpt lat="48.870906" lon="20.391431"><ele>946</ele></trkpt>
    <trkpt lat="48.870916" lon="20.391270"><ele>942</ele></trkpt>
    <trkpt lat="48.870710" lon="20.391041"><ele>931</ele></trkpt>
    <trkpt lat="48.870571" lon="20.390778"><ele>923</ele></trkpt>
    <trkpt lat="48.870357" lon="20.389976"><ele>908</ele></trkpt>
    <trkpt lat="48.869807" lon="20.388557"><ele>879</ele></trkpt>
    <trkpt lat="48.869785" lon="20.388186"><ele>869</ele></trkpt>
    <trkpt lat="48.869399" lon="20.387137"><ele>847</ele></trkpt>
    <trkpt lat="48.869177" lon="20.386116"><ele>833</ele></trkpt>
    <trkpt lat="48.868986" lon="20.385475"><ele>829</ele></trkpt>
    <trkpt lat="48.868960" lon="20.385034"><ele>822</ele></trkpt>
    <trkpt lat="48.868789" lon="20.384327"><ele>814</ele></trkpt>
    <trkpt lat="48.868693" lon="20.384096"><ele>812</ele></trkpt>
    <trkpt lat="48.868304" lon="20.383421"><ele>807</ele></trkpt>
    <trkpt lat="48.867515" lon="20.381808"><ele>795</ele></trkpt>
    <trkpt lat="48.867133" lon="20.381895"><ele>795</ele></trkpt>
    <trkpt lat="48.866866" lon="20.381553"><ele>792</ele></trkpt>
    <trkpt lat="48.866548" lon="20.381235"><ele>788</ele></trkpt>
    <trkpt lat="48.866432" lon="20.381371"><ele>789</ele></trkpt>
    <trkpt lat="48.865847" lon="20.381652"><ele>787</ele></trkpt>
    <trkpt lat="48.865609" lon="20.381857"><ele>787</ele></trkpt>
    <trkpt lat="48.865426" lon="20.382153"><ele>788</ele></trkpt>
    <trkpt lat="48.865188" lon="20.382672"><ele>790</ele></trkpt>
    <trkpt lat="48.864984" lon="20.383226"><ele>793</ele></trkpt>
    <trkpt lat="48.864642" lon="20.384330"><ele>793</ele></trkpt>
    <trkpt lat="48.864543" lon="20.384553"><ele>793</ele></trkpt>
    <trkpt lat="48.864285" lon="20.384884"><ele>791</ele></trkpt>
    <trkpt lat="48.863455" lon="20.385508"><ele>789</ele></trkpt>
    <trkpt lat="48.863628" lon="20.386125"><ele>795</ele></trkpt>
    <trkpt lat="48.863631" lon="20.386295"><ele>796</ele></trkpt>
    <trkpt lat="48.863501" lon="20.386712"><ele>798</ele></trkpt>
    <trkpt lat="48.863787" lon="20.387208"><ele>805</ele></trkpt>
    <trkpt lat="48.864066" lon="20.387607"><ele>811</ele></trkpt>
    <trkpt lat="48.864343" lon="20.388154"><ele>819</ele></trkpt>
    <trkpt lat="48.864748" lon="20.388748"><ele>831</ele></trkpt>
    <trkpt lat="48.864944" lon="20.389195"><ele>840</ele></trkpt>
    <trkpt lat="48.865045" lon="20.389520"><ele>844</ele></trkpt>
    <trkpt lat="48.865189" lon="20.390324"><ele>858</ele></trkpt>
    <trkpt lat="48.865478" lon="20.391559"><ele>872</ele></trkpt>
    <trkpt lat="48.865666" lon="20.391797"><ele>873</ele></trkpt>
    <trkpt lat="48.865826" lon="20.392139"><ele>873</ele></trkpt>
    <trkpt lat="48.865956" lon="20.392329"><ele>871</ele></trkpt>
    <trkpt lat="48.866561" lon="20.393652"><ele>853</ele></trkpt>
    <trkpt lat="48.866938" lon="20.394219"><ele>844</ele></trkpt>
    <trkpt lat="48.867222" lon="20.394966"><ele>828</ele></trkpt>
    <trkpt lat="48.867469" lon="20.395358"><ele>827</ele></trkpt>
    <trkpt lat="48.867666" lon="20.395959"><ele>817</ele></trkpt>
    <trkpt lat="48.867731" lon="20.396310"><ele>810</ele></trkpt>
    <trkpt lat="48.868026" lon="20.397046"><ele>805</ele></trkpt>
    <trkpt lat="48.868158" lon="20.397263"><ele>803</ele></trkpt>
    <trkpt lat="48.868478" lon="20.397564"><ele>803</ele></trkpt>
    <trkpt lat="48.868762" lon="20.397728"><ele>804</ele></trkpt>
    <trkpt lat="48.868700" lon="20.397916"><ele>801</ele></trkpt>
    <trkpt lat="48.868961" lon="20.398202"><ele>804</ele></trkpt>
    <trkpt lat="48.868959" lon="20.398387"><ele>803</ele></trkpt>
    <trkpt lat="48.869633" lon="20.399091"><ele>804</ele></trkpt>
    <trkpt lat="48.870673" lon="20.400270"><ele>811</ele></trkpt>
    <trkpt lat="48.870879" lon="20.400482"><ele>814</ele></trkpt>
    <trkpt lat="48.870905" lon="20.400432"><ele>814</ele></trkpt>
  </trkseg></trk>
</gpx>
