<?xml version="1.0" encoding="UTF-8"?>
<gpx version="1.1" creator="MounTour (OpenStreetMap)" xmlns="http://www.topografix.com/GPX/1/1">
  <metadata><name>Obrovský vodopád</name><copyright author="OpenStreetMap contributors"><license>https://opendatacommons.org/licenses/odbl/</license></copyright></metadata>
  <trk><name>Obrovský vodopád</name><trkseg>
    <trkpt lat="48.961252" lon="20.444853"><ele>525</ele></trkpt>
    <trkpt lat="48.961136" lon="20.444810"><ele>525</ele></trkpt>
    <trkpt lat="48.960928" lon="20.444480"><ele>528</ele></trkpt>
    <trkpt lat="48.960825" lon="20.443994"><ele>529</ele></trkpt>
    <trkpt lat="48.960625" lon="20.443376"><ele>530</ele></trkpt>
    <trkpt lat="48.960267" lon="20.442537"><ele>541</ele></trkpt>
    <trkpt lat="48.960014" lon="20.442156"><ele>546</ele></trkpt>
    <trkpt lat="48.959730" lon="20.441854"><ele>546</ele></trkpt>
    <trkpt lat="48.958203" lon="20.440461"><ele>538</ele></trkpt>
    <trkpt lat="48.957504" lon="20.439975"><ele>531</ele></trkpt>
    <trkpt lat="48.957131" lon="20.439789"><ele>531</ele></trkpt>
    <trkpt lat="48.956974" lon="20.439785"><ele>530</ele></trkpt>
    <trkpt lat="48.956758" lon="20.439847"><ele>531</ele></trkpt>
    <trkpt lat="48.956553" lon="20.439983"><ele>531</ele></trkpt>
    <trkpt lat="48.956379" lon="20.439995"><ele>533</ele></trkpt>
    <trkpt lat="48.954993" lon="20.441125"><ele>526</ele></trkpt>
    <trkpt lat="48.954736" lon="20.441733"><ele>517</ele></trkpt>
    <trkpt lat="48.954414" lon="20.442236"><ele>520</ele></trkpt>
    <trkpt lat="48.954259" lon="20.442298"><ele>523</ele></trkpt>
    <trkpt lat="48.954176" lon="20.442280"><ele>526</ele></trkpt>
    <trkpt lat="48.953849" lon="20.442002"><ele>537</ele></trkpt>
    <trkpt lat="48.953664" lon="20.441899"><ele>538</ele></trkpt>
    <trkpt lat="48.953584" lon="20.441777"><ele>542</ele></trkpt>
    <trkpt lat="48.953451" lon="20.441824"><ele>546</ele></trkpt>
    <trkpt lat="48.953060" lon="20.441838"><ele>561</ele></trkpt>
    <trkpt lat="48.952721" lon="20.442201"><ele>570</ele></trkpt>
    <trkpt lat="48.952307" lon="20.443089"><ele>589</ele></trkpt>
    <trkpt lat="48.952273" lon="20.443199"><ele>591</ele></trkpt>
    <trkpt lat="48.952297" lon="20.443356"><ele>587</ele></trkpt>
    <trkpt lat="48.952225" lon="20.443491"><ele>594</ele></trkpt>
    <trkpt lat="48.952288" lon="20.443778"><ele>585</ele></trkpt>
    <trkpt lat="48.952271" lon="20.443859"><ele>586</ele></trkpt>
    <trkpt lat="48.952232" lon="20.443893"><ele>589</ele></trkpt>
    <trkpt lat="48.952118" lon="20.443808"><ele>591</ele></trkpt>
    <trkpt lat="48.951547" lon="20.442923"><ele>617</ele></trkpt>
    <trkpt lat="48.951327" lon="20.442693"><ele>628</ele></trkpt>
    <trkpt lat="48.950723" lon="20.442512"><ele>647</ele></trkpt>
    <trkpt lat="48.950539" lon="20.442379"><ele>656</ele></trkpt>
    <trkpt lat="48.950515" lon="20.442318"><ele>658</ele></trkpt>
    <trkpt lat="48.950586" lon="20.442258"><ele>659</ele></trkpt>
    <trkpt lat="48.950739" lon="20.442242"><ele>657</ele></trkpt>
    <trkpt lat="48.951463" lon="20.441896"><ele>665</ele></trkpt>
    <trkpt lat="48.951546" lon="20.441741"><ele>667</ele></trkpt>
    <trkpt lat="48.951562" lon="20.441531"><ele>670</ele></trkpt>
    <trkpt lat="48.951333" lon="20.440717"><ele>690</ele></trkpt>
    <trkpt lat="48.951210" lon="20.440809"><ele>696</ele></trkpt>
    <trkpt lat="48.951123" lon="20.440806"><ele>699</ele></trkpt>
    <trkpt lat="48.951156" lon="20.440069"><ele>708</ele></trkpt>
    <trkpt lat="48.951082" lon="20.440029"><ele>712</ele></trkpt>
    <trkpt lat="48.950831" lon="20.440131"><ele>723</ele></trkpt>
    <trkpt lat="48.950792" lon="20.440098"><ele>724</ele></trkpt>
    <trkpt lat="48.950758" lon="20.439739"><ele>729</ele></trkpt>
    <trkpt lat="48.950694" lon="20.439567"><ele>730</ele></trkpt>
    <trkpt lat="48.950463" lon="20.439138"><ele>736</ele></trkpt>
    <trkpt lat="48.950198" lon="20.438781"><ele>738</ele></trkpt>
    <trkpt lat="48.950119" lon="20.438608"><ele>740</ele></trkpt>
    <trkpt lat="48.950013" lon="20.438226"><ele>739</ele></trkpt>
    <trkpt lat="48.949943" lon="20.437545"><ele>743</ele></trkpt>
    <trkpt lat="48.949832" lon="20.437215"><ele>742</ele></trkpt>
    <trkpt lat="48.949653" lon="20.436920"><ele>742</ele></trkpt>
    <trkpt lat="48.949222" lon="20.436518"><ele>746</ele></trkpt>
    <trkpt lat="48.949103" lon="20.436500"><ele>748</ele></trkpt>
    <trkpt lat="48.948954" lon="20.436300"><ele>747</ele></trkpt>
    <trkpt lat="48.948580" lon="20.436111"><ele>750</ele></trkpt>
    <trkpt lat="48.948018" lon="20.435698"><ele>754</ele></trkpt>
    <trkpt lat="48.947759" lon="20.435294"><ele>754</ele></trkpt>
    <trkpt lat="48.947513" lon="20.435094"><ele>755</ele></trkpt>
    <trkpt lat="48.947377" lon="20.434919"><ele>755</ele></trkpt>
    <trkpt lat="48.947339" lon="20.434609"><ele>754</ele></trkpt>
    <trkpt lat="48.947356" lon="20.433849"><ele>757</ele></trkpt>
    <trkpt lat="48.947302" lon="20.433215"><ele>762</ele></trkpt>
    <trkpt lat="48.947198" lon="20.432829"><ele>765</ele></trkpt>
    <trkpt lat="48.947111" lon="20.432636"><ele>765</ele></trkpt>
    <trkpt lat="48.946726" lon="20.432280"><ele>769</ele></trkpt>
    <trkpt lat="48.946709" lon="20.432204"><ele>769</ele></trkpt>
    <trkpt lat="48.946759" lon="20.432014"><ele>769</ele></trkpt>
    <trkpt lat="48.946891" lon="20.431834"><ele>769</ele></trkpt>
    <trkpt lat="48.947143" lon="20.431626"><ele>771</ele></trkpt>
    <trkpt lat="48.947181" lon="20.431460"><ele>773</ele></trkpt>
    <trkpt lat="48.947186" lon="20.431340"><ele>775</ele></trkpt>
    <trkpt lat="48.947132" lon="20.431071"><ele>777</ele></trkpt>
    <trkpt lat="48.946826" lon="20.429843"><ele>784</ele></trkpt>
    <trkpt lat="48.946769" lon="20.429239"><ele>787</ele></trkpt>
    <trkpt lat="48.946832" lon="20.428519"><ele>794</ele></trkpt>
    <trkpt lat="48.947086" lon="20.427417"><ele>801</ele></trkpt>
    <trkpt lat="48.947098" lon="20.427240"><ele>802</ele></trkpt>
    <trkpt lat="48.947028" lon="20.426886"><ele>803</ele></trkpt>
    <trkpt lat="48.946765" lon="20.426167"><ele>800</ele></trkpt>
    <trkpt lat="48.946334" lon="20.425487"><ele>791</ele></trkpt>
    <trkpt lat="48.946121" lon="20.425266"><ele>786</ele></trkpt>
    <trkpt lat="48.945158" lon="20.424546"><ele>776</ele></trkpt>
    <trkpt lat="48.944749" lon="20.424087"><ele>772</ele></trkpt>
    <trkpt lat="48.944442" lon="20.423640"><ele>766</ele></trkpt>
    <trkpt lat="48.944306" lon="20.423371"><ele>765</ele></trkpt>
    <trkpt lat="48.943996" lon="20.423259"><ele>766</ele></trkpt>
    <trkpt lat="48.943794" lon="20.423057"><ele>766</ele></trkpt>
    <trkpt lat="48.943265" lon="20.422735"><ele>767</ele></trkpt>
    <trkpt lat="48.942924" lon="20.422369"><ele>772</ele></trkpt>
    <trkpt lat="48.942759" lon="20.420965"><ele>788</ele></trkpt>
    <trkpt lat="48.942614" lon="20.420291"><ele>791</ele></trkpt>
    <trkpt lat="48.942561" lon="20.419889"><ele>795</ele></trkpt>
    <trkpt lat="48.942433" lon="20.419430"><ele>795</ele></trkpt>
    <trkpt lat="48.942446" lon="20.418724"><ele>804</ele></trkpt>
    <trkpt lat="48.942194" lon="20.417823"><ele>821</ele></trkpt>
    <trkpt lat="48.941969" lon="20.417349"><ele>828</ele></trkpt>
    <trkpt lat="48.941731" lon="20.417184"><ele>832</ele></trkpt>
    <trkpt lat="48.941411" lon="20.417043"><ele>835</ele></trkpt>
    <trkpt lat="48.941219" lon="20.416775"><ele>839</ele></trkpt>
    <trkpt lat="48.940917" lon="20.415861"><ele>845</ele></trkpt>
    <trkpt lat="48.940813" lon="20.415454"><ele>846</ele></trkpt>
    <trkpt lat="48.940679" lon="20.414387"><ele>847</ele></trkpt>
    <trkpt lat="48.940504" lon="20.413913"><ele>845</ele></trkpt>
    <trkpt lat="48.940262" lon="20.413535"><ele>843</ele></trkpt>
    <trkpt lat="48.940159" lon="20.413129"><ele>842</ele></trkpt>
    <trkpt lat="48.940038" lon="20.413046"><ele>838</ele></trkpt>
    <trkpt lat="48.939845" lon="20.413028"><ele>828</ele></trkpt>
    <trkpt lat="48.939742" lon="20.412920"><ele>823</ele></trkpt>
    <trkpt lat="48.939735" lon="20.412862"><ele>823</ele></trkpt>
    <trkpt lat="48.939912" lon="20.412257"><ele>826</ele></trkpt>
    <trkpt lat="48.940221" lon="20.411640"><ele>816</ele></trkpt>
    <trkpt lat="48.940436" lon="20.411337"><ele>811</ele></trkpt>
    <trkpt lat="48.940486" lon="20.411160"><ele>809</ele></trkpt>
    <trkpt lat="48.940673" lon="20.409861"><ele>804</ele></trkpt>
    <trkpt lat="48.940652" lon="20.409784"><ele>805</ele></trkpt>
    <trkpt lat="48.940415" lon="20.409629"><ele>808</ele></trkpt>
    <trkpt lat="48.940229" lon="20.409606"><ele>808</ele></trkpt>
    <trkpt lat="48.939777" lon="20.409741"><ele>792</ele></trkpt>
    <trkpt lat="48.939649" lon="20.409875"><ele>785</ele></trkpt>
    <trkpt lat="48.939514" lon="20.409893"><ele>779</ele></trkpt>
    <trkpt lat="48.939558" lon="20.410007"><ele>780</ele></trkpt>
    <trkpt lat="48.939671" lon="20.410041"><ele>783</ele></trkpt>
    <trkpt lat="48.939766" lon="20.410004"><ele>787</ele></trkpt>
    <trkpt lat="48.940167" lon="20.410035"><ele>788</ele></trkpt>
    <trkpt lat="48.940168" lon="20.410146"><ele>787</ele></trkpt>
    <trkpt lat="48.939990" lon="20.410269"><ele>781</ele></trkpt>
    <trkpt lat="48.939849" lon="20.410446"><ele>776</ele></trkpt>
    <trkpt lat="48.939735" lon="20.410487"><ele>772</ele></trkpt>
    <trkpt lat="48.939532" lon="20.410400"><ele>767</ele></trkpt>
    <trkpt lat="48.939285" lon="20.410686"><ele>748</ele></trkpt>
    <trkpt lat="48.939233" lon="20.410804"><ele>745</ele></trkpt>
    <trkpt lat="48.939223" lon="20.410946"><ele>745</ele></trkpt>
    <trkpt lat="48.939177" lon="20.410985"><ele>742</ele></trkpt>
    <trkpt lat="48.939034" lon="20.411466"><ele>742</ele></trkpt>
    <trkpt lat="48.938608" lon="20.412053"><ele>738</ele></trkpt>
    <trkpt lat="48.938441" lon="20.412167"><ele>739</ele></trkpt>
    <trkpt lat="48.938296" lon="20.412362"><ele>739</ele></trkpt>
    <trkpt lat="48.938201" lon="20.412570"><ele>736</ele></trkpt>
    <trkpt lat="48.938215" lon="20.412775"><ele>734</ele></trkpt>
    <trkpt lat="48.938163" lon="20.412837"><ele>733</ele></trkpt>
    <trkpt lat="48.938215" lon="20.412775"><ele>734</ele></trkpt>
    <trkpt lat="48.938201" lon="20.412570"><ele>736</ele></trkpt>
    <trkpt lat="48.938296" lon="20.412362"><ele>739</ele></trkpt>
    <trkpt lat="48.938441" lon="20.412167"><ele>739</ele></trkpt>
    <trkpt lat="48.938608" lon="20.412053"><ele>738</ele></trkpt>
    <trkpt lat="48.939034" lon="20.411466"><ele>742</ele></trkpt>
    <trkpt lat="48.939177" lon="20.410985"><ele>742</ele></trkpt>
    <trkpt lat="48.939223" lon="20.410946"><ele>745</ele></trkpt>
    <trkpt lat="48.939233" lon="20.410804"><ele>745</ele></trkpt>
    <trkpt lat="48.939285" lon="20.410686"><ele>748</ele></trkpt>
    <trkpt lat="48.939532" lon="20.410400"><ele>767</ele></trkpt>
    <trkpt lat="48.939735" lon="20.410487"><ele>772</ele></trkpt>
    <trkpt lat="48.939849" lon="20.410446"><ele>776</ele></trkpt>
    <trkpt lat="48.939990" lon="20.410269"><ele>781</ele></trkpt>
    <trkpt lat="48.940168" lon="20.410146"><ele>787</ele></trkpt>
    <trkpt lat="48.940167" lon="20.410035"><ele>788</ele></trkpt>
    <trkpt lat="48.939766" lon="20.410004"><ele>787</ele></trkpt>
    <trkpt lat="48.939671" lon="20.410041"><ele>783</ele></trkpt>
    <trkpt lat="48.939558" lon="20.410007"><ele>780</ele></trkpt>
    <trkpt lat="48.939514" lon="20.409893"><ele>779</ele></trkpt>
    <trkpt lat="48.939649" lon="20.409875"><ele>785</ele></trkpt>
    <trkpt lat="48.939777" lon="20.409741"><ele>792</ele></trkpt>
    <trkpt lat="48.940229" lon="20.409606"><ele>808</ele></trkpt>
    <trkpt lat="48.940415" lon="20.409629"><ele>808</ele></trkpt>
    <trkpt lat="48.940652" lon="20.409784"><ele>805</ele></trkpt>
    <trkpt lat="48.940674" lon="20.409950"><ele>801</ele></trkpt>
    <trkpt lat="48.940486" lon="20.411160"><ele>809</ele></trkpt>
    <trkpt lat="48.940436" lon="20.411337"><ele>811</ele></trkpt>
    <trkpt lat="48.940221" lon="20.411640"><ele>816</ele></trkpt>
    <trkpt lat="48.939912" lon="20.412257"><ele>826</ele></trkpt>
    <trkpt lat="48.939735" lon="20.412862"><ele>823</ele></trkpt>
    <trkpt lat="48.939742" lon="20.412920"><ele>823</ele></trkpt>
    <trkpt lat="48.939845" lon="20.413028"><ele>828</ele></trkpt>
    <trkpt lat="48.940038" lon="20.413046"><ele>838</ele></trkpt>
    <trkpt lat="48.940159" lon="20.413129"><ele>842</ele></trkpt>
    <trkpt lat="48.940262" lon="20.413535"><ele>843</ele></trkpt>
    <trkpt lat="48.940504" lon="20.413913"><ele>845</ele></trkpt>
    <trkpt lat="48.940679" lon="20.414387"><ele>847</ele></trkpt>
    <trkpt lat="48.940813" lon="20.415454"><ele>846</ele></trkpt>
    <trkpt lat="48.940917" lon="20.415861"><ele>845</ele></trkpt>
    <trkpt lat="48.941219" lon="20.416775"><ele>839</ele></trkpt>
    <trkpt lat="48.941411" lon="20.417043"><ele>835</ele></trkpt>
    <trkpt lat="48.941731" lon="20.417184"><ele>832</ele></trkpt>
    <trkpt lat="48.941969" lon="20.417349"><ele>828</ele></trkpt>
    <trkpt lat="48.942194" lon="20.417823"><ele>821</ele></trkpt>
    <trkpt lat="48.942446" lon="20.418724"><ele>804</ele></trkpt>
    <trkpt lat="48.942433" lon="20.419430"><ele>795</ele></trkpt>
    <trkpt lat="48.942561" lon="20.419889"><ele>795</ele></trkpt>
    <trkpt lat="48.942614" lon="20.420291"><ele>791</ele></trkpt>
    <trkpt lat="48.942759" lon="20.420965"><ele>788</ele></trkpt>
    <trkpt lat="48.942924" lon="20.422369"><ele>772</ele></trkpt>
    <trkpt lat="48.943265" lon="20.422735"><ele>767</ele></trkpt>
    <trkpt lat="48.943794" lon="20.423057"><ele>766</ele></trkpt>
    <trkpt lat="48.943996" lon="20.423259"><ele>766</ele></trkpt>
    <trkpt lat="48.944306" lon="20.423371"><ele>765</ele></trkpt>
    <trkpt lat="48.944442" lon="20.423640"><ele>766</ele></trkpt>
    <trkpt lat="48.944749" lon="20.424087"><ele>772</ele></trkpt>
    <trkpt lat="48.945158" lon="20.424546"><ele>776</ele></trkpt>
    <trkpt lat="48.946121" lon="20.425266"><ele>786</ele></trkpt>
    <trkpt lat="48.946334" lon="20.425487"><ele>791</ele></trkpt>
    <trkpt lat="48.946765" lon="20.426167"><ele>800</ele></trkpt>
    <trkpt lat="48.946894" lon="20.426513"><ele>802</ele></trkpt>
    <trkpt lat="48.947028" lon="20.426886"><ele>803</ele></trkpt>
    <trkpt lat="48.947098" lon="20.427240"><ele>802</ele></trkpt>
    <trkpt lat="48.947049" lon="20.427615"><ele>801</ele></trkpt>
    <trkpt lat="48.946832" lon="20.428519"><ele>794</ele></trkpt>
    <trkpt lat="48.946769" lon="20.429239"><ele>787</ele></trkpt>
    <trkpt lat="48.946779" lon="20.429489"><ele>785</ele></trkpt>
    <trkpt lat="48.946826" lon="20.429843"><ele>784</ele></trkpt>
    <trkpt lat="48.947186" lon="20.431340"><ele>775</ele></trkpt>
    <trkpt lat="48.947143" lon="20.431626"><ele>771</ele></trkpt>
    <trkpt lat="48.946891" lon="20.431834"><ele>769</ele></trkpt>
    <trkpt lat="48.946759" lon="20.432014"><ele>769</ele></trkpt>
    <trkpt lat="48.946709" lon="20.432204"><ele>769</ele></trkpt>
    <trkpt lat="48.946726" lon="20.432280"><ele>769</ele></trkpt>
    <trkpt lat="48.947111" lon="20.432636"><ele>765</ele></trkpt>
    <trkpt lat="48.947198" lon="20.432829"><ele>765</ele></trkpt>
    <trkpt lat="48.947302" lon="20.433215"><ele>762</ele></trkpt>
    <trkpt lat="48.947356" lon="20.433849"><ele>757</ele></trkpt>
    <trkpt lat="48.947339" lon="20.434609"><ele>754</ele></trkpt>
    <trkpt lat="48.947377" lon="20.434919"><ele>755</ele></trkpt>
    <trkpt lat="48.947513" lon="20.435094"><ele>755</ele></trkpt>
    <trkpt lat="48.947759" lon="20.435294"><ele>754</ele></trkpt>
    <trkpt lat="48.948018" lon="20.435698"><ele>754</ele></trkpt>
    <trkpt lat="48.948580" lon="20.436111"><ele>750</ele></trkpt>
    <trkpt lat="48.948954" lon="20.436300"><ele>747</ele></trkpt>
    <trkpt lat="48.949103" lon="20.436500"><ele>748</ele></trkpt>
    <trkpt lat="48.949222" lon="20.436518"><ele>746</ele></trkpt>
    <trkpt lat="48.949653" lon="20.436920"><ele>742</ele></trkpt>
    <trkpt lat="48.949832" lon="20.437215"><ele>742</ele></trkpt>
    <trkpt lat="48.949943" lon="20.437545"><ele>743</ele></trkpt>
    <trkpt lat="48.950013" lon="20.438226"><ele>739</ele></trkpt>
    <trkpt lat="48.950119" lon="20.438608"><ele>740</ele></trkpt>
    <trkpt lat="48.950198" lon="20.438781"><ele>738</ele></trkpt>
    <trkpt lat="48.950463" lon="20.439138"><ele>736</ele></trkpt>
    <trkpt lat="48.950694" lon="20.439567"><ele>730</ele></trkpt>
    <trkpt lat="48.950758" lon="20.439739"><ele>729</ele></trkpt>
    <trkpt lat="48.950792" lon="20.440098"><ele>724</ele></trkpt>
    <trkpt lat="48.950831" lon="20.440131"><ele>723</ele></trkpt>
    <trkpt lat="48.951082" lon="20.440029"><ele>712</ele></trkpt>
    <trkpt lat="48.951156" lon="20.440069"><ele>708</ele></trkpt>
    <trkpt lat="48.951123" lon="20.440806"><ele>699</ele></trkpt>
    <trkpt lat="48.951210" lon="20.440809"><ele>696</ele></trkpt>
    <trkpt lat="48.951333" lon="20.440717"><ele>690</ele></trkpt>
    <trkpt lat="48.951562" lon="20.441531"><ele>670</ele></trkpt>
    <trkpt lat="48.951546" lon="20.441741"><ele>667</ele></trkpt>
    <trkpt lat="48.951463" lon="20.441896"><ele>665</ele></trkpt>
    <trkpt lat="48.950739" lon="20.442242"><ele>657</ele></trkpt>
    <trkpt lat="48.950586" lon="20.442258"><ele>659</ele></trkpt>
    <trkpt lat="48.950515" lon="20.442318"><ele>658</ele></trkpt>
    <trkpt lat="48.950539" lon="20.442379"><ele>656</ele></trkpt>
    <trkpt lat="48.950723" lon="20.442512"><ele>647</ele></trkpt>
    <trkpt lat="48.951327" lon="20.442693"><ele>628</ele></trkpt>
    <trkpt lat="48.951547" lon="20.442923"><ele>617</ele></trkpt>
    <trkpt lat="48.952118" lon="20.443808"><ele>591</ele></trkpt>
    <trkpt lat="48.952232" lon="20.443893"><ele>589</ele></trkpt>
    <trkpt lat="48.952271" lon="20.443859"><ele>586</ele></trkpt>
    <trkpt lat="48.952288" lon="20.443778"><ele>585</ele></trkpt>
    <trkpt lat="48.952225" lon="20.443491"><ele>594</ele></trkpt>
    <trkpt lat="48.952297" lon="20.443356"><ele>587</ele></trkpt>
    <trkpt lat="48.952273" lon="20.443199"><ele>591</ele></trkpt>
    <trkpt lat="48.952307" lon="20.443089"><ele>589</ele></trkpt>
    <trkpt lat="48.952721" lon="20.442201"><ele>570</ele></trkpt>
    <trkpt lat="48.953060" lon="20.441838"><ele>561</ele></trkpt>
    <trkpt lat="48.953451" lon="20.441824"><ele>546</ele></trkpt>
    <trkpt lat="48.953584" lon="20.441777"><ele>542</ele></trkpt>
    <trkpt lat="48.953664" lon="20.441899"><ele>538</ele></trkpt>
    <trkpt lat="48.953849" lon="20.442002"><ele>537</ele></trkpt>
    <trkpt lat="48.954176" lon="20.442280"><ele>526</ele></trkpt>
    <trkpt lat="48.954259" lon="20.442298"><ele>523</ele></trkpt>
    <trkpt lat="48.954414" lon="20.442236"><ele>520</ele></trkpt>
    <trkpt lat="48.954736" lon="20.441733"><ele>517</ele></trkpt>
    <trkpt lat="48.954993" lon="20.441125"><ele>526</ele></trkpt>
    <trkpt lat="48.956379" lon="20.439995"><ele>533</ele></trkpt>
    <trkpt lat="48.956553" lon="20.439983"><ele>531</ele></trkpt>
    <trkpt lat="48.956758" lon="20.439847"><ele>531</ele></trkpt>
    <trkpt lat="48.956974" lon="20.439785"><ele>530</ele></trkpt>
    <trkpt lat="48.957131" lon="20.439789"><ele>531</ele></trkpt>
    <trkpt lat="48.957504" lon="20.439975"><ele>531</ele></trkpt>
    <trkpt lat="48.958203" lon="20.440461"><ele>538</ele></trkpt>
    <trkpt lat="48.959730" lon="20.441854"><ele>546</ele></trkpt>
    <trkpt lat="48.960014" lon="20.442156"><ele>546</ele></trkpt>
    <trkpt lat="48.960267" lon="20.442537"><ele>541</ele></trkpt>
    <trkpt lat="48.960625" lon="20.443376"><ele>530</ele></trkpt>
    <trkpt lat="48.960825" lon="20.443994"><ele>529</ele></trkpt>
    <trkpt lat="48.960928" lon="20.444480"><ele>528</ele></trkpt>
    <trkpt lat="48.961136" lon="20.444810"><ele>525</ele></trkpt>
    <trkpt lat="48.961252" lon="20.444853"><ele>525</ele></trkpt>
  </trkseg></trk>
</gpx>
