<?xml version="1.0" encoding="UTF-8"?>
<gpx version="1.1" creator="MounTour (OpenStreetMap)" xmlns="http://www.topografix.com/GPX/1/1">
  <metadata><name>Obrovský vodopád</name><copyright author="OpenStreetMap contributors"><license>https://opendatacommons.org/licenses/odbl/</license></copyright></metadata>
  <trk><name>Obrovský vodopád</name><trkseg>
    <trkpt lat="48.962206" lon="20.402943"><ele>537</ele></trkpt>
    <trkpt lat="48.962303" lon="20.402565"><ele>532</ele></trkpt>
    <trkpt lat="48.962391" lon="20.402411"><ele>533</ele></trkpt>
    <trkpt lat="48.962335" lon="20.402285"><ele>535</ele></trkpt>
    <trkpt lat="48.962370" lon="20.402069"><ele>540</ele></trkpt>
    <trkpt lat="48.962309" lon="20.401975"><ele>543</ele></trkpt>
    <trkpt lat="48.962239" lon="20.401951"><ele>545</ele></trkpt>
    <trkpt lat="48.962230" lon="20.401820"><ele>548</ele></trkpt>
    <trkpt lat="48.961902" lon="20.400966"><ele>561</ele></trkpt>
    <trkpt lat="48.961641" lon="20.400372"><ele>564</ele></trkpt>
    <trkpt lat="48.961523" lon="20.400249"><ele>563</ele></trkpt>
    <trkpt lat="48.960956" lon="20.399940"><ele>559</ele></trkpt>
    <trkpt lat="48.960754" lon="20.399758"><ele>560</ele></trkpt>
    <trkpt lat="48.960393" lon="20.399565"><ele>564</ele></trkpt>
    <trkpt lat="48.960178" lon="20.399283"><ele>571</ele></trkpt>
    <trkpt lat="48.959981" lon="20.399297"><ele>575</ele></trkpt>
    <trkpt lat="48.959932" lon="20.399263"><ele>577</ele></trkpt>
    <trkpt lat="48.959704" lon="20.398923"><ele>586</ele></trkpt>
    <trkpt lat="48.959464" lon="20.398732"><ele>597</ele></trkpt>
    <trkpt lat="48.959282" lon="20.398642"><ele>604</ele></trkpt>
    <trkpt lat="48.959205" lon="20.398653"><ele>606</ele></trkpt>
    <trkpt lat="48.959010" lon="20.398812"><ele>610</ele></trkpt>
    <trkpt lat="48.958845" lon="20.398891"><ele>610</ele></trkpt>
    <trkpt lat="48.958394" lon="20.399002"><ele>608</ele></trkpt>
    <trkpt lat="48.958150" lon="20.398840"><ele>610</ele></trkpt>
    <trkpt lat="48.957824" lon="20.398729"><ele>609</ele></trkpt>
    <trkpt lat="48.957506" lon="20.398807"><ele>605</ele></trkpt>
    <trkpt lat="48.957321" lon="20.398945"><ele>605</ele></trkpt>
    <trkpt lat="48.957293" lon="20.399028"><ele>606</ele></trkpt>
    <trkpt lat="48.957321" lon="20.399145"><ele>606</ele></trkpt>
    <trkpt lat="48.957592" lon="20.399503"><ele>611</ele></trkpt>
    <trkpt lat="48.957726" lon="20.399751"><ele>615</ele></trkpt>
    <trkpt lat="48.957904" lon="20.400171"><ele>619</ele></trkpt>
    <trkpt lat="48.957909" lon="20.400328"><ele>622</ele></trkpt>
    <trkpt lat="48.957825" lon="20.400367"><ele>627</ele></trkpt>
    <trkpt lat="48.957696" lon="20.400342"><ele>633</ele></trkpt>
    <trkpt lat="48.957431" lon="20.400226"><ele>641</ele></trkpt>
    <trkpt lat="48.957301" lon="20.400281"><ele>646</ele></trkpt>
    <trkpt lat="48.957248" lon="20.400561"><ele>652</ele></trkpt>
    <trkpt lat="48.957281" lon="20.400988"><ele>657</ele></trkpt>
    <trkpt lat="48.957199" lon="20.401187"><ele>661</ele></trkpt>
    <trkpt lat="48.956751" lon="20.401177"><ele>670</ele></trkpt>
    <trkpt lat="48.956530" lon="20.401213"><ele>673</ele></trkpt>
    <trkpt lat="48.955698" lon="20.401646"><ele>694</ele></trkpt>
    <trkpt lat="48.955111" lon="20.402510"><ele>702</ele></trkpt>
    <trkpt lat="48.954125" lon="20.403492"><ele>716</ele></trkpt>
    <trkpt lat="48.953975" lon="20.403599"><ele>716</ele></trkpt>
    <trkpt lat="48.953845" lon="20.403778"><ele>717</ele></trkpt>
    <trkpt lat="48.953572" lon="20.404210"><ele>720</ele></trkpt>
    <trkpt lat="48.953378" lon="20.404644"><ele>719</ele></trkpt>
    <trkpt lat="48.953112" lon="20.405037"><ele>721</ele></trkpt>
    <trkpt lat="48.953024" lon="20.405232"><ele>717</ele></trkpt>
    <trkpt lat="48.952975" lon="20.405538"><ele>707</ele></trkpt>
    <trkpt lat="48.952906" lon="20.405615"><ele>706</ele></trkpt>
    <trkpt lat="48.952781" lon="20.405676"><ele>709</ele></trkpt>
    <trkpt lat="48.952310" lon="20.405618"><ele>712</ele></trkpt>
    <trkpt lat="48.952084" lon="20.405658"><ele>710</ele></trkpt>
    <trkpt lat="48.951640" lon="20.405390"><ele>716</ele></trkpt>
    <trkpt lat="48.951449" lon="20.405329"><ele>717</ele></trkpt>
    <trkpt lat="48.951359" lon="20.405365"><ele>718</ele></trkpt>
    <trkpt lat="48.951436" lon="20.405464"><ele>717</ele></trkpt>
    <trkpt lat="48.951510" lon="20.405688"><ele>715</ele></trkpt>
    <trkpt lat="48.951758" lon="20.406092"><ele>713</ele></trkpt>
    <trkpt lat="48.951966" lon="20.406707"><ele>719</ele></trkpt>
    <trkpt lat="48.951973" lon="20.406958"><ele>721</ele></trkpt>
    <trkpt lat="48.951736" lon="20.407608"><ele>731</ele></trkpt>
    <trkpt lat="48.951423" lon="20.407994"><ele>737</ele></trkpt>
    <trkpt lat="48.950716" lon="20.408667"><ele>749</ele></trkpt>
    <trkpt lat="48.950586" lon="20.409030"><ele>750</ele></trkpt>
    <trkpt lat="48.950512" lon="20.409344"><ele>750</ele></trkpt>
    <trkpt lat="48.950374" lon="20.409568"><ele>751</ele></trkpt>
    <trkpt lat="48.950157" lon="20.409730"><ele>756</ele></trkpt>
    <trkpt lat="48.949750" lon="20.409916"><ele>766</ele></trkpt>
    <trkpt lat="48.949309" lon="20.410001"><ele>771</ele></trkpt>
    <trkpt lat="48.949093" lon="20.409876"><ele>773</ele></trkpt>
    <trkpt lat="48.948441" lon="20.410128"><ele>779</ele></trkpt>
    <trkpt lat="48.948099" lon="20.410416"><ele>779</ele></trkpt>
    <trkpt lat="48.947049" lon="20.411903"><ele>787</ele></trkpt>
    <trkpt lat="48.946832" lon="20.412281"><ele>789</ele></trkpt>
    <trkpt lat="48.946831" lon="20.412423"><ele>789</ele></trkpt>
    <trkpt lat="48.946875" lon="20.412590"><ele>789</ele></trkpt>
    <trkpt lat="48.946860" lon="20.412917"><ele>790</ele></trkpt>
    <trkpt lat="48.946816" lon="20.413131"><ele>789</ele></trkpt>
    <trkpt lat="48.946754" lon="20.413261"><ele>787</ele></trkpt>
    <trkpt lat="48.946710" lon="20.413642"><ele>782</ele></trkpt>
    <trkpt lat="48.946540" lon="20.414199"><ele>790</ele></trkpt>
    <trkpt lat="48.946466" lon="20.414704"><ele>789</ele></trkpt>
    <trkpt lat="48.946230" lon="20.415531"><ele>784</ele></trkpt>
    <trkpt lat="48.945985" lon="20.416233"><ele>787</ele></trkpt>
    <trkpt lat="48.945757" lon="20.417168"><ele>786</ele></trkpt>
    <trkpt lat="48.945568" lon="20.417540"><ele>782</ele></trkpt>
    <trkpt lat="48.945196" lon="20.417838"><ele>785</ele></trkpt>
    <trkpt lat="48.944919" lon="20.418285"><ele>780</ele></trkpt>
    <trkpt lat="48.944680" lon="20.418587"><ele>776</ele></trkpt>
    <trkpt lat="48.944631" lon="20.418770"><ele>775</ele></trkpt>
    <trkpt lat="48.944612" lon="20.419290"><ele>774</ele></trkpt>
    <trkpt lat="48.944550" lon="20.419804"><ele>773</ele></trkpt>
    <trkpt lat="48.944463" lon="20.420157"><ele>771</ele></trkpt>
    <trkpt lat="48.944378" lon="20.420350"><ele>769</ele></trkpt>
    <trkpt lat="48.943913" lon="20.420913"><ele>768</ele></trkpt>
    <trkpt lat="48.943729" lon="20.420928"><ele>770</ele></trkpt>
    <trkpt lat="48.943237" lon="20.420747"><ele>777</ele></trkpt>
    <trkpt lat="48.942790" lon="20.420516"><ele>791</ele></trkpt>
    <trkpt lat="48.942707" lon="20.420451"><ele>791</ele></trkpt>
    <trkpt lat="48.942614" lon="20.420291"><ele>791</ele></trkpt>
    <trkpt lat="48.942561" lon="20.419889"><ele>795</ele></trkpt>
    <trkpt lat="48.942433" lon="20.419430"><ele>795</ele></trkpt>
    <trkpt lat="48.942446" lon="20.418724"><ele>804</ele></trkpt>
    <trkpt lat="48.942194" lon="20.417823"><ele>821</ele></trkpt>
    <trkpt lat="48.941969" lon="20.417349"><ele>828</ele></trkpt>
    <trkpt lat="48.941731" lon="20.417184"><ele>832</ele></trkpt>
    <trkpt lat="48.941411" lon="20.417043"><ele>835</ele></trkpt>
    <trkpt lat="48.941219" lon="20.416775"><ele>839</ele></trkpt>
    <trkpt lat="48.940917" lon="20.415861"><ele>845</ele></trkpt>
    <trkpt lat="48.940813" lon="20.415454"><ele>846</ele></trkpt>
    <trkpt lat="48.940679" lon="20.414387"><ele>847</ele></trkpt>
    <trkpt lat="48.940504" lon="20.413913"><ele>845</ele></trkpt>
    <trkpt lat="48.940262" lon="20.413535"><ele>843</ele></trkpt>
    <trkpt lat="48.940159" lon="20.413129"><ele>842</ele></trkpt>
    <trkpt lat="48.940038" lon="20.413046"><ele>838</ele></trkpt>
    <trkpt lat="48.939845" lon="20.413028"><ele>828</ele></trkpt>
    <trkpt lat="48.939742" lon="20.412920"><ele>823</ele></trkpt>
    <trkpt lat="48.939735" lon="20.412862"><ele>823</ele></trkpt>
    <trkpt lat="48.939912" lon="20.412257"><ele>826</ele></trkpt>
    <trkpt lat="48.940221" lon="20.411640"><ele>816</ele></trkpt>
    <trkpt lat="48.940436" lon="20.411337"><ele>811</ele></trkpt>
    <trkpt lat="48.940486" lon="20.411160"><ele>809</ele></trkpt>
    <trkpt lat="48.940674" lon="20.409950"><ele>801</ele></trkpt>
    <trkpt lat="48.940652" lon="20.409784"><ele>805</ele></trkpt>
    <trkpt lat="48.940415" lon="20.409629"><ele>808</ele></trkpt>
    <trkpt lat="48.940229" lon="20.409606"><ele>808</ele></trkpt>
    <trkpt lat="48.939777" lon="20.409741"><ele>792</ele></trkpt>
    <trkpt lat="48.939649" lon="20.409875"><ele>785</ele></trkpt>
    <trkpt lat="48.939514" lon="20.409893"><ele>779</ele></trkpt>
    <trkpt lat="48.939558" lon="20.410007"><ele>780</ele></trkpt>
    <trkpt lat="48.939671" lon="20.410041"><ele>783</ele></trkpt>
    <trkpt lat="48.939766" lon="20.410004"><ele>787</ele></trkpt>
    <trkpt lat="48.940167" lon="20.410035"><ele>788</ele></trkpt>
    <trkpt lat="48.940168" lon="20.410146"><ele>787</ele></trkpt>
    <trkpt lat="48.939990" lon="20.410269"><ele>781</ele></trkpt>
    <trkpt lat="48.939849" lon="20.410446"><ele>776</ele></trkpt>
    <trkpt lat="48.939735" lon="20.410487"><ele>772</ele></trkpt>
    <trkpt lat="48.939532" lon="20.410400"><ele>767</ele></trkpt>
    <trkpt lat="48.939285" lon="20.410686"><ele>748</ele></trkpt>
    <trkpt lat="48.939233" lon="20.410804"><ele>745</ele></trkpt>
    <trkpt lat="48.939223" lon="20.410946"><ele>745</ele></trkpt>
    <trkpt lat="48.939177" lon="20.410985"><ele>742</ele></trkpt>
    <trkpt lat="48.939034" lon="20.411466"><ele>742</ele></trkpt>
    <trkpt lat="48.938608" lon="20.412053"><ele>738</ele></trkpt>
    <trkpt lat="48.938441" lon="20.412167"><ele>739</ele></trkpt>
    <trkpt lat="48.938296" lon="20.412362"><ele>739</ele></trkpt>
    <trkpt lat="48.938201" lon="20.412570"><ele>736</ele></trkpt>
    <trkpt lat="48.938215" lon="20.412775"><ele>734</ele></trkpt>
    <trkpt lat="48.938163" lon="20.412837"><ele>733</ele></trkpt>
    <trkpt lat="48.938215" lon="20.412775"><ele>734</ele></trkpt>
    <trkpt lat="48.938201" lon="20.412570"><ele>736</ele></trkpt>
    <trkpt lat="48.938296" lon="20.412362"><ele>739</ele></trkpt>
    <trkpt lat="48.938441" lon="20.412167"><ele>739</ele></trkpt>
    <trkpt lat="48.938608" lon="20.412053"><ele>738</ele></trkpt>
    <trkpt lat="48.939034" lon="20.411466"><ele>742</ele></trkpt>
    <trkpt lat="48.939177" lon="20.410985"><ele>742</ele></trkpt>
    <trkpt lat="48.939223" lon="20.410946"><ele>745</ele></trkpt>
    <trkpt lat="48.939233" lon="20.410804"><ele>745</ele></trkpt>
    <trkpt lat="48.939285" lon="20.410686"><ele>748</ele></trkpt>
    <trkpt lat="48.939532" lon="20.410400"><ele>767</ele></trkpt>
    <trkpt lat="48.939735" lon="20.410487"><ele>772</ele></trkpt>
    <trkpt lat="48.939849" lon="20.410446"><ele>776</ele></trkpt>
    <trkpt lat="48.939990" lon="20.410269"><ele>781</ele></trkpt>
    <trkpt lat="48.940168" lon="20.410146"><ele>787</ele></trkpt>
    <trkpt lat="48.940167" lon="20.410035"><ele>788</ele></trkpt>
    <trkpt lat="48.939766" lon="20.410004"><ele>787</ele></trkpt>
    <trkpt lat="48.939671" lon="20.410041"><ele>783</ele></trkpt>
    <trkpt lat="48.939558" lon="20.410007"><ele>780</ele></trkpt>
    <trkpt lat="48.939514" lon="20.409893"><ele>779</ele></trkpt>
    <trkpt lat="48.939649" lon="20.409875"><ele>785</ele></trkpt>
    <trkpt lat="48.939777" lon="20.409741"><ele>792</ele></trkpt>
    <trkpt lat="48.940229" lon="20.409606"><ele>808</ele></trkpt>
    <trkpt lat="48.940415" lon="20.409629"><ele>808</ele></trkpt>
    <trkpt lat="48.940652" lon="20.409784"><ele>805</ele></trkpt>
    <trkpt lat="48.940674" lon="20.409950"><ele>801</ele></trkpt>
    <trkpt lat="48.940486" lon="20.411160"><ele>809</ele></trkpt>
    <trkpt lat="48.940436" lon="20.411337"><ele>811</ele></trkpt>
    <trkpt lat="48.940221" lon="20.411640"><ele>816</ele></trkpt>
    <trkpt lat="48.939912" lon="20.412257"><ele>826</ele></trkpt>
    <trkpt lat="48.939735" lon="20.412862"><ele>823</ele></trkpt>
    <trkpt lat="48.939742" lon="20.412920"><ele>823</ele></trkpt>
    <trkpt lat="48.939845" lon="20.413028"><ele>828</ele></trkpt>
    <trkpt lat="48.940038" lon="20.413046"><ele>838</ele></trkpt>
    <trkpt lat="48.940159" lon="20.413129"><ele>842</ele></trkpt>
    <trkpt lat="48.940262" lon="20.413535"><ele>843</ele></trkpt>
    <trkpt lat="48.940504" lon="20.413913"><ele>845</ele></trkpt>
    <trkpt lat="48.940679" lon="20.414387"><ele>847</ele></trkpt>
    <trkpt lat="48.940813" lon="20.415454"><ele>846</ele></trkpt>
    <trkpt lat="48.940917" lon="20.415861"><ele>845</ele></trkpt>
    <trkpt lat="48.941219" lon="20.416775"><ele>839</ele></trkpt>
    <trkpt lat="48.941411" lon="20.417043"><ele>835</ele></trkpt>
    <trkpt lat="48.941731" lon="20.417184"><ele>832</ele></trkpt>
    <trkpt lat="48.941969" lon="20.417349"><ele>828</ele></trkpt>
    <trkpt lat="48.942194" lon="20.417823"><ele>821</ele></trkpt>
    <trkpt lat="48.942446" lon="20.418724"><ele>804</ele></trkpt>
    <trkpt lat="48.942433" lon="20.419430"><ele>795</ele></trkpt>
    <trkpt lat="48.942561" lon="20.419889"><ele>795</ele></trkpt>
    <trkpt lat="48.942614" lon="20.420291"><ele>791</ele></trkpt>
    <trkpt lat="48.942707" lon="20.420451"><ele>791</ele></trkpt>
    <trkpt lat="48.942790" lon="20.420516"><ele>791</ele></trkpt>
    <trkpt lat="48.943237" lon="20.420747"><ele>777</ele></trkpt>
    <trkpt lat="48.943729" lon="20.420928"><ele>770</ele></trkpt>
    <trkpt lat="48.943913" lon="20.420913"><ele>768</ele></trkpt>
    <trkpt lat="48.944378" lon="20.420350"><ele>769</ele></trkpt>
    <trkpt lat="48.944463" lon="20.420157"><ele>771</ele></trkpt>
    <trkpt lat="48.944550" lon="20.419804"><ele>773</ele></trkpt>
    <trkpt lat="48.944612" lon="20.419290"><ele>774</ele></trkpt>
    <trkpt lat="48.944631" lon="20.418770"><ele>775</ele></trkpt>
    <trkpt lat="48.944680" lon="20.418587"><ele>776</ele></trkpt>
    <trkpt lat="48.944919" lon="20.418285"><ele>780</ele></trkpt>
    <trkpt lat="48.945196" lon="20.417838"><ele>785</ele></trkpt>
    <trkpt lat="48.945568" lon="20.417540"><ele>782</ele></trkpt>
    <trkpt lat="48.945757" lon="20.417168"><ele>786</ele></trkpt>
    <trkpt lat="48.945985" lon="20.416233"><ele>787</ele></trkpt>
    <trkpt lat="48.946230" lon="20.415531"><ele>784</ele></trkpt>
    <trkpt lat="48.946466" lon="20.414704"><ele>789</ele></trkpt>
    <trkpt lat="48.946540" lon="20.414199"><ele>790</ele></trkpt>
    <trkpt lat="48.946710" lon="20.413642"><ele>782</ele></trkpt>
    <trkpt lat="48.946754" lon="20.413261"><ele>787</ele></trkpt>
    <trkpt lat="48.946816" lon="20.413131"><ele>789</ele></trkpt>
    <trkpt lat="48.946860" lon="20.412917"><ele>790</ele></trkpt>
    <trkpt lat="48.946875" lon="20.412590"><ele>789</ele></trkpt>
    <trkpt lat="48.946831" lon="20.412423"><ele>789</ele></trkpt>
    <trkpt lat="48.946832" lon="20.412281"><ele>789</ele></trkpt>
    <trkpt lat="48.947049" lon="20.411903"><ele>787</ele></trkpt>
    <trkpt lat="48.948099" lon="20.410416"><ele>779</ele></trkpt>
    <trkpt lat="48.948441" lon="20.410128"><ele>779</ele></trkpt>
    <trkpt lat="48.949093" lon="20.409876"><ele>773</ele></trkpt>
    <trkpt lat="48.949309" lon="20.410001"><ele>771</ele></trkpt>
    <trkpt lat="48.949750" lon="20.409916"><ele>766</ele></trkpt>
    <trkpt lat="48.950157" lon="20.409730"><ele>756</ele></trkpt>
    <trkpt lat="48.950374" lon="20.409568"><ele>751</ele></trkpt>
    <trkpt lat="48.950512" lon="20.409344"><ele>750</ele></trkpt>
    <trkpt lat="48.950586" lon="20.409030"><ele>750</ele></trkpt>
    <trkpt lat="48.950716" lon="20.408667"><ele>749</ele></trkpt>
    <trkpt lat="48.951423" lon="20.407994"><ele>737</ele></trkpt>
    <trkpt lat="48.951736" lon="20.407608"><ele>731</ele></trkpt>
    <trkpt lat="48.951973" lon="20.406958"><ele>721</ele></trkpt>
    <trkpt lat="48.951966" lon="20.406707"><ele>719</ele></trkpt>
    <trkpt lat="48.951758" lon="20.406092"><ele>713</ele></trkpt>
    <trkpt lat="48.951510" lon="20.405688"><ele>715</ele></trkpt>
    <trkpt lat="48.951436" lon="20.405464"><ele>717</ele></trkpt>
    <trkpt lat="48.951359" lon="20.405365"><ele>718</ele></trkpt>
    <trkpt lat="48.951449" lon="20.405329"><ele>717</ele></trkpt>
    <trkpt lat="48.951640" lon="20.405390"><ele>716</ele></trkpt>
    <trkpt lat="48.952084" lon="20.405658"><ele>710</ele></trkpt>
    <trkpt lat="48.952310" lon="20.405618"><ele>712</ele></trkpt>
    <trkpt lat="48.952781" lon="20.405676"><ele>709</ele></trkpt>
    <trkpt lat="48.952906" lon="20.405615"><ele>706</ele></trkpt>
    <trkpt lat="48.952975" lon="20.405538"><ele>707</ele></trkpt>
    <trkpt lat="48.953024" lon="20.405232"><ele>717</ele></trkpt>
    <trkpt lat="48.953112" lon="20.405037"><ele>721</ele></trkpt>
    <trkpt lat="48.953378" lon="20.404644"><ele>719</ele></trkpt>
    <trkpt lat="48.953572" lon="20.404210"><ele>720</ele></trkpt>
    <trkpt lat="48.953845" lon="20.403778"><ele>717</ele></trkpt>
    <trkpt lat="48.953975" lon="20.403599"><ele>716</ele></trkpt>
    <trkpt lat="48.954125" lon="20.403492"><ele>716</ele></trkpt>
    <trkpt lat="48.955111" lon="20.402510"><ele>702</ele></trkpt>
    <trkpt lat="48.955698" lon="20.401646"><ele>694</ele></trkpt>
    <trkpt lat="48.956530" lon="20.401213"><ele>673</ele></trkpt>
    <trkpt lat="48.956751" lon="20.401177"><ele>670</ele></trkpt>
    <trkpt lat="48.957199" lon="20.401187"><ele>661</ele></trkpt>
    <trkpt lat="48.957281" lon="20.400988"><ele>657</ele></trkpt>
    <trkpt lat="48.957248" lon="20.400561"><ele>652</ele></trkpt>
    <trkpt lat="48.957301" lon="20.400281"><ele>646</ele></trkpt>
    <trkpt lat="48.957431" lon="20.400226"><ele>641</ele></trkpt>
    <trkpt lat="48.957696" lon="20.400342"><ele>633</ele></trkpt>
    <trkpt lat="48.957825" lon="20.400367"><ele>627</ele></trkpt>
    <trkpt lat="48.957909" lon="20.400328"><ele>622</ele></trkpt>
    <trkpt lat="48.957904" lon="20.400171"><ele>619</ele></trkpt>
    <trkpt lat="48.957726" lon="20.399751"><ele>615</ele></trkpt>
    <trkpt lat="48.957592" lon="20.399503"><ele>611</ele></trkpt>
    <trkpt lat="48.957321" lon="20.399145"><ele>606</ele></trkpt>
    <trkpt lat="48.957293" lon="20.399028"><ele>606</ele></trkpt>
    <trkpt lat="48.957321" lon="20.398945"><ele>605</ele></trkpt>
    <trkpt lat="48.957506" lon="20.398807"><ele>605</ele></trkpt>
    <trkpt lat="48.957824" lon="20.398729"><ele>609</ele></trkpt>
    <trkpt lat="48.958150" lon="20.398840"><ele>610</ele></trkpt>
    <trkpt lat="48.958394" lon="20.399002"><ele>608</ele></trkpt>
    <trkpt lat="48.958845" lon="20.398891"><ele>610</ele></trkpt>
    <trkpt lat="48.959010" lon="20.398812"><ele>610</ele></trkpt>
    <trkpt lat="48.959205" lon="20.398653"><ele>606</ele></trkpt>
    <trkpt lat="48.959282" lon="20.398642"><ele>604</ele></trkpt>
    <trkpt lat="48.959464" lon="20.398732"><ele>597</ele></trkpt>
    <trkpt lat="48.959704" lon="20.398923"><ele>586</ele></trkpt>
    <trkpt lat="48.959932" lon="20.399263"><ele>577</ele></trkpt>
    <trkpt lat="48.959981" lon="20.399297"><ele>575</ele></trkpt>
    <trkpt lat="48.960178" lon="20.399283"><ele>571</ele></trkpt>
    <trkpt lat="48.960393" lon="20.399565"><ele>564</ele></trkpt>
    <trkpt lat="48.960754" lon="20.399758"><ele>560</ele></trkpt>
    <trkpt lat="48.960956" lon="20.399940"><ele>559</ele></trkpt>
    <trkpt lat="48.961523" lon="20.400249"><ele>563</ele></trkpt>
    <trkpt lat="48.961641" lon="20.400372"><ele>564</ele></trkpt>
    <trkpt lat="48.961902" lon="20.400966"><ele>561</ele></trkpt>
    <trkpt lat="48.962230" lon="20.401820"><ele>548</ele></trkpt>
    <trkpt lat="48.962239" lon="20.401951"><ele>545</ele></trkpt>
    <trkpt lat="48.962309" lon="20.401975"><ele>543</ele></trkpt>
    <trkpt lat="48.962370" lon="20.402069"><ele>540</ele></trkpt>
    <trkpt lat="48.962335" lon="20.402285"><ele>535</ele></trkpt>
    <trkpt lat="48.962391" lon="20.402411"><ele>533</ele></trkpt>
    <trkpt lat="48.962303" lon="20.402565"><ele>532</ele></trkpt>
    <trkpt lat="48.962206" lon="20.402943"><ele>537</ele></trkpt>
  </trkseg></trk>
</gpx>
