<?xml version="1.0" encoding="UTF-8"?>
<gpx version="1.1" creator="MounTour (OpenStreetMap)" xmlns="http://www.topografix.com/GPX/1/1">
  <metadata><name>Obrovský vodopád</name><copyright author="OpenStreetMap contributors"><license>https://opendatacommons.org/licenses/odbl/</license></copyright></metadata>
  <trk><name>Obrovský vodopád</name><trkseg>
    <trkpt lat="49.141015" lon="20.220360"><ele>1022</ele></trkpt>
    <trkpt lat="49.141157" lon="20.220402"><ele>1023</ele></trkpt>
    <trkpt lat="49.141357" lon="20.220557"><ele>1024</ele></trkpt>
    <trkpt lat="49.141453" lon="20.220722"><ele>1026</ele></trkpt>
    <trkpt lat="49.141500" lon="20.220913"><ele>1027</ele></trkpt>
    <trkpt lat="49.141593" lon="20.221036"><ele>1028</ele></trkpt>
    <trkpt lat="49.141949" lon="20.220729"><ele>1034</ele></trkpt>
    <trkpt lat="49.142199" lon="20.220259"><ele>1037</ele></trkpt>
    <trkpt lat="49.142459" lon="20.220019"><ele>1039</ele></trkpt>
    <trkpt lat="49.142768" lon="20.219828"><ele>1043</ele></trkpt>
    <trkpt lat="49.142915" lon="20.219801"><ele>1044</ele></trkpt>
    <trkpt lat="49.143096" lon="20.219662"><ele>1046</ele></trkpt>
    <trkpt lat="49.143579" lon="20.219553"><ele>1053</ele></trkpt>
    <trkpt lat="49.143854" lon="20.219702"><ele>1058</ele></trkpt>
    <trkpt lat="49.144242" lon="20.219781"><ele>1064</ele></trkpt>
    <trkpt lat="49.144424" lon="20.219904"><ele>1066</ele></trkpt>
    <trkpt lat="49.144757" lon="20.219984"><ele>1071</ele></trkpt>
    <trkpt lat="49.145361" lon="20.220574"><ele>1079</ele></trkpt>
    <trkpt lat="49.145430" lon="20.220707"><ele>1080</ele></trkpt>
    <trkpt lat="49.145781" lon="20.221027"><ele>1085</ele></trkpt>
    <trkpt lat="49.146181" lon="20.221533"><ele>1090</ele></trkpt>
    <trkpt lat="49.146557" lon="20.221804"><ele>1097</ele></trkpt>
    <trkpt lat="49.146942" lon="20.222260"><ele>1104</ele></trkpt>
    <trkpt lat="49.147185" lon="20.222481"><ele>1108</ele></trkpt>
    <trkpt lat="49.147386" lon="20.222628"><ele>1111</ele></trkpt>
    <trkpt lat="49.148135" lon="20.222985"><ele>1121</ele></trkpt>
    <trkpt lat="49.149194" lon="20.222999"><ele>1136</ele></trkpt>
    <trkpt lat="49.149475" lon="20.222886"><ele>1140</ele></trkpt>
    <trkpt lat="49.149641" lon="20.222963"><ele>1142</ele></trkpt>
    <trkpt lat="49.149732" lon="20.223080"><ele>1143</ele></trkpt>
    <trkpt lat="49.149807" lon="20.223038"><ele>1144</ele></trkpt>
    <trkpt lat="49.150006" lon="20.223099"><ele>1147</ele></trkpt>
    <trkpt lat="49.150164" lon="20.223087"><ele>1149</ele></trkpt>
    <trkpt lat="49.150427" lon="20.223330"><ele>1153</ele></trkpt>
    <trkpt lat="49.150488" lon="20.223344"><ele>1154</ele></trkpt>
    <trkpt lat="49.151063" lon="20.223227"><ele>1162</ele></trkpt>
    <trkpt lat="49.151144" lon="20.223180"><ele>1163</ele></trkpt>
    <trkpt lat="49.151425" lon="20.222809"><ele>1167</ele></trkpt>
    <trkpt lat="49.151636" lon="20.222692"><ele>1171</ele></trkpt>
    <trkpt lat="49.151792" lon="20.222705"><ele>1173</ele></trkpt>
    <trkpt lat="49.151969" lon="20.222592"><ele>1176</ele></trkpt>
    <trkpt lat="49.152113" lon="20.222560"><ele>1178</ele></trkpt>
    <trkpt lat="49.152793" lon="20.222762"><ele>1188</ele></trkpt>
    <trkpt lat="49.152910" lon="20.222870"><ele>1190</ele></trkpt>
    <trkpt lat="49.153406" lon="20.223174"><ele>1197</ele></trkpt>
    <trkpt lat="49.153570" lon="20.223340"><ele>1199</ele></trkpt>
    <trkpt lat="49.154011" lon="20.223588"><ele>1204</ele></trkpt>
    <trkpt lat="49.154402" lon="20.223608"><ele>1210</ele></trkpt>
    <trkpt lat="49.154932" lon="20.223710"><ele>1219</ele></trkpt>
    <trkpt lat="49.155226" lon="20.223851"><ele>1223</ele></trkpt>
    <trkpt lat="49.155407" lon="20.224013"><ele>1225</ele></trkpt>
    <trkpt lat="49.155742" lon="20.224175"><ele>1230</ele></trkpt>
    <trkpt lat="49.155908" lon="20.224171"><ele>1234</ele></trkpt>
    <trkpt lat="49.156236" lon="20.224344"><ele>1240</ele></trkpt>
    <trkpt lat="49.156604" lon="20.224364"><ele>1249</ele></trkpt>
    <trkpt lat="49.156769" lon="20.224538"><ele>1250</ele></trkpt>
    <trkpt lat="49.157189" lon="20.224621"><ele>1256</ele></trkpt>
    <trkpt lat="49.157337" lon="20.224729"><ele>1259</ele></trkpt>
    <trkpt lat="49.157608" lon="20.224746"><ele>1265</ele></trkpt>
    <trkpt lat="49.158025" lon="20.224964"><ele>1266</ele></trkpt>
    <trkpt lat="49.158359" lon="20.225029"><ele>1270</ele></trkpt>
    <trkpt lat="49.158399" lon="20.224911"><ele>1272</ele></trkpt>
    <trkpt lat="49.158440" lon="20.224912"><ele>1272</ele></trkpt>
    <trkpt lat="49.158712" lon="20.225060"><ele>1275</ele></trkpt>
    <trkpt lat="49.158794" lon="20.225006"><ele>1276</ele></trkpt>
    <trkpt lat="49.159021" lon="20.224644"><ele>1278</ele></trkpt>
    <trkpt lat="49.159137" lon="20.224248"><ele>1284</ele></trkpt>
    <trkpt lat="49.159365" lon="20.223975"><ele>1283</ele></trkpt>
    <trkpt lat="49.159599" lon="20.223801"><ele>1283</ele></trkpt>
    <trkpt lat="49.159990" lon="20.223693"><ele>1286</ele></trkpt>
    <trkpt lat="49.160268" lon="20.223550"><ele>1286</ele></trkpt>
    <trkpt lat="49.160682" lon="20.223223"><ele>1292</ele></trkpt>
    <trkpt lat="49.161112" lon="20.222794"><ele>1298</ele></trkpt>
    <trkpt lat="49.161444" lon="20.222414"><ele>1301</ele></trkpt>
    <trkpt lat="49.161578" lon="20.222185"><ele>1301</ele></trkpt>
    <trkpt lat="49.161745" lon="20.222021"><ele>1298</ele></trkpt>
    <trkpt lat="49.161888" lon="20.221655"><ele>1319</ele></trkpt>
    <trkpt lat="49.162038" lon="20.221478"><ele>1319</ele></trkpt>
    <trkpt lat="49.162293" lon="20.221365"><ele>1305</ele></trkpt>
    <trkpt lat="49.162435" lon="20.221221"><ele>1305</ele></trkpt>
    <trkpt lat="49.162547" lon="20.221011"><ele>1306</ele></trkpt>
    <trkpt lat="49.162607" lon="20.220673"><ele>1314</ele></trkpt>
    <trkpt lat="49.162827" lon="20.220445"><ele>1306</ele></trkpt>
    <trkpt lat="49.163016" lon="20.220157"><ele>1312</ele></trkpt>
    <trkpt lat="49.163815" lon="20.219694"><ele>1305</ele></trkpt>
    <trkpt lat="49.163934" lon="20.219685"><ele>1305</ele></trkpt>
    <trkpt lat="49.164413" lon="20.219851"><ele>1300</ele></trkpt>
    <trkpt lat="49.164711" lon="20.219705"><ele>1305</ele></trkpt>
    <trkpt lat="49.165307" lon="20.219006"><ele>1315</ele></trkpt>
    <trkpt lat="49.165640" lon="20.218868"><ele>1311</ele></trkpt>
    <trkpt lat="49.165772" lon="20.218697"><ele>1311</ele></trkpt>
    <trkpt lat="49.165943" lon="20.218567"><ele>1312</ele></trkpt>
    <trkpt lat="49.165990" lon="20.218486"><ele>1312</ele></trkpt>
    <trkpt lat="49.166037" lon="20.218132"><ele>1314</ele></trkpt>
    <trkpt lat="49.166106" lon="20.217977"><ele>1313</ele></trkpt>
    <trkpt lat="49.166614" lon="20.217550"><ele>1316</ele></trkpt>
    <trkpt lat="49.167194" lon="20.217317"><ele>1326</ele></trkpt>
    <trkpt lat="49.167468" lon="20.217057"><ele>1317</ele></trkpt>
    <trkpt lat="49.167903" lon="20.216935"><ele>1306</ele></trkpt>
    <trkpt lat="49.168140" lon="20.216942"><ele>1303</ele></trkpt>
    <trkpt lat="49.168389" lon="20.216795"><ele>1304</ele></trkpt>
    <trkpt lat="49.168546" lon="20.216866"><ele>1304</ele></trkpt>
    <trkpt lat="49.168720" lon="20.216781"><ele>1307</ele></trkpt>
    <trkpt lat="49.169069" lon="20.216322"><ele>1312</ele></trkpt>
    <trkpt lat="49.169208" lon="20.216061"><ele>1314</ele></trkpt>
    <trkpt lat="49.169524" lon="20.215117"><ele>1328</ele></trkpt>
    <trkpt lat="49.169582" lon="20.214738"><ele>1339</ele></trkpt>
    <trkpt lat="49.169613" lon="20.214744"><ele>1340</ele></trkpt>
    <trkpt lat="49.169668" lon="20.214912"><ele>1338</ele></trkpt>
    <trkpt lat="49.169711" lon="20.215367"><ele>1331</ele></trkpt>
    <trkpt lat="49.169927" lon="20.215901"><ele>1337</ele></trkpt>
    <trkpt lat="49.170081" lon="20.216386"><ele>1342</ele></trkpt>
    <trkpt lat="49.170141" lon="20.216786"><ele>1344</ele></trkpt>
    <trkpt lat="49.170150" lon="20.217609"><ele>1349</ele></trkpt>
    <trkpt lat="49.170264" lon="20.217923"><ele>1354</ele></trkpt>
    <trkpt lat="49.170375" lon="20.218423"><ele>1360</ele></trkpt>
    <trkpt lat="49.170264" lon="20.217923"><ele>1354</ele></trkpt>
    <trkpt lat="49.170150" lon="20.217609"><ele>1349</ele></trkpt>
    <trkpt lat="49.170141" lon="20.216786"><ele>1344</ele></trkpt>
    <trkpt lat="49.170081" lon="20.216386"><ele>1342</ele></trkpt>
    <trkpt lat="49.169927" lon="20.215901"><ele>1337</ele></trkpt>
    <trkpt lat="49.169711" lon="20.215367"><ele>1331</ele></trkpt>
    <trkpt lat="49.169668" lon="20.214912"><ele>1338</ele></trkpt>
    <trkpt lat="49.169613" lon="20.214744"><ele>1340</ele></trkpt>
    <trkpt lat="49.169582" lon="20.214738"><ele>1339</ele></trkpt>
    <trkpt lat="49.169524" lon="20.215117"><ele>1328</ele></trkpt>
    <trkpt lat="49.169208" lon="20.216061"><ele>1314</ele></trkpt>
    <trkpt lat="49.169069" lon="20.216322"><ele>1312</ele></trkpt>
    <trkpt lat="49.168720" lon="20.216781"><ele>1307</ele></trkpt>
    <trkpt lat="49.168546" lon="20.216866"><ele>1304</ele></trkpt>
    <trkpt lat="49.168389" lon="20.216795"><ele>1304</ele></trkpt>
    <trkpt lat="49.168140" lon="20.216942"><ele>1303</ele></trkpt>
    <trkpt lat="49.167903" lon="20.216935"><ele>1306</ele></trkpt>
    <trkpt lat="49.167468" lon="20.217057"><ele>1317</ele></trkpt>
    <trkpt lat="49.167194" lon="20.217317"><ele>1326</ele></trkpt>
    <trkpt lat="49.166614" lon="20.217550"><ele>1316</ele></trkpt>
    <trkpt lat="49.166106" lon="20.217977"><ele>1313</ele></trkpt>
    <trkpt lat="49.166037" lon="20.218132"><ele>1314</ele></trkpt>
    <trkpt lat="49.165990" lon="20.218486"><ele>1312</ele></trkpt>
    <trkpt lat="49.165943" lon="20.218567"><ele>1312</ele></trkpt>
    <trkpt lat="49.165772" lon="20.218697"><ele>1311</ele></trkpt>
    <trkpt lat="49.165640" lon="20.218868"><ele>1311</ele></trkpt>
    <trkpt lat="49.165307" lon="20.219006"><ele>1315</ele></trkpt>
    <trkpt lat="49.164711" lon="20.219705"><ele>1305</ele></trkpt>
    <trkpt lat="49.164413" lon="20.219851"><ele>1300</ele></trkpt>
    <trkpt lat="49.163934" lon="20.219685"><ele>1305</ele></trkpt>
    <trkpt lat="49.163815" lon="20.219694"><ele>1305</ele></trkpt>
    <trkpt lat="49.163016" lon="20.220157"><ele>1312</ele></trkpt>
    <trkpt lat="49.162827" lon="20.220445"><ele>1306</ele></trkpt>
    <trkpt lat="49.162607" lon="20.220673"><ele>1314</ele></trkpt>
    <trkpt lat="49.162547" lon="20.221011"><ele>1306</ele></trkpt>
    <trkpt lat="49.162435" lon="20.221221"><ele>1305</ele></trkpt>
    <trkpt lat="49.162293" lon="20.221365"><ele>1305</ele></trkpt>
    <trkpt lat="49.162038" lon="20.221478"><ele>1319</ele></trkpt>
    <trkpt lat="49.161888" lon="20.221655"><ele>1319</ele></trkpt>
    <trkpt lat="49.161745" lon="20.222021"><ele>1298</ele></trkpt>
    <trkpt lat="49.161578" lon="20.222185"><ele>1301</ele></trkpt>
    <trkpt lat="49.161444" lon="20.222414"><ele>1301</ele></trkpt>
    <trkpt lat="49.161112" lon="20.222794"><ele>1298</ele></trkpt>
    <trkpt lat="49.160682" lon="20.223223"><ele>1292</ele></trkpt>
    <trkpt lat="49.160268" lon="20.223550"><ele>1286</ele></trkpt>
    <trkpt lat="49.159990" lon="20.223693"><ele>1286</ele></trkpt>
    <trkpt lat="49.159599" lon="20.223801"><ele>1283</ele></trkpt>
    <trkpt lat="49.159365" lon="20.223975"><ele>1283</ele></trkpt>
    <trkpt lat="49.159137" lon="20.224248"><ele>1284</ele></trkpt>
    <trkpt lat="49.159021" lon="20.224644"><ele>1278</ele></trkpt>
    <trkpt lat="49.158794" lon="20.225006"><ele>1276</ele></trkpt>
    <trkpt lat="49.158712" lon="20.225060"><ele>1275</ele></trkpt>
    <trkpt lat="49.158440" lon="20.224912"><ele>1272</ele></trkpt>
    <trkpt lat="49.158399" lon="20.224911"><ele>1272</ele></trkpt>
    <trkpt lat="49.158359" lon="20.225029"><ele>1270</ele></trkpt>
    <trkpt lat="49.158025" lon="20.224964"><ele>1266</ele></trkpt>
    <trkpt lat="49.157608" lon="20.224746"><ele>1265</ele></trkpt>
    <trkpt lat="49.157337" lon="20.224729"><ele>1259</ele></trkpt>
    <trkpt lat="49.157189" lon="20.224621"><ele>1256</ele></trkpt>
    <trkpt lat="49.156769" lon="20.224538"><ele>1250</ele></trkpt>
    <trkpt lat="49.156604" lon="20.224364"><ele>1249</ele></trkpt>
    <trkpt lat="49.156236" lon="20.224344"><ele>1240</ele></trkpt>
    <trkpt lat="49.155908" lon="20.224171"><ele>1234</ele></trkpt>
    <trkpt lat="49.155742" lon="20.224175"><ele>1230</ele></trkpt>
    <trkpt lat="49.155407" lon="20.224013"><ele>1225</ele></trkpt>
    <trkpt lat="49.155226" lon="20.223851"><ele>1223</ele></trkpt>
    <trkpt lat="49.154932" lon="20.223710"><ele>1219</ele></trkpt>
    <trkpt lat="49.154402" lon="20.223608"><ele>1210</ele></trkpt>
    <trkpt lat="49.154011" lon="20.223588"><ele>1204</ele></trkpt>
    <trkpt lat="49.153570" lon="20.223340"><ele>1199</ele></trkpt>
    <trkpt lat="49.153406" lon="20.223174"><ele>1197</ele></trkpt>
    <trkpt lat="49.152910" lon="20.222870"><ele>1190</ele></trkpt>
    <trkpt lat="49.152793" lon="20.222762"><ele>1188</ele></trkpt>
    <trkpt lat="49.152113" lon="20.222560"><ele>1178</ele></trkpt>
    <trkpt lat="49.151969" lon="20.222592"><ele>1176</ele></trkpt>
    <trkpt lat="49.151792" lon="20.222705"><ele>1173</ele></trkpt>
    <trkpt lat="49.151636" lon="20.222692"><ele>1171</ele></trkpt>
    <trkpt lat="49.151425" lon="20.222809"><ele>1167</ele></trkpt>
    <trkpt lat="49.151144" lon="20.223180"><ele>1163</ele></trkpt>
    <trkpt lat="49.151063" lon="20.223227"><ele>1162</ele></trkpt>
    <trkpt lat="49.150488" lon="20.223344"><ele>1154</ele></trkpt>
    <trkpt lat="49.150427" lon="20.223330"><ele>1153</ele></trkpt>
    <trkpt lat="49.150164" lon="20.223087"><ele>1149</ele></trkpt>
    <trkpt lat="49.150006" lon="20.223099"><ele>1147</ele></trkpt>
    <trkpt lat="49.149807" lon="20.223038"><ele>1144</ele></trkpt>
    <trkpt lat="49.149732" lon="20.223080"><ele>1143</ele></trkpt>
    <trkpt lat="49.149641" lon="20.222963"><ele>1142</ele></trkpt>
    <trkpt lat="49.149475" lon="20.222886"><ele>1140</ele></trkpt>
    <trkpt lat="49.149194" lon="20.222999"><ele>1136</ele></trkpt>
    <trkpt lat="49.148135" lon="20.222985"><ele>1121</ele></trkpt>
    <trkpt lat="49.147386" lon="20.222628"><ele>1111</ele></trkpt>
    <trkpt lat="49.147185" lon="20.222481"><ele>1108</ele></trkpt>
    <trkpt lat="49.146942" lon="20.222260"><ele>1104</ele></trkpt>
    <trkpt lat="49.146557" lon="20.221804"><ele>1097</ele></trkpt>
    <trkpt lat="49.146181" lon="20.221533"><ele>1090</ele></trkpt>
    <trkpt lat="49.145781" lon="20.221027"><ele>1085</ele></trkpt>
    <trkpt lat="49.145430" lon="20.220707"><ele>1080</ele></trkpt>
    <trkpt lat="49.145361" lon="20.220574"><ele>1079</ele></trkpt>
    <trkpt lat="49.144757" lon="20.219984"><ele>1071</ele></trkpt>
    <trkpt lat="49.144424" lon="20.219904"><ele>1066</ele></trkpt>
    <trkpt lat="49.144242" lon="20.219781"><ele>1064</ele></trkpt>
    <trkpt lat="49.143854" lon="20.219702"><ele>1058</ele></trkpt>
    <trkpt lat="49.143579" lon="20.219553"><ele>1053</ele></trkpt>
    <trkpt lat="49.143096" lon="20.219662"><ele>1046</ele></trkpt>
    <trkpt lat="49.142915" lon="20.219801"><ele>1044</ele></trkpt>
    <trkpt lat="49.142768" lon="20.219828"><ele>1043</ele></trkpt>
    <trkpt lat="49.142459" lon="20.220019"><ele>1039</ele></trkpt>
    <trkpt lat="49.142199" lon="20.220259"><ele>1037</ele></trkpt>
    <trkpt lat="49.141949" lon="20.220729"><ele>1034</ele></trkpt>
    <trkpt lat="49.141593" lon="20.221036"><ele>1028</ele></trkpt>
    <trkpt lat="49.141500" lon="20.220913"><ele>1027</ele></trkpt>
    <trkpt lat="49.141453" lon="20.220722"><ele>1026</ele></trkpt>
    <trkpt lat="49.141357" lon="20.220557"><ele>1024</ele></trkpt>
    <trkpt lat="49.141157" lon="20.220402"><ele>1023</ele></trkpt>
    <trkpt lat="49.141015" lon="20.220360"><ele>1022</ele></trkpt>
  </trkseg></trk>
</gpx>
