<?xml version="1.0" encoding="UTF-8"?>
<gpx version="1.1" creator="MounTour (OpenStreetMap)" xmlns="http://www.topografix.com/GPX/1/1">
  <metadata><name>Ogurčiak</name><copyright author="OpenStreetMap contributors"><license>https://opendatacommons.org/licenses/odbl/</license></copyright></metadata>
  <trk><name>Ogurčiak</name><trkseg>
    <trkpt lat="48.943368" lon="20.346558"><ele>595</ele></trkpt>
    <trkpt lat="48.943055" lon="20.346211"><ele>595</ele></trkpt>
    <trkpt lat="48.942724" lon="20.346716"><ele>617</ele></trkpt>
    <trkpt lat="48.942546" lon="20.346728"><ele>625</ele></trkpt>
    <trkpt lat="48.942205" lon="20.346649"><ele>637</ele></trkpt>
    <trkpt lat="48.941773" lon="20.346454"><ele>650</ele></trkpt>
    <trkpt lat="48.941280" lon="20.346091"><ele>661</ele></trkpt>
    <trkpt lat="48.940916" lon="20.345902"><ele>670</ele></trkpt>
    <trkpt lat="48.940649" lon="20.345789"><ele>677</ele></trkpt>
    <trkpt lat="48.940538" lon="20.345798"><ele>681</ele></trkpt>
    <trkpt lat="48.940488" lon="20.345874"><ele>684</ele></trkpt>
    <trkpt lat="48.940633" lon="20.346037"><ele>683</ele></trkpt>
    <trkpt lat="48.940925" lon="20.347090"><ele>698</ele></trkpt>
    <trkpt lat="48.940964" lon="20.347635"><ele>702</ele></trkpt>
    <trkpt lat="48.940956" lon="20.347766"><ele>703</ele></trkpt>
    <trkpt lat="48.940925" lon="20.347846"><ele>705</ele></trkpt>
    <trkpt lat="48.940885" lon="20.347866"><ele>707</ele></trkpt>
    <trkpt lat="48.940833" lon="20.347843"><ele>709</ele></trkpt>
    <trkpt lat="48.940698" lon="20.347511"><ele>714</ele></trkpt>
    <trkpt lat="48.940601" lon="20.347372"><ele>718</ele></trkpt>
    <trkpt lat="48.940088" lon="20.347035"><ele>730</ele></trkpt>
    <trkpt lat="48.939813" lon="20.346941"><ele>738</ele></trkpt>
    <trkpt lat="48.939500" lon="20.346767"><ele>747</ele></trkpt>
    <trkpt lat="48.939251" lon="20.346059"><ele>745</ele></trkpt>
    <trkpt lat="48.938995" lon="20.345695"><ele>748</ele></trkpt>
    <trkpt lat="48.938876" lon="20.345583"><ele>749</ele></trkpt>
    <trkpt lat="48.938766" lon="20.345556"><ele>749</ele></trkpt>
    <trkpt lat="48.938639" lon="20.345584"><ele>752</ele></trkpt>
    <trkpt lat="48.938220" lon="20.345823"><ele>761</ele></trkpt>
    <trkpt lat="48.938089" lon="20.345848"><ele>763</ele></trkpt>
    <trkpt lat="48.937989" lon="20.345812"><ele>766</ele></trkpt>
    <trkpt lat="48.937825" lon="20.345365"><ele>763</ele></trkpt>
    <trkpt lat="48.937480" lon="20.344857"><ele>766</ele></trkpt>
    <trkpt lat="48.937356" lon="20.344797"><ele>766</ele></trkpt>
    <trkpt lat="48.937001" lon="20.344811"><ele>774</ele></trkpt>
    <trkpt lat="48.936578" lon="20.344382"><ele>778</ele></trkpt>
    <trkpt lat="48.936515" lon="20.344208"><ele>778</ele></trkpt>
    <trkpt lat="48.936457" lon="20.343827"><ele>775</ele></trkpt>
    <trkpt lat="48.936338" lon="20.343634"><ele>777</ele></trkpt>
    <trkpt lat="48.935961" lon="20.343426"><ele>784</ele></trkpt>
    <trkpt lat="48.935299" lon="20.343338"><ele>791</ele></trkpt>
    <trkpt lat="48.935092" lon="20.343363"><ele>793</ele></trkpt>
    <trkpt lat="48.934955" lon="20.343475"><ele>792</ele></trkpt>
    <trkpt lat="48.934877" lon="20.343608"><ele>791</ele></trkpt>
    <trkpt lat="48.934914" lon="20.343800"><ele>792</ele></trkpt>
    <trkpt lat="48.935075" lon="20.344054"><ele>798</ele></trkpt>
    <trkpt lat="48.935236" lon="20.344444"><ele>805</ele></trkpt>
    <trkpt lat="48.935356" lon="20.344980"><ele>813</ele></trkpt>
    <trkpt lat="48.935443" lon="20.346122"><ele>826</ele></trkpt>
    <trkpt lat="48.935435" lon="20.346519"><ele>829</ele></trkpt>
    <trkpt lat="48.935515" lon="20.347189"><ele>837</ele></trkpt>
    <trkpt lat="48.935435" lon="20.346519"><ele>829</ele></trkpt>
    <trkpt lat="48.935443" lon="20.346122"><ele>826</ele></trkpt>
    <trkpt lat="48.935395" lon="20.345300"><ele>817</ele></trkpt>
    <trkpt lat="48.935301" lon="20.344673"><ele>809</ele></trkpt>
    <trkpt lat="48.935157" lon="20.344243"><ele>802</ele></trkpt>
    <trkpt lat="48.934878" lon="20.343692"><ele>791</ele></trkpt>
    <trkpt lat="48.934877" lon="20.343608"><ele>791</ele></trkpt>
    <trkpt lat="48.934955" lon="20.343475"><ele>792</ele></trkpt>
    <trkpt lat="48.935092" lon="20.343363"><ele>793</ele></trkpt>
    <trkpt lat="48.935236" lon="20.343338"><ele>792</ele></trkpt>
    <trkpt lat="48.935961" lon="20.343426"><ele>784</ele></trkpt>
    <trkpt lat="48.936338" lon="20.343634"><ele>777</ele></trkpt>
    <trkpt lat="48.936457" lon="20.343827"><ele>775</ele></trkpt>
    <trkpt lat="48.936515" lon="20.344208"><ele>778</ele></trkpt>
    <trkpt lat="48.936578" lon="20.344382"><ele>778</ele></trkpt>
    <trkpt lat="48.937001" lon="20.344811"><ele>774</ele></trkpt>
    <trkpt lat="48.937356" lon="20.344797"><ele>766</ele></trkpt>
    <trkpt lat="48.937480" lon="20.344857"><ele>766</ele></trkpt>
    <trkpt lat="48.937825" lon="20.345365"><ele>763</ele></trkpt>
    <trkpt lat="48.937960" lon="20.345762"><ele>766</ele></trkpt>
    <trkpt lat="48.938032" lon="20.345840"><ele>765</ele></trkpt>
    <trkpt lat="48.938220" lon="20.345823"><ele>761</ele></trkpt>
    <trkpt lat="48.938639" lon="20.345584"><ele>752</ele></trkpt>
    <trkpt lat="48.938766" lon="20.345556"><ele>749</ele></trkpt>
    <trkpt lat="48.938876" lon="20.345583"><ele>749</ele></trkpt>
    <trkpt lat="48.938995" lon="20.345695"><ele>748</ele></trkpt>
    <trkpt lat="48.939251" lon="20.346059"><ele>745</ele></trkpt>
    <trkpt lat="48.939500" lon="20.346767"><ele>747</ele></trkpt>
    <trkpt lat="48.939813" lon="20.346941"><ele>738</ele></trkpt>
    <trkpt lat="48.940088" lon="20.347035"><ele>730</ele></trkpt>
    <trkpt lat="48.940601" lon="20.347372"><ele>718</ele></trkpt>
    <trkpt lat="48.940698" lon="20.347511"><ele>714</ele></trkpt>
    <trkpt lat="48.940833" lon="20.347843"><ele>709</ele></trkpt>
    <trkpt lat="48.940885" lon="20.347866"><ele>707</ele></trkpt>
    <trkpt lat="48.940925" lon="20.347846"><ele>705</ele></trkpt>
    <trkpt lat="48.940956" lon="20.347766"><ele>703</ele></trkpt>
    <trkpt lat="48.940964" lon="20.347635"><ele>702</ele></trkpt>
    <trkpt lat="48.940925" lon="20.347090"><ele>698</ele></trkpt>
    <trkpt lat="48.940633" lon="20.346037"><ele>683</ele></trkpt>
    <trkpt lat="48.940488" lon="20.345874"><ele>684</ele></trkpt>
    <trkpt lat="48.940538" lon="20.345798"><ele>681</ele></trkpt>
    <trkpt lat="48.940649" lon="20.345789"><ele>677</ele></trkpt>
    <trkpt lat="48.940916" lon="20.345902"><ele>670</ele></trkpt>
    <trkpt lat="48.941280" lon="20.346091"><ele>661</ele></trkpt>
    <trkpt lat="48.941773" lon="20.346454"><ele>650</ele></trkpt>
    <trkpt lat="48.942205" lon="20.346649"><ele>637</ele></trkpt>
    <trkpt lat="48.942546" lon="20.346728"><ele>625</ele></trkpt>
    <trkpt lat="48.942724" lon="20.346716"><ele>617</ele></trkpt>
    <trkpt lat="48.943055" lon="20.346211"><ele>595</ele></trkpt>
    <trkpt lat="48.943368" lon="20.346558"><ele>595</ele></trkpt>
  </trkseg></trk>
</gpx>
