<?xml version="1.0" encoding="UTF-8"?>
<gpx version="1.1" creator="MounTour (OpenStreetMap)" xmlns="http://www.topografix.com/GPX/1/1">
  <metadata><name>Okno v Mníchu</name><copyright author="OpenStreetMap contributors"><license>https://opendatacommons.org/licenses/odbl/</license></copyright></metadata>
  <trk><name>Okno v Mníchu</name><trkseg>
    <trkpt lat="49.241308" lon="19.028854"><ele>1014</ele></trkpt>
    <trkpt lat="49.241341" lon="19.029144"><ele>1009</ele></trkpt>
    <trkpt lat="49.241417" lon="19.029286"><ele>1006</ele></trkpt>
    <trkpt lat="49.241771" lon="19.029132"><ele>998</ele></trkpt>
    <trkpt lat="49.241826" lon="19.029248"><ele>997</ele></trkpt>
    <trkpt lat="49.241749" lon="19.029653"><ele>1006</ele></trkpt>
    <trkpt lat="49.241791" lon="19.029787"><ele>1005</ele></trkpt>
    <trkpt lat="49.241665" lon="19.029996"><ele>1007</ele></trkpt>
    <trkpt lat="49.241597" lon="19.030254"><ele>991</ele></trkpt>
    <trkpt lat="49.241607" lon="19.030453"><ele>979</ele></trkpt>
    <trkpt lat="49.241678" lon="19.030510"><ele>981</ele></trkpt>
    <trkpt lat="49.241819" lon="19.030404"><ele>990</ele></trkpt>
    <trkpt lat="49.241986" lon="19.030437"><ele>989</ele></trkpt>
    <trkpt lat="49.242034" lon="19.030364"><ele>989</ele></trkpt>
    <trkpt lat="49.242092" lon="19.030371"><ele>986</ele></trkpt>
    <trkpt lat="49.242394" lon="19.030545"><ele>966</ele></trkpt>
    <trkpt lat="49.242437" lon="19.030655"><ele>961</ele></trkpt>
    <trkpt lat="49.242435" lon="19.030738"><ele>959</ele></trkpt>
    <trkpt lat="49.242360" lon="19.031009"><ele>954</ele></trkpt>
    <trkpt lat="49.242345" lon="19.031121"><ele>951</ele></trkpt>
    <trkpt lat="49.242370" lon="19.031212"><ele>948</ele></trkpt>
    <trkpt lat="49.242786" lon="19.031586"><ele>927</ele></trkpt>
    <trkpt lat="49.243135" lon="19.031594"><ele>914</ele></trkpt>
    <trkpt lat="49.243335" lon="19.031476"><ele>904</ele></trkpt>
    <trkpt lat="49.243678" lon="19.031375"><ele>894</ele></trkpt>
    <trkpt lat="49.243739" lon="19.031453"><ele>896</ele></trkpt>
    <trkpt lat="49.243809" lon="19.031990"><ele>889</ele></trkpt>
    <trkpt lat="49.244075" lon="19.033237"><ele>856</ele></trkpt>
    <trkpt lat="49.244189" lon="19.033335"><ele>856</ele></trkpt>
    <trkpt lat="49.244413" lon="19.033671"><ele>849</ele></trkpt>
    <trkpt lat="49.244446" lon="19.033840"><ele>840</ele></trkpt>
    <trkpt lat="49.244427" lon="19.033988"><ele>830</ele></trkpt>
    <trkpt lat="49.244372" lon="19.034071"><ele>823</ele></trkpt>
    <trkpt lat="49.244317" lon="19.034331"><ele>809</ele></trkpt>
    <trkpt lat="49.244197" lon="19.034405"><ele>797</ele></trkpt>
    <trkpt lat="49.244171" lon="19.034526"><ele>789</ele></trkpt>
    <trkpt lat="49.244200" lon="19.034728"><ele>780</ele></trkpt>
    <trkpt lat="49.244278" lon="19.034919"><ele>773</ele></trkpt>
    <trkpt lat="49.244359" lon="19.034928"><ele>777</ele></trkpt>
    <trkpt lat="49.244404" lon="19.035043"><ele>772</ele></trkpt>
    <trkpt lat="49.244526" lon="19.035034"><ele>777</ele></trkpt>
    <trkpt lat="49.244576" lon="19.035074"><ele>776</ele></trkpt>
    <trkpt lat="49.244649" lon="19.035218"><ele>769</ele></trkpt>
    <trkpt lat="49.244660" lon="19.035703"><ele>745</ele></trkpt>
    <trkpt lat="49.244788" lon="19.036040"><ele>732</ele></trkpt>
    <trkpt lat="49.244794" lon="19.036179"><ele>725</ele></trkpt>
    <trkpt lat="49.244752" lon="19.036352"><ele>714</ele></trkpt>
    <trkpt lat="49.244774" lon="19.036502"><ele>702</ele></trkpt>
    <trkpt lat="49.244874" lon="19.036421"><ele>712</ele></trkpt>
    <trkpt lat="49.244897" lon="19.036438"><ele>711</ele></trkpt>
    <trkpt lat="49.244891" lon="19.036569"><ele>699</ele></trkpt>
    <trkpt lat="49.244976" lon="19.036706"><ele>688</ele></trkpt>
    <trkpt lat="49.245181" lon="19.036780"><ele>687</ele></trkpt>
    <trkpt lat="49.245277" lon="19.036885"><ele>680</ele></trkpt>
    <trkpt lat="49.245394" lon="19.036920"><ele>678</ele></trkpt>
    <trkpt lat="49.245477" lon="19.036874"><ele>683</ele></trkpt>
    <trkpt lat="49.245570" lon="19.036890"><ele>682</ele></trkpt>
    <trkpt lat="49.245694" lon="19.036962"><ele>676</ele></trkpt>
    <trkpt lat="49.245789" lon="19.037072"><ele>668</ele></trkpt>
    <trkpt lat="49.246113" lon="19.037209"><ele>660</ele></trkpt>
    <trkpt lat="49.246180" lon="19.037286"><ele>655</ele></trkpt>
    <trkpt lat="49.246113" lon="19.037209"><ele>660</ele></trkpt>
    <trkpt lat="49.245789" lon="19.037072"><ele>668</ele></trkpt>
    <trkpt lat="49.245694" lon="19.036962"><ele>676</ele></trkpt>
    <trkpt lat="49.245570" lon="19.036890"><ele>682</ele></trkpt>
    <trkpt lat="49.245477" lon="19.036874"><ele>683</ele></trkpt>
    <trkpt lat="49.245394" lon="19.036920"><ele>678</ele></trkpt>
    <trkpt lat="49.245277" lon="19.036885"><ele>680</ele></trkpt>
    <trkpt lat="49.245181" lon="19.036780"><ele>687</ele></trkpt>
    <trkpt lat="49.244976" lon="19.036706"><ele>688</ele></trkpt>
    <trkpt lat="49.244891" lon="19.036569"><ele>699</ele></trkpt>
    <trkpt lat="49.244897" lon="19.036438"><ele>711</ele></trkpt>
    <trkpt lat="49.244874" lon="19.036421"><ele>712</ele></trkpt>
    <trkpt lat="49.244774" lon="19.036502"><ele>702</ele></trkpt>
    <trkpt lat="49.244752" lon="19.036352"><ele>714</ele></trkpt>
    <trkpt lat="49.244794" lon="19.036179"><ele>725</ele></trkpt>
    <trkpt lat="49.244788" lon="19.036040"><ele>732</ele></trkpt>
    <trkpt lat="49.244660" lon="19.035703"><ele>745</ele></trkpt>
    <trkpt lat="49.244649" lon="19.035218"><ele>769</ele></trkpt>
    <trkpt lat="49.244576" lon="19.035074"><ele>776</ele></trkpt>
    <trkpt lat="49.244526" lon="19.035034"><ele>777</ele></trkpt>
    <trkpt lat="49.244404" lon="19.035043"><ele>772</ele></trkpt>
    <trkpt lat="49.244359" lon="19.034928"><ele>777</ele></trkpt>
    <trkpt lat="49.244278" lon="19.034919"><ele>773</ele></trkpt>
    <trkpt lat="49.244200" lon="19.034728"><ele>780</ele></trkpt>
    <trkpt lat="49.244171" lon="19.034526"><ele>789</ele></trkpt>
    <trkpt lat="49.244197" lon="19.034405"><ele>797</ele></trkpt>
    <trkpt lat="49.244317" lon="19.034331"><ele>809</ele></trkpt>
    <trkpt lat="49.244372" lon="19.034071"><ele>823</ele></trkpt>
    <trkpt lat="49.244427" lon="19.033988"><ele>830</ele></trkpt>
    <trkpt lat="49.244446" lon="19.033840"><ele>840</ele></trkpt>
    <trkpt lat="49.244413" lon="19.033671"><ele>849</ele></trkpt>
    <trkpt lat="49.244189" lon="19.033335"><ele>856</ele></trkpt>
    <trkpt lat="49.244075" lon="19.033237"><ele>856</ele></trkpt>
    <trkpt lat="49.243809" lon="19.031990"><ele>889</ele></trkpt>
    <trkpt lat="49.243739" lon="19.031453"><ele>896</ele></trkpt>
    <trkpt lat="49.243678" lon="19.031375"><ele>894</ele></trkpt>
    <trkpt lat="49.243335" lon="19.031476"><ele>904</ele></trkpt>
    <trkpt lat="49.243135" lon="19.031594"><ele>914</ele></trkpt>
    <trkpt lat="49.242786" lon="19.031586"><ele>927</ele></trkpt>
    <trkpt lat="49.242370" lon="19.031212"><ele>948</ele></trkpt>
    <trkpt lat="49.242345" lon="19.031121"><ele>951</ele></trkpt>
    <trkpt lat="49.242360" lon="19.031009"><ele>954</ele></trkpt>
    <trkpt lat="49.242435" lon="19.030738"><ele>959</ele></trkpt>
    <trkpt lat="49.242437" lon="19.030655"><ele>961</ele></trkpt>
    <trkpt lat="49.242394" lon="19.030545"><ele>966</ele></trkpt>
    <trkpt lat="49.242092" lon="19.030371"><ele>986</ele></trkpt>
    <trkpt lat="49.242034" lon="19.030364"><ele>989</ele></trkpt>
    <trkpt lat="49.241986" lon="19.030437"><ele>989</ele></trkpt>
    <trkpt lat="49.241819" lon="19.030404"><ele>990</ele></trkpt>
    <trkpt lat="49.241678" lon="19.030510"><ele>981</ele></trkpt>
    <trkpt lat="49.241607" lon="19.030453"><ele>979</ele></trkpt>
    <trkpt lat="49.241597" lon="19.030254"><ele>991</ele></trkpt>
    <trkpt lat="49.241665" lon="19.029996"><ele>1007</ele></trkpt>
    <trkpt lat="49.241791" lon="19.029787"><ele>1005</ele></trkpt>
    <trkpt lat="49.241749" lon="19.029653"><ele>1006</ele></trkpt>
    <trkpt lat="49.241826" lon="19.029248"><ele>997</ele></trkpt>
    <trkpt lat="49.241771" lon="19.029132"><ele>998</ele></trkpt>
    <trkpt lat="49.241417" lon="19.029286"><ele>1006</ele></trkpt>
    <trkpt lat="49.241341" lon="19.029144"><ele>1009</ele></trkpt>
    <trkpt lat="49.241308" lon="19.028854"><ele>1014</ele></trkpt>
  </trkseg></trk>
</gpx>
