<?xml version="1.0" encoding="UTF-8"?>
<gpx version="1.1" creator="MounTour (OpenStreetMap)" xmlns="http://www.topografix.com/GPX/1/1">
  <metadata><name>Osnica</name><copyright author="OpenStreetMap contributors"><license>https://opendatacommons.org/licenses/odbl/</license></copyright></metadata>
  <trk><name>Osnica</name><trkseg>
    <trkpt lat="49.232978" lon="19.064033"><ele>636</ele></trkpt>
    <trkpt lat="49.232630" lon="19.064634"><ele>636</ele></trkpt>
    <trkpt lat="49.231947" lon="19.066507"><ele>661</ele></trkpt>
    <trkpt lat="49.231898" lon="19.066684"><ele>660</ele></trkpt>
    <trkpt lat="49.231785" lon="19.067680"><ele>663</ele></trkpt>
    <trkpt lat="49.231648" lon="19.068067"><ele>666</ele></trkpt>
    <trkpt lat="49.231548" lon="19.068744"><ele>674</ele></trkpt>
    <trkpt lat="49.231523" lon="19.070182"><ele>691</ele></trkpt>
    <trkpt lat="49.231697" lon="19.071190"><ele>702</ele></trkpt>
    <trkpt lat="49.231839" lon="19.071708"><ele>712</ele></trkpt>
    <trkpt lat="49.231872" lon="19.072004"><ele>717</ele></trkpt>
    <trkpt lat="49.231870" lon="19.072350"><ele>721</ele></trkpt>
    <trkpt lat="49.231774" lon="19.072649"><ele>725</ele></trkpt>
    <trkpt lat="49.231665" lon="19.073509"><ele>733</ele></trkpt>
    <trkpt lat="49.231714" lon="19.073899"><ele>737</ele></trkpt>
    <trkpt lat="49.231689" lon="19.074347"><ele>741</ele></trkpt>
    <trkpt lat="49.231607" lon="19.074814"><ele>748</ele></trkpt>
    <trkpt lat="49.231597" lon="19.075313"><ele>754</ele></trkpt>
    <trkpt lat="49.231511" lon="19.076332"><ele>770</ele></trkpt>
    <trkpt lat="49.231562" lon="19.076713"><ele>775</ele></trkpt>
    <trkpt lat="49.231570" lon="19.077150"><ele>781</ele></trkpt>
    <trkpt lat="49.231690" lon="19.077634"><ele>788</ele></trkpt>
    <trkpt lat="49.231541" lon="19.078040"><ele>798</ele></trkpt>
    <trkpt lat="49.231646" lon="19.078531"><ele>805</ele></trkpt>
    <trkpt lat="49.231662" lon="19.078907"><ele>812</ele></trkpt>
    <trkpt lat="49.231580" lon="19.079186"><ele>822</ele></trkpt>
    <trkpt lat="49.231485" lon="19.079288"><ele>827</ele></trkpt>
    <trkpt lat="49.231445" lon="19.079400"><ele>830</ele></trkpt>
    <trkpt lat="49.231471" lon="19.079537"><ele>834</ele></trkpt>
    <trkpt lat="49.231625" lon="19.079862"><ele>840</ele></trkpt>
    <trkpt lat="49.231653" lon="19.080029"><ele>844</ele></trkpt>
    <trkpt lat="49.231616" lon="19.080202"><ele>849</ele></trkpt>
    <trkpt lat="49.231642" lon="19.080417"><ele>853</ele></trkpt>
    <trkpt lat="49.231603" lon="19.080527"><ele>857</ele></trkpt>
    <trkpt lat="49.231513" lon="19.080597"><ele>861</ele></trkpt>
    <trkpt lat="49.231481" lon="19.080862"><ele>867</ele></trkpt>
    <trkpt lat="49.231400" lon="19.081166"><ele>874</ele></trkpt>
    <trkpt lat="49.231339" lon="19.081838"><ele>884</ele></trkpt>
    <trkpt lat="49.231271" lon="19.081932"><ele>887</ele></trkpt>
    <trkpt lat="49.231191" lon="19.081954"><ele>888</ele></trkpt>
    <trkpt lat="49.231124" lon="19.082112"><ele>892</ele></trkpt>
    <trkpt lat="49.231117" lon="19.082337"><ele>899</ele></trkpt>
    <trkpt lat="49.231057" lon="19.082496"><ele>908</ele></trkpt>
    <trkpt lat="49.230938" lon="19.082587"><ele>915</ele></trkpt>
    <trkpt lat="49.230661" lon="19.082595"><ele>925</ele></trkpt>
    <trkpt lat="49.230352" lon="19.082968"><ele>942</ele></trkpt>
    <trkpt lat="49.229802" lon="19.083770"><ele>961</ele></trkpt>
    <trkpt lat="49.229514" lon="19.083917"><ele>962</ele></trkpt>
    <trkpt lat="49.229472" lon="19.084024"><ele>965</ele></trkpt>
    <trkpt lat="49.229543" lon="19.084496"><ele>975</ele></trkpt>
    <trkpt lat="49.229479" lon="19.084904"><ele>985</ele></trkpt>
    <trkpt lat="49.229238" lon="19.085374"><ele>991</ele></trkpt>
    <trkpt lat="49.229087" lon="19.085800"><ele>999</ele></trkpt>
    <trkpt lat="49.228583" lon="19.086763"><ele>1011</ele></trkpt>
    <trkpt lat="49.228499" lon="19.087220"><ele>1017</ele></trkpt>
    <trkpt lat="49.228432" lon="19.087377"><ele>1020</ele></trkpt>
    <trkpt lat="49.228211" lon="19.087471"><ele>1020</ele></trkpt>
    <trkpt lat="49.228139" lon="19.087611"><ele>1023</ele></trkpt>
    <trkpt lat="49.227995" lon="19.087770"><ele>1025</ele></trkpt>
    <trkpt lat="49.227470" lon="19.088866"><ele>1048</ele></trkpt>
    <trkpt lat="49.227066" lon="19.089491"><ele>1054</ele></trkpt>
    <trkpt lat="49.226927" lon="19.089762"><ele>1057</ele></trkpt>
    <trkpt lat="49.226798" lon="19.090148"><ele>1064</ele></trkpt>
    <trkpt lat="49.226368" lon="19.090505"><ele>1072</ele></trkpt>
    <trkpt lat="49.226246" lon="19.090684"><ele>1074</ele></trkpt>
    <trkpt lat="49.226108" lon="19.091110"><ele>1075</ele></trkpt>
    <trkpt lat="49.226013" lon="19.091607"><ele>1078</ele></trkpt>
    <trkpt lat="49.225911" lon="19.091937"><ele>1073</ele></trkpt>
    <trkpt lat="49.225910" lon="19.092068"><ele>1073</ele></trkpt>
    <trkpt lat="49.226083" lon="19.092353"><ele>1079</ele></trkpt>
    <trkpt lat="49.226174" lon="19.092602"><ele>1084</ele></trkpt>
    <trkpt lat="49.226213" lon="19.092852"><ele>1086</ele></trkpt>
    <trkpt lat="49.226204" lon="19.093045"><ele>1085</ele></trkpt>
    <trkpt lat="49.225980" lon="19.093806"><ele>1087</ele></trkpt>
    <trkpt lat="49.225953" lon="19.094018"><ele>1092</ele></trkpt>
    <trkpt lat="49.225810" lon="19.094324"><ele>1095</ele></trkpt>
    <trkpt lat="49.225785" lon="19.094439"><ele>1098</ele></trkpt>
    <trkpt lat="49.225819" lon="19.094630"><ele>1104</ele></trkpt>
    <trkpt lat="49.225816" lon="19.094836"><ele>1108</ele></trkpt>
    <trkpt lat="49.225692" lon="19.095386"><ele>1113</ele></trkpt>
    <trkpt lat="49.225659" lon="19.095742"><ele>1119</ele></trkpt>
    <trkpt lat="49.225577" lon="19.096008"><ele>1121</ele></trkpt>
    <trkpt lat="49.225574" lon="19.096298"><ele>1128</ele></trkpt>
    <trkpt lat="49.225458" lon="19.096633"><ele>1129</ele></trkpt>
    <trkpt lat="49.225346" lon="19.097199"><ele>1132</ele></trkpt>
    <trkpt lat="49.225338" lon="19.097629"><ele>1138</ele></trkpt>
    <trkpt lat="49.225273" lon="19.098208"><ele>1143</ele></trkpt>
    <trkpt lat="49.225209" lon="19.098423"><ele>1142</ele></trkpt>
    <trkpt lat="49.225166" lon="19.098895"><ele>1143</ele></trkpt>
    <trkpt lat="49.225121" lon="19.099018"><ele>1143</ele></trkpt>
    <trkpt lat="49.225085" lon="19.099361"><ele>1144</ele></trkpt>
    <trkpt lat="49.225091" lon="19.100319"><ele>1152</ele></trkpt>
    <trkpt lat="49.225037" lon="19.100598"><ele>1153</ele></trkpt>
    <trkpt lat="49.224999" lon="19.101276"><ele>1156</ele></trkpt>
    <trkpt lat="49.224932" lon="19.101748"><ele>1159</ele></trkpt>
    <trkpt lat="49.224990" lon="19.101893"><ele>1160</ele></trkpt>
    <trkpt lat="49.225060" lon="19.101968"><ele>1163</ele></trkpt>
    <trkpt lat="49.225065" lon="19.102213"><ele>1166</ele></trkpt>
    <trkpt lat="49.224878" lon="19.103221"><ele>1178</ele></trkpt>
    <trkpt lat="49.224738" lon="19.103776"><ele>1183</ele></trkpt>
    <trkpt lat="49.224710" lon="19.104044"><ele>1184</ele></trkpt>
    <trkpt lat="49.224490" lon="19.104393"><ele>1183</ele></trkpt>
    <trkpt lat="49.223813" lon="19.104998"><ele>1184</ele></trkpt>
    <trkpt lat="49.223709" lon="19.105224"><ele>1182</ele></trkpt>
    <trkpt lat="49.223499" lon="19.105411"><ele>1182</ele></trkpt>
    <trkpt lat="49.223198" lon="19.105972"><ele>1181</ele></trkpt>
    <trkpt lat="49.223065" lon="19.106576"><ele>1175</ele></trkpt>
    <trkpt lat="49.222813" lon="19.107337"><ele>1164</ele></trkpt>
    <trkpt lat="49.222752" lon="19.107668"><ele>1161</ele></trkpt>
    <trkpt lat="49.222507" lon="19.108565"><ele>1165</ele></trkpt>
    <trkpt lat="49.221824" lon="19.110906"><ele>1203</ele></trkpt>
    <trkpt lat="49.221709" lon="19.111044"><ele>1210</ele></trkpt>
    <trkpt lat="49.221604" lon="19.111399"><ele>1226</ele></trkpt>
    <trkpt lat="49.221486" lon="19.111541"><ele>1233</ele></trkpt>
    <trkpt lat="49.221468" lon="19.111735"><ele>1239</ele></trkpt>
    <trkpt lat="49.221320" lon="19.112110"><ele>1253</ele></trkpt>
    <trkpt lat="49.221189" lon="19.112219"><ele>1258</ele></trkpt>
    <trkpt lat="49.221175" lon="19.112301"><ele>1260</ele></trkpt>
    <trkpt lat="49.221086" lon="19.112341"><ele>1262</ele></trkpt>
    <trkpt lat="49.221062" lon="19.112420"><ele>1264</ele></trkpt>
    <trkpt lat="49.220849" lon="19.112670"><ele>1275</ele></trkpt>
    <trkpt lat="49.220662" lon="19.113027"><ele>1282</ele></trkpt>
    <trkpt lat="49.220682" lon="19.113244"><ele>1286</ele></trkpt>
    <trkpt lat="49.220649" lon="19.113869"><ele>1296</ele></trkpt>
    <trkpt lat="49.220677" lon="19.114371"><ele>1303</ele></trkpt>
    <trkpt lat="49.220738" lon="19.114556"><ele>1305</ele></trkpt>
    <trkpt lat="49.220803" lon="19.114926"><ele>1307</ele></trkpt>
    <trkpt lat="49.221111" lon="19.115879"><ele>1314</ele></trkpt>
    <trkpt lat="49.221256" lon="19.116514"><ele>1318</ele></trkpt>
    <trkpt lat="49.221294" lon="19.116974"><ele>1321</ele></trkpt>
    <trkpt lat="49.221273" lon="19.118237"><ele>1333</ele></trkpt>
    <trkpt lat="49.221045" lon="19.119899"><ele>1352</ele></trkpt>
    <trkpt lat="49.220905" lon="19.120553"><ele>1355</ele></trkpt>
    <trkpt lat="49.220835" lon="19.121280"><ele>1353</ele></trkpt>
    <trkpt lat="49.220565" lon="19.122381"><ele>1349</ele></trkpt>
    <trkpt lat="49.220304" lon="19.123067"><ele>1349</ele></trkpt>
    <trkpt lat="49.220167" lon="19.123246"><ele>1348</ele></trkpt>
    <trkpt lat="49.219972" lon="19.123735"><ele>1353</ele></trkpt>
    <trkpt lat="49.219768" lon="19.124067"><ele>1356</ele></trkpt>
    <trkpt lat="49.219689" lon="19.124126"><ele>1356</ele></trkpt>
    <trkpt lat="49.219768" lon="19.124067"><ele>1356</ele></trkpt>
    <trkpt lat="49.219972" lon="19.123735"><ele>1353</ele></trkpt>
    <trkpt lat="49.220167" lon="19.123246"><ele>1348</ele></trkpt>
    <trkpt lat="49.220304" lon="19.123067"><ele>1349</ele></trkpt>
    <trkpt lat="49.220565" lon="19.122381"><ele>1349</ele></trkpt>
    <trkpt lat="49.220835" lon="19.121280"><ele>1353</ele></trkpt>
    <trkpt lat="49.220905" lon="19.120553"><ele>1355</ele></trkpt>
    <trkpt lat="49.221045" lon="19.119899"><ele>1352</ele></trkpt>
    <trkpt lat="49.221273" lon="19.118237"><ele>1333</ele></trkpt>
    <trkpt lat="49.221294" lon="19.116974"><ele>1321</ele></trkpt>
    <trkpt lat="49.221256" lon="19.116514"><ele>1318</ele></trkpt>
    <trkpt lat="49.221111" lon="19.115879"><ele>1314</ele></trkpt>
    <trkpt lat="49.220803" lon="19.114926"><ele>1307</ele></trkpt>
    <trkpt lat="49.220738" lon="19.114556"><ele>1305</ele></trkpt>
    <trkpt lat="49.220677" lon="19.114371"><ele>1303</ele></trkpt>
    <trkpt lat="49.220649" lon="19.113869"><ele>1296</ele></trkpt>
    <trkpt lat="49.220682" lon="19.113244"><ele>1286</ele></trkpt>
    <trkpt lat="49.220662" lon="19.113027"><ele>1282</ele></trkpt>
    <trkpt lat="49.220849" lon="19.112670"><ele>1275</ele></trkpt>
    <trkpt lat="49.221062" lon="19.112420"><ele>1264</ele></trkpt>
    <trkpt lat="49.221086" lon="19.112341"><ele>1262</ele></trkpt>
    <trkpt lat="49.221175" lon="19.112301"><ele>1260</ele></trkpt>
    <trkpt lat="49.221189" lon="19.112219"><ele>1258</ele></trkpt>
    <trkpt lat="49.221320" lon="19.112110"><ele>1253</ele></trkpt>
    <trkpt lat="49.221468" lon="19.111735"><ele>1239</ele></trkpt>
    <trkpt lat="49.221486" lon="19.111541"><ele>1233</ele></trkpt>
    <trkpt lat="49.221604" lon="19.111399"><ele>1226</ele></trkpt>
    <trkpt lat="49.221709" lon="19.111044"><ele>1210</ele></trkpt>
    <trkpt lat="49.221824" lon="19.110906"><ele>1203</ele></trkpt>
    <trkpt lat="49.222507" lon="19.108565"><ele>1165</ele></trkpt>
    <trkpt lat="49.222752" lon="19.107668"><ele>1161</ele></trkpt>
    <trkpt lat="49.222813" lon="19.107337"><ele>1164</ele></trkpt>
    <trkpt lat="49.223065" lon="19.106576"><ele>1175</ele></trkpt>
    <trkpt lat="49.223198" lon="19.105972"><ele>1181</ele></trkpt>
    <trkpt lat="49.223499" lon="19.105411"><ele>1182</ele></trkpt>
    <trkpt lat="49.223709" lon="19.105224"><ele>1182</ele></trkpt>
    <trkpt lat="49.223813" lon="19.104998"><ele>1184</ele></trkpt>
    <trkpt lat="49.224490" lon="19.104393"><ele>1183</ele></trkpt>
    <trkpt lat="49.224710" lon="19.104044"><ele>1184</ele></trkpt>
    <trkpt lat="49.224738" lon="19.103776"><ele>1183</ele></trkpt>
    <trkpt lat="49.224878" lon="19.103221"><ele>1178</ele></trkpt>
    <trkpt lat="49.225065" lon="19.102213"><ele>1166</ele></trkpt>
    <trkpt lat="49.225060" lon="19.101968"><ele>1163</ele></trkpt>
    <trkpt lat="49.224990" lon="19.101893"><ele>1160</ele></trkpt>
    <trkpt lat="49.224932" lon="19.101748"><ele>1159</ele></trkpt>
    <trkpt lat="49.224999" lon="19.101276"><ele>1156</ele></trkpt>
    <trkpt lat="49.225037" lon="19.100598"><ele>1153</ele></trkpt>
    <trkpt lat="49.225091" lon="19.100319"><ele>1152</ele></trkpt>
    <trkpt lat="49.225085" lon="19.099361"><ele>1144</ele></trkpt>
    <trkpt lat="49.225121" lon="19.099018"><ele>1143</ele></trkpt>
    <trkpt lat="49.225166" lon="19.098895"><ele>1143</ele></trkpt>
    <trkpt lat="49.225209" lon="19.098423"><ele>1142</ele></trkpt>
    <trkpt lat="49.225273" lon="19.098208"><ele>1143</ele></trkpt>
    <trkpt lat="49.225338" lon="19.097629"><ele>1138</ele></trkpt>
    <trkpt lat="49.225346" lon="19.097199"><ele>1132</ele></trkpt>
    <trkpt lat="49.225458" lon="19.096633"><ele>1129</ele></trkpt>
    <trkpt lat="49.225574" lon="19.096298"><ele>1128</ele></trkpt>
    <trkpt lat="49.225577" lon="19.096008"><ele>1121</ele></trkpt>
    <trkpt lat="49.225659" lon="19.095742"><ele>1119</ele></trkpt>
    <trkpt lat="49.225692" lon="19.095386"><ele>1113</ele></trkpt>
    <trkpt lat="49.225816" lon="19.094836"><ele>1108</ele></trkpt>
    <trkpt lat="49.225819" lon="19.094630"><ele>1104</ele></trkpt>
    <trkpt lat="49.225785" lon="19.094439"><ele>1098</ele></trkpt>
    <trkpt lat="49.225810" lon="19.094324"><ele>1095</ele></trkpt>
    <trkpt lat="49.225953" lon="19.094018"><ele>1092</ele></trkpt>
    <trkpt lat="49.225980" lon="19.093806"><ele>1087</ele></trkpt>
    <trkpt lat="49.226204" lon="19.093045"><ele>1085</ele></trkpt>
    <trkpt lat="49.226213" lon="19.092852"><ele>1086</ele></trkpt>
    <trkpt lat="49.226174" lon="19.092602"><ele>1084</ele></trkpt>
    <trkpt lat="49.226083" lon="19.092353"><ele>1079</ele></trkpt>
    <trkpt lat="49.225910" lon="19.092068"><ele>1073</ele></trkpt>
    <trkpt lat="49.225911" lon="19.091937"><ele>1073</ele></trkpt>
    <trkpt lat="49.226013" lon="19.091607"><ele>1078</ele></trkpt>
    <trkpt lat="49.226108" lon="19.091110"><ele>1075</ele></trkpt>
    <trkpt lat="49.226246" lon="19.090684"><ele>1074</ele></trkpt>
    <trkpt lat="49.226368" lon="19.090505"><ele>1072</ele></trkpt>
    <trkpt lat="49.226798" lon="19.090148"><ele>1064</ele></trkpt>
    <trkpt lat="49.226927" lon="19.089762"><ele>1057</ele></trkpt>
    <trkpt lat="49.227066" lon="19.089491"><ele>1054</ele></trkpt>
    <trkpt lat="49.227470" lon="19.088866"><ele>1048</ele></trkpt>
    <trkpt lat="49.227995" lon="19.087770"><ele>1025</ele></trkpt>
    <trkpt lat="49.228139" lon="19.087611"><ele>1023</ele></trkpt>
    <trkpt lat="49.228211" lon="19.087471"><ele>1020</ele></trkpt>
    <trkpt lat="49.228432" lon="19.087377"><ele>1020</ele></trkpt>
    <trkpt lat="49.228499" lon="19.087220"><ele>1017</ele></trkpt>
    <trkpt lat="49.228583" lon="19.086763"><ele>1011</ele></trkpt>
    <trkpt lat="49.229087" lon="19.085800"><ele>999</ele></trkpt>
    <trkpt lat="49.229238" lon="19.085374"><ele>991</ele></trkpt>
    <trkpt lat="49.229479" lon="19.084904"><ele>985</ele></trkpt>
    <trkpt lat="49.229543" lon="19.084496"><ele>975</ele></trkpt>
    <trkpt lat="49.229472" lon="19.084024"><ele>965</ele></trkpt>
    <trkpt lat="49.229514" lon="19.083917"><ele>962</ele></trkpt>
    <trkpt lat="49.229802" lon="19.083770"><ele>961</ele></trkpt>
    <trkpt lat="49.230352" lon="19.082968"><ele>942</ele></trkpt>
    <trkpt lat="49.230661" lon="19.082595"><ele>925</ele></trkpt>
    <trkpt lat="49.230938" lon="19.082587"><ele>915</ele></trkpt>
    <trkpt lat="49.231057" lon="19.082496"><ele>908</ele></trkpt>
    <trkpt lat="49.231117" lon="19.082337"><ele>899</ele></trkpt>
    <trkpt lat="49.231124" lon="19.082112"><ele>892</ele></trkpt>
    <trkpt lat="49.231191" lon="19.081954"><ele>888</ele></trkpt>
    <trkpt lat="49.231271" lon="19.081932"><ele>887</ele></trkpt>
    <trkpt lat="49.231339" lon="19.081838"><ele>884</ele></trkpt>
    <trkpt lat="49.231400" lon="19.081166"><ele>874</ele></trkpt>
    <trkpt lat="49.231481" lon="19.080862"><ele>867</ele></trkpt>
    <trkpt lat="49.231513" lon="19.080597"><ele>861</ele></trkpt>
    <trkpt lat="49.231603" lon="19.080527"><ele>857</ele></trkpt>
    <trkpt lat="49.231642" lon="19.080417"><ele>853</ele></trkpt>
    <trkpt lat="49.231616" lon="19.080202"><ele>849</ele></trkpt>
    <trkpt lat="49.231653" lon="19.080029"><ele>844</ele></trkpt>
    <trkpt lat="49.231625" lon="19.079862"><ele>840</ele></trkpt>
    <trkpt lat="49.231471" lon="19.079537"><ele>834</ele></trkpt>
    <trkpt lat="49.231445" lon="19.079400"><ele>830</ele></trkpt>
    <trkpt lat="49.231485" lon="19.079288"><ele>827</ele></trkpt>
    <trkpt lat="49.231580" lon="19.079186"><ele>822</ele></trkpt>
    <trkpt lat="49.231662" lon="19.078907"><ele>812</ele></trkpt>
    <trkpt lat="49.231646" lon="19.078531"><ele>805</ele></trkpt>
    <trkpt lat="49.231541" lon="19.078040"><ele>798</ele></trkpt>
    <trkpt lat="49.231690" lon="19.077634"><ele>788</ele></trkpt>
    <trkpt lat="49.231570" lon="19.077150"><ele>781</ele></trkpt>
    <trkpt lat="49.231562" lon="19.076713"><ele>775</ele></trkpt>
    <trkpt lat="49.231511" lon="19.076332"><ele>770</ele></trkpt>
    <trkpt lat="49.231597" lon="19.075313"><ele>754</ele></trkpt>
    <trkpt lat="49.231607" lon="19.074814"><ele>748</ele></trkpt>
    <trkpt lat="49.231689" lon="19.074347"><ele>741</ele></trkpt>
    <trkpt lat="49.231714" lon="19.073899"><ele>737</ele></trkpt>
    <trkpt lat="49.231665" lon="19.073509"><ele>733</ele></trkpt>
    <trkpt lat="49.231774" lon="19.072649"><ele>725</ele></trkpt>
    <trkpt lat="49.231870" lon="19.072350"><ele>721</ele></trkpt>
    <trkpt lat="49.231872" lon="19.072004"><ele>717</ele></trkpt>
    <trkpt lat="49.231839" lon="19.071708"><ele>712</ele></trkpt>
    <trkpt lat="49.231697" lon="19.071190"><ele>702</ele></trkpt>
    <trkpt lat="49.231523" lon="19.070182"><ele>691</ele></trkpt>
    <trkpt lat="49.231548" lon="19.068744"><ele>674</ele></trkpt>
    <trkpt lat="49.231648" lon="19.068067"><ele>666</ele></trkpt>
    <trkpt lat="49.231785" lon="19.067680"><ele>663</ele></trkpt>
    <trkpt lat="49.231898" lon="19.066684"><ele>660</ele></trkpt>
    <trkpt lat="49.231947" lon="19.066507"><ele>661</ele></trkpt>
    <trkpt lat="49.232630" lon="19.064634"><ele>636</ele></trkpt>
    <trkpt lat="49.232978" lon="19.064033"><ele>636</ele></trkpt>
  </trkseg></trk>
</gpx>
