<?xml version="1.0" encoding="UTF-8"?>
<gpx version="1.1" creator="MounTour (OpenStreetMap)" xmlns="http://www.topografix.com/GPX/1/1">
  <metadata><name>Ostrý Kameň</name><copyright author="OpenStreetMap contributors"><license>https://opendatacommons.org/licenses/odbl/</license></copyright></metadata>
  <trk><name>Ostrý Kameň</name><trkseg>
    <trkpt lat="48.533485" lon="17.356843"><ele>287</ele></trkpt>
    <trkpt lat="48.533484" lon="17.356875"><ele>288</ele></trkpt>
    <trkpt lat="48.531196" lon="17.356837"><ele>289</ele></trkpt>
    <trkpt lat="48.531220" lon="17.357276"><ele>290</ele></trkpt>
    <trkpt lat="48.531205" lon="17.357548"><ele>290</ele></trkpt>
    <trkpt lat="48.530666" lon="17.360156"><ele>291</ele></trkpt>
    <trkpt lat="48.530653" lon="17.360335"><ele>292</ele></trkpt>
    <trkpt lat="48.530705" lon="17.360698"><ele>292</ele></trkpt>
    <trkpt lat="48.530830" lon="17.361099"><ele>289</ele></trkpt>
    <trkpt lat="48.530067" lon="17.361628"><ele>294</ele></trkpt>
    <trkpt lat="48.529593" lon="17.362033"><ele>296</ele></trkpt>
    <trkpt lat="48.528545" lon="17.362800"><ele>301</ele></trkpt>
    <trkpt lat="48.528076" lon="17.363193"><ele>303</ele></trkpt>
    <trkpt lat="48.528076" lon="17.363504"><ele>303</ele></trkpt>
    <trkpt lat="48.525177" lon="17.364974"><ele>339</ele></trkpt>
    <trkpt lat="48.526266" lon="17.366567"><ele>340</ele></trkpt>
    <trkpt lat="48.526704" lon="17.367050"><ele>336</ele></trkpt>
    <trkpt lat="48.526569" lon="17.367370"><ele>349</ele></trkpt>
    <trkpt lat="48.526515" lon="17.367777"><ele>352</ele></trkpt>
    <trkpt lat="48.526378" lon="17.368244"><ele>360</ele></trkpt>
    <trkpt lat="48.526400" lon="17.368388"><ele>361</ele></trkpt>
    <trkpt lat="48.526725" lon="17.368812"><ele>352</ele></trkpt>
    <trkpt lat="48.526765" lon="17.368957"><ele>354</ele></trkpt>
    <trkpt lat="48.526723" lon="17.369175"><ele>359</ele></trkpt>
    <trkpt lat="48.526645" lon="17.369229"><ele>362</ele></trkpt>
    <trkpt lat="48.526394" lon="17.369733"><ele>373</ele></trkpt>
    <trkpt lat="48.526155" lon="17.370008"><ele>383</ele></trkpt>
    <trkpt lat="48.526013" lon="17.370023"><ele>387</ele></trkpt>
    <trkpt lat="48.526008" lon="17.370114"><ele>388</ele></trkpt>
    <trkpt lat="48.525814" lon="17.370199"><ele>395</ele></trkpt>
    <trkpt lat="48.525767" lon="17.370128"><ele>396</ele></trkpt>
    <trkpt lat="48.525732" lon="17.369972"><ele>397</ele></trkpt>
    <trkpt lat="48.525643" lon="17.369888"><ele>401</ele></trkpt>
    <trkpt lat="48.525517" lon="17.370144"><ele>406</ele></trkpt>
    <trkpt lat="48.525322" lon="17.370933"><ele>419</ele></trkpt>
    <trkpt lat="48.525105" lon="17.371120"><ele>431</ele></trkpt>
    <trkpt lat="48.524938" lon="17.371174"><ele>439</ele></trkpt>
    <trkpt lat="48.524903" lon="17.371256"><ele>442</ele></trkpt>
    <trkpt lat="48.524830" lon="17.371294"><ele>445</ele></trkpt>
    <trkpt lat="48.524753" lon="17.371151"><ele>444</ele></trkpt>
    <trkpt lat="48.524625" lon="17.371086"><ele>446</ele></trkpt>
    <trkpt lat="48.524495" lon="17.371131"><ele>452</ele></trkpt>
    <trkpt lat="48.524319" lon="17.371125"><ele>455</ele></trkpt>
    <trkpt lat="48.524280" lon="17.371212"><ele>457</ele></trkpt>
    <trkpt lat="48.524039" lon="17.371289"><ele>463</ele></trkpt>
    <trkpt lat="48.523978" lon="17.371353"><ele>466</ele></trkpt>
    <trkpt lat="48.523925" lon="17.371553"><ele>470</ele></trkpt>
    <trkpt lat="48.523915" lon="17.371838"><ele>476</ele></trkpt>
    <trkpt lat="48.523937" lon="17.372639"><ele>489</ele></trkpt>
    <trkpt lat="48.523889" lon="17.373218"><ele>501</ele></trkpt>
    <trkpt lat="48.523913" lon="17.373801"><ele>513</ele></trkpt>
    <trkpt lat="48.523969" lon="17.374107"><ele>517</ele></trkpt>
    <trkpt lat="48.524074" lon="17.374420"><ele>518</ele></trkpt>
    <trkpt lat="48.524369" lon="17.374883"><ele>521</ele></trkpt>
    <trkpt lat="48.524242" lon="17.374862"><ele>525</ele></trkpt>
    <trkpt lat="48.523807" lon="17.374592"><ele>536</ele></trkpt>
    <trkpt lat="48.523076" lon="17.373716"><ele>551</ele></trkpt>
    <trkpt lat="48.522588" lon="17.372981"><ele>555</ele></trkpt>
    <trkpt lat="48.522506" lon="17.372907"><ele>555</ele></trkpt>
    <trkpt lat="48.522442" lon="17.372939"><ele>555</ele></trkpt>
    <trkpt lat="48.522506" lon="17.372907"><ele>555</ele></trkpt>
    <trkpt lat="48.522588" lon="17.372981"><ele>555</ele></trkpt>
    <trkpt lat="48.523076" lon="17.373716"><ele>551</ele></trkpt>
    <trkpt lat="48.523807" lon="17.374592"><ele>536</ele></trkpt>
    <trkpt lat="48.524242" lon="17.374862"><ele>525</ele></trkpt>
    <trkpt lat="48.524369" lon="17.374883"><ele>521</ele></trkpt>
    <trkpt lat="48.524074" lon="17.374420"><ele>518</ele></trkpt>
    <trkpt lat="48.523969" lon="17.374107"><ele>517</ele></trkpt>
    <trkpt lat="48.523913" lon="17.373801"><ele>513</ele></trkpt>
    <trkpt lat="48.523889" lon="17.373218"><ele>501</ele></trkpt>
    <trkpt lat="48.523937" lon="17.372639"><ele>489</ele></trkpt>
    <trkpt lat="48.523915" lon="17.371838"><ele>476</ele></trkpt>
    <trkpt lat="48.523925" lon="17.371553"><ele>470</ele></trkpt>
    <trkpt lat="48.523978" lon="17.371353"><ele>466</ele></trkpt>
    <trkpt lat="48.524039" lon="17.371289"><ele>463</ele></trkpt>
    <trkpt lat="48.524280" lon="17.371212"><ele>457</ele></trkpt>
    <trkpt lat="48.524319" lon="17.371125"><ele>455</ele></trkpt>
    <trkpt lat="48.524495" lon="17.371131"><ele>452</ele></trkpt>
    <trkpt lat="48.524625" lon="17.371086"><ele>446</ele></trkpt>
    <trkpt lat="48.524753" lon="17.371151"><ele>444</ele></trkpt>
    <trkpt lat="48.524830" lon="17.371294"><ele>445</ele></trkpt>
    <trkpt lat="48.524903" lon="17.371256"><ele>442</ele></trkpt>
    <trkpt lat="48.524938" lon="17.371174"><ele>439</ele></trkpt>
    <trkpt lat="48.525105" lon="17.371120"><ele>431</ele></trkpt>
    <trkpt lat="48.525322" lon="17.370933"><ele>419</ele></trkpt>
    <trkpt lat="48.525517" lon="17.370144"><ele>406</ele></trkpt>
    <trkpt lat="48.525643" lon="17.369888"><ele>401</ele></trkpt>
    <trkpt lat="48.525732" lon="17.369972"><ele>397</ele></trkpt>
    <trkpt lat="48.525767" lon="17.370128"><ele>396</ele></trkpt>
    <trkpt lat="48.525814" lon="17.370199"><ele>395</ele></trkpt>
    <trkpt lat="48.526008" lon="17.370114"><ele>388</ele></trkpt>
    <trkpt lat="48.526013" lon="17.370023"><ele>387</ele></trkpt>
    <trkpt lat="48.526155" lon="17.370008"><ele>383</ele></trkpt>
    <trkpt lat="48.526394" lon="17.369733"><ele>373</ele></trkpt>
    <trkpt lat="48.526645" lon="17.369229"><ele>362</ele></trkpt>
    <trkpt lat="48.526723" lon="17.369175"><ele>359</ele></trkpt>
    <trkpt lat="48.526765" lon="17.368957"><ele>354</ele></trkpt>
    <trkpt lat="48.526725" lon="17.368812"><ele>352</ele></trkpt>
    <trkpt lat="48.526400" lon="17.368388"><ele>361</ele></trkpt>
    <trkpt lat="48.526378" lon="17.368244"><ele>360</ele></trkpt>
    <trkpt lat="48.526515" lon="17.367777"><ele>352</ele></trkpt>
    <trkpt lat="48.526569" lon="17.367370"><ele>349</ele></trkpt>
    <trkpt lat="48.526704" lon="17.367050"><ele>336</ele></trkpt>
    <trkpt lat="48.526266" lon="17.366567"><ele>340</ele></trkpt>
    <trkpt lat="48.525177" lon="17.364974"><ele>339</ele></trkpt>
    <trkpt lat="48.528076" lon="17.363504"><ele>303</ele></trkpt>
    <trkpt lat="48.528076" lon="17.363193"><ele>303</ele></trkpt>
    <trkpt lat="48.528545" lon="17.362800"><ele>301</ele></trkpt>
    <trkpt lat="48.529593" lon="17.362033"><ele>296</ele></trkpt>
    <trkpt lat="48.530067" lon="17.361628"><ele>294</ele></trkpt>
    <trkpt lat="48.530830" lon="17.361099"><ele>289</ele></trkpt>
    <trkpt lat="48.530705" lon="17.360698"><ele>292</ele></trkpt>
    <trkpt lat="48.530653" lon="17.360335"><ele>292</ele></trkpt>
    <trkpt lat="48.530666" lon="17.360156"><ele>291</ele></trkpt>
    <trkpt lat="48.531205" lon="17.357548"><ele>290</ele></trkpt>
    <trkpt lat="48.531220" lon="17.357276"><ele>290</ele></trkpt>
    <trkpt lat="48.531196" lon="17.356837"><ele>289</ele></trkpt>
    <trkpt lat="48.533484" lon="17.356875"><ele>288</ele></trkpt>
    <trkpt lat="48.533485" lon="17.356843"><ele>287</ele></trkpt>
  </trkseg></trk>
</gpx>
