<?xml version="1.0" encoding="UTF-8"?>
<gpx version="1.1" creator="MounTour (OpenStreetMap)" xmlns="http://www.topografix.com/GPX/1/1">
  <metadata><name>Ostrva</name><copyright author="OpenStreetMap contributors"><license>https://opendatacommons.org/licenses/odbl/</license></copyright></metadata>
  <trk><name>Ostrva</name><trkseg>
    <trkpt lat="49.130385" lon="20.076317"><ele>1290</ele></trkpt>
    <trkpt lat="49.130415" lon="20.076468"><ele>1292</ele></trkpt>
    <trkpt lat="49.130539" lon="20.076631"><ele>1295</ele></trkpt>
    <trkpt lat="49.132095" lon="20.077356"><ele>1313</ele></trkpt>
    <trkpt lat="49.132263" lon="20.077456"><ele>1316</ele></trkpt>
    <trkpt lat="49.132600" lon="20.077785"><ele>1322</ele></trkpt>
    <trkpt lat="49.132761" lon="20.078057"><ele>1325</ele></trkpt>
    <trkpt lat="49.132977" lon="20.078667"><ele>1330</ele></trkpt>
    <trkpt lat="49.133574" lon="20.079473"><ele>1342</ele></trkpt>
    <trkpt lat="49.133930" lon="20.080106"><ele>1349</ele></trkpt>
    <trkpt lat="49.134158" lon="20.080307"><ele>1351</ele></trkpt>
    <trkpt lat="49.134495" lon="20.080411"><ele>1357</ele></trkpt>
    <trkpt lat="49.134911" lon="20.080395"><ele>1365</ele></trkpt>
    <trkpt lat="49.135031" lon="20.080427"><ele>1367</ele></trkpt>
    <trkpt lat="49.135706" lon="20.080891"><ele>1377</ele></trkpt>
    <trkpt lat="49.136508" lon="20.080913"><ele>1385</ele></trkpt>
    <trkpt lat="49.136871" lon="20.080976"><ele>1387</ele></trkpt>
    <trkpt lat="49.137589" lon="20.081338"><ele>1396</ele></trkpt>
    <trkpt lat="49.137662" lon="20.081314"><ele>1397</ele></trkpt>
    <trkpt lat="49.137734" lon="20.081198"><ele>1398</ele></trkpt>
    <trkpt lat="49.137825" lon="20.080902"><ele>1397</ele></trkpt>
    <trkpt lat="49.137937" lon="20.080769"><ele>1397</ele></trkpt>
    <trkpt lat="49.138507" lon="20.080886"><ele>1403</ele></trkpt>
    <trkpt lat="49.139226" lon="20.080737"><ele>1410</ele></trkpt>
    <trkpt lat="49.139427" lon="20.080744"><ele>1412</ele></trkpt>
    <trkpt lat="49.139758" lon="20.080608"><ele>1411</ele></trkpt>
    <trkpt lat="49.140114" lon="20.080317"><ele>1411</ele></trkpt>
    <trkpt lat="49.140214" lon="20.080122"><ele>1413</ele></trkpt>
    <trkpt lat="49.140245" lon="20.079952"><ele>1415</ele></trkpt>
    <trkpt lat="49.140128" lon="20.079632"><ele>1416</ele></trkpt>
    <trkpt lat="49.140088" lon="20.079424"><ele>1418</ele></trkpt>
    <trkpt lat="49.140111" lon="20.078193"><ele>1431</ele></trkpt>
    <trkpt lat="49.140154" lon="20.078039"><ele>1431</ele></trkpt>
    <trkpt lat="49.140395" lon="20.077633"><ele>1434</ele></trkpt>
    <trkpt lat="49.141061" lon="20.076780"><ele>1445</ele></trkpt>
    <trkpt lat="49.141593" lon="20.075954"><ele>1442</ele></trkpt>
    <trkpt lat="49.141666" lon="20.075946"><ele>1444</ele></trkpt>
    <trkpt lat="49.141707" lon="20.076059"><ele>1448</ele></trkpt>
    <trkpt lat="49.141671" lon="20.076182"><ele>1450</ele></trkpt>
    <trkpt lat="49.141397" lon="20.076624"><ele>1454</ele></trkpt>
    <trkpt lat="49.141225" lon="20.077005"><ele>1458</ele></trkpt>
    <trkpt lat="49.141071" lon="20.077596"><ele>1459</ele></trkpt>
    <trkpt lat="49.141054" lon="20.077824"><ele>1459</ele></trkpt>
    <trkpt lat="49.141083" lon="20.078063"><ele>1460</ele></trkpt>
    <trkpt lat="49.141151" lon="20.078282"><ele>1462</ele></trkpt>
    <trkpt lat="49.141232" lon="20.078402"><ele>1463</ele></trkpt>
    <trkpt lat="49.141373" lon="20.078525"><ele>1465</ele></trkpt>
    <trkpt lat="49.141608" lon="20.078626"><ele>1462</ele></trkpt>
    <trkpt lat="49.141764" lon="20.078619"><ele>1466</ele></trkpt>
    <trkpt lat="49.141854" lon="20.078519"><ele>1470</ele></trkpt>
    <trkpt lat="49.141811" lon="20.078360"><ele>1470</ele></trkpt>
    <trkpt lat="49.141558" lon="20.078049"><ele>1467</ele></trkpt>
    <trkpt lat="49.141530" lon="20.077917"><ele>1468</ele></trkpt>
    <trkpt lat="49.141603" lon="20.077683"><ele>1471</ele></trkpt>
    <trkpt lat="49.142189" lon="20.077216"><ele>1480</ele></trkpt>
    <trkpt lat="49.142567" lon="20.077018"><ele>1485</ele></trkpt>
    <trkpt lat="49.143132" lon="20.076994"><ele>1489</ele></trkpt>
    <trkpt lat="49.143594" lon="20.077068"><ele>1493</ele></trkpt>
    <trkpt lat="49.144171" lon="20.076829"><ele>1494</ele></trkpt>
    <trkpt lat="49.144415" lon="20.076804"><ele>1496</ele></trkpt>
    <trkpt lat="49.144704" lon="20.076935"><ele>1498</ele></trkpt>
    <trkpt lat="49.145016" lon="20.077208"><ele>1499</ele></trkpt>
    <trkpt lat="49.145239" lon="20.077252"><ele>1499</ele></trkpt>
    <trkpt lat="49.146312" lon="20.077012"><ele>1497</ele></trkpt>
    <trkpt lat="49.146839" lon="20.076969"><ele>1500</ele></trkpt>
    <trkpt lat="49.147889" lon="20.077071"><ele>1498</ele></trkpt>
    <trkpt lat="49.148483" lon="20.077037"><ele>1501</ele></trkpt>
    <trkpt lat="49.148587" lon="20.077282"><ele>1502</ele></trkpt>
    <trkpt lat="49.148681" lon="20.077622"><ele>1504</ele></trkpt>
    <trkpt lat="49.148651" lon="20.077760"><ele>1505</ele></trkpt>
    <trkpt lat="49.148531" lon="20.077922"><ele>1504</ele></trkpt>
    <trkpt lat="49.148512" lon="20.078055"><ele>1504</ele></trkpt>
    <trkpt lat="49.148557" lon="20.078360"><ele>1501</ele></trkpt>
    <trkpt lat="49.148612" lon="20.078460"><ele>1499</ele></trkpt>
    <trkpt lat="49.148711" lon="20.078519"><ele>1499</ele></trkpt>
    <trkpt lat="49.148737" lon="20.078749"><ele>1499</ele></trkpt>
    <trkpt lat="49.148483" lon="20.079227"><ele>1510</ele></trkpt>
    <trkpt lat="49.148429" lon="20.079429"><ele>1514</ele></trkpt>
    <trkpt lat="49.148496" lon="20.079529"><ele>1519</ele></trkpt>
    <trkpt lat="49.148580" lon="20.079539"><ele>1521</ele></trkpt>
    <trkpt lat="49.148799" lon="20.079408"><ele>1520</ele></trkpt>
    <trkpt lat="49.148856" lon="20.079313"><ele>1518</ele></trkpt>
    <trkpt lat="49.149043" lon="20.079300"><ele>1517</ele></trkpt>
    <trkpt lat="49.149357" lon="20.079373"><ele>1518</ele></trkpt>
    <trkpt lat="49.149341" lon="20.079148"><ele>1511</ele></trkpt>
    <trkpt lat="49.149447" lon="20.079092"><ele>1508</ele></trkpt>
    <trkpt lat="49.149495" lon="20.078955"><ele>1503</ele></trkpt>
    <trkpt lat="49.149622" lon="20.078977"><ele>1503</ele></trkpt>
    <trkpt lat="49.149907" lon="20.079253"><ele>1505</ele></trkpt>
    <trkpt lat="49.150098" lon="20.079588"><ele>1508</ele></trkpt>
    <trkpt lat="49.150275" lon="20.079819"><ele>1510</ele></trkpt>
    <trkpt lat="49.150384" lon="20.079859"><ele>1510</ele></trkpt>
    <trkpt lat="49.150719" lon="20.079859"><ele>1509</ele></trkpt>
    <trkpt lat="49.151294" lon="20.080170"><ele>1507</ele></trkpt>
    <trkpt lat="49.151943" lon="20.080725"><ele>1505</ele></trkpt>
    <trkpt lat="49.152155" lon="20.081082"><ele>1510</ele></trkpt>
    <trkpt lat="49.152602" lon="20.081239"><ele>1509</ele></trkpt>
    <trkpt lat="49.152790" lon="20.081184"><ele>1504</ele></trkpt>
    <trkpt lat="49.153063" lon="20.081284"><ele>1506</ele></trkpt>
    <trkpt lat="49.153488" lon="20.081591"><ele>1507</ele></trkpt>
    <trkpt lat="49.153870" lon="20.082074"><ele>1508</ele></trkpt>
    <trkpt lat="49.154189" lon="20.082184"><ele>1505</ele></trkpt>
    <trkpt lat="49.154044" lon="20.082570"><ele>1514</ele></trkpt>
    <trkpt lat="49.153928" lon="20.082584"><ele>1516</ele></trkpt>
    <trkpt lat="49.153881" lon="20.082640"><ele>1518</ele></trkpt>
    <trkpt lat="49.153935" lon="20.082791"><ele>1520</ele></trkpt>
    <trkpt lat="49.153925" lon="20.082868"><ele>1521</ele></trkpt>
    <trkpt lat="49.153880" lon="20.082918"><ele>1523</ele></trkpt>
    <trkpt lat="49.153712" lon="20.082891"><ele>1527</ele></trkpt>
    <trkpt lat="49.153670" lon="20.082923"><ele>1529</ele></trkpt>
    <trkpt lat="49.153748" lon="20.083143"><ele>1530</ele></trkpt>
    <trkpt lat="49.153741" lon="20.083243"><ele>1532</ele></trkpt>
    <trkpt lat="49.153624" lon="20.083281"><ele>1536</ele></trkpt>
    <trkpt lat="49.153694" lon="20.083772"><ele>1541</ele></trkpt>
    <trkpt lat="49.153295" lon="20.083472"><ele>1549</ele></trkpt>
    <trkpt lat="49.153135" lon="20.083450"><ele>1552</ele></trkpt>
    <trkpt lat="49.153312" lon="20.084307"><ele>1563</ele></trkpt>
    <trkpt lat="49.153289" lon="20.084620"><ele>1568</ele></trkpt>
    <trkpt lat="49.153180" lon="20.084970"><ele>1575</ele></trkpt>
    <trkpt lat="49.153157" lon="20.084968"><ele>1576</ele></trkpt>
    <trkpt lat="49.153085" lon="20.084551"><ele>1578</ele></trkpt>
    <trkpt lat="49.152956" lon="20.084444"><ele>1583</ele></trkpt>
    <trkpt lat="49.152381" lon="20.084207"><ele>1594</ele></trkpt>
    <trkpt lat="49.152186" lon="20.084077"><ele>1598</ele></trkpt>
    <trkpt lat="49.151889" lon="20.083787"><ele>1606</ele></trkpt>
    <trkpt lat="49.152473" lon="20.085411"><ele>1633</ele></trkpt>
    <trkpt lat="49.151992" lon="20.085006"><ele>1642</ele></trkpt>
    <trkpt lat="49.151764" lon="20.084553"><ele>1642</ele></trkpt>
    <trkpt lat="49.151682" lon="20.084502"><ele>1646</ele></trkpt>
    <trkpt lat="49.151748" lon="20.084652"><ele>1646</ele></trkpt>
    <trkpt lat="49.151835" lon="20.085109"><ele>1656</ele></trkpt>
    <trkpt lat="49.152161" lon="20.086161"><ele>1673</ele></trkpt>
    <trkpt lat="49.152138" lon="20.086194"><ele>1675</ele></trkpt>
    <trkpt lat="49.151898" lon="20.085933"><ele>1680</ele></trkpt>
    <trkpt lat="49.151706" lon="20.085601"><ele>1681</ele></trkpt>
    <trkpt lat="49.151549" lon="20.085439"><ele>1692</ele></trkpt>
    <trkpt lat="49.151651" lon="20.085882"><ele>1694</ele></trkpt>
    <trkpt lat="49.151644" lon="20.085974"><ele>1697</ele></trkpt>
    <trkpt lat="49.151743" lon="20.086196"><ele>1698</ele></trkpt>
    <trkpt lat="49.151792" lon="20.086435"><ele>1704</ele></trkpt>
    <trkpt lat="49.151692" lon="20.086353"><ele>1706</ele></trkpt>
    <trkpt lat="49.151525" lon="20.086111"><ele>1710</ele></trkpt>
    <trkpt lat="49.151413" lon="20.085856"><ele>1714</ele></trkpt>
    <trkpt lat="49.151379" lon="20.085862"><ele>1717</ele></trkpt>
    <trkpt lat="49.151401" lon="20.086130"><ele>1720</ele></trkpt>
    <trkpt lat="49.151513" lon="20.086652"><ele>1728</ele></trkpt>
    <trkpt lat="49.151649" lon="20.086960"><ele>1737</ele></trkpt>
    <trkpt lat="49.151625" lon="20.086977"><ele>1738</ele></trkpt>
    <trkpt lat="49.151423" lon="20.086846"><ele>1741</ele></trkpt>
    <trkpt lat="49.151086" lon="20.086383"><ele>1751</ele></trkpt>
    <trkpt lat="49.151042" lon="20.086403"><ele>1755</ele></trkpt>
    <trkpt lat="49.151126" lon="20.087120"><ele>1767</ele></trkpt>
    <trkpt lat="49.151165" lon="20.087259"><ele>1769</ele></trkpt>
    <trkpt lat="49.151326" lon="20.087535"><ele>1772</ele></trkpt>
    <trkpt lat="49.151432" lon="20.087811"><ele>1779</ele></trkpt>
    <trkpt lat="49.151382" lon="20.087809"><ele>1781</ele></trkpt>
    <trkpt lat="49.151032" lon="20.087511"><ele>1788</ele></trkpt>
    <trkpt lat="49.150966" lon="20.087514"><ele>1793</ele></trkpt>
    <trkpt lat="49.151089" lon="20.087720"><ele>1791</ele></trkpt>
    <trkpt lat="49.151252" lon="20.088162"><ele>1802</ele></trkpt>
    <trkpt lat="49.151368" lon="20.088373"><ele>1807</ele></trkpt>
    <trkpt lat="49.151221" lon="20.088369"><ele>1811</ele></trkpt>
    <trkpt lat="49.151128" lon="20.088317"><ele>1812</ele></trkpt>
    <trkpt lat="49.151131" lon="20.088434"><ele>1816</ele></trkpt>
    <trkpt lat="49.151211" lon="20.088568"><ele>1819</ele></trkpt>
    <trkpt lat="49.151305" lon="20.088655"><ele>1821</ele></trkpt>
    <trkpt lat="49.151390" lon="20.088675"><ele>1820</ele></trkpt>
    <trkpt lat="49.151601" lon="20.088909"><ele>1828</ele></trkpt>
    <trkpt lat="49.151838" lon="20.088976"><ele>1823</ele></trkpt>
    <trkpt lat="49.151684" lon="20.089035"><ele>1832</ele></trkpt>
    <trkpt lat="49.151591" lon="20.089121"><ele>1838</ele></trkpt>
    <trkpt lat="49.151340" lon="20.089142"><ele>1843</ele></trkpt>
    <trkpt lat="49.151233" lon="20.089253"><ele>1849</ele></trkpt>
    <trkpt lat="49.151124" lon="20.089228"><ele>1848</ele></trkpt>
    <trkpt lat="49.151119" lon="20.089274"><ele>1850</ele></trkpt>
    <trkpt lat="49.151249" lon="20.089397"><ele>1855</ele></trkpt>
    <trkpt lat="49.151335" lon="20.089375"><ele>1853</ele></trkpt>
    <trkpt lat="49.151363" lon="20.089440"><ele>1856</ele></trkpt>
    <trkpt lat="49.151554" lon="20.089560"><ele>1860</ele></trkpt>
    <trkpt lat="49.151731" lon="20.089601"><ele>1859</ele></trkpt>
    <trkpt lat="49.151767" lon="20.089667"><ele>1861</ele></trkpt>
    <trkpt lat="49.151559" lon="20.089786"><ele>1871</ele></trkpt>
    <trkpt lat="49.151457" lon="20.089772"><ele>1872</ele></trkpt>
    <trkpt lat="49.151045" lon="20.089885"><ele>1885</ele></trkpt>
    <trkpt lat="49.150963" lon="20.089944"><ele>1890</ele></trkpt>
    <trkpt lat="49.150780" lon="20.089815"><ele>1895</ele></trkpt>
    <trkpt lat="49.150914" lon="20.090065"><ele>1897</ele></trkpt>
    <trkpt lat="49.151121" lon="20.090094"><ele>1893</ele></trkpt>
    <trkpt lat="49.151554" lon="20.090319"><ele>1899</ele></trkpt>
    <trkpt lat="49.151714" lon="20.090309"><ele>1896</ele></trkpt>
    <trkpt lat="49.151735" lon="20.090341"><ele>1896</ele></trkpt>
    <trkpt lat="49.151531" lon="20.090464"><ele>1906</ele></trkpt>
    <trkpt lat="49.151440" lon="20.090456"><ele>1907</ele></trkpt>
    <trkpt lat="49.151270" lon="20.090572"><ele>1915</ele></trkpt>
    <trkpt lat="49.150743" lon="20.090794"><ele>1936</ele></trkpt>
    <trkpt lat="49.150628" lon="20.090719"><ele>1939</ele></trkpt>
    <trkpt lat="49.150743" lon="20.090794"><ele>1936</ele></trkpt>
    <trkpt lat="49.150849" lon="20.090775"><ele>1931</ele></trkpt>
    <trkpt lat="49.151440" lon="20.090456"><ele>1907</ele></trkpt>
    <trkpt lat="49.151531" lon="20.090464"><ele>1906</ele></trkpt>
    <trkpt lat="49.151735" lon="20.090341"><ele>1896</ele></trkpt>
    <trkpt lat="49.151714" lon="20.090309"><ele>1896</ele></trkpt>
    <trkpt lat="49.151554" lon="20.090319"><ele>1899</ele></trkpt>
    <trkpt lat="49.151121" lon="20.090094"><ele>1893</ele></trkpt>
    <trkpt lat="49.150914" lon="20.090065"><ele>1897</ele></trkpt>
    <trkpt lat="49.150780" lon="20.089815"><ele>1895</ele></trkpt>
    <trkpt lat="49.150963" lon="20.089944"><ele>1890</ele></trkpt>
    <trkpt lat="49.151045" lon="20.089885"><ele>1885</ele></trkpt>
    <trkpt lat="49.151457" lon="20.089772"><ele>1872</ele></trkpt>
    <trkpt lat="49.151559" lon="20.089786"><ele>1871</ele></trkpt>
    <trkpt lat="49.151767" lon="20.089667"><ele>1861</ele></trkpt>
    <trkpt lat="49.151731" lon="20.089601"><ele>1859</ele></trkpt>
    <trkpt lat="49.151554" lon="20.089560"><ele>1860</ele></trkpt>
    <trkpt lat="49.151363" lon="20.089440"><ele>1856</ele></trkpt>
    <trkpt lat="49.151335" lon="20.089375"><ele>1853</ele></trkpt>
    <trkpt lat="49.151249" lon="20.089397"><ele>1855</ele></trkpt>
    <trkpt lat="49.151119" lon="20.089274"><ele>1850</ele></trkpt>
    <trkpt lat="49.151124" lon="20.089228"><ele>1848</ele></trkpt>
    <trkpt lat="49.151233" lon="20.089253"><ele>1849</ele></trkpt>
    <trkpt lat="49.151340" lon="20.089142"><ele>1843</ele></trkpt>
    <trkpt lat="49.151591" lon="20.089121"><ele>1838</ele></trkpt>
    <trkpt lat="49.151684" lon="20.089035"><ele>1832</ele></trkpt>
    <trkpt lat="49.151838" lon="20.088976"><ele>1823</ele></trkpt>
    <trkpt lat="49.151601" lon="20.088909"><ele>1828</ele></trkpt>
    <trkpt lat="49.151390" lon="20.088675"><ele>1820</ele></trkpt>
    <trkpt lat="49.151305" lon="20.088655"><ele>1821</ele></trkpt>
    <trkpt lat="49.151211" lon="20.088568"><ele>1819</ele></trkpt>
    <trkpt lat="49.151131" lon="20.088434"><ele>1816</ele></trkpt>
    <trkpt lat="49.151128" lon="20.088317"><ele>1812</ele></trkpt>
    <trkpt lat="49.151221" lon="20.088369"><ele>1811</ele></trkpt>
    <trkpt lat="49.151368" lon="20.088373"><ele>1807</ele></trkpt>
    <trkpt lat="49.151252" lon="20.088162"><ele>1802</ele></trkpt>
    <trkpt lat="49.151089" lon="20.087720"><ele>1791</ele></trkpt>
    <trkpt lat="49.150966" lon="20.087514"><ele>1793</ele></trkpt>
    <trkpt lat="49.151032" lon="20.087511"><ele>1788</ele></trkpt>
    <trkpt lat="49.151382" lon="20.087809"><ele>1781</ele></trkpt>
    <trkpt lat="49.151432" lon="20.087811"><ele>1779</ele></trkpt>
    <trkpt lat="49.151326" lon="20.087535"><ele>1772</ele></trkpt>
    <trkpt lat="49.151165" lon="20.087259"><ele>1769</ele></trkpt>
    <trkpt lat="49.151126" lon="20.087120"><ele>1767</ele></trkpt>
    <trkpt lat="49.151042" lon="20.086403"><ele>1755</ele></trkpt>
    <trkpt lat="49.151086" lon="20.086383"><ele>1751</ele></trkpt>
    <trkpt lat="49.151423" lon="20.086846"><ele>1741</ele></trkpt>
    <trkpt lat="49.151625" lon="20.086977"><ele>1738</ele></trkpt>
    <trkpt lat="49.151649" lon="20.086960"><ele>1737</ele></trkpt>
    <trkpt lat="49.151513" lon="20.086652"><ele>1728</ele></trkpt>
    <trkpt lat="49.151401" lon="20.086130"><ele>1720</ele></trkpt>
    <trkpt lat="49.151379" lon="20.085862"><ele>1717</ele></trkpt>
    <trkpt lat="49.151413" lon="20.085856"><ele>1714</ele></trkpt>
    <trkpt lat="49.151525" lon="20.086111"><ele>1710</ele></trkpt>
    <trkpt lat="49.151692" lon="20.086353"><ele>1706</ele></trkpt>
    <trkpt lat="49.151792" lon="20.086435"><ele>1704</ele></trkpt>
    <trkpt lat="49.151743" lon="20.086196"><ele>1698</ele></trkpt>
    <trkpt lat="49.151644" lon="20.085974"><ele>1697</ele></trkpt>
    <trkpt lat="49.151651" lon="20.085882"><ele>1694</ele></trkpt>
    <trkpt lat="49.151549" lon="20.085439"><ele>1692</ele></trkpt>
    <trkpt lat="49.151706" lon="20.085601"><ele>1681</ele></trkpt>
    <trkpt lat="49.151898" lon="20.085933"><ele>1680</ele></trkpt>
    <trkpt lat="49.152138" lon="20.086194"><ele>1675</ele></trkpt>
    <trkpt lat="49.152161" lon="20.086161"><ele>1673</ele></trkpt>
    <trkpt lat="49.151835" lon="20.085109"><ele>1656</ele></trkpt>
    <trkpt lat="49.151748" lon="20.084652"><ele>1646</ele></trkpt>
    <trkpt lat="49.151682" lon="20.084502"><ele>1646</ele></trkpt>
    <trkpt lat="49.151764" lon="20.084553"><ele>1642</ele></trkpt>
    <trkpt lat="49.151992" lon="20.085006"><ele>1642</ele></trkpt>
    <trkpt lat="49.152473" lon="20.085411"><ele>1633</ele></trkpt>
    <trkpt lat="49.151889" lon="20.083787"><ele>1606</ele></trkpt>
    <trkpt lat="49.152186" lon="20.084077"><ele>1598</ele></trkpt>
    <trkpt lat="49.152381" lon="20.084207"><ele>1594</ele></trkpt>
    <trkpt lat="49.152956" lon="20.084444"><ele>1583</ele></trkpt>
    <trkpt lat="49.153085" lon="20.084551"><ele>1578</ele></trkpt>
    <trkpt lat="49.153157" lon="20.084968"><ele>1576</ele></trkpt>
    <trkpt lat="49.153180" lon="20.084970"><ele>1575</ele></trkpt>
    <trkpt lat="49.153289" lon="20.084620"><ele>1568</ele></trkpt>
    <trkpt lat="49.153312" lon="20.084307"><ele>1563</ele></trkpt>
    <trkpt lat="49.153135" lon="20.083450"><ele>1552</ele></trkpt>
    <trkpt lat="49.153295" lon="20.083472"><ele>1549</ele></trkpt>
    <trkpt lat="49.153694" lon="20.083772"><ele>1541</ele></trkpt>
    <trkpt lat="49.153624" lon="20.083281"><ele>1536</ele></trkpt>
    <trkpt lat="49.153741" lon="20.083243"><ele>1532</ele></trkpt>
    <trkpt lat="49.153748" lon="20.083143"><ele>1530</ele></trkpt>
    <trkpt lat="49.153670" lon="20.082923"><ele>1529</ele></trkpt>
    <trkpt lat="49.153712" lon="20.082891"><ele>1527</ele></trkpt>
    <trkpt lat="49.153880" lon="20.082918"><ele>1523</ele></trkpt>
    <trkpt lat="49.153925" lon="20.082868"><ele>1521</ele></trkpt>
    <trkpt lat="49.153935" lon="20.082791"><ele>1520</ele></trkpt>
    <trkpt lat="49.153881" lon="20.082640"><ele>1518</ele></trkpt>
    <trkpt lat="49.153928" lon="20.082584"><ele>1516</ele></trkpt>
    <trkpt lat="49.154044" lon="20.082570"><ele>1514</ele></trkpt>
    <trkpt lat="49.154189" lon="20.082184"><ele>1505</ele></trkpt>
    <trkpt lat="49.153870" lon="20.082074"><ele>1508</ele></trkpt>
    <trkpt lat="49.153488" lon="20.081591"><ele>1507</ele></trkpt>
    <trkpt lat="49.153063" lon="20.081284"><ele>1506</ele></trkpt>
    <trkpt lat="49.152790" lon="20.081184"><ele>1504</ele></trkpt>
    <trkpt lat="49.152602" lon="20.081239"><ele>1509</ele></trkpt>
    <trkpt lat="49.152155" lon="20.081082"><ele>1510</ele></trkpt>
    <trkpt lat="49.151943" lon="20.080725"><ele>1505</ele></trkpt>
    <trkpt lat="49.151294" lon="20.080170"><ele>1507</ele></trkpt>
    <trkpt lat="49.150719" lon="20.079859"><ele>1509</ele></trkpt>
    <trkpt lat="49.150384" lon="20.079859"><ele>1510</ele></trkpt>
    <trkpt lat="49.150275" lon="20.079819"><ele>1510</ele></trkpt>
    <trkpt lat="49.150098" lon="20.079588"><ele>1508</ele></trkpt>
    <trkpt lat="49.149907" lon="20.079253"><ele>1505</ele></trkpt>
    <trkpt lat="49.149622" lon="20.078977"><ele>1503</ele></trkpt>
    <trkpt lat="49.149495" lon="20.078955"><ele>1503</ele></trkpt>
    <trkpt lat="49.149447" lon="20.079092"><ele>1508</ele></trkpt>
    <trkpt lat="49.149341" lon="20.079148"><ele>1511</ele></trkpt>
    <trkpt lat="49.149357" lon="20.079373"><ele>1518</ele></trkpt>
    <trkpt lat="49.149043" lon="20.079300"><ele>1517</ele></trkpt>
    <trkpt lat="49.148856" lon="20.079313"><ele>1518</ele></trkpt>
    <trkpt lat="49.148799" lon="20.079408"><ele>1520</ele></trkpt>
    <trkpt lat="49.148580" lon="20.079539"><ele>1521</ele></trkpt>
    <trkpt lat="49.148496" lon="20.079529"><ele>1519</ele></trkpt>
    <trkpt lat="49.148429" lon="20.079429"><ele>1514</ele></trkpt>
    <trkpt lat="49.148483" lon="20.079227"><ele>1510</ele></trkpt>
    <trkpt lat="49.148737" lon="20.078749"><ele>1499</ele></trkpt>
    <trkpt lat="49.148711" lon="20.078519"><ele>1499</ele></trkpt>
    <trkpt lat="49.148612" lon="20.078460"><ele>1499</ele></trkpt>
    <trkpt lat="49.148557" lon="20.078360"><ele>1501</ele></trkpt>
    <trkpt lat="49.148512" lon="20.078055"><ele>1504</ele></trkpt>
    <trkpt lat="49.148531" lon="20.077922"><ele>1504</ele></trkpt>
    <trkpt lat="49.148651" lon="20.077760"><ele>1505</ele></trkpt>
    <trkpt lat="49.148681" lon="20.077622"><ele>1504</ele></trkpt>
    <trkpt lat="49.148587" lon="20.077282"><ele>1502</ele></trkpt>
    <trkpt lat="49.148483" lon="20.077037"><ele>1501</ele></trkpt>
    <trkpt lat="49.147889" lon="20.077071"><ele>1498</ele></trkpt>
    <trkpt lat="49.146839" lon="20.076969"><ele>1500</ele></trkpt>
    <trkpt lat="49.146312" lon="20.077012"><ele>1497</ele></trkpt>
    <trkpt lat="49.145239" lon="20.077252"><ele>1499</ele></trkpt>
    <trkpt lat="49.145016" lon="20.077208"><ele>1499</ele></trkpt>
    <trkpt lat="49.144704" lon="20.076935"><ele>1498</ele></trkpt>
    <trkpt lat="49.144415" lon="20.076804"><ele>1496</ele></trkpt>
    <trkpt lat="49.144171" lon="20.076829"><ele>1494</ele></trkpt>
    <trkpt lat="49.143594" lon="20.077068"><ele>1493</ele></trkpt>
    <trkpt lat="49.143132" lon="20.076994"><ele>1489</ele></trkpt>
    <trkpt lat="49.142567" lon="20.077018"><ele>1485</ele></trkpt>
    <trkpt lat="49.142189" lon="20.077216"><ele>1480</ele></trkpt>
    <trkpt lat="49.141603" lon="20.077683"><ele>1471</ele></trkpt>
    <trkpt lat="49.141530" lon="20.077917"><ele>1468</ele></trkpt>
    <trkpt lat="49.141558" lon="20.078049"><ele>1467</ele></trkpt>
    <trkpt lat="49.141811" lon="20.078360"><ele>1470</ele></trkpt>
    <trkpt lat="49.141854" lon="20.078519"><ele>1470</ele></trkpt>
    <trkpt lat="49.141764" lon="20.078619"><ele>1466</ele></trkpt>
    <trkpt lat="49.141608" lon="20.078626"><ele>1462</ele></trkpt>
    <trkpt lat="49.141373" lon="20.078525"><ele>1465</ele></trkpt>
    <trkpt lat="49.141232" lon="20.078402"><ele>1463</ele></trkpt>
    <trkpt lat="49.141151" lon="20.078282"><ele>1462</ele></trkpt>
    <trkpt lat="49.141083" lon="20.078063"><ele>1460</ele></trkpt>
    <trkpt lat="49.141054" lon="20.077824"><ele>1459</ele></trkpt>
    <trkpt lat="49.141071" lon="20.077596"><ele>1459</ele></trkpt>
    <trkpt lat="49.141225" lon="20.077005"><ele>1458</ele></trkpt>
    <trkpt lat="49.141397" lon="20.076624"><ele>1454</ele></trkpt>
    <trkpt lat="49.141671" lon="20.076182"><ele>1450</ele></trkpt>
    <trkpt lat="49.141707" lon="20.076059"><ele>1448</ele></trkpt>
    <trkpt lat="49.141666" lon="20.075946"><ele>1444</ele></trkpt>
    <trkpt lat="49.141593" lon="20.075954"><ele>1442</ele></trkpt>
    <trkpt lat="49.141061" lon="20.076780"><ele>1445</ele></trkpt>
    <trkpt lat="49.140395" lon="20.077633"><ele>1434</ele></trkpt>
    <trkpt lat="49.140154" lon="20.078039"><ele>1431</ele></trkpt>
    <trkpt lat="49.140111" lon="20.078193"><ele>1431</ele></trkpt>
    <trkpt lat="49.140088" lon="20.079424"><ele>1418</ele></trkpt>
    <trkpt lat="49.140128" lon="20.079632"><ele>1416</ele></trkpt>
    <trkpt lat="49.140245" lon="20.079952"><ele>1415</ele></trkpt>
    <trkpt lat="49.140214" lon="20.080122"><ele>1413</ele></trkpt>
    <trkpt lat="49.140114" lon="20.080317"><ele>1411</ele></trkpt>
    <trkpt lat="49.139758" lon="20.080608"><ele>1411</ele></trkpt>
    <trkpt lat="49.139427" lon="20.080744"><ele>1412</ele></trkpt>
    <trkpt lat="49.139226" lon="20.080737"><ele>1410</ele></trkpt>
    <trkpt lat="49.138507" lon="20.080886"><ele>1403</ele></trkpt>
    <trkpt lat="49.137937" lon="20.080769"><ele>1397</ele></trkpt>
    <trkpt lat="49.137825" lon="20.080902"><ele>1397</ele></trkpt>
    <trkpt lat="49.137734" lon="20.081198"><ele>1398</ele></trkpt>
    <trkpt lat="49.137662" lon="20.081314"><ele>1397</ele></trkpt>
    <trkpt lat="49.137589" lon="20.081338"><ele>1396</ele></trkpt>
    <trkpt lat="49.136871" lon="20.080976"><ele>1387</ele></trkpt>
    <trkpt lat="49.136508" lon="20.080913"><ele>1385</ele></trkpt>
    <trkpt lat="49.135706" lon="20.080891"><ele>1377</ele></trkpt>
    <trkpt lat="49.135031" lon="20.080427"><ele>1367</ele></trkpt>
    <trkpt lat="49.134911" lon="20.080395"><ele>1365</ele></trkpt>
    <trkpt lat="49.134495" lon="20.080411"><ele>1357</ele></trkpt>
    <trkpt lat="49.134158" lon="20.080307"><ele>1351</ele></trkpt>
    <trkpt lat="49.133930" lon="20.080106"><ele>1349</ele></trkpt>
    <trkpt lat="49.133574" lon="20.079473"><ele>1342</ele></trkpt>
    <trkpt lat="49.132977" lon="20.078667"><ele>1330</ele></trkpt>
    <trkpt lat="49.132761" lon="20.078057"><ele>1325</ele></trkpt>
    <trkpt lat="49.132600" lon="20.077785"><ele>1322</ele></trkpt>
    <trkpt lat="49.132263" lon="20.077456"><ele>1316</ele></trkpt>
    <trkpt lat="49.132095" lon="20.077356"><ele>1313</ele></trkpt>
    <trkpt lat="49.130539" lon="20.076631"><ele>1295</ele></trkpt>
    <trkpt lat="49.130415" lon="20.076468"><ele>1292</ele></trkpt>
    <trkpt lat="49.130385" lon="20.076317"><ele>1290</ele></trkpt>
  </trkseg></trk>
</gpx>
