<?xml version="1.0" encoding="UTF-8"?>
<gpx version="1.1" creator="MounTour (OpenStreetMap)" xmlns="http://www.topografix.com/GPX/1/1">
  <metadata><name>Ostrý Roháč</name><copyright author="OpenStreetMap contributors"><license>https://opendatacommons.org/licenses/odbl/</license></copyright></metadata>
  <trk><name>Ostrý Roháč</name><trkseg>
    <trkpt lat="49.236618" lon="19.718023"><ele>1065</ele></trkpt>
    <trkpt lat="49.236699" lon="19.718219"><ele>1068</ele></trkpt>
    <trkpt lat="49.234960" lon="19.719392"><ele>1094</ele></trkpt>
    <trkpt lat="49.232220" lon="19.720886"><ele>1111</ele></trkpt>
    <trkpt lat="49.231288" lon="19.721503"><ele>1119</ele></trkpt>
    <trkpt lat="49.230315" lon="19.722034"><ele>1124</ele></trkpt>
    <trkpt lat="49.228733" lon="19.722580"><ele>1136</ele></trkpt>
    <trkpt lat="49.228200" lon="19.722834"><ele>1139</ele></trkpt>
    <trkpt lat="49.227533" lon="19.723291"><ele>1147</ele></trkpt>
    <trkpt lat="49.226406" lon="19.724328"><ele>1159</ele></trkpt>
    <trkpt lat="49.226126" lon="19.724468"><ele>1161</ele></trkpt>
    <trkpt lat="49.225385" lon="19.724673"><ele>1165</ele></trkpt>
    <trkpt lat="49.225011" lon="19.724887"><ele>1170</ele></trkpt>
    <trkpt lat="49.224655" lon="19.725348"><ele>1176</ele></trkpt>
    <trkpt lat="49.224009" lon="19.726923"><ele>1187</ele></trkpt>
    <trkpt lat="49.223532" lon="19.727787"><ele>1191</ele></trkpt>
    <trkpt lat="49.222548" lon="19.728990"><ele>1201</ele></trkpt>
    <trkpt lat="49.221920" lon="19.730111"><ele>1214</ele></trkpt>
    <trkpt lat="49.221745" lon="19.730309"><ele>1216</ele></trkpt>
    <trkpt lat="49.221276" lon="19.730646"><ele>1217</ele></trkpt>
    <trkpt lat="49.221063" lon="19.730890"><ele>1217</ele></trkpt>
    <trkpt lat="49.220269" lon="19.732499"><ele>1227</ele></trkpt>
    <trkpt lat="49.220063" lon="19.732809"><ele>1231</ele></trkpt>
    <trkpt lat="49.219347" lon="19.733674"><ele>1243</ele></trkpt>
    <trkpt lat="49.219178" lon="19.733967"><ele>1247</ele></trkpt>
    <trkpt lat="49.219059" lon="19.734262"><ele>1251</ele></trkpt>
    <trkpt lat="49.218737" lon="19.735347"><ele>1260</ele></trkpt>
    <trkpt lat="49.218212" lon="19.737300"><ele>1275</ele></trkpt>
    <trkpt lat="49.217230" lon="19.741990"><ele>1312</ele></trkpt>
    <trkpt lat="49.217034" lon="19.742703"><ele>1320</ele></trkpt>
    <trkpt lat="49.216765" lon="19.743283"><ele>1327</ele></trkpt>
    <trkpt lat="49.216526" lon="19.743635"><ele>1330</ele></trkpt>
    <trkpt lat="49.216311" lon="19.743879"><ele>1334</ele></trkpt>
    <trkpt lat="49.215564" lon="19.744575"><ele>1346</ele></trkpt>
    <trkpt lat="49.215349" lon="19.744832"><ele>1347</ele></trkpt>
    <trkpt lat="49.215098" lon="19.745333"><ele>1354</ele></trkpt>
    <trkpt lat="49.214785" lon="19.746350"><ele>1366</ele></trkpt>
    <trkpt lat="49.214630" lon="19.746675"><ele>1369</ele></trkpt>
    <trkpt lat="49.214329" lon="19.747042"><ele>1372</ele></trkpt>
    <trkpt lat="49.213871" lon="19.747444"><ele>1373</ele></trkpt>
    <trkpt lat="49.213957" lon="19.747768"><ele>1377</ele></trkpt>
    <trkpt lat="49.214093" lon="19.747797"><ele>1379</ele></trkpt>
    <trkpt lat="49.214211" lon="19.747683"><ele>1379</ele></trkpt>
    <trkpt lat="49.214475" lon="19.747643"><ele>1383</ele></trkpt>
    <trkpt lat="49.214566" lon="19.747474"><ele>1383</ele></trkpt>
    <trkpt lat="49.214800" lon="19.747259"><ele>1385</ele></trkpt>
    <trkpt lat="49.214902" lon="19.747244"><ele>1387</ele></trkpt>
    <trkpt lat="49.215124" lon="19.747340"><ele>1392</ele></trkpt>
    <trkpt lat="49.215288" lon="19.747315"><ele>1394</ele></trkpt>
    <trkpt lat="49.215583" lon="19.746990"><ele>1396</ele></trkpt>
    <trkpt lat="49.215869" lon="19.746870"><ele>1404</ele></trkpt>
    <trkpt lat="49.216424" lon="19.746881"><ele>1416</ele></trkpt>
    <trkpt lat="49.216572" lon="19.746963"><ele>1420</ele></trkpt>
    <trkpt lat="49.216775" lon="19.747267"><ele>1429</ele></trkpt>
    <trkpt lat="49.216803" lon="19.747396"><ele>1432</ele></trkpt>
    <trkpt lat="49.216712" lon="19.747613"><ele>1435</ele></trkpt>
    <trkpt lat="49.216696" lon="19.747770"><ele>1439</ele></trkpt>
    <trkpt lat="49.216305" lon="19.748076"><ele>1448</ele></trkpt>
    <trkpt lat="49.216180" lon="19.748322"><ele>1452</ele></trkpt>
    <trkpt lat="49.216220" lon="19.748424"><ele>1455</ele></trkpt>
    <trkpt lat="49.216378" lon="19.748475"><ele>1457</ele></trkpt>
    <trkpt lat="49.217130" lon="19.748533"><ele>1471</ele></trkpt>
    <trkpt lat="49.216988" lon="19.748851"><ele>1477</ele></trkpt>
    <trkpt lat="49.216839" lon="19.749064"><ele>1480</ele></trkpt>
    <trkpt lat="49.216823" lon="19.749201"><ele>1484</ele></trkpt>
    <trkpt lat="49.217417" lon="19.749217"><ele>1501</ele></trkpt>
    <trkpt lat="49.217325" lon="19.749478"><ele>1506</ele></trkpt>
    <trkpt lat="49.217375" lon="19.749512"><ele>1510</ele></trkpt>
    <trkpt lat="49.217653" lon="19.749320"><ele>1516</ele></trkpt>
    <trkpt lat="49.217652" lon="19.749423"><ele>1519</ele></trkpt>
    <trkpt lat="49.217929" lon="19.749268"><ele>1529</ele></trkpt>
    <trkpt lat="49.217741" lon="19.749657"><ele>1532</ele></trkpt>
    <trkpt lat="49.217757" lon="19.749675"><ele>1533</ele></trkpt>
    <trkpt lat="49.218271" lon="19.749441"><ele>1551</ele></trkpt>
    <trkpt lat="49.218477" lon="19.749414"><ele>1559</ele></trkpt>
    <trkpt lat="49.218775" lon="19.749544"><ele>1574</ele></trkpt>
    <trkpt lat="49.219104" lon="19.749785"><ele>1595</ele></trkpt>
    <trkpt lat="49.219140" lon="19.749770"><ele>1596</ele></trkpt>
    <trkpt lat="49.219307" lon="19.749322"><ele>1598</ele></trkpt>
    <trkpt lat="49.219404" lon="19.749179"><ele>1600</ele></trkpt>
    <trkpt lat="49.219524" lon="19.749152"><ele>1603</ele></trkpt>
    <trkpt lat="49.219910" lon="19.749196"><ele>1613</ele></trkpt>
    <trkpt lat="49.219938" lon="19.749203"><ele>1614</ele></trkpt>
    <trkpt lat="49.219929" lon="19.749237"><ele>1615</ele></trkpt>
    <trkpt lat="49.219625" lon="19.749507"><ele>1618</ele></trkpt>
    <trkpt lat="49.219576" lon="19.749972"><ele>1626</ele></trkpt>
    <trkpt lat="49.219760" lon="19.749706"><ele>1629</ele></trkpt>
    <trkpt lat="49.220278" lon="19.749780"><ele>1640</ele></trkpt>
    <trkpt lat="49.221157" lon="19.750073"><ele>1660</ele></trkpt>
    <trkpt lat="49.220700" lon="19.750478"><ele>1664</ele></trkpt>
    <trkpt lat="49.220574" lon="19.750757"><ele>1670</ele></trkpt>
    <trkpt lat="49.220449" lon="19.750937"><ele>1673</ele></trkpt>
    <trkpt lat="49.220431" lon="19.751137"><ele>1677</ele></trkpt>
    <trkpt lat="49.220466" lon="19.751227"><ele>1679</ele></trkpt>
    <trkpt lat="49.220461" lon="19.751383"><ele>1682</ele></trkpt>
    <trkpt lat="49.220249" lon="19.752816"><ele>1718</ele></trkpt>
    <trkpt lat="49.220173" lon="19.753032"><ele>1723</ele></trkpt>
    <trkpt lat="49.220072" lon="19.753110"><ele>1727</ele></trkpt>
    <trkpt lat="49.219970" lon="19.753126"><ele>1728</ele></trkpt>
    <trkpt lat="49.219943" lon="19.753301"><ele>1731</ele></trkpt>
    <trkpt lat="49.219740" lon="19.753566"><ele>1737</ele></trkpt>
    <trkpt lat="49.219216" lon="19.753896"><ele>1745</ele></trkpt>
    <trkpt lat="49.218643" lon="19.754566"><ele>1760</ele></trkpt>
    <trkpt lat="49.218423" lon="19.754961"><ele>1769</ele></trkpt>
    <trkpt lat="49.218039" lon="19.755506"><ele>1787</ele></trkpt>
    <trkpt lat="49.217872" lon="19.755625"><ele>1792</ele></trkpt>
    <trkpt lat="49.217671" lon="19.755963"><ele>1801</ele></trkpt>
    <trkpt lat="49.217376" lon="19.756271"><ele>1812</ele></trkpt>
    <trkpt lat="49.216771" lon="19.757040"><ele>1835</ele></trkpt>
    <trkpt lat="49.216110" lon="19.758255"><ele>1873</ele></trkpt>
    <trkpt lat="49.215987" lon="19.758422"><ele>1875</ele></trkpt>
    <trkpt lat="49.214758" lon="19.758820"><ele>1861</ele></trkpt>
    <trkpt lat="49.214147" lon="19.758895"><ele>1859</ele></trkpt>
    <trkpt lat="49.213621" lon="19.759068"><ele>1856</ele></trkpt>
    <trkpt lat="49.213120" lon="19.759303"><ele>1854</ele></trkpt>
    <trkpt lat="49.211720" lon="19.759589"><ele>1861</ele></trkpt>
    <trkpt lat="49.210645" lon="19.760245"><ele>1900</ele></trkpt>
    <trkpt lat="49.210449" lon="19.760424"><ele>1910</ele></trkpt>
    <trkpt lat="49.210431" lon="19.760485"><ele>1912</ele></trkpt>
    <trkpt lat="49.210375" lon="19.760462"><ele>1913</ele></trkpt>
    <trkpt lat="49.210350" lon="19.760519"><ele>1915</ele></trkpt>
    <trkpt lat="49.210314" lon="19.760492"><ele>1916</ele></trkpt>
    <trkpt lat="49.210293" lon="19.760565"><ele>1918</ele></trkpt>
    <trkpt lat="49.210238" lon="19.760593"><ele>1920</ele></trkpt>
    <trkpt lat="49.210206" lon="19.760563"><ele>1920</ele></trkpt>
    <trkpt lat="49.209965" lon="19.760859"><ele>1929</ele></trkpt>
    <trkpt lat="49.209898" lon="19.760865"><ele>1930</ele></trkpt>
    <trkpt lat="49.209764" lon="19.761011"><ele>1936</ele></trkpt>
    <trkpt lat="49.209746" lon="19.761111"><ele>1938</ele></trkpt>
    <trkpt lat="49.209651" lon="19.761161"><ele>1942</ele></trkpt>
    <trkpt lat="49.209606" lon="19.761338"><ele>1948</ele></trkpt>
    <trkpt lat="49.209528" lon="19.761343"><ele>1951</ele></trkpt>
    <trkpt lat="49.209525" lon="19.761421"><ele>1953</ele></trkpt>
    <trkpt lat="49.209445" lon="19.761579"><ele>1959</ele></trkpt>
    <trkpt lat="49.209380" lon="19.761525"><ele>1959</ele></trkpt>
    <trkpt lat="49.209307" lon="19.761653"><ele>1965</ele></trkpt>
    <trkpt lat="49.209232" lon="19.761666"><ele>1968</ele></trkpt>
    <trkpt lat="49.208979" lon="19.761619"><ele>1970</ele></trkpt>
    <trkpt lat="49.208488" lon="19.761698"><ele>1979</ele></trkpt>
    <trkpt lat="49.208181" lon="19.761685"><ele>1986</ele></trkpt>
    <trkpt lat="49.207935" lon="19.761644"><ele>1989</ele></trkpt>
    <trkpt lat="49.207745" lon="19.761492"><ele>1982</ele></trkpt>
    <trkpt lat="49.207629" lon="19.761458"><ele>1981</ele></trkpt>
    <trkpt lat="49.207339" lon="19.761578"><ele>1992</ele></trkpt>
    <trkpt lat="49.206712" lon="19.761648"><ele>1998</ele></trkpt>
    <trkpt lat="49.206304" lon="19.761490"><ele>1998</ele></trkpt>
    <trkpt lat="49.206014" lon="19.761527"><ele>2000</ele></trkpt>
    <trkpt lat="49.205360" lon="19.761050"><ele>1975</ele></trkpt>
    <trkpt lat="49.205127" lon="19.760708"><ele>1960</ele></trkpt>
    <trkpt lat="49.205014" lon="19.760407"><ele>1946</ele></trkpt>
    <trkpt lat="49.204852" lon="19.760245"><ele>1937</ele></trkpt>
    <trkpt lat="49.204754" lon="19.760222"><ele>1936</ele></trkpt>
    <trkpt lat="49.204491" lon="19.759767"><ele>1916</ele></trkpt>
    <trkpt lat="49.204154" lon="19.759738"><ele>1918</ele></trkpt>
    <trkpt lat="49.204027" lon="19.759504"><ele>1911</ele></trkpt>
    <trkpt lat="49.203590" lon="19.759340"><ele>1907</ele></trkpt>
    <trkpt lat="49.203479" lon="19.759135"><ele>1901</ele></trkpt>
    <trkpt lat="49.203284" lon="19.759034"><ele>1900</ele></trkpt>
    <trkpt lat="49.203150" lon="19.758871"><ele>1898</ele></trkpt>
    <trkpt lat="49.202615" lon="19.759049"><ele>1915</ele></trkpt>
    <trkpt lat="49.202523" lon="19.759017"><ele>1916</ele></trkpt>
    <trkpt lat="49.202210" lon="19.759084"><ele>1923</ele></trkpt>
    <trkpt lat="49.202006" lon="19.759060"><ele>1929</ele></trkpt>
    <trkpt lat="49.201928" lon="19.759185"><ele>1935</ele></trkpt>
    <trkpt lat="49.201760" lon="19.759186"><ele>1946</ele></trkpt>
    <trkpt lat="49.201674" lon="19.759139"><ele>1950</ele></trkpt>
    <trkpt lat="49.201609" lon="19.759244"><ele>1957</ele></trkpt>
    <trkpt lat="49.201500" lon="19.759214"><ele>1964</ele></trkpt>
    <trkpt lat="49.201458" lon="19.759130"><ele>1966</ele></trkpt>
    <trkpt lat="49.201378" lon="19.759162"><ele>1973</ele></trkpt>
    <trkpt lat="49.201341" lon="19.759071"><ele>1973</ele></trkpt>
    <trkpt lat="49.201304" lon="19.759124"><ele>1977</ele></trkpt>
    <trkpt lat="49.201299" lon="19.759040"><ele>1975</ele></trkpt>
    <trkpt lat="49.201260" lon="19.759076"><ele>1979</ele></trkpt>
    <trkpt lat="49.201205" lon="19.759021"><ele>1981</ele></trkpt>
    <trkpt lat="49.201196" lon="19.758926"><ele>1979</ele></trkpt>
    <trkpt lat="49.201149" lon="19.758899"><ele>1982</ele></trkpt>
    <trkpt lat="49.201110" lon="19.758935"><ele>1986</ele></trkpt>
    <trkpt lat="49.201055" lon="19.758818"><ele>1987</ele></trkpt>
    <trkpt lat="49.200925" lon="19.758873"><ele>1995</ele></trkpt>
    <trkpt lat="49.200766" lon="19.759145"><ele>2002</ele></trkpt>
    <trkpt lat="49.200730" lon="19.759107"><ele>2002</ele></trkpt>
    <trkpt lat="49.200767" lon="19.758823"><ele>2002</ele></trkpt>
    <trkpt lat="49.200717" lon="19.758584"><ele>2004</ele></trkpt>
    <trkpt lat="49.200596" lon="19.758420"><ele>2010</ele></trkpt>
    <trkpt lat="49.200283" lon="19.757811"><ele>2017</ele></trkpt>
    <trkpt lat="49.200251" lon="19.757366"><ele>2034</ele></trkpt>
    <trkpt lat="49.200283" lon="19.757811"><ele>2017</ele></trkpt>
    <trkpt lat="49.200596" lon="19.758420"><ele>2010</ele></trkpt>
    <trkpt lat="49.200717" lon="19.758584"><ele>2004</ele></trkpt>
    <trkpt lat="49.200767" lon="19.758823"><ele>2002</ele></trkpt>
    <trkpt lat="49.200730" lon="19.759107"><ele>2002</ele></trkpt>
    <trkpt lat="49.200766" lon="19.759145"><ele>2002</ele></trkpt>
    <trkpt lat="49.200925" lon="19.758873"><ele>1995</ele></trkpt>
    <trkpt lat="49.201055" lon="19.758818"><ele>1987</ele></trkpt>
    <trkpt lat="49.201110" lon="19.758935"><ele>1986</ele></trkpt>
    <trkpt lat="49.201149" lon="19.758899"><ele>1982</ele></trkpt>
    <trkpt lat="49.201196" lon="19.758926"><ele>1979</ele></trkpt>
    <trkpt lat="49.201205" lon="19.759021"><ele>1981</ele></trkpt>
    <trkpt lat="49.201260" lon="19.759076"><ele>1979</ele></trkpt>
    <trkpt lat="49.201299" lon="19.759040"><ele>1975</ele></trkpt>
    <trkpt lat="49.201304" lon="19.759124"><ele>1977</ele></trkpt>
    <trkpt lat="49.201341" lon="19.759071"><ele>1973</ele></trkpt>
    <trkpt lat="49.201378" lon="19.759162"><ele>1973</ele></trkpt>
    <trkpt lat="49.201458" lon="19.759130"><ele>1966</ele></trkpt>
    <trkpt lat="49.201500" lon="19.759214"><ele>1964</ele></trkpt>
    <trkpt lat="49.201609" lon="19.759244"><ele>1957</ele></trkpt>
    <trkpt lat="49.201674" lon="19.759139"><ele>1950</ele></trkpt>
    <trkpt lat="49.201760" lon="19.759186"><ele>1946</ele></trkpt>
    <trkpt lat="49.201928" lon="19.759185"><ele>1935</ele></trkpt>
    <trkpt lat="49.202006" lon="19.759060"><ele>1929</ele></trkpt>
    <trkpt lat="49.202210" lon="19.759084"><ele>1923</ele></trkpt>
    <trkpt lat="49.202523" lon="19.759017"><ele>1916</ele></trkpt>
    <trkpt lat="49.202615" lon="19.759049"><ele>1915</ele></trkpt>
    <trkpt lat="49.203150" lon="19.758871"><ele>1898</ele></trkpt>
    <trkpt lat="49.203284" lon="19.759034"><ele>1900</ele></trkpt>
    <trkpt lat="49.203479" lon="19.759135"><ele>1901</ele></trkpt>
    <trkpt lat="49.203590" lon="19.759340"><ele>1907</ele></trkpt>
    <trkpt lat="49.204027" lon="19.759504"><ele>1911</ele></trkpt>
    <trkpt lat="49.204154" lon="19.759738"><ele>1918</ele></trkpt>
    <trkpt lat="49.204491" lon="19.759767"><ele>1916</ele></trkpt>
    <trkpt lat="49.204754" lon="19.760222"><ele>1936</ele></trkpt>
    <trkpt lat="49.204852" lon="19.760245"><ele>1937</ele></trkpt>
    <trkpt lat="49.205014" lon="19.760407"><ele>1946</ele></trkpt>
    <trkpt lat="49.205127" lon="19.760708"><ele>1960</ele></trkpt>
    <trkpt lat="49.205360" lon="19.761050"><ele>1975</ele></trkpt>
    <trkpt lat="49.206014" lon="19.761527"><ele>2000</ele></trkpt>
    <trkpt lat="49.206304" lon="19.761490"><ele>1998</ele></trkpt>
    <trkpt lat="49.206712" lon="19.761648"><ele>1998</ele></trkpt>
    <trkpt lat="49.207339" lon="19.761578"><ele>1992</ele></trkpt>
    <trkpt lat="49.207629" lon="19.761458"><ele>1981</ele></trkpt>
    <trkpt lat="49.207745" lon="19.761492"><ele>1982</ele></trkpt>
    <trkpt lat="49.207935" lon="19.761644"><ele>1989</ele></trkpt>
    <trkpt lat="49.208181" lon="19.761685"><ele>1986</ele></trkpt>
    <trkpt lat="49.208488" lon="19.761698"><ele>1979</ele></trkpt>
    <trkpt lat="49.208979" lon="19.761619"><ele>1970</ele></trkpt>
    <trkpt lat="49.209232" lon="19.761666"><ele>1968</ele></trkpt>
    <trkpt lat="49.209307" lon="19.761653"><ele>1965</ele></trkpt>
    <trkpt lat="49.209380" lon="19.761525"><ele>1959</ele></trkpt>
    <trkpt lat="49.209445" lon="19.761579"><ele>1959</ele></trkpt>
    <trkpt lat="49.209525" lon="19.761421"><ele>1953</ele></trkpt>
    <trkpt lat="49.209528" lon="19.761343"><ele>1951</ele></trkpt>
    <trkpt lat="49.209606" lon="19.761338"><ele>1948</ele></trkpt>
    <trkpt lat="49.209651" lon="19.761161"><ele>1942</ele></trkpt>
    <trkpt lat="49.209746" lon="19.761111"><ele>1938</ele></trkpt>
    <trkpt lat="49.209764" lon="19.761011"><ele>1936</ele></trkpt>
    <trkpt lat="49.209898" lon="19.760865"><ele>1930</ele></trkpt>
    <trkpt lat="49.209965" lon="19.760859"><ele>1929</ele></trkpt>
    <trkpt lat="49.210206" lon="19.760563"><ele>1920</ele></trkpt>
    <trkpt lat="49.210238" lon="19.760593"><ele>1920</ele></trkpt>
    <trkpt lat="49.210293" lon="19.760565"><ele>1918</ele></trkpt>
    <trkpt lat="49.210314" lon="19.760492"><ele>1916</ele></trkpt>
    <trkpt lat="49.210350" lon="19.760519"><ele>1915</ele></trkpt>
    <trkpt lat="49.210375" lon="19.760462"><ele>1913</ele></trkpt>
    <trkpt lat="49.210431" lon="19.760485"><ele>1912</ele></trkpt>
    <trkpt lat="49.210449" lon="19.760424"><ele>1910</ele></trkpt>
    <trkpt lat="49.210645" lon="19.760245"><ele>1900</ele></trkpt>
    <trkpt lat="49.211720" lon="19.759589"><ele>1861</ele></trkpt>
    <trkpt lat="49.213120" lon="19.759303"><ele>1854</ele></trkpt>
    <trkpt lat="49.213621" lon="19.759068"><ele>1856</ele></trkpt>
    <trkpt lat="49.214147" lon="19.758895"><ele>1859</ele></trkpt>
    <trkpt lat="49.214758" lon="19.758820"><ele>1861</ele></trkpt>
    <trkpt lat="49.215987" lon="19.758422"><ele>1875</ele></trkpt>
    <trkpt lat="49.216110" lon="19.758255"><ele>1873</ele></trkpt>
    <trkpt lat="49.216771" lon="19.757040"><ele>1835</ele></trkpt>
    <trkpt lat="49.217376" lon="19.756271"><ele>1812</ele></trkpt>
    <trkpt lat="49.217671" lon="19.755963"><ele>1801</ele></trkpt>
    <trkpt lat="49.217872" lon="19.755625"><ele>1792</ele></trkpt>
    <trkpt lat="49.218039" lon="19.755506"><ele>1787</ele></trkpt>
    <trkpt lat="49.218423" lon="19.754961"><ele>1769</ele></trkpt>
    <trkpt lat="49.218643" lon="19.754566"><ele>1760</ele></trkpt>
    <trkpt lat="49.219216" lon="19.753896"><ele>1745</ele></trkpt>
    <trkpt lat="49.219740" lon="19.753566"><ele>1737</ele></trkpt>
    <trkpt lat="49.219943" lon="19.753301"><ele>1731</ele></trkpt>
    <trkpt lat="49.219970" lon="19.753126"><ele>1728</ele></trkpt>
    <trkpt lat="49.220072" lon="19.753110"><ele>1727</ele></trkpt>
    <trkpt lat="49.220173" lon="19.753032"><ele>1723</ele></trkpt>
    <trkpt lat="49.220249" lon="19.752816"><ele>1718</ele></trkpt>
    <trkpt lat="49.220461" lon="19.751383"><ele>1682</ele></trkpt>
    <trkpt lat="49.220466" lon="19.751227"><ele>1679</ele></trkpt>
    <trkpt lat="49.220431" lon="19.751137"><ele>1677</ele></trkpt>
    <trkpt lat="49.220449" lon="19.750937"><ele>1673</ele></trkpt>
    <trkpt lat="49.220574" lon="19.750757"><ele>1670</ele></trkpt>
    <trkpt lat="49.220700" lon="19.750478"><ele>1664</ele></trkpt>
    <trkpt lat="49.221157" lon="19.750073"><ele>1660</ele></trkpt>
    <trkpt lat="49.220278" lon="19.749780"><ele>1640</ele></trkpt>
    <trkpt lat="49.219760" lon="19.749706"><ele>1629</ele></trkpt>
    <trkpt lat="49.219576" lon="19.749972"><ele>1626</ele></trkpt>
    <trkpt lat="49.219625" lon="19.749507"><ele>1618</ele></trkpt>
    <trkpt lat="49.219929" lon="19.749237"><ele>1615</ele></trkpt>
    <trkpt lat="49.219938" lon="19.749203"><ele>1614</ele></trkpt>
    <trkpt lat="49.219910" lon="19.749196"><ele>1613</ele></trkpt>
    <trkpt lat="49.219524" lon="19.749152"><ele>1603</ele></trkpt>
    <trkpt lat="49.219404" lon="19.749179"><ele>1600</ele></trkpt>
    <trkpt lat="49.219307" lon="19.749322"><ele>1598</ele></trkpt>
    <trkpt lat="49.219140" lon="19.749770"><ele>1596</ele></trkpt>
    <trkpt lat="49.219104" lon="19.749785"><ele>1595</ele></trkpt>
    <trkpt lat="49.218775" lon="19.749544"><ele>1574</ele></trkpt>
    <trkpt lat="49.218477" lon="19.749414"><ele>1559</ele></trkpt>
    <trkpt lat="49.218271" lon="19.749441"><ele>1551</ele></trkpt>
    <trkpt lat="49.217757" lon="19.749675"><ele>1533</ele></trkpt>
    <trkpt lat="49.217741" lon="19.749657"><ele>1532</ele></trkpt>
    <trkpt lat="49.217929" lon="19.749268"><ele>1529</ele></trkpt>
    <trkpt lat="49.217652" lon="19.749423"><ele>1519</ele></trkpt>
    <trkpt lat="49.217653" lon="19.749320"><ele>1516</ele></trkpt>
    <trkpt lat="49.217375" lon="19.749512"><ele>1510</ele></trkpt>
    <trkpt lat="49.217325" lon="19.749478"><ele>1506</ele></trkpt>
    <trkpt lat="49.217417" lon="19.749217"><ele>1501</ele></trkpt>
    <trkpt lat="49.216823" lon="19.749201"><ele>1484</ele></trkpt>
    <trkpt lat="49.216839" lon="19.749064"><ele>1480</ele></trkpt>
    <trkpt lat="49.216988" lon="19.748851"><ele>1477</ele></trkpt>
    <trkpt lat="49.217130" lon="19.748533"><ele>1471</ele></trkpt>
    <trkpt lat="49.216378" lon="19.748475"><ele>1457</ele></trkpt>
    <trkpt lat="49.216220" lon="19.748424"><ele>1455</ele></trkpt>
    <trkpt lat="49.216180" lon="19.748322"><ele>1452</ele></trkpt>
    <trkpt lat="49.216305" lon="19.748076"><ele>1448</ele></trkpt>
    <trkpt lat="49.216696" lon="19.747770"><ele>1439</ele></trkpt>
    <trkpt lat="49.216712" lon="19.747613"><ele>1435</ele></trkpt>
    <trkpt lat="49.216803" lon="19.747396"><ele>1432</ele></trkpt>
    <trkpt lat="49.216775" lon="19.747267"><ele>1429</ele></trkpt>
    <trkpt lat="49.216572" lon="19.746963"><ele>1420</ele></trkpt>
    <trkpt lat="49.216424" lon="19.746881"><ele>1416</ele></trkpt>
    <trkpt lat="49.215869" lon="19.746870"><ele>1404</ele></trkpt>
    <trkpt lat="49.215583" lon="19.746990"><ele>1396</ele></trkpt>
    <trkpt lat="49.215288" lon="19.747315"><ele>1394</ele></trkpt>
    <trkpt lat="49.215124" lon="19.747340"><ele>1392</ele></trkpt>
    <trkpt lat="49.214902" lon="19.747244"><ele>1387</ele></trkpt>
    <trkpt lat="49.214800" lon="19.747259"><ele>1385</ele></trkpt>
    <trkpt lat="49.214566" lon="19.747474"><ele>1383</ele></trkpt>
    <trkpt lat="49.214475" lon="19.747643"><ele>1383</ele></trkpt>
    <trkpt lat="49.214211" lon="19.747683"><ele>1379</ele></trkpt>
    <trkpt lat="49.214093" lon="19.747797"><ele>1379</ele></trkpt>
    <trkpt lat="49.213957" lon="19.747768"><ele>1377</ele></trkpt>
    <trkpt lat="49.213871" lon="19.747444"><ele>1373</ele></trkpt>
    <trkpt lat="49.214329" lon="19.747042"><ele>1372</ele></trkpt>
    <trkpt lat="49.214630" lon="19.746675"><ele>1369</ele></trkpt>
    <trkpt lat="49.214785" lon="19.746350"><ele>1366</ele></trkpt>
    <trkpt lat="49.215098" lon="19.745333"><ele>1354</ele></trkpt>
    <trkpt lat="49.215349" lon="19.744832"><ele>1347</ele></trkpt>
    <trkpt lat="49.215564" lon="19.744575"><ele>1346</ele></trkpt>
    <trkpt lat="49.216311" lon="19.743879"><ele>1334</ele></trkpt>
    <trkpt lat="49.216526" lon="19.743635"><ele>1330</ele></trkpt>
    <trkpt lat="49.216765" lon="19.743283"><ele>1327</ele></trkpt>
    <trkpt lat="49.217034" lon="19.742703"><ele>1320</ele></trkpt>
    <trkpt lat="49.217230" lon="19.741990"><ele>1312</ele></trkpt>
    <trkpt lat="49.218212" lon="19.737300"><ele>1275</ele></trkpt>
    <trkpt lat="49.218737" lon="19.735347"><ele>1260</ele></trkpt>
    <trkpt lat="49.219059" lon="19.734262"><ele>1251</ele></trkpt>
    <trkpt lat="49.219178" lon="19.733967"><ele>1247</ele></trkpt>
    <trkpt lat="49.219347" lon="19.733674"><ele>1243</ele></trkpt>
    <trkpt lat="49.220063" lon="19.732809"><ele>1231</ele></trkpt>
    <trkpt lat="49.220269" lon="19.732499"><ele>1227</ele></trkpt>
    <trkpt lat="49.221063" lon="19.730890"><ele>1217</ele></trkpt>
    <trkpt lat="49.221276" lon="19.730646"><ele>1217</ele></trkpt>
    <trkpt lat="49.221745" lon="19.730309"><ele>1216</ele></trkpt>
    <trkpt lat="49.221920" lon="19.730111"><ele>1214</ele></trkpt>
    <trkpt lat="49.222548" lon="19.728990"><ele>1201</ele></trkpt>
    <trkpt lat="49.223532" lon="19.727787"><ele>1191</ele></trkpt>
    <trkpt lat="49.224009" lon="19.726923"><ele>1187</ele></trkpt>
    <trkpt lat="49.224655" lon="19.725348"><ele>1176</ele></trkpt>
    <trkpt lat="49.225011" lon="19.724887"><ele>1170</ele></trkpt>
    <trkpt lat="49.225385" lon="19.724673"><ele>1165</ele></trkpt>
    <trkpt lat="49.226126" lon="19.724468"><ele>1161</ele></trkpt>
    <trkpt lat="49.226406" lon="19.724328"><ele>1159</ele></trkpt>
    <trkpt lat="49.227533" lon="19.723291"><ele>1147</ele></trkpt>
    <trkpt lat="49.228200" lon="19.722834"><ele>1139</ele></trkpt>
    <trkpt lat="49.228733" lon="19.722580"><ele>1136</ele></trkpt>
    <trkpt lat="49.230315" lon="19.722034"><ele>1124</ele></trkpt>
    <trkpt lat="49.231288" lon="19.721503"><ele>1119</ele></trkpt>
    <trkpt lat="49.232220" lon="19.720886"><ele>1111</ele></trkpt>
    <trkpt lat="49.234960" lon="19.719392"><ele>1094</ele></trkpt>
    <trkpt lat="49.236699" lon="19.718219"><ele>1068</ele></trkpt>
    <trkpt lat="49.236618" lon="19.718023"><ele>1065</ele></trkpt>
  </trkseg></trk>
</gpx>
