<?xml version="1.0" encoding="UTF-8"?>
<gpx version="1.1" creator="MounTour (BRouter + OpenStreetMap)" xmlns="http://www.topografix.com/GPX/1/1">
  <metadata><name>Hrad Pajštún z Borinky</name><copyright author="OpenStreetMap contributors"><license>https://opendatacommons.org/licenses/odbl/</license></copyright></metadata>
  <trk><name>Hrad Pajštún z Borinky</name><trkseg>
    <trkpt lat="48.262602" lon="17.086004"><ele>240.5</ele></trkpt>
    <trkpt lat="48.262573" lon="17.086074"><ele>240.75</ele></trkpt>
    <trkpt lat="48.262609" lon="17.086114"><ele>241.0</ele></trkpt>
    <trkpt lat="48.262775" lon="17.086327"><ele>242.5</ele></trkpt>
    <trkpt lat="48.262993" lon="17.086606"><ele>245.5</ele></trkpt>
    <trkpt lat="48.263053" lon="17.086663"><ele>245.75</ele></trkpt>
    <trkpt lat="48.263387" lon="17.086812"><ele>249.5</ele></trkpt>
    <trkpt lat="48.263441" lon="17.086851"><ele>250.0</ele></trkpt>
    <trkpt lat="48.263598" lon="17.087027"><ele>250.5</ele></trkpt>
    <trkpt lat="48.263700" lon="17.087053"><ele>251.25</ele></trkpt>
    <trkpt lat="48.263842" lon="17.087043"><ele>252.0</ele></trkpt>
    <trkpt lat="48.264172" lon="17.086880"><ele>255.25</ele></trkpt>
    <trkpt lat="48.264337" lon="17.086808"><ele>258.75</ele></trkpt>
    <trkpt lat="48.264453" lon="17.086771"><ele>260.25</ele></trkpt>
    <trkpt lat="48.264526" lon="17.086735"><ele>261.0</ele></trkpt>
    <trkpt lat="48.264821" lon="17.086552"><ele>265.5</ele></trkpt>
    <trkpt lat="48.264883" lon="17.086524"><ele>266.5</ele></trkpt>
    <trkpt lat="48.264941" lon="17.086508"><ele>267.25</ele></trkpt>
    <trkpt lat="48.265108" lon="17.086499"><ele>268.25</ele></trkpt>
    <trkpt lat="48.265163" lon="17.086482"><ele>268.0</ele></trkpt>
    <trkpt lat="48.265242" lon="17.086435"><ele>266.75</ele></trkpt>
    <trkpt lat="48.265326" lon="17.086356"><ele>267.5</ele></trkpt>
    <trkpt lat="48.265364" lon="17.086293"><ele>270.0</ele></trkpt>
    <trkpt lat="48.265502" lon="17.085994"><ele>272.75</ele></trkpt>
    <trkpt lat="48.265555" lon="17.085903"><ele>271.25</ele></trkpt>
    <trkpt lat="48.265779" lon="17.085578"><ele>272.0</ele></trkpt>
    <trkpt lat="48.265824" lon="17.085536"><ele>271.5</ele></trkpt>
    <trkpt lat="48.265909" lon="17.085495"><ele>273.5</ele></trkpt>
    <trkpt lat="48.266189" lon="17.085467"><ele>278.0</ele></trkpt>
    <trkpt lat="48.266242" lon="17.085445"><ele>278.25</ele></trkpt>
    <trkpt lat="48.266312" lon="17.085385"><ele>278.0</ele></trkpt>
    <trkpt lat="48.266345" lon="17.085367"><ele>277.75</ele></trkpt>
    <trkpt lat="48.266373" lon="17.085364"><ele>277.75</ele></trkpt>
    <trkpt lat="48.266435" lon="17.085373"><ele>278.5</ele></trkpt>
    <trkpt lat="48.266496" lon="17.085420"><ele>280.0</ele></trkpt>
    <trkpt lat="48.266564" lon="17.085431"><ele>281.0</ele></trkpt>
    <trkpt lat="48.266683" lon="17.085423"><ele>282.0</ele></trkpt>
    <trkpt lat="48.266828" lon="17.085414"><ele>283.5</ele></trkpt>
    <trkpt lat="48.266977" lon="17.085383"><ele>284.75</ele></trkpt>
    <trkpt lat="48.267122" lon="17.085364"><ele>286.0</ele></trkpt>
    <trkpt lat="48.268055" lon="17.085305"><ele>293.25</ele></trkpt>
    <trkpt lat="48.268132" lon="17.085294"><ele>294.25</ele></trkpt>
    <trkpt lat="48.268216" lon="17.085255"><ele>295.0</ele></trkpt>
    <trkpt lat="48.268284" lon="17.085203"><ele>295.75</ele></trkpt>
    <trkpt lat="48.268444" lon="17.085012"><ele>297.25</ele></trkpt>
    <trkpt lat="48.268628" lon="17.084775"><ele>299.25</ele></trkpt>
    <trkpt lat="48.268782" lon="17.084573"><ele>297.25</ele></trkpt>
    <trkpt lat="48.268843" lon="17.084513"><ele>296.75</ele></trkpt>
    <trkpt lat="48.268890" lon="17.084488"><ele>296.5</ele></trkpt>
    <trkpt lat="48.269075" lon="17.084431"><ele>295.5</ele></trkpt>
    <trkpt lat="48.269261" lon="17.084392"><ele>295.0</ele></trkpt>
    <trkpt lat="48.269453" lon="17.084338"><ele>294.25</ele></trkpt>
    <trkpt lat="48.269601" lon="17.084270"><ele>294.25</ele></trkpt>
    <trkpt lat="48.269738" lon="17.084200"><ele>294.0</ele></trkpt>
    <trkpt lat="48.269801" lon="17.084155"><ele>293.5</ele></trkpt>
    <trkpt lat="48.269867" lon="17.084061"><ele>293.25</ele></trkpt>
    <trkpt lat="48.269894" lon="17.083980"><ele>292.75</ele></trkpt>
    <trkpt lat="48.269906" lon="17.083915"><ele>292.5</ele></trkpt>
    <trkpt lat="48.269905" lon="17.083736"><ele>292.75</ele></trkpt>
    <trkpt lat="48.269994" lon="17.083608"><ele>294.75</ele></trkpt>
    <trkpt lat="48.270055" lon="17.083563"><ele>296.75</ele></trkpt>
    <trkpt lat="48.270101" lon="17.083509"><ele>298.75</ele></trkpt>
    <trkpt lat="48.270152" lon="17.083483"><ele>300.5</ele></trkpt>
    <trkpt lat="48.270251" lon="17.083452"><ele>303.75</ele></trkpt>
    <trkpt lat="48.270334" lon="17.083370"><ele>307.0</ele></trkpt>
    <trkpt lat="48.270575" lon="17.083078"><ele>316.25</ele></trkpt>
    <trkpt lat="48.270808" lon="17.082836"><ele>323.75</ele></trkpt>
    <trkpt lat="48.270872" lon="17.082806"><ele>325.5</ele></trkpt>
    <trkpt lat="48.271173" lon="17.082712"><ele>332.75</ele></trkpt>
    <trkpt lat="48.272055" lon="17.082587"><ele>357.0</ele></trkpt>
    <trkpt lat="48.272538" lon="17.082492"><ele>371.0</ele></trkpt>
    <trkpt lat="48.272976" lon="17.082405"><ele>383.25</ele></trkpt>
    <trkpt lat="48.273223" lon="17.082468"><ele>390.0</ele></trkpt>
    <trkpt lat="48.273567" lon="17.082572"><ele>399.25</ele></trkpt>
    <trkpt lat="48.273695" lon="17.082532"><ele>402.75</ele></trkpt>
    <trkpt lat="48.273789" lon="17.082446"><ele>405.5</ele></trkpt>
    <trkpt lat="48.273943" lon="17.082377"><ele>410.0</ele></trkpt>
    <trkpt lat="48.274230" lon="17.082361"><ele>418.5</ele></trkpt>
    <trkpt lat="48.274333" lon="17.082360"><ele>422.0</ele></trkpt>
    <trkpt lat="48.274399" lon="17.082325"><ele>424.0</ele></trkpt>
    <trkpt lat="48.274435" lon="17.082258"><ele>424.75</ele></trkpt>
    <trkpt lat="48.274459" lon="17.082232"><ele>425.5</ele></trkpt>
    <trkpt lat="48.274515" lon="17.082208"><ele>427.5</ele></trkpt>
    <trkpt lat="48.274597" lon="17.082221"><ele>431.0</ele></trkpt>
    <trkpt lat="48.274655" lon="17.082248"><ele>433.25</ele></trkpt>
    <trkpt lat="48.274680" lon="17.082249"><ele>434.25</ele></trkpt>
    <trkpt lat="48.274748" lon="17.082175"><ele>436.75</ele></trkpt>
    <trkpt lat="48.274850" lon="17.082106"><ele>441.0</ele></trkpt>
    <trkpt lat="48.274924" lon="17.081868"><ele>443.75</ele></trkpt>
    <trkpt lat="48.274984" lon="17.081761"><ele>446.25</ele></trkpt>
    <trkpt lat="48.275072" lon="17.081655"><ele>447.75</ele></trkpt>
    <trkpt lat="48.275104" lon="17.081631"><ele>447.75</ele></trkpt>
    <trkpt lat="48.275136" lon="17.081639"><ele>448.25</ele></trkpt>
    <trkpt lat="48.275155" lon="17.081679"><ele>449.25</ele></trkpt>
    <trkpt lat="48.275158" lon="17.081814"><ele>451.0</ele></trkpt>
    <trkpt lat="48.275177" lon="17.081899"><ele>452.5</ele></trkpt>
    <trkpt lat="48.275204" lon="17.081956"><ele>454.5</ele></trkpt>
    <trkpt lat="48.275218" lon="17.082026"><ele>456.75</ele></trkpt>
    <trkpt lat="48.275221" lon="17.082262"><ele>462.25</ele></trkpt>
    <trkpt lat="48.275286" lon="17.082540"><ele>466.75</ele></trkpt>
    <trkpt lat="48.275302" lon="17.082632"><ele>468.5</ele></trkpt>
    <trkpt lat="48.275328" lon="17.082595"><ele>468.75</ele></trkpt>
    <trkpt lat="48.275352" lon="17.082575"><ele>469.25</ele></trkpt>
    <trkpt lat="48.275386" lon="17.082530"><ele>469.25</ele></trkpt>
    <trkpt lat="48.275448" lon="17.082501"><ele>470.25</ele></trkpt>
    <trkpt lat="48.275478" lon="17.082492"><ele>470.75</ele></trkpt>
    <trkpt lat="48.275495" lon="17.082661"><ele>476.0</ele></trkpt>
    <trkpt lat="48.275496" lon="17.082714"><ele>477.5</ele></trkpt>
    <trkpt lat="48.275487" lon="17.082753"><ele>478.25</ele></trkpt>
    <trkpt lat="48.275499" lon="17.082870"><ele>480.0</ele></trkpt>
    <trkpt lat="48.275489" lon="17.082930"><ele>479.75</ele></trkpt>
    <trkpt lat="48.275433" lon="17.082848"><ele>475.25</ele></trkpt>
    <trkpt lat="48.275489" lon="17.082930"><ele>479.75</ele></trkpt>
    <trkpt lat="48.275499" lon="17.082870"><ele>480.0</ele></trkpt>
    <trkpt lat="48.275487" lon="17.082753"><ele>478.25</ele></trkpt>
    <trkpt lat="48.275496" lon="17.082714"><ele>477.5</ele></trkpt>
    <trkpt lat="48.275495" lon="17.082661"><ele>476.0</ele></trkpt>
    <trkpt lat="48.275478" lon="17.082492"><ele>470.75</ele></trkpt>
    <trkpt lat="48.275448" lon="17.082501"><ele>470.25</ele></trkpt>
    <trkpt lat="48.275386" lon="17.082530"><ele>469.25</ele></trkpt>
    <trkpt lat="48.275352" lon="17.082575"><ele>469.25</ele></trkpt>
    <trkpt lat="48.275328" lon="17.082595"><ele>468.75</ele></trkpt>
    <trkpt lat="48.275302" lon="17.082632"><ele>468.5</ele></trkpt>
    <trkpt lat="48.275286" lon="17.082540"><ele>466.75</ele></trkpt>
    <trkpt lat="48.275221" lon="17.082262"><ele>462.25</ele></trkpt>
    <trkpt lat="48.275218" lon="17.082026"><ele>456.75</ele></trkpt>
    <trkpt lat="48.275204" lon="17.081956"><ele>454.5</ele></trkpt>
    <trkpt lat="48.275177" lon="17.081899"><ele>452.5</ele></trkpt>
    <trkpt lat="48.275158" lon="17.081814"><ele>451.0</ele></trkpt>
    <trkpt lat="48.275155" lon="17.081679"><ele>449.25</ele></trkpt>
    <trkpt lat="48.275136" lon="17.081639"><ele>448.25</ele></trkpt>
    <trkpt lat="48.275104" lon="17.081631"><ele>447.75</ele></trkpt>
    <trkpt lat="48.275072" lon="17.081655"><ele>447.75</ele></trkpt>
    <trkpt lat="48.274984" lon="17.081761"><ele>446.25</ele></trkpt>
    <trkpt lat="48.274924" lon="17.081868"><ele>443.75</ele></trkpt>
    <trkpt lat="48.274850" lon="17.082106"><ele>441.0</ele></trkpt>
    <trkpt lat="48.274748" lon="17.082175"><ele>436.75</ele></trkpt>
    <trkpt lat="48.274680" lon="17.082249"><ele>434.25</ele></trkpt>
    <trkpt lat="48.274655" lon="17.082248"><ele>433.25</ele></trkpt>
    <trkpt lat="48.274597" lon="17.082221"><ele>431.0</ele></trkpt>
    <trkpt lat="48.274515" lon="17.082208"><ele>427.5</ele></trkpt>
    <trkpt lat="48.274459" lon="17.082232"><ele>425.5</ele></trkpt>
    <trkpt lat="48.274435" lon="17.082258"><ele>424.75</ele></trkpt>
    <trkpt lat="48.274399" lon="17.082325"><ele>424.0</ele></trkpt>
    <trkpt lat="48.274333" lon="17.082360"><ele>422.0</ele></trkpt>
    <trkpt lat="48.274230" lon="17.082361"><ele>418.5</ele></trkpt>
    <trkpt lat="48.273943" lon="17.082377"><ele>410.0</ele></trkpt>
    <trkpt lat="48.273789" lon="17.082446"><ele>405.5</ele></trkpt>
    <trkpt lat="48.273695" lon="17.082532"><ele>402.75</ele></trkpt>
    <trkpt lat="48.273567" lon="17.082572"><ele>399.25</ele></trkpt>
    <trkpt lat="48.273223" lon="17.082468"><ele>390.0</ele></trkpt>
    <trkpt lat="48.272976" lon="17.082405"><ele>383.25</ele></trkpt>
    <trkpt lat="48.272538" lon="17.082492"><ele>371.0</ele></trkpt>
    <trkpt lat="48.272055" lon="17.082587"><ele>357.0</ele></trkpt>
    <trkpt lat="48.271173" lon="17.082712"><ele>332.75</ele></trkpt>
    <trkpt lat="48.270872" lon="17.082806"><ele>325.5</ele></trkpt>
    <trkpt lat="48.270808" lon="17.082836"><ele>323.75</ele></trkpt>
    <trkpt lat="48.270575" lon="17.083078"><ele>316.25</ele></trkpt>
    <trkpt lat="48.270334" lon="17.083370"><ele>307.0</ele></trkpt>
    <trkpt lat="48.270251" lon="17.083452"><ele>303.75</ele></trkpt>
    <trkpt lat="48.270152" lon="17.083483"><ele>300.5</ele></trkpt>
    <trkpt lat="48.270101" lon="17.083509"><ele>298.75</ele></trkpt>
    <trkpt lat="48.270055" lon="17.083563"><ele>296.75</ele></trkpt>
    <trkpt lat="48.269994" lon="17.083608"><ele>294.75</ele></trkpt>
    <trkpt lat="48.269905" lon="17.083736"><ele>292.75</ele></trkpt>
    <trkpt lat="48.269906" lon="17.083915"><ele>292.5</ele></trkpt>
    <trkpt lat="48.269894" lon="17.083980"><ele>292.75</ele></trkpt>
    <trkpt lat="48.269867" lon="17.084061"><ele>293.25</ele></trkpt>
    <trkpt lat="48.269801" lon="17.084155"><ele>293.5</ele></trkpt>
    <trkpt lat="48.269738" lon="17.084200"><ele>294.0</ele></trkpt>
    <trkpt lat="48.269601" lon="17.084270"><ele>294.25</ele></trkpt>
    <trkpt lat="48.269453" lon="17.084338"><ele>294.25</ele></trkpt>
    <trkpt lat="48.269261" lon="17.084392"><ele>295.0</ele></trkpt>
    <trkpt lat="48.269075" lon="17.084431"><ele>295.5</ele></trkpt>
    <trkpt lat="48.268890" lon="17.084488"><ele>296.5</ele></trkpt>
    <trkpt lat="48.268843" lon="17.084513"><ele>296.75</ele></trkpt>
    <trkpt lat="48.268782" lon="17.084573"><ele>297.25</ele></trkpt>
    <trkpt lat="48.268628" lon="17.084775"><ele>299.25</ele></trkpt>
    <trkpt lat="48.268444" lon="17.085012"><ele>297.25</ele></trkpt>
    <trkpt lat="48.268284" lon="17.085203"><ele>295.75</ele></trkpt>
    <trkpt lat="48.268216" lon="17.085255"><ele>295.0</ele></trkpt>
    <trkpt lat="48.268132" lon="17.085294"><ele>294.25</ele></trkpt>
    <trkpt lat="48.268055" lon="17.085305"><ele>293.25</ele></trkpt>
    <trkpt lat="48.267122" lon="17.085364"><ele>286.0</ele></trkpt>
    <trkpt lat="48.266977" lon="17.085383"><ele>284.75</ele></trkpt>
    <trkpt lat="48.266828" lon="17.085414"><ele>283.5</ele></trkpt>
    <trkpt lat="48.266683" lon="17.085423"><ele>282.0</ele></trkpt>
    <trkpt lat="48.266564" lon="17.085431"><ele>281.0</ele></trkpt>
    <trkpt lat="48.266496" lon="17.085420"><ele>280.0</ele></trkpt>
    <trkpt lat="48.266435" lon="17.085373"><ele>278.5</ele></trkpt>
    <trkpt lat="48.266373" lon="17.085364"><ele>277.75</ele></trkpt>
    <trkpt lat="48.266345" lon="17.085367"><ele>277.75</ele></trkpt>
    <trkpt lat="48.266312" lon="17.085385"><ele>278.0</ele></trkpt>
    <trkpt lat="48.266242" lon="17.085445"><ele>278.25</ele></trkpt>
    <trkpt lat="48.266189" lon="17.085467"><ele>278.0</ele></trkpt>
    <trkpt lat="48.265909" lon="17.085495"><ele>273.5</ele></trkpt>
    <trkpt lat="48.265824" lon="17.085536"><ele>271.5</ele></trkpt>
    <trkpt lat="48.265779" lon="17.085578"><ele>272.0</ele></trkpt>
    <trkpt lat="48.265555" lon="17.085903"><ele>271.25</ele></trkpt>
    <trkpt lat="48.265502" lon="17.085994"><ele>272.75</ele></trkpt>
    <trkpt lat="48.265364" lon="17.086293"><ele>270.0</ele></trkpt>
    <trkpt lat="48.265326" lon="17.086356"><ele>267.5</ele></trkpt>
    <trkpt lat="48.265242" lon="17.086435"><ele>266.75</ele></trkpt>
    <trkpt lat="48.265163" lon="17.086482"><ele>268.0</ele></trkpt>
    <trkpt lat="48.265108" lon="17.086499"><ele>268.25</ele></trkpt>
    <trkpt lat="48.264941" lon="17.086508"><ele>267.25</ele></trkpt>
    <trkpt lat="48.264883" lon="17.086524"><ele>266.5</ele></trkpt>
    <trkpt lat="48.264821" lon="17.086552"><ele>265.5</ele></trkpt>
    <trkpt lat="48.264526" lon="17.086735"><ele>261.0</ele></trkpt>
    <trkpt lat="48.264453" lon="17.086771"><ele>260.25</ele></trkpt>
    <trkpt lat="48.264337" lon="17.086808"><ele>258.75</ele></trkpt>
    <trkpt lat="48.264172" lon="17.086880"><ele>255.25</ele></trkpt>
    <trkpt lat="48.263842" lon="17.087043"><ele>252.0</ele></trkpt>
    <trkpt lat="48.263700" lon="17.087053"><ele>251.25</ele></trkpt>
    <trkpt lat="48.263598" lon="17.087027"><ele>250.5</ele></trkpt>
    <trkpt lat="48.263441" lon="17.086851"><ele>250.0</ele></trkpt>
    <trkpt lat="48.263387" lon="17.086812"><ele>249.5</ele></trkpt>
    <trkpt lat="48.263053" lon="17.086663"><ele>245.75</ele></trkpt>
    <trkpt lat="48.262993" lon="17.086606"><ele>245.5</ele></trkpt>
    <trkpt lat="48.262775" lon="17.086327"><ele>242.5</ele></trkpt>
    <trkpt lat="48.262609" lon="17.086114"><ele>241.0</ele></trkpt>
    <trkpt lat="48.262573" lon="17.086074"><ele>240.75</ele></trkpt>
    <trkpt lat="48.262602" lon="17.086004"><ele>240.0</ele></trkpt>
  </trkseg></trk>
</gpx>
