<?xml version="1.0" encoding="UTF-8"?>
<gpx version="1.1" creator="MounTour (OpenStreetMap)" xmlns="http://www.topografix.com/GPX/1/1">
  <metadata><name>Pekelník</name><copyright author="OpenStreetMap contributors"><license>https://opendatacommons.org/licenses/odbl/</license></copyright></metadata>
  <trk><name>Pekelník</name><trkseg>
    <trkpt lat="49.212419" lon="19.038784"><ele>700</ele></trkpt>
    <trkpt lat="49.212159" lon="19.038452"><ele>695</ele></trkpt>
    <trkpt lat="49.211585" lon="19.038549"><ele>708</ele></trkpt>
    <trkpt lat="49.211057" lon="19.038312"><ele>732</ele></trkpt>
    <trkpt lat="49.210838" lon="19.038023"><ele>725</ele></trkpt>
    <trkpt lat="49.210673" lon="19.037661"><ele>729</ele></trkpt>
    <trkpt lat="49.210102" lon="19.037107"><ele>743</ele></trkpt>
    <trkpt lat="49.210014" lon="19.036857"><ele>743</ele></trkpt>
    <trkpt lat="49.209909" lon="19.036365"><ele>749</ele></trkpt>
    <trkpt lat="49.209530" lon="19.035472"><ele>760</ele></trkpt>
    <trkpt lat="49.209413" lon="19.035004"><ele>766</ele></trkpt>
    <trkpt lat="49.209329" lon="19.034803"><ele>774</ele></trkpt>
    <trkpt lat="49.209234" lon="19.034707"><ele>777</ele></trkpt>
    <trkpt lat="49.208821" lon="19.034547"><ele>785</ele></trkpt>
    <trkpt lat="49.208679" lon="19.034409"><ele>787</ele></trkpt>
    <trkpt lat="49.208393" lon="19.033787"><ele>797</ele></trkpt>
    <trkpt lat="49.208036" lon="19.032844"><ele>809</ele></trkpt>
    <trkpt lat="49.207830" lon="19.032585"><ele>815</ele></trkpt>
    <trkpt lat="49.207387" lon="19.032299"><ele>818</ele></trkpt>
    <trkpt lat="49.207046" lon="19.031743"><ele>829</ele></trkpt>
    <trkpt lat="49.206818" lon="19.031533"><ele>832</ele></trkpt>
    <trkpt lat="49.206569" lon="19.031143"><ele>838</ele></trkpt>
    <trkpt lat="49.206444" lon="19.030812"><ele>841</ele></trkpt>
    <trkpt lat="49.206336" lon="19.030718"><ele>842</ele></trkpt>
    <trkpt lat="49.206197" lon="19.030487"><ele>845</ele></trkpt>
    <trkpt lat="49.206141" lon="19.030016"><ele>847</ele></trkpt>
    <trkpt lat="49.205817" lon="19.029033"><ele>868</ele></trkpt>
    <trkpt lat="49.205693" lon="19.028343"><ele>884</ele></trkpt>
    <trkpt lat="49.205302" lon="19.027785"><ele>893</ele></trkpt>
    <trkpt lat="49.204766" lon="19.027228"><ele>908</ele></trkpt>
    <trkpt lat="49.204599" lon="19.026827"><ele>917</ele></trkpt>
    <trkpt lat="49.204453" lon="19.026621"><ele>922</ele></trkpt>
    <trkpt lat="49.204041" lon="19.026233"><ele>936</ele></trkpt>
    <trkpt lat="49.203874" lon="19.026211"><ele>936</ele></trkpt>
    <trkpt lat="49.203769" lon="19.026109"><ele>940</ele></trkpt>
    <trkpt lat="49.203554" lon="19.025437"><ele>960</ele></trkpt>
    <trkpt lat="49.203376" lon="19.025136"><ele>962</ele></trkpt>
    <trkpt lat="49.203204" lon="19.024568"><ele>977</ele></trkpt>
    <trkpt lat="49.203074" lon="19.024317"><ele>981</ele></trkpt>
    <trkpt lat="49.203087" lon="19.024245"><ele>984</ele></trkpt>
    <trkpt lat="49.203181" lon="19.024245"><ele>988</ele></trkpt>
    <trkpt lat="49.203767" lon="19.024439"><ele>1007</ele></trkpt>
    <trkpt lat="49.203763" lon="19.024322"><ele>1012</ele></trkpt>
    <trkpt lat="49.203684" lon="19.024085"><ele>1020</ele></trkpt>
    <trkpt lat="49.203706" lon="19.024013"><ele>1023</ele></trkpt>
    <trkpt lat="49.204104" lon="19.024018"><ele>1029</ele></trkpt>
    <trkpt lat="49.204227" lon="19.023882"><ele>1029</ele></trkpt>
    <trkpt lat="49.204252" lon="19.023649"><ele>1032</ele></trkpt>
    <trkpt lat="49.204152" lon="19.023358"><ele>1041</ele></trkpt>
    <trkpt lat="49.204139" lon="19.022999"><ele>1051</ele></trkpt>
    <trkpt lat="49.203914" lon="19.022494"><ele>1061</ele></trkpt>
    <trkpt lat="49.203745" lon="19.021966"><ele>1073</ele></trkpt>
    <trkpt lat="49.203676" lon="19.021613"><ele>1081</ele></trkpt>
    <trkpt lat="49.203676" lon="19.021253"><ele>1089</ele></trkpt>
    <trkpt lat="49.203645" lon="19.021147"><ele>1091</ele></trkpt>
    <trkpt lat="49.203495" lon="19.020758"><ele>1106</ele></trkpt>
    <trkpt lat="49.203178" lon="19.020330"><ele>1131</ele></trkpt>
    <trkpt lat="49.203094" lon="19.020091"><ele>1143</ele></trkpt>
    <trkpt lat="49.202817" lon="19.019997"><ele>1156</ele></trkpt>
    <trkpt lat="49.202798" lon="19.019946"><ele>1157</ele></trkpt>
    <trkpt lat="49.202899" lon="19.019434"><ele>1165</ele></trkpt>
    <trkpt lat="49.203007" lon="19.019167"><ele>1168</ele></trkpt>
    <trkpt lat="49.203032" lon="19.018941"><ele>1173</ele></trkpt>
    <trkpt lat="49.203188" lon="19.018361"><ele>1181</ele></trkpt>
    <trkpt lat="49.203303" lon="19.017663"><ele>1192</ele></trkpt>
    <trkpt lat="49.203421" lon="19.017194"><ele>1198</ele></trkpt>
    <trkpt lat="49.203555" lon="19.016883"><ele>1200</ele></trkpt>
    <trkpt lat="49.203715" lon="19.016595"><ele>1202</ele></trkpt>
    <trkpt lat="49.203783" lon="19.016547"><ele>1204</ele></trkpt>
    <trkpt lat="49.203805" lon="19.016451"><ele>1205</ele></trkpt>
    <trkpt lat="49.204271" lon="19.015642"><ele>1227</ele></trkpt>
    <trkpt lat="49.203578" lon="19.015261"><ele>1233</ele></trkpt>
    <trkpt lat="49.203172" lon="19.014888"><ele>1244</ele></trkpt>
    <trkpt lat="49.203039" lon="19.014876"><ele>1247</ele></trkpt>
    <trkpt lat="49.202867" lon="19.014722"><ele>1253</ele></trkpt>
    <trkpt lat="49.202774" lon="19.014715"><ele>1256</ele></trkpt>
    <trkpt lat="49.202668" lon="19.014555"><ele>1257</ele></trkpt>
    <trkpt lat="49.201863" lon="19.014373"><ele>1270</ele></trkpt>
    <trkpt lat="49.201412" lon="19.014437"><ele>1276</ele></trkpt>
    <trkpt lat="49.201262" lon="19.014394"><ele>1279</ele></trkpt>
    <trkpt lat="49.201176" lon="19.014459"><ele>1282</ele></trkpt>
    <trkpt lat="49.201005" lon="19.014459"><ele>1287</ele></trkpt>
    <trkpt lat="49.200761" lon="19.014571"><ele>1293</ele></trkpt>
    <trkpt lat="49.200318" lon="19.014630"><ele>1304</ele></trkpt>
    <trkpt lat="49.200125" lon="19.014459"><ele>1308</ele></trkpt>
    <trkpt lat="49.199438" lon="19.014459"><ele>1325</ele></trkpt>
    <trkpt lat="49.199309" lon="19.014394"><ele>1328</ele></trkpt>
    <trkpt lat="49.199288" lon="19.014330"><ele>1327</ele></trkpt>
    <trkpt lat="49.198987" lon="19.014287"><ele>1337</ele></trkpt>
    <trkpt lat="49.198709" lon="19.014502"><ele>1351</ele></trkpt>
    <trkpt lat="49.198408" lon="19.014523"><ele>1363</ele></trkpt>
    <trkpt lat="49.198189" lon="19.014465"><ele>1371</ele></trkpt>
    <trkpt lat="49.198125" lon="19.014354"><ele>1372</ele></trkpt>
    <trkpt lat="49.197968" lon="19.014388"><ele>1377</ele></trkpt>
    <trkpt lat="49.197853" lon="19.014298"><ele>1379</ele></trkpt>
    <trkpt lat="49.197740" lon="19.014401"><ele>1384</ele></trkpt>
    <trkpt lat="49.197349" lon="19.014261"><ele>1395</ele></trkpt>
    <trkpt lat="49.197025" lon="19.014293"><ele>1407</ele></trkpt>
    <trkpt lat="49.196702" lon="19.014252"><ele>1420</ele></trkpt>
    <trkpt lat="49.196544" lon="19.014067"><ele>1427</ele></trkpt>
    <trkpt lat="49.196284" lon="19.014145"><ele>1437</ele></trkpt>
    <trkpt lat="49.196244" lon="19.014211"><ele>1438</ele></trkpt>
    <trkpt lat="49.195991" lon="19.014251"><ele>1446</ele></trkpt>
    <trkpt lat="49.195799" lon="19.014063"><ele>1455</ele></trkpt>
    <trkpt lat="49.195494" lon="19.014000"><ele>1463</ele></trkpt>
    <trkpt lat="49.195419" lon="19.014046"><ele>1463</ele></trkpt>
    <trkpt lat="49.195232" lon="19.014009"><ele>1466</ele></trkpt>
    <trkpt lat="49.195122" lon="19.014060"><ele>1465</ele></trkpt>
    <trkpt lat="49.194983" lon="19.014060"><ele>1467</ele></trkpt>
    <trkpt lat="49.194898" lon="19.013981"><ele>1471</ele></trkpt>
    <trkpt lat="49.194869" lon="19.014039"><ele>1470</ele></trkpt>
    <trkpt lat="49.194824" lon="19.014044"><ele>1471</ele></trkpt>
    <trkpt lat="49.194740" lon="19.013977"><ele>1475</ele></trkpt>
    <trkpt lat="49.194384" lon="19.014110"><ele>1482</ele></trkpt>
    <trkpt lat="49.193941" lon="19.014117"><ele>1495</ele></trkpt>
    <trkpt lat="49.193840" lon="19.014046"><ele>1499</ele></trkpt>
    <trkpt lat="49.193374" lon="19.013944"><ele>1509</ele></trkpt>
    <trkpt lat="49.192920" lon="19.013895"><ele>1515</ele></trkpt>
    <trkpt lat="49.192856" lon="19.014038"><ele>1518</ele></trkpt>
    <trkpt lat="49.192779" lon="19.014389"><ele>1525</ele></trkpt>
    <trkpt lat="49.192796" lon="19.014885"><ele>1532</ele></trkpt>
    <trkpt lat="49.192755" lon="19.015078"><ele>1535</ele></trkpt>
    <trkpt lat="49.192565" lon="19.015457"><ele>1540</ele></trkpt>
    <trkpt lat="49.192531" lon="19.015670"><ele>1543</ele></trkpt>
    <trkpt lat="49.192438" lon="19.015796"><ele>1544</ele></trkpt>
    <trkpt lat="49.192283" lon="19.016204"><ele>1546</ele></trkpt>
    <trkpt lat="49.191959" lon="19.016771"><ele>1551</ele></trkpt>
    <trkpt lat="49.191741" lon="19.017005"><ele>1557</ele></trkpt>
    <trkpt lat="49.191358" lon="19.017530"><ele>1574</ele></trkpt>
    <trkpt lat="49.190749" lon="19.018098"><ele>1600</ele></trkpt>
    <trkpt lat="49.190711" lon="19.018214"><ele>1601</ele></trkpt>
    <trkpt lat="49.190597" lon="19.018321"><ele>1602</ele></trkpt>
    <trkpt lat="49.190711" lon="19.018214"><ele>1601</ele></trkpt>
    <trkpt lat="49.190749" lon="19.018098"><ele>1600</ele></trkpt>
    <trkpt lat="49.191358" lon="19.017530"><ele>1574</ele></trkpt>
    <trkpt lat="49.191741" lon="19.017005"><ele>1557</ele></trkpt>
    <trkpt lat="49.191959" lon="19.016771"><ele>1551</ele></trkpt>
    <trkpt lat="49.192283" lon="19.016204"><ele>1546</ele></trkpt>
    <trkpt lat="49.192438" lon="19.015796"><ele>1544</ele></trkpt>
    <trkpt lat="49.192531" lon="19.015670"><ele>1543</ele></trkpt>
    <trkpt lat="49.192565" lon="19.015457"><ele>1540</ele></trkpt>
    <trkpt lat="49.192755" lon="19.015078"><ele>1535</ele></trkpt>
    <trkpt lat="49.192796" lon="19.014885"><ele>1532</ele></trkpt>
    <trkpt lat="49.192779" lon="19.014389"><ele>1525</ele></trkpt>
    <trkpt lat="49.192856" lon="19.014038"><ele>1518</ele></trkpt>
    <trkpt lat="49.192920" lon="19.013895"><ele>1515</ele></trkpt>
    <trkpt lat="49.193374" lon="19.013944"><ele>1509</ele></trkpt>
    <trkpt lat="49.193840" lon="19.014046"><ele>1499</ele></trkpt>
    <trkpt lat="49.193941" lon="19.014117"><ele>1495</ele></trkpt>
    <trkpt lat="49.194384" lon="19.014110"><ele>1482</ele></trkpt>
    <trkpt lat="49.194740" lon="19.013977"><ele>1475</ele></trkpt>
    <trkpt lat="49.194824" lon="19.014044"><ele>1471</ele></trkpt>
    <trkpt lat="49.194869" lon="19.014039"><ele>1470</ele></trkpt>
    <trkpt lat="49.194898" lon="19.013981"><ele>1471</ele></trkpt>
    <trkpt lat="49.194983" lon="19.014060"><ele>1467</ele></trkpt>
    <trkpt lat="49.195122" lon="19.014060"><ele>1465</ele></trkpt>
    <trkpt lat="49.195232" lon="19.014009"><ele>1466</ele></trkpt>
    <trkpt lat="49.195419" lon="19.014046"><ele>1463</ele></trkpt>
    <trkpt lat="49.195494" lon="19.014000"><ele>1463</ele></trkpt>
    <trkpt lat="49.195799" lon="19.014063"><ele>1455</ele></trkpt>
    <trkpt lat="49.195991" lon="19.014251"><ele>1446</ele></trkpt>
    <trkpt lat="49.196244" lon="19.014211"><ele>1438</ele></trkpt>
    <trkpt lat="49.196284" lon="19.014145"><ele>1437</ele></trkpt>
    <trkpt lat="49.196544" lon="19.014067"><ele>1427</ele></trkpt>
    <trkpt lat="49.196702" lon="19.014252"><ele>1420</ele></trkpt>
    <trkpt lat="49.197025" lon="19.014293"><ele>1407</ele></trkpt>
    <trkpt lat="49.197349" lon="19.014261"><ele>1395</ele></trkpt>
    <trkpt lat="49.197740" lon="19.014401"><ele>1384</ele></trkpt>
    <trkpt lat="49.197853" lon="19.014298"><ele>1379</ele></trkpt>
    <trkpt lat="49.197968" lon="19.014388"><ele>1377</ele></trkpt>
    <trkpt lat="49.198125" lon="19.014354"><ele>1372</ele></trkpt>
    <trkpt lat="49.198189" lon="19.014465"><ele>1371</ele></trkpt>
    <trkpt lat="49.198408" lon="19.014523"><ele>1363</ele></trkpt>
    <trkpt lat="49.198709" lon="19.014502"><ele>1351</ele></trkpt>
    <trkpt lat="49.198987" lon="19.014287"><ele>1337</ele></trkpt>
    <trkpt lat="49.199288" lon="19.014330"><ele>1327</ele></trkpt>
    <trkpt lat="49.199309" lon="19.014394"><ele>1328</ele></trkpt>
    <trkpt lat="49.199438" lon="19.014459"><ele>1325</ele></trkpt>
    <trkpt lat="49.200125" lon="19.014459"><ele>1308</ele></trkpt>
    <trkpt lat="49.200318" lon="19.014630"><ele>1304</ele></trkpt>
    <trkpt lat="49.200761" lon="19.014571"><ele>1293</ele></trkpt>
    <trkpt lat="49.201005" lon="19.014459"><ele>1287</ele></trkpt>
    <trkpt lat="49.201176" lon="19.014459"><ele>1282</ele></trkpt>
    <trkpt lat="49.201262" lon="19.014394"><ele>1279</ele></trkpt>
    <trkpt lat="49.201412" lon="19.014437"><ele>1276</ele></trkpt>
    <trkpt lat="49.201863" lon="19.014373"><ele>1270</ele></trkpt>
    <trkpt lat="49.202668" lon="19.014555"><ele>1257</ele></trkpt>
    <trkpt lat="49.202774" lon="19.014715"><ele>1256</ele></trkpt>
    <trkpt lat="49.202867" lon="19.014722"><ele>1253</ele></trkpt>
    <trkpt lat="49.203039" lon="19.014876"><ele>1247</ele></trkpt>
    <trkpt lat="49.203172" lon="19.014888"><ele>1244</ele></trkpt>
    <trkpt lat="49.203578" lon="19.015261"><ele>1233</ele></trkpt>
    <trkpt lat="49.204271" lon="19.015642"><ele>1227</ele></trkpt>
    <trkpt lat="49.203805" lon="19.016451"><ele>1205</ele></trkpt>
    <trkpt lat="49.203783" lon="19.016547"><ele>1204</ele></trkpt>
    <trkpt lat="49.203715" lon="19.016595"><ele>1202</ele></trkpt>
    <trkpt lat="49.203555" lon="19.016883"><ele>1200</ele></trkpt>
    <trkpt lat="49.203421" lon="19.017194"><ele>1198</ele></trkpt>
    <trkpt lat="49.203303" lon="19.017663"><ele>1192</ele></trkpt>
    <trkpt lat="49.203188" lon="19.018361"><ele>1181</ele></trkpt>
    <trkpt lat="49.203032" lon="19.018941"><ele>1173</ele></trkpt>
    <trkpt lat="49.203007" lon="19.019167"><ele>1168</ele></trkpt>
    <trkpt lat="49.202899" lon="19.019434"><ele>1165</ele></trkpt>
    <trkpt lat="49.202798" lon="19.019946"><ele>1157</ele></trkpt>
    <trkpt lat="49.202817" lon="19.019997"><ele>1156</ele></trkpt>
    <trkpt lat="49.203094" lon="19.020091"><ele>1143</ele></trkpt>
    <trkpt lat="49.203178" lon="19.020330"><ele>1131</ele></trkpt>
    <trkpt lat="49.203495" lon="19.020758"><ele>1106</ele></trkpt>
    <trkpt lat="49.203645" lon="19.021147"><ele>1091</ele></trkpt>
    <trkpt lat="49.203676" lon="19.021253"><ele>1089</ele></trkpt>
    <trkpt lat="49.203676" lon="19.021613"><ele>1081</ele></trkpt>
    <trkpt lat="49.203745" lon="19.021966"><ele>1073</ele></trkpt>
    <trkpt lat="49.203914" lon="19.022494"><ele>1061</ele></trkpt>
    <trkpt lat="49.204139" lon="19.022999"><ele>1051</ele></trkpt>
    <trkpt lat="49.204152" lon="19.023358"><ele>1041</ele></trkpt>
    <trkpt lat="49.204252" lon="19.023649"><ele>1032</ele></trkpt>
    <trkpt lat="49.204227" lon="19.023882"><ele>1029</ele></trkpt>
    <trkpt lat="49.204104" lon="19.024018"><ele>1029</ele></trkpt>
    <trkpt lat="49.203706" lon="19.024013"><ele>1023</ele></trkpt>
    <trkpt lat="49.203684" lon="19.024085"><ele>1020</ele></trkpt>
    <trkpt lat="49.203763" lon="19.024322"><ele>1012</ele></trkpt>
    <trkpt lat="49.203767" lon="19.024439"><ele>1007</ele></trkpt>
    <trkpt lat="49.203181" lon="19.024245"><ele>988</ele></trkpt>
    <trkpt lat="49.203087" lon="19.024245"><ele>984</ele></trkpt>
    <trkpt lat="49.203074" lon="19.024317"><ele>981</ele></trkpt>
    <trkpt lat="49.203204" lon="19.024568"><ele>977</ele></trkpt>
    <trkpt lat="49.203376" lon="19.025136"><ele>962</ele></trkpt>
    <trkpt lat="49.203554" lon="19.025437"><ele>960</ele></trkpt>
    <trkpt lat="49.203769" lon="19.026109"><ele>940</ele></trkpt>
    <trkpt lat="49.203874" lon="19.026211"><ele>936</ele></trkpt>
    <trkpt lat="49.204041" lon="19.026233"><ele>936</ele></trkpt>
    <trkpt lat="49.204453" lon="19.026621"><ele>922</ele></trkpt>
    <trkpt lat="49.204599" lon="19.026827"><ele>917</ele></trkpt>
    <trkpt lat="49.204766" lon="19.027228"><ele>908</ele></trkpt>
    <trkpt lat="49.205302" lon="19.027785"><ele>893</ele></trkpt>
    <trkpt lat="49.205693" lon="19.028343"><ele>884</ele></trkpt>
    <trkpt lat="49.205817" lon="19.029033"><ele>868</ele></trkpt>
    <trkpt lat="49.206141" lon="19.030016"><ele>847</ele></trkpt>
    <trkpt lat="49.206197" lon="19.030487"><ele>845</ele></trkpt>
    <trkpt lat="49.206336" lon="19.030718"><ele>842</ele></trkpt>
    <trkpt lat="49.206444" lon="19.030812"><ele>841</ele></trkpt>
    <trkpt lat="49.206569" lon="19.031143"><ele>838</ele></trkpt>
    <trkpt lat="49.206818" lon="19.031533"><ele>832</ele></trkpt>
    <trkpt lat="49.207046" lon="19.031743"><ele>829</ele></trkpt>
    <trkpt lat="49.207387" lon="19.032299"><ele>818</ele></trkpt>
    <trkpt lat="49.207830" lon="19.032585"><ele>815</ele></trkpt>
    <trkpt lat="49.208036" lon="19.032844"><ele>809</ele></trkpt>
    <trkpt lat="49.208393" lon="19.033787"><ele>797</ele></trkpt>
    <trkpt lat="49.208679" lon="19.034409"><ele>787</ele></trkpt>
    <trkpt lat="49.208821" lon="19.034547"><ele>785</ele></trkpt>
    <trkpt lat="49.209234" lon="19.034707"><ele>777</ele></trkpt>
    <trkpt lat="49.209329" lon="19.034803"><ele>774</ele></trkpt>
    <trkpt lat="49.209413" lon="19.035004"><ele>766</ele></trkpt>
    <trkpt lat="49.209530" lon="19.035472"><ele>760</ele></trkpt>
    <trkpt lat="49.209909" lon="19.036365"><ele>749</ele></trkpt>
    <trkpt lat="49.210014" lon="19.036857"><ele>743</ele></trkpt>
    <trkpt lat="49.210102" lon="19.037107"><ele>743</ele></trkpt>
    <trkpt lat="49.210673" lon="19.037661"><ele>729</ele></trkpt>
    <trkpt lat="49.210838" lon="19.038023"><ele>725</ele></trkpt>
    <trkpt lat="49.211057" lon="19.038312"><ele>732</ele></trkpt>
    <trkpt lat="49.211585" lon="19.038549"><ele>708</ele></trkpt>
    <trkpt lat="49.212159" lon="19.038452"><ele>695</ele></trkpt>
    <trkpt lat="49.212419" lon="19.038784"><ele>700</ele></trkpt>
  </trkseg></trk>
</gpx>
