<?xml version="1.0" encoding="UTF-8"?>
<gpx version="1.1" creator="MounTour (OpenStreetMap)" xmlns="http://www.topografix.com/GPX/1/1">
  <metadata><name>Pfinnova kopa</name><copyright author="OpenStreetMap contributors"><license>https://opendatacommons.org/licenses/odbl/</license></copyright></metadata>
  <trk><name>Pfinnova kopa</name><trkseg>
    <trkpt lat="49.141015" lon="20.220360"><ele>1022</ele></trkpt>
    <trkpt lat="49.141157" lon="20.220402"><ele>1023</ele></trkpt>
    <trkpt lat="49.141357" lon="20.220557"><ele>1024</ele></trkpt>
    <trkpt lat="49.141453" lon="20.220722"><ele>1026</ele></trkpt>
    <trkpt lat="49.141500" lon="20.220913"><ele>1027</ele></trkpt>
    <trkpt lat="49.141593" lon="20.221036"><ele>1028</ele></trkpt>
    <trkpt lat="49.141949" lon="20.220729"><ele>1034</ele></trkpt>
    <trkpt lat="49.142199" lon="20.220259"><ele>1037</ele></trkpt>
    <trkpt lat="49.142459" lon="20.220019"><ele>1039</ele></trkpt>
    <trkpt lat="49.142768" lon="20.219828"><ele>1043</ele></trkpt>
    <trkpt lat="49.142915" lon="20.219801"><ele>1044</ele></trkpt>
    <trkpt lat="49.143096" lon="20.219662"><ele>1046</ele></trkpt>
    <trkpt lat="49.143579" lon="20.219553"><ele>1053</ele></trkpt>
    <trkpt lat="49.143854" lon="20.219702"><ele>1058</ele></trkpt>
    <trkpt lat="49.144242" lon="20.219781"><ele>1064</ele></trkpt>
    <trkpt lat="49.144424" lon="20.219904"><ele>1066</ele></trkpt>
    <trkpt lat="49.144757" lon="20.219984"><ele>1071</ele></trkpt>
    <trkpt lat="49.145361" lon="20.220574"><ele>1079</ele></trkpt>
    <trkpt lat="49.145430" lon="20.220707"><ele>1080</ele></trkpt>
    <trkpt lat="49.145781" lon="20.221027"><ele>1085</ele></trkpt>
    <trkpt lat="49.146181" lon="20.221533"><ele>1090</ele></trkpt>
    <trkpt lat="49.146557" lon="20.221804"><ele>1097</ele></trkpt>
    <trkpt lat="49.146942" lon="20.222260"><ele>1104</ele></trkpt>
    <trkpt lat="49.147185" lon="20.222481"><ele>1108</ele></trkpt>
    <trkpt lat="49.147386" lon="20.222628"><ele>1111</ele></trkpt>
    <trkpt lat="49.148135" lon="20.222985"><ele>1121</ele></trkpt>
    <trkpt lat="49.149194" lon="20.222999"><ele>1136</ele></trkpt>
    <trkpt lat="49.149475" lon="20.222886"><ele>1140</ele></trkpt>
    <trkpt lat="49.149641" lon="20.222963"><ele>1142</ele></trkpt>
    <trkpt lat="49.149732" lon="20.223080"><ele>1143</ele></trkpt>
    <trkpt lat="49.149807" lon="20.223038"><ele>1144</ele></trkpt>
    <trkpt lat="49.150006" lon="20.223099"><ele>1147</ele></trkpt>
    <trkpt lat="49.150164" lon="20.223087"><ele>1149</ele></trkpt>
    <trkpt lat="49.150427" lon="20.223330"><ele>1153</ele></trkpt>
    <trkpt lat="49.150488" lon="20.223344"><ele>1154</ele></trkpt>
    <trkpt lat="49.151063" lon="20.223227"><ele>1162</ele></trkpt>
    <trkpt lat="49.151144" lon="20.223180"><ele>1163</ele></trkpt>
    <trkpt lat="49.151425" lon="20.222809"><ele>1167</ele></trkpt>
    <trkpt lat="49.151636" lon="20.222692"><ele>1171</ele></trkpt>
    <trkpt lat="49.151792" lon="20.222705"><ele>1173</ele></trkpt>
    <trkpt lat="49.151969" lon="20.222592"><ele>1176</ele></trkpt>
    <trkpt lat="49.152113" lon="20.222560"><ele>1178</ele></trkpt>
    <trkpt lat="49.152793" lon="20.222762"><ele>1188</ele></trkpt>
    <trkpt lat="49.152910" lon="20.222870"><ele>1190</ele></trkpt>
    <trkpt lat="49.153406" lon="20.223174"><ele>1197</ele></trkpt>
    <trkpt lat="49.153570" lon="20.223340"><ele>1199</ele></trkpt>
    <trkpt lat="49.154011" lon="20.223588"><ele>1204</ele></trkpt>
    <trkpt lat="49.154402" lon="20.223608"><ele>1210</ele></trkpt>
    <trkpt lat="49.154932" lon="20.223710"><ele>1219</ele></trkpt>
    <trkpt lat="49.155226" lon="20.223851"><ele>1223</ele></trkpt>
    <trkpt lat="49.155407" lon="20.224013"><ele>1225</ele></trkpt>
    <trkpt lat="49.155742" lon="20.224175"><ele>1230</ele></trkpt>
    <trkpt lat="49.155908" lon="20.224171"><ele>1234</ele></trkpt>
    <trkpt lat="49.156236" lon="20.224344"><ele>1240</ele></trkpt>
    <trkpt lat="49.156604" lon="20.224364"><ele>1249</ele></trkpt>
    <trkpt lat="49.156769" lon="20.224538"><ele>1250</ele></trkpt>
    <trkpt lat="49.157189" lon="20.224621"><ele>1256</ele></trkpt>
    <trkpt lat="49.157337" lon="20.224729"><ele>1259</ele></trkpt>
    <trkpt lat="49.157608" lon="20.224746"><ele>1265</ele></trkpt>
    <trkpt lat="49.158025" lon="20.224964"><ele>1266</ele></trkpt>
    <trkpt lat="49.158359" lon="20.225029"><ele>1270</ele></trkpt>
    <trkpt lat="49.158399" lon="20.224911"><ele>1272</ele></trkpt>
    <trkpt lat="49.158440" lon="20.224912"><ele>1272</ele></trkpt>
    <trkpt lat="49.158712" lon="20.225060"><ele>1275</ele></trkpt>
    <trkpt lat="49.158794" lon="20.225006"><ele>1276</ele></trkpt>
    <trkpt lat="49.159021" lon="20.224644"><ele>1278</ele></trkpt>
    <trkpt lat="49.159137" lon="20.224248"><ele>1284</ele></trkpt>
    <trkpt lat="49.159365" lon="20.223975"><ele>1283</ele></trkpt>
    <trkpt lat="49.159599" lon="20.223801"><ele>1283</ele></trkpt>
    <trkpt lat="49.159990" lon="20.223693"><ele>1286</ele></trkpt>
    <trkpt lat="49.160268" lon="20.223550"><ele>1286</ele></trkpt>
    <trkpt lat="49.160682" lon="20.223223"><ele>1292</ele></trkpt>
    <trkpt lat="49.161112" lon="20.222794"><ele>1298</ele></trkpt>
    <trkpt lat="49.161444" lon="20.222414"><ele>1301</ele></trkpt>
    <trkpt lat="49.161578" lon="20.222185"><ele>1301</ele></trkpt>
    <trkpt lat="49.161745" lon="20.222021"><ele>1298</ele></trkpt>
    <trkpt lat="49.161888" lon="20.221655"><ele>1319</ele></trkpt>
    <trkpt lat="49.162038" lon="20.221478"><ele>1319</ele></trkpt>
    <trkpt lat="49.162293" lon="20.221365"><ele>1305</ele></trkpt>
    <trkpt lat="49.162435" lon="20.221221"><ele>1305</ele></trkpt>
    <trkpt lat="49.162547" lon="20.221011"><ele>1306</ele></trkpt>
    <trkpt lat="49.162607" lon="20.220673"><ele>1314</ele></trkpt>
    <trkpt lat="49.162827" lon="20.220445"><ele>1306</ele></trkpt>
    <trkpt lat="49.163016" lon="20.220157"><ele>1312</ele></trkpt>
    <trkpt lat="49.163815" lon="20.219694"><ele>1305</ele></trkpt>
    <trkpt lat="49.163934" lon="20.219685"><ele>1305</ele></trkpt>
    <trkpt lat="49.164413" lon="20.219851"><ele>1300</ele></trkpt>
    <trkpt lat="49.164711" lon="20.219705"><ele>1305</ele></trkpt>
    <trkpt lat="49.165307" lon="20.219006"><ele>1315</ele></trkpt>
    <trkpt lat="49.165640" lon="20.218868"><ele>1311</ele></trkpt>
    <trkpt lat="49.165772" lon="20.218697"><ele>1311</ele></trkpt>
    <trkpt lat="49.165943" lon="20.218567"><ele>1312</ele></trkpt>
    <trkpt lat="49.165990" lon="20.218486"><ele>1312</ele></trkpt>
    <trkpt lat="49.166037" lon="20.218132"><ele>1314</ele></trkpt>
    <trkpt lat="49.166106" lon="20.217977"><ele>1313</ele></trkpt>
    <trkpt lat="49.166614" lon="20.217550"><ele>1316</ele></trkpt>
    <trkpt lat="49.167194" lon="20.217317"><ele>1326</ele></trkpt>
    <trkpt lat="49.167468" lon="20.217057"><ele>1317</ele></trkpt>
    <trkpt lat="49.167903" lon="20.216935"><ele>1306</ele></trkpt>
    <trkpt lat="49.168140" lon="20.216942"><ele>1303</ele></trkpt>
    <trkpt lat="49.168389" lon="20.216795"><ele>1304</ele></trkpt>
    <trkpt lat="49.168546" lon="20.216866"><ele>1304</ele></trkpt>
    <trkpt lat="49.168720" lon="20.216781"><ele>1307</ele></trkpt>
    <trkpt lat="49.169069" lon="20.216322"><ele>1312</ele></trkpt>
    <trkpt lat="49.169208" lon="20.216061"><ele>1314</ele></trkpt>
    <trkpt lat="49.169524" lon="20.215117"><ele>1328</ele></trkpt>
    <trkpt lat="49.169598" lon="20.214729"><ele>1339</ele></trkpt>
    <trkpt lat="49.169668" lon="20.214912"><ele>1338</ele></trkpt>
    <trkpt lat="49.169711" lon="20.215367"><ele>1331</ele></trkpt>
    <trkpt lat="49.169927" lon="20.215901"><ele>1337</ele></trkpt>
    <trkpt lat="49.170081" lon="20.216386"><ele>1342</ele></trkpt>
    <trkpt lat="49.170129" lon="20.216664"><ele>1344</ele></trkpt>
    <trkpt lat="49.170150" lon="20.217609"><ele>1349</ele></trkpt>
    <trkpt lat="49.170264" lon="20.217923"><ele>1354</ele></trkpt>
    <trkpt lat="49.170375" lon="20.218423"><ele>1360</ele></trkpt>
    <trkpt lat="49.170218" lon="20.218984"><ele>1357</ele></trkpt>
    <trkpt lat="49.170689" lon="20.220008"><ele>1376</ele></trkpt>
    <trkpt lat="49.170402" lon="20.220528"><ele>1374</ele></trkpt>
    <trkpt lat="49.170325" lon="20.220820"><ele>1376</ele></trkpt>
    <trkpt lat="49.170207" lon="20.221406"><ele>1383</ele></trkpt>
    <trkpt lat="49.169957" lon="20.223257"><ele>1406</ele></trkpt>
    <trkpt lat="49.169809" lon="20.224067"><ele>1413</ele></trkpt>
    <trkpt lat="49.169804" lon="20.224163"><ele>1415</ele></trkpt>
    <trkpt lat="49.169825" lon="20.224175"><ele>1418</ele></trkpt>
    <trkpt lat="49.170695" lon="20.222112"><ele>1427</ele></trkpt>
    <trkpt lat="49.170935" lon="20.221668"><ele>1428</ele></trkpt>
    <trkpt lat="49.171084" lon="20.221557"><ele>1432</ele></trkpt>
    <trkpt lat="49.171364" lon="20.221203"><ele>1436</ele></trkpt>
    <trkpt lat="49.171488" lon="20.221104"><ele>1438</ele></trkpt>
    <trkpt lat="49.171724" lon="20.221089"><ele>1442</ele></trkpt>
    <trkpt lat="49.172197" lon="20.221201"><ele>1457</ele></trkpt>
    <trkpt lat="49.172482" lon="20.221141"><ele>1466</ele></trkpt>
    <trkpt lat="49.172563" lon="20.220992"><ele>1469</ele></trkpt>
    <trkpt lat="49.172606" lon="20.220506"><ele>1471</ele></trkpt>
    <trkpt lat="49.172557" lon="20.220367"><ele>1469</ele></trkpt>
    <trkpt lat="49.172429" lon="20.220218"><ele>1463</ele></trkpt>
    <trkpt lat="49.172416" lon="20.220115"><ele>1462</ele></trkpt>
    <trkpt lat="49.172720" lon="20.219590"><ele>1468</ele></trkpt>
    <trkpt lat="49.172886" lon="20.219426"><ele>1470</ele></trkpt>
    <trkpt lat="49.173128" lon="20.219499"><ele>1474</ele></trkpt>
    <trkpt lat="49.173405" lon="20.219463"><ele>1473</ele></trkpt>
    <trkpt lat="49.173920" lon="20.219275"><ele>1476</ele></trkpt>
    <trkpt lat="49.174016" lon="20.219199"><ele>1479</ele></trkpt>
    <trkpt lat="49.174141" lon="20.218930"><ele>1486</ele></trkpt>
    <trkpt lat="49.174087" lon="20.218700"><ele>1484</ele></trkpt>
    <trkpt lat="49.174017" lon="20.218572"><ele>1483</ele></trkpt>
    <trkpt lat="49.174116" lon="20.218416"><ele>1485</ele></trkpt>
    <trkpt lat="49.174195" lon="20.218395"><ele>1488</ele></trkpt>
    <trkpt lat="49.174237" lon="20.218260"><ele>1489</ele></trkpt>
    <trkpt lat="49.174374" lon="20.218129"><ele>1493</ele></trkpt>
    <trkpt lat="49.174455" lon="20.217981"><ele>1494</ele></trkpt>
    <trkpt lat="49.174476" lon="20.217810"><ele>1492</ele></trkpt>
    <trkpt lat="49.174449" lon="20.217620"><ele>1493</ele></trkpt>
    <trkpt lat="49.174479" lon="20.217578"><ele>1494</ele></trkpt>
    <trkpt lat="49.174753" lon="20.217590"><ele>1496</ele></trkpt>
    <trkpt lat="49.175051" lon="20.217735"><ele>1495</ele></trkpt>
    <trkpt lat="49.175336" lon="20.217766"><ele>1501</ele></trkpt>
    <trkpt lat="49.175359" lon="20.217706"><ele>1501</ele></trkpt>
    <trkpt lat="49.175527" lon="20.217602"><ele>1504</ele></trkpt>
    <trkpt lat="49.175842" lon="20.217647"><ele>1511</ele></trkpt>
    <trkpt lat="49.175915" lon="20.217517"><ele>1510</ele></trkpt>
    <trkpt lat="49.176051" lon="20.217420"><ele>1513</ele></trkpt>
    <trkpt lat="49.176513" lon="20.217446"><ele>1520</ele></trkpt>
    <trkpt lat="49.176781" lon="20.217372"><ele>1525</ele></trkpt>
    <trkpt lat="49.176890" lon="20.217150"><ele>1527</ele></trkpt>
    <trkpt lat="49.177039" lon="20.217189"><ele>1531</ele></trkpt>
    <trkpt lat="49.177152" lon="20.217053"><ele>1534</ele></trkpt>
    <trkpt lat="49.177366" lon="20.217113"><ele>1540</ele></trkpt>
    <trkpt lat="49.177458" lon="20.217079"><ele>1543</ele></trkpt>
    <trkpt lat="49.177503" lon="20.217002"><ele>1544</ele></trkpt>
    <trkpt lat="49.177486" lon="20.216801"><ele>1544</ele></trkpt>
    <trkpt lat="49.177526" lon="20.216641"><ele>1545</ele></trkpt>
    <trkpt lat="49.177569" lon="20.216590"><ele>1546</ele></trkpt>
    <trkpt lat="49.177875" lon="20.216446"><ele>1552</ele></trkpt>
    <trkpt lat="49.178252" lon="20.216157"><ele>1556</ele></trkpt>
    <trkpt lat="49.178394" lon="20.215792"><ele>1557</ele></trkpt>
    <trkpt lat="49.178429" lon="20.215541"><ele>1556</ele></trkpt>
    <trkpt lat="49.178629" lon="20.215234"><ele>1561</ele></trkpt>
    <trkpt lat="49.178804" lon="20.214714"><ele>1567</ele></trkpt>
    <trkpt lat="49.179051" lon="20.214305"><ele>1573</ele></trkpt>
    <trkpt lat="49.179201" lon="20.213752"><ele>1573</ele></trkpt>
    <trkpt lat="49.179497" lon="20.213207"><ele>1576</ele></trkpt>
    <trkpt lat="49.179715" lon="20.212951"><ele>1578</ele></trkpt>
    <trkpt lat="49.179747" lon="20.212813"><ele>1577</ele></trkpt>
    <trkpt lat="49.180125" lon="20.212494"><ele>1582</ele></trkpt>
    <trkpt lat="49.180479" lon="20.212082"><ele>1586</ele></trkpt>
    <trkpt lat="49.180561" lon="20.211688"><ele>1584</ele></trkpt>
    <trkpt lat="49.180629" lon="20.211504"><ele>1586</ele></trkpt>
    <trkpt lat="49.180737" lon="20.211370"><ele>1588</ele></trkpt>
    <trkpt lat="49.180885" lon="20.211254"><ele>1590</ele></trkpt>
    <trkpt lat="49.181029" lon="20.211050"><ele>1593</ele></trkpt>
    <trkpt lat="49.181250" lon="20.210954"><ele>1598</ele></trkpt>
    <trkpt lat="49.181638" lon="20.210908"><ele>1605</ele></trkpt>
    <trkpt lat="49.181938" lon="20.210658"><ele>1608</ele></trkpt>
    <trkpt lat="49.182385" lon="20.209926"><ele>1613</ele></trkpt>
    <trkpt lat="49.182505" lon="20.209908"><ele>1614</ele></trkpt>
    <trkpt lat="49.183093" lon="20.209136"><ele>1614</ele></trkpt>
    <trkpt lat="49.183381" lon="20.208945"><ele>1616</ele></trkpt>
    <trkpt lat="49.183570" lon="20.208704"><ele>1621</ele></trkpt>
    <trkpt lat="49.183774" lon="20.208584"><ele>1629</ele></trkpt>
    <trkpt lat="49.183805" lon="20.208423"><ele>1631</ele></trkpt>
    <trkpt lat="49.183931" lon="20.208172"><ele>1635</ele></trkpt>
    <trkpt lat="49.184071" lon="20.208022"><ele>1638</ele></trkpt>
    <trkpt lat="49.184312" lon="20.207887"><ele>1642</ele></trkpt>
    <trkpt lat="49.184536" lon="20.207846"><ele>1647</ele></trkpt>
    <trkpt lat="49.184722" lon="20.207747"><ele>1650</ele></trkpt>
    <trkpt lat="49.185034" lon="20.207773"><ele>1657</ele></trkpt>
    <trkpt lat="49.185170" lon="20.207708"><ele>1657</ele></trkpt>
    <trkpt lat="49.185481" lon="20.207793"><ele>1663</ele></trkpt>
    <trkpt lat="49.185584" lon="20.207886"><ele>1667</ele></trkpt>
    <trkpt lat="49.185680" lon="20.207863"><ele>1668</ele></trkpt>
    <trkpt lat="49.185714" lon="20.207716"><ele>1667</ele></trkpt>
    <trkpt lat="49.185830" lon="20.207530"><ele>1668</ele></trkpt>
    <trkpt lat="49.185948" lon="20.207445"><ele>1672</ele></trkpt>
    <trkpt lat="49.185974" lon="20.207261"><ele>1672</ele></trkpt>
    <trkpt lat="49.186079" lon="20.207106"><ele>1673</ele></trkpt>
    <trkpt lat="49.186172" lon="20.207061"><ele>1675</ele></trkpt>
    <trkpt lat="49.186257" lon="20.206930"><ele>1675</ele></trkpt>
    <trkpt lat="49.186515" lon="20.206871"><ele>1680</ele></trkpt>
    <trkpt lat="49.186628" lon="20.206762"><ele>1680</ele></trkpt>
    <trkpt lat="49.186723" lon="20.206736"><ele>1682</ele></trkpt>
    <trkpt lat="49.186873" lon="20.206530"><ele>1683</ele></trkpt>
    <trkpt lat="49.187045" lon="20.206423"><ele>1692</ele></trkpt>
    <trkpt lat="49.187127" lon="20.206313"><ele>1697</ele></trkpt>
    <trkpt lat="49.187054" lon="20.205947"><ele>1695</ele></trkpt>
    <trkpt lat="49.187064" lon="20.205904"><ele>1697</ele></trkpt>
    <trkpt lat="49.187122" lon="20.205946"><ele>1700</ele></trkpt>
    <trkpt lat="49.187076" lon="20.205683"><ele>1702</ele></trkpt>
    <trkpt lat="49.187067" lon="20.205126"><ele>1710</ele></trkpt>
    <trkpt lat="49.187141" lon="20.205197"><ele>1715</ele></trkpt>
    <trkpt lat="49.187251" lon="20.204762"><ele>1724</ele></trkpt>
    <trkpt lat="49.187320" lon="20.204603"><ele>1728</ele></trkpt>
    <trkpt lat="49.187579" lon="20.204176"><ele>1737</ele></trkpt>
    <trkpt lat="49.187623" lon="20.204046"><ele>1735</ele></trkpt>
    <trkpt lat="49.187851" lon="20.203828"><ele>1742</ele></trkpt>
    <trkpt lat="49.187878" lon="20.203738"><ele>1743</ele></trkpt>
    <trkpt lat="49.187864" lon="20.203513"><ele>1743</ele></trkpt>
    <trkpt lat="49.187833" lon="20.203377"><ele>1743</ele></trkpt>
    <trkpt lat="49.187738" lon="20.203191"><ele>1744</ele></trkpt>
    <trkpt lat="49.187569" lon="20.202976"><ele>1749</ele></trkpt>
    <trkpt lat="49.187186" lon="20.202770"><ele>1757</ele></trkpt>
    <trkpt lat="49.186836" lon="20.202522"><ele>1769</ele></trkpt>
    <trkpt lat="49.186669" lon="20.202470"><ele>1773</ele></trkpt>
    <trkpt lat="49.186507" lon="20.202351"><ele>1777</ele></trkpt>
    <trkpt lat="49.186557" lon="20.202275"><ele>1781</ele></trkpt>
    <trkpt lat="49.186499" lon="20.202222"><ele>1783</ele></trkpt>
    <trkpt lat="49.187233" lon="20.201649"><ele>1810</ele></trkpt>
    <trkpt lat="49.187215" lon="20.201596"><ele>1813</ele></trkpt>
    <trkpt lat="49.186836" lon="20.201466"><ele>1819</ele></trkpt>
    <trkpt lat="49.186745" lon="20.201352"><ele>1824</ele></trkpt>
    <trkpt lat="49.186861" lon="20.201313"><ele>1826</ele></trkpt>
    <trkpt lat="49.187028" lon="20.201088"><ele>1838</ele></trkpt>
    <trkpt lat="49.186845" lon="20.201012"><ele>1842</ele></trkpt>
    <trkpt lat="49.187009" lon="20.200902"><ele>1847</ele></trkpt>
    <trkpt lat="49.187233" lon="20.200675"><ele>1856</ele></trkpt>
    <trkpt lat="49.187286" lon="20.200573"><ele>1861</ele></trkpt>
    <trkpt lat="49.187200" lon="20.200585"><ele>1861</ele></trkpt>
    <trkpt lat="49.187203" lon="20.200546"><ele>1863</ele></trkpt>
    <trkpt lat="49.187550" lon="20.200266"><ele>1875</ele></trkpt>
    <trkpt lat="49.187690" lon="20.200031"><ele>1882</ele></trkpt>
    <trkpt lat="49.187708" lon="20.199803"><ele>1886</ele></trkpt>
    <trkpt lat="49.187838" lon="20.199245"><ele>1894</ele></trkpt>
    <trkpt lat="49.187727" lon="20.198803"><ele>1904</ele></trkpt>
    <trkpt lat="49.187745" lon="20.198647"><ele>1906</ele></trkpt>
    <trkpt lat="49.188165" lon="20.198519"><ele>1914</ele></trkpt>
    <trkpt lat="49.188221" lon="20.198426"><ele>1917</ele></trkpt>
    <trkpt lat="49.188268" lon="20.198431"><ele>1918</ele></trkpt>
    <trkpt lat="49.188324" lon="20.198279"><ele>1920</ele></trkpt>
    <trkpt lat="49.188356" lon="20.198268"><ele>1921</ele></trkpt>
    <trkpt lat="49.188503" lon="20.198362"><ele>1923</ele></trkpt>
    <trkpt lat="49.188644" lon="20.198291"><ele>1927</ele></trkpt>
    <trkpt lat="49.188626" lon="20.198504"><ele>1930</ele></trkpt>
    <trkpt lat="49.188826" lon="20.198392"><ele>1936</ele></trkpt>
    <trkpt lat="49.188919" lon="20.198588"><ele>1942</ele></trkpt>
    <trkpt lat="49.188940" lon="20.198710"><ele>1945</ele></trkpt>
    <trkpt lat="49.188924" lon="20.198806"><ele>1947</ele></trkpt>
    <trkpt lat="49.188733" lon="20.199099"><ele>1946</ele></trkpt>
    <trkpt lat="49.188738" lon="20.199145"><ele>1947</ele></trkpt>
    <trkpt lat="49.188839" lon="20.199205"><ele>1951</ele></trkpt>
    <trkpt lat="49.188954" lon="20.199413"><ele>1957</ele></trkpt>
    <trkpt lat="49.189049" lon="20.199271"><ele>1960</ele></trkpt>
    <trkpt lat="49.189278" lon="20.199118"><ele>1969</ele></trkpt>
    <trkpt lat="49.189265" lon="20.199319"><ele>1970</ele></trkpt>
    <trkpt lat="49.189375" lon="20.199129"><ele>1974</ele></trkpt>
    <trkpt lat="49.189408" lon="20.199382"><ele>1979</ele></trkpt>
    <trkpt lat="49.189475" lon="20.199237"><ele>1981</ele></trkpt>
    <trkpt lat="49.189513" lon="20.199263"><ele>1984</ele></trkpt>
    <trkpt lat="49.189511" lon="20.199665"><ele>1986</ele></trkpt>
    <trkpt lat="49.189626" lon="20.199836"><ele>1991</ele></trkpt>
    <trkpt lat="49.189645" lon="20.199818"><ele>1992</ele></trkpt>
    <trkpt lat="49.189619" lon="20.199688"><ele>1991</ele></trkpt>
    <trkpt lat="49.189654" lon="20.199705"><ele>1993</ele></trkpt>
    <trkpt lat="49.189763" lon="20.199951"><ele>1997</ele></trkpt>
    <trkpt lat="49.189839" lon="20.199910"><ele>1999</ele></trkpt>
    <trkpt lat="49.189878" lon="20.199999"><ele>2000</ele></trkpt>
    <trkpt lat="49.189932" lon="20.200010"><ele>2001</ele></trkpt>
    <trkpt lat="49.189978" lon="20.200000"><ele>2002</ele></trkpt>
    <trkpt lat="49.190054" lon="20.199829"><ele>2003</ele></trkpt>
    <trkpt lat="49.190079" lon="20.199669"><ele>2005</ele></trkpt>
    <trkpt lat="49.190166" lon="20.199534"><ele>2006</ele></trkpt>
    <trkpt lat="49.190133" lon="20.199429"><ele>2007</ele></trkpt>
    <trkpt lat="49.190287" lon="20.199086"><ele>2012</ele></trkpt>
    <trkpt lat="49.190266" lon="20.199011"><ele>2013</ele></trkpt>
    <trkpt lat="49.190225" lon="20.198998"><ele>2013</ele></trkpt>
    <trkpt lat="49.190385" lon="20.198858"><ele>2014</ele></trkpt>
    <trkpt lat="49.190720" lon="20.198754"><ele>2013</ele></trkpt>
    <trkpt lat="49.190806" lon="20.198622"><ele>2014</ele></trkpt>
    <trkpt lat="49.190880" lon="20.198412"><ele>2013</ele></trkpt>
    <trkpt lat="49.190892" lon="20.198309"><ele>2012</ele></trkpt>
    <trkpt lat="49.190858" lon="20.198079"><ele>2014</ele></trkpt>
    <trkpt lat="49.190942" lon="20.197648"><ele>2010</ele></trkpt>
    <trkpt lat="49.190946" lon="20.197327"><ele>2011</ele></trkpt>
    <trkpt lat="49.191121" lon="20.197214"><ele>2010</ele></trkpt>
    <trkpt lat="49.191148" lon="20.196773"><ele>2013</ele></trkpt>
    <trkpt lat="49.191189" lon="20.196566"><ele>2013</ele></trkpt>
    <trkpt lat="49.191160" lon="20.195272"><ele>2031</ele></trkpt>
    <trkpt lat="49.191247" lon="20.194730"><ele>2043</ele></trkpt>
    <trkpt lat="49.191036" lon="20.194727"><ele>2048</ele></trkpt>
    <trkpt lat="49.190797" lon="20.194648"><ele>2049</ele></trkpt>
    <trkpt lat="49.190719" lon="20.194424"><ele>2049</ele></trkpt>
    <trkpt lat="49.190720" lon="20.194329"><ele>2049</ele></trkpt>
    <trkpt lat="49.190772" lon="20.194168"><ele>2050</ele></trkpt>
    <trkpt lat="49.190752" lon="20.194051"><ele>2050</ele></trkpt>
    <trkpt lat="49.190835" lon="20.193929"><ele>2049</ele></trkpt>
    <trkpt lat="49.190832" lon="20.193887"><ele>2049</ele></trkpt>
    <trkpt lat="49.190820" lon="20.193819"><ele>2050</ele></trkpt>
    <trkpt lat="49.190690" lon="20.193734"><ele>2057</ele></trkpt>
    <trkpt lat="49.190729" lon="20.193482"><ele>2070</ele></trkpt>
    <trkpt lat="49.190629" lon="20.193520"><ele>2073</ele></trkpt>
    <trkpt lat="49.190589" lon="20.193478"><ele>2078</ele></trkpt>
    <trkpt lat="49.190644" lon="20.193099"><ele>2110</ele></trkpt>
    <trkpt lat="49.190431" lon="20.193218"><ele>2104</ele></trkpt>
    <trkpt lat="49.190281" lon="20.193247"><ele>2106</ele></trkpt>
    <trkpt lat="49.190088" lon="20.193162"><ele>2114</ele></trkpt>
    <trkpt lat="49.190031" lon="20.193015"><ele>2120</ele></trkpt>
    <trkpt lat="49.190216" lon="20.192870"><ele>2128</ele></trkpt>
    <trkpt lat="49.189985" lon="20.192708"><ele>2131</ele></trkpt>
    <trkpt lat="49.189931" lon="20.192588"><ele>2133</ele></trkpt>
    <trkpt lat="49.189864" lon="20.192199"><ele>2138</ele></trkpt>
    <trkpt lat="49.190084" lon="20.192138"><ele>2150</ele></trkpt>
    <trkpt lat="49.190154" lon="20.191865"><ele>2156</ele></trkpt>
    <trkpt lat="49.190146" lon="20.191524"><ele>2154</ele></trkpt>
    <trkpt lat="49.190195" lon="20.191340"><ele>2152</ele></trkpt>
    <trkpt lat="49.190275" lon="20.191205"><ele>2149</ele></trkpt>
    <trkpt lat="49.190610" lon="20.190871"><ele>2143</ele></trkpt>
    <trkpt lat="49.190275" lon="20.191205"><ele>2149</ele></trkpt>
    <trkpt lat="49.190195" lon="20.191340"><ele>2152</ele></trkpt>
    <trkpt lat="49.190146" lon="20.191524"><ele>2154</ele></trkpt>
    <trkpt lat="49.190154" lon="20.191865"><ele>2156</ele></trkpt>
    <trkpt lat="49.190084" lon="20.192138"><ele>2150</ele></trkpt>
    <trkpt lat="49.189864" lon="20.192199"><ele>2138</ele></trkpt>
    <trkpt lat="49.189931" lon="20.192588"><ele>2133</ele></trkpt>
    <trkpt lat="49.189985" lon="20.192708"><ele>2131</ele></trkpt>
    <trkpt lat="49.190216" lon="20.192870"><ele>2128</ele></trkpt>
    <trkpt lat="49.190031" lon="20.193015"><ele>2120</ele></trkpt>
    <trkpt lat="49.190088" lon="20.193162"><ele>2114</ele></trkpt>
    <trkpt lat="49.190281" lon="20.193247"><ele>2106</ele></trkpt>
    <trkpt lat="49.190431" lon="20.193218"><ele>2104</ele></trkpt>
    <trkpt lat="49.190644" lon="20.193099"><ele>2110</ele></trkpt>
    <trkpt lat="49.190589" lon="20.193478"><ele>2078</ele></trkpt>
    <trkpt lat="49.190629" lon="20.193520"><ele>2073</ele></trkpt>
    <trkpt lat="49.190729" lon="20.193482"><ele>2070</ele></trkpt>
    <trkpt lat="49.190690" lon="20.193734"><ele>2057</ele></trkpt>
    <trkpt lat="49.190820" lon="20.193819"><ele>2050</ele></trkpt>
    <trkpt lat="49.190832" lon="20.193887"><ele>2049</ele></trkpt>
    <trkpt lat="49.190835" lon="20.193929"><ele>2049</ele></trkpt>
    <trkpt lat="49.190752" lon="20.194051"><ele>2050</ele></trkpt>
    <trkpt lat="49.190772" lon="20.194168"><ele>2050</ele></trkpt>
    <trkpt lat="49.190720" lon="20.194329"><ele>2049</ele></trkpt>
    <trkpt lat="49.190719" lon="20.194424"><ele>2049</ele></trkpt>
    <trkpt lat="49.190797" lon="20.194648"><ele>2049</ele></trkpt>
    <trkpt lat="49.191036" lon="20.194727"><ele>2048</ele></trkpt>
    <trkpt lat="49.191247" lon="20.194730"><ele>2043</ele></trkpt>
    <trkpt lat="49.191160" lon="20.195272"><ele>2031</ele></trkpt>
    <trkpt lat="49.191189" lon="20.196566"><ele>2013</ele></trkpt>
    <trkpt lat="49.191148" lon="20.196773"><ele>2013</ele></trkpt>
    <trkpt lat="49.191121" lon="20.197214"><ele>2010</ele></trkpt>
    <trkpt lat="49.190946" lon="20.197327"><ele>2011</ele></trkpt>
    <trkpt lat="49.190942" lon="20.197648"><ele>2010</ele></trkpt>
    <trkpt lat="49.190858" lon="20.198079"><ele>2014</ele></trkpt>
    <trkpt lat="49.190892" lon="20.198309"><ele>2012</ele></trkpt>
    <trkpt lat="49.190880" lon="20.198412"><ele>2013</ele></trkpt>
    <trkpt lat="49.190806" lon="20.198622"><ele>2014</ele></trkpt>
    <trkpt lat="49.190720" lon="20.198754"><ele>2013</ele></trkpt>
    <trkpt lat="49.190385" lon="20.198858"><ele>2014</ele></trkpt>
    <trkpt lat="49.190225" lon="20.198998"><ele>2013</ele></trkpt>
    <trkpt lat="49.190266" lon="20.199011"><ele>2013</ele></trkpt>
    <trkpt lat="49.190287" lon="20.199086"><ele>2012</ele></trkpt>
    <trkpt lat="49.190133" lon="20.199429"><ele>2007</ele></trkpt>
    <trkpt lat="49.190166" lon="20.199534"><ele>2006</ele></trkpt>
    <trkpt lat="49.190079" lon="20.199669"><ele>2005</ele></trkpt>
    <trkpt lat="49.190054" lon="20.199829"><ele>2003</ele></trkpt>
    <trkpt lat="49.189978" lon="20.200000"><ele>2002</ele></trkpt>
    <trkpt lat="49.189932" lon="20.200010"><ele>2001</ele></trkpt>
    <trkpt lat="49.189878" lon="20.199999"><ele>2000</ele></trkpt>
    <trkpt lat="49.189839" lon="20.199910"><ele>1999</ele></trkpt>
    <trkpt lat="49.189763" lon="20.199951"><ele>1997</ele></trkpt>
    <trkpt lat="49.189654" lon="20.199705"><ele>1993</ele></trkpt>
    <trkpt lat="49.189619" lon="20.199688"><ele>1991</ele></trkpt>
    <trkpt lat="49.189645" lon="20.199818"><ele>1992</ele></trkpt>
    <trkpt lat="49.189626" lon="20.199836"><ele>1991</ele></trkpt>
    <trkpt lat="49.189511" lon="20.199665"><ele>1986</ele></trkpt>
    <trkpt lat="49.189513" lon="20.199263"><ele>1984</ele></trkpt>
    <trkpt lat="49.189475" lon="20.199237"><ele>1981</ele></trkpt>
    <trkpt lat="49.189408" lon="20.199382"><ele>1979</ele></trkpt>
    <trkpt lat="49.189375" lon="20.199129"><ele>1974</ele></trkpt>
    <trkpt lat="49.189265" lon="20.199319"><ele>1970</ele></trkpt>
    <trkpt lat="49.189278" lon="20.199118"><ele>1969</ele></trkpt>
    <trkpt lat="49.189049" lon="20.199271"><ele>1960</ele></trkpt>
    <trkpt lat="49.188954" lon="20.199413"><ele>1957</ele></trkpt>
    <trkpt lat="49.188839" lon="20.199205"><ele>1951</ele></trkpt>
    <trkpt lat="49.188738" lon="20.199145"><ele>1947</ele></trkpt>
    <trkpt lat="49.188733" lon="20.199099"><ele>1946</ele></trkpt>
    <trkpt lat="49.188924" lon="20.198806"><ele>1947</ele></trkpt>
    <trkpt lat="49.188940" lon="20.198710"><ele>1945</ele></trkpt>
    <trkpt lat="49.188919" lon="20.198588"><ele>1942</ele></trkpt>
    <trkpt lat="49.188826" lon="20.198392"><ele>1936</ele></trkpt>
    <trkpt lat="49.188626" lon="20.198504"><ele>1930</ele></trkpt>
    <trkpt lat="49.188644" lon="20.198291"><ele>1927</ele></trkpt>
    <trkpt lat="49.188503" lon="20.198362"><ele>1923</ele></trkpt>
    <trkpt lat="49.188356" lon="20.198268"><ele>1921</ele></trkpt>
    <trkpt lat="49.188324" lon="20.198279"><ele>1920</ele></trkpt>
    <trkpt lat="49.188268" lon="20.198431"><ele>1918</ele></trkpt>
    <trkpt lat="49.188221" lon="20.198426"><ele>1917</ele></trkpt>
    <trkpt lat="49.188165" lon="20.198519"><ele>1914</ele></trkpt>
    <trkpt lat="49.187745" lon="20.198647"><ele>1906</ele></trkpt>
    <trkpt lat="49.187727" lon="20.198803"><ele>1904</ele></trkpt>
    <trkpt lat="49.187838" lon="20.199245"><ele>1894</ele></trkpt>
    <trkpt lat="49.187708" lon="20.199803"><ele>1886</ele></trkpt>
    <trkpt lat="49.187690" lon="20.200031"><ele>1882</ele></trkpt>
    <trkpt lat="49.187550" lon="20.200266"><ele>1875</ele></trkpt>
    <trkpt lat="49.187203" lon="20.200546"><ele>1863</ele></trkpt>
    <trkpt lat="49.187200" lon="20.200585"><ele>1861</ele></trkpt>
    <trkpt lat="49.187286" lon="20.200573"><ele>1861</ele></trkpt>
    <trkpt lat="49.187233" lon="20.200675"><ele>1856</ele></trkpt>
    <trkpt lat="49.187009" lon="20.200902"><ele>1847</ele></trkpt>
    <trkpt lat="49.186845" lon="20.201012"><ele>1842</ele></trkpt>
    <trkpt lat="49.187028" lon="20.201088"><ele>1838</ele></trkpt>
    <trkpt lat="49.186861" lon="20.201313"><ele>1826</ele></trkpt>
    <trkpt lat="49.186745" lon="20.201352"><ele>1824</ele></trkpt>
    <trkpt lat="49.186836" lon="20.201466"><ele>1819</ele></trkpt>
    <trkpt lat="49.187215" lon="20.201596"><ele>1813</ele></trkpt>
    <trkpt lat="49.187233" lon="20.201649"><ele>1810</ele></trkpt>
    <trkpt lat="49.186499" lon="20.202222"><ele>1783</ele></trkpt>
    <trkpt lat="49.186557" lon="20.202275"><ele>1781</ele></trkpt>
    <trkpt lat="49.186507" lon="20.202351"><ele>1777</ele></trkpt>
    <trkpt lat="49.186669" lon="20.202470"><ele>1773</ele></trkpt>
    <trkpt lat="49.186836" lon="20.202522"><ele>1769</ele></trkpt>
    <trkpt lat="49.187186" lon="20.202770"><ele>1757</ele></trkpt>
    <trkpt lat="49.187569" lon="20.202976"><ele>1749</ele></trkpt>
    <trkpt lat="49.187738" lon="20.203191"><ele>1744</ele></trkpt>
    <trkpt lat="49.187833" lon="20.203377"><ele>1743</ele></trkpt>
    <trkpt lat="49.187864" lon="20.203513"><ele>1743</ele></trkpt>
    <trkpt lat="49.187878" lon="20.203738"><ele>1743</ele></trkpt>
    <trkpt lat="49.187851" lon="20.203828"><ele>1742</ele></trkpt>
    <trkpt lat="49.187623" lon="20.204046"><ele>1735</ele></trkpt>
    <trkpt lat="49.187579" lon="20.204176"><ele>1737</ele></trkpt>
    <trkpt lat="49.187320" lon="20.204603"><ele>1728</ele></trkpt>
    <trkpt lat="49.187251" lon="20.204762"><ele>1724</ele></trkpt>
    <trkpt lat="49.187141" lon="20.205197"><ele>1715</ele></trkpt>
    <trkpt lat="49.187067" lon="20.205126"><ele>1710</ele></trkpt>
    <trkpt lat="49.187076" lon="20.205683"><ele>1702</ele></trkpt>
    <trkpt lat="49.187122" lon="20.205946"><ele>1700</ele></trkpt>
    <trkpt lat="49.187064" lon="20.205904"><ele>1697</ele></trkpt>
    <trkpt lat="49.187054" lon="20.205947"><ele>1695</ele></trkpt>
    <trkpt lat="49.187127" lon="20.206313"><ele>1697</ele></trkpt>
    <trkpt lat="49.187045" lon="20.206423"><ele>1692</ele></trkpt>
    <trkpt lat="49.186873" lon="20.206530"><ele>1683</ele></trkpt>
    <trkpt lat="49.186723" lon="20.206736"><ele>1682</ele></trkpt>
    <trkpt lat="49.186628" lon="20.206762"><ele>1680</ele></trkpt>
    <trkpt lat="49.186515" lon="20.206871"><ele>1680</ele></trkpt>
    <trkpt lat="49.186257" lon="20.206930"><ele>1675</ele></trkpt>
    <trkpt lat="49.186172" lon="20.207061"><ele>1675</ele></trkpt>
    <trkpt lat="49.186079" lon="20.207106"><ele>1673</ele></trkpt>
    <trkpt lat="49.185974" lon="20.207261"><ele>1672</ele></trkpt>
    <trkpt lat="49.185948" lon="20.207445"><ele>1672</ele></trkpt>
    <trkpt lat="49.185830" lon="20.207530"><ele>1668</ele></trkpt>
    <trkpt lat="49.185714" lon="20.207716"><ele>1667</ele></trkpt>
    <trkpt lat="49.185680" lon="20.207863"><ele>1668</ele></trkpt>
    <trkpt lat="49.185584" lon="20.207886"><ele>1667</ele></trkpt>
    <trkpt lat="49.185481" lon="20.207793"><ele>1663</ele></trkpt>
    <trkpt lat="49.185170" lon="20.207708"><ele>1657</ele></trkpt>
    <trkpt lat="49.185034" lon="20.207773"><ele>1657</ele></trkpt>
    <trkpt lat="49.184722" lon="20.207747"><ele>1650</ele></trkpt>
    <trkpt lat="49.184536" lon="20.207846"><ele>1647</ele></trkpt>
    <trkpt lat="49.184312" lon="20.207887"><ele>1642</ele></trkpt>
    <trkpt lat="49.184071" lon="20.208022"><ele>1638</ele></trkpt>
    <trkpt lat="49.183931" lon="20.208172"><ele>1635</ele></trkpt>
    <trkpt lat="49.183805" lon="20.208423"><ele>1631</ele></trkpt>
    <trkpt lat="49.183774" lon="20.208584"><ele>1629</ele></trkpt>
    <trkpt lat="49.183570" lon="20.208704"><ele>1621</ele></trkpt>
    <trkpt lat="49.183381" lon="20.208945"><ele>1616</ele></trkpt>
    <trkpt lat="49.183093" lon="20.209136"><ele>1614</ele></trkpt>
    <trkpt lat="49.182505" lon="20.209908"><ele>1614</ele></trkpt>
    <trkpt lat="49.182385" lon="20.209926"><ele>1613</ele></trkpt>
    <trkpt lat="49.181938" lon="20.210658"><ele>1608</ele></trkpt>
    <trkpt lat="49.181638" lon="20.210908"><ele>1605</ele></trkpt>
    <trkpt lat="49.181250" lon="20.210954"><ele>1598</ele></trkpt>
    <trkpt lat="49.181029" lon="20.211050"><ele>1593</ele></trkpt>
    <trkpt lat="49.180885" lon="20.211254"><ele>1590</ele></trkpt>
    <trkpt lat="49.180737" lon="20.211370"><ele>1588</ele></trkpt>
    <trkpt lat="49.180629" lon="20.211504"><ele>1586</ele></trkpt>
    <trkpt lat="49.180561" lon="20.211688"><ele>1584</ele></trkpt>
    <trkpt lat="49.180479" lon="20.212082"><ele>1586</ele></trkpt>
    <trkpt lat="49.180125" lon="20.212494"><ele>1582</ele></trkpt>
    <trkpt lat="49.179747" lon="20.212813"><ele>1577</ele></trkpt>
    <trkpt lat="49.179715" lon="20.212951"><ele>1578</ele></trkpt>
    <trkpt lat="49.179497" lon="20.213207"><ele>1576</ele></trkpt>
    <trkpt lat="49.179201" lon="20.213752"><ele>1573</ele></trkpt>
    <trkpt lat="49.179051" lon="20.214305"><ele>1573</ele></trkpt>
    <trkpt lat="49.178804" lon="20.214714"><ele>1567</ele></trkpt>
    <trkpt lat="49.178629" lon="20.215234"><ele>1561</ele></trkpt>
    <trkpt lat="49.178429" lon="20.215541"><ele>1556</ele></trkpt>
    <trkpt lat="49.178394" lon="20.215792"><ele>1557</ele></trkpt>
    <trkpt lat="49.178252" lon="20.216157"><ele>1556</ele></trkpt>
    <trkpt lat="49.177875" lon="20.216446"><ele>1552</ele></trkpt>
    <trkpt lat="49.177569" lon="20.216590"><ele>1546</ele></trkpt>
    <trkpt lat="49.177526" lon="20.216641"><ele>1545</ele></trkpt>
    <trkpt lat="49.177486" lon="20.216801"><ele>1544</ele></trkpt>
    <trkpt lat="49.177503" lon="20.217002"><ele>1544</ele></trkpt>
    <trkpt lat="49.177458" lon="20.217079"><ele>1543</ele></trkpt>
    <trkpt lat="49.177366" lon="20.217113"><ele>1540</ele></trkpt>
    <trkpt lat="49.177152" lon="20.217053"><ele>1534</ele></trkpt>
    <trkpt lat="49.177039" lon="20.217189"><ele>1531</ele></trkpt>
    <trkpt lat="49.176890" lon="20.217150"><ele>1527</ele></trkpt>
    <trkpt lat="49.176781" lon="20.217372"><ele>1525</ele></trkpt>
    <trkpt lat="49.176513" lon="20.217446"><ele>1520</ele></trkpt>
    <trkpt lat="49.176051" lon="20.217420"><ele>1513</ele></trkpt>
    <trkpt lat="49.175915" lon="20.217517"><ele>1510</ele></trkpt>
    <trkpt lat="49.175842" lon="20.217647"><ele>1511</ele></trkpt>
    <trkpt lat="49.175527" lon="20.217602"><ele>1504</ele></trkpt>
    <trkpt lat="49.175359" lon="20.217706"><ele>1501</ele></trkpt>
    <trkpt lat="49.175336" lon="20.217766"><ele>1501</ele></trkpt>
    <trkpt lat="49.175051" lon="20.217735"><ele>1495</ele></trkpt>
    <trkpt lat="49.174753" lon="20.217590"><ele>1496</ele></trkpt>
    <trkpt lat="49.174479" lon="20.217578"><ele>1494</ele></trkpt>
    <trkpt lat="49.174449" lon="20.217620"><ele>1493</ele></trkpt>
    <trkpt lat="49.174476" lon="20.217810"><ele>1492</ele></trkpt>
    <trkpt lat="49.174455" lon="20.217981"><ele>1494</ele></trkpt>
    <trkpt lat="49.174374" lon="20.218129"><ele>1493</ele></trkpt>
    <trkpt lat="49.174237" lon="20.218260"><ele>1489</ele></trkpt>
    <trkpt lat="49.174195" lon="20.218395"><ele>1488</ele></trkpt>
    <trkpt lat="49.174116" lon="20.218416"><ele>1485</ele></trkpt>
    <trkpt lat="49.174017" lon="20.218572"><ele>1483</ele></trkpt>
    <trkpt lat="49.174087" lon="20.218700"><ele>1484</ele></trkpt>
    <trkpt lat="49.174141" lon="20.218930"><ele>1486</ele></trkpt>
    <trkpt lat="49.174016" lon="20.219199"><ele>1479</ele></trkpt>
    <trkpt lat="49.173920" lon="20.219275"><ele>1476</ele></trkpt>
    <trkpt lat="49.173405" lon="20.219463"><ele>1473</ele></trkpt>
    <trkpt lat="49.173128" lon="20.219499"><ele>1474</ele></trkpt>
    <trkpt lat="49.172886" lon="20.219426"><ele>1470</ele></trkpt>
    <trkpt lat="49.172720" lon="20.219590"><ele>1468</ele></trkpt>
    <trkpt lat="49.172416" lon="20.220115"><ele>1462</ele></trkpt>
    <trkpt lat="49.172429" lon="20.220218"><ele>1463</ele></trkpt>
    <trkpt lat="49.172557" lon="20.220367"><ele>1469</ele></trkpt>
    <trkpt lat="49.172606" lon="20.220506"><ele>1471</ele></trkpt>
    <trkpt lat="49.172563" lon="20.220992"><ele>1469</ele></trkpt>
    <trkpt lat="49.172482" lon="20.221141"><ele>1466</ele></trkpt>
    <trkpt lat="49.172197" lon="20.221201"><ele>1457</ele></trkpt>
    <trkpt lat="49.171724" lon="20.221089"><ele>1442</ele></trkpt>
    <trkpt lat="49.171488" lon="20.221104"><ele>1438</ele></trkpt>
    <trkpt lat="49.171364" lon="20.221203"><ele>1436</ele></trkpt>
    <trkpt lat="49.171084" lon="20.221557"><ele>1432</ele></trkpt>
    <trkpt lat="49.170935" lon="20.221668"><ele>1428</ele></trkpt>
    <trkpt lat="49.170695" lon="20.222112"><ele>1427</ele></trkpt>
    <trkpt lat="49.169825" lon="20.224175"><ele>1418</ele></trkpt>
    <trkpt lat="49.169804" lon="20.224163"><ele>1415</ele></trkpt>
    <trkpt lat="49.169809" lon="20.224067"><ele>1413</ele></trkpt>
    <trkpt lat="49.169957" lon="20.223257"><ele>1406</ele></trkpt>
    <trkpt lat="49.170207" lon="20.221406"><ele>1383</ele></trkpt>
    <trkpt lat="49.170325" lon="20.220820"><ele>1376</ele></trkpt>
    <trkpt lat="49.170402" lon="20.220528"><ele>1374</ele></trkpt>
    <trkpt lat="49.170689" lon="20.220008"><ele>1376</ele></trkpt>
    <trkpt lat="49.170218" lon="20.218984"><ele>1357</ele></trkpt>
    <trkpt lat="49.170375" lon="20.218423"><ele>1360</ele></trkpt>
    <trkpt lat="49.170264" lon="20.217923"><ele>1354</ele></trkpt>
    <trkpt lat="49.170150" lon="20.217609"><ele>1349</ele></trkpt>
    <trkpt lat="49.170129" lon="20.216664"><ele>1344</ele></trkpt>
    <trkpt lat="49.170081" lon="20.216386"><ele>1342</ele></trkpt>
    <trkpt lat="49.169927" lon="20.215901"><ele>1337</ele></trkpt>
    <trkpt lat="49.169711" lon="20.215367"><ele>1331</ele></trkpt>
    <trkpt lat="49.169668" lon="20.214912"><ele>1338</ele></trkpt>
    <trkpt lat="49.169598" lon="20.214729"><ele>1339</ele></trkpt>
    <trkpt lat="49.169524" lon="20.215117"><ele>1328</ele></trkpt>
    <trkpt lat="49.169208" lon="20.216061"><ele>1314</ele></trkpt>
    <trkpt lat="49.169069" lon="20.216322"><ele>1312</ele></trkpt>
    <trkpt lat="49.168720" lon="20.216781"><ele>1307</ele></trkpt>
    <trkpt lat="49.168546" lon="20.216866"><ele>1304</ele></trkpt>
    <trkpt lat="49.168389" lon="20.216795"><ele>1304</ele></trkpt>
    <trkpt lat="49.168140" lon="20.216942"><ele>1303</ele></trkpt>
    <trkpt lat="49.167903" lon="20.216935"><ele>1306</ele></trkpt>
    <trkpt lat="49.167468" lon="20.217057"><ele>1317</ele></trkpt>
    <trkpt lat="49.167194" lon="20.217317"><ele>1326</ele></trkpt>
    <trkpt lat="49.166614" lon="20.217550"><ele>1316</ele></trkpt>
    <trkpt lat="49.166106" lon="20.217977"><ele>1313</ele></trkpt>
    <trkpt lat="49.166037" lon="20.218132"><ele>1314</ele></trkpt>
    <trkpt lat="49.165990" lon="20.218486"><ele>1312</ele></trkpt>
    <trkpt lat="49.165943" lon="20.218567"><ele>1312</ele></trkpt>
    <trkpt lat="49.165772" lon="20.218697"><ele>1311</ele></trkpt>
    <trkpt lat="49.165640" lon="20.218868"><ele>1311</ele></trkpt>
    <trkpt lat="49.165307" lon="20.219006"><ele>1315</ele></trkpt>
    <trkpt lat="49.164711" lon="20.219705"><ele>1305</ele></trkpt>
    <trkpt lat="49.164413" lon="20.219851"><ele>1300</ele></trkpt>
    <trkpt lat="49.163934" lon="20.219685"><ele>1305</ele></trkpt>
    <trkpt lat="49.163815" lon="20.219694"><ele>1305</ele></trkpt>
    <trkpt lat="49.163016" lon="20.220157"><ele>1312</ele></trkpt>
    <trkpt lat="49.162827" lon="20.220445"><ele>1306</ele></trkpt>
    <trkpt lat="49.162607" lon="20.220673"><ele>1314</ele></trkpt>
    <trkpt lat="49.162547" lon="20.221011"><ele>1306</ele></trkpt>
    <trkpt lat="49.162435" lon="20.221221"><ele>1305</ele></trkpt>
    <trkpt lat="49.162293" lon="20.221365"><ele>1305</ele></trkpt>
    <trkpt lat="49.162038" lon="20.221478"><ele>1319</ele></trkpt>
    <trkpt lat="49.161888" lon="20.221655"><ele>1319</ele></trkpt>
    <trkpt lat="49.161745" lon="20.222021"><ele>1298</ele></trkpt>
    <trkpt lat="49.161578" lon="20.222185"><ele>1301</ele></trkpt>
    <trkpt lat="49.161444" lon="20.222414"><ele>1301</ele></trkpt>
    <trkpt lat="49.161112" lon="20.222794"><ele>1298</ele></trkpt>
    <trkpt lat="49.160682" lon="20.223223"><ele>1292</ele></trkpt>
    <trkpt lat="49.160268" lon="20.223550"><ele>1286</ele></trkpt>
    <trkpt lat="49.159990" lon="20.223693"><ele>1286</ele></trkpt>
    <trkpt lat="49.159599" lon="20.223801"><ele>1283</ele></trkpt>
    <trkpt lat="49.159365" lon="20.223975"><ele>1283</ele></trkpt>
    <trkpt lat="49.159137" lon="20.224248"><ele>1284</ele></trkpt>
    <trkpt lat="49.159021" lon="20.224644"><ele>1278</ele></trkpt>
    <trkpt lat="49.158794" lon="20.225006"><ele>1276</ele></trkpt>
    <trkpt lat="49.158712" lon="20.225060"><ele>1275</ele></trkpt>
    <trkpt lat="49.158440" lon="20.224912"><ele>1272</ele></trkpt>
    <trkpt lat="49.158399" lon="20.224911"><ele>1272</ele></trkpt>
    <trkpt lat="49.158359" lon="20.225029"><ele>1270</ele></trkpt>
    <trkpt lat="49.158025" lon="20.224964"><ele>1266</ele></trkpt>
    <trkpt lat="49.157608" lon="20.224746"><ele>1265</ele></trkpt>
    <trkpt lat="49.157337" lon="20.224729"><ele>1259</ele></trkpt>
    <trkpt lat="49.157189" lon="20.224621"><ele>1256</ele></trkpt>
    <trkpt lat="49.156769" lon="20.224538"><ele>1250</ele></trkpt>
    <trkpt lat="49.156604" lon="20.224364"><ele>1249</ele></trkpt>
    <trkpt lat="49.156236" lon="20.224344"><ele>1240</ele></trkpt>
    <trkpt lat="49.155908" lon="20.224171"><ele>1234</ele></trkpt>
    <trkpt lat="49.155742" lon="20.224175"><ele>1230</ele></trkpt>
    <trkpt lat="49.155407" lon="20.224013"><ele>1225</ele></trkpt>
    <trkpt lat="49.155226" lon="20.223851"><ele>1223</ele></trkpt>
    <trkpt lat="49.154932" lon="20.223710"><ele>1219</ele></trkpt>
    <trkpt lat="49.154402" lon="20.223608"><ele>1210</ele></trkpt>
    <trkpt lat="49.154011" lon="20.223588"><ele>1204</ele></trkpt>
    <trkpt lat="49.153570" lon="20.223340"><ele>1199</ele></trkpt>
    <trkpt lat="49.153406" lon="20.223174"><ele>1197</ele></trkpt>
    <trkpt lat="49.152910" lon="20.222870"><ele>1190</ele></trkpt>
    <trkpt lat="49.152793" lon="20.222762"><ele>1188</ele></trkpt>
    <trkpt lat="49.152113" lon="20.222560"><ele>1178</ele></trkpt>
    <trkpt lat="49.151969" lon="20.222592"><ele>1176</ele></trkpt>
    <trkpt lat="49.151792" lon="20.222705"><ele>1173</ele></trkpt>
    <trkpt lat="49.151636" lon="20.222692"><ele>1171</ele></trkpt>
    <trkpt lat="49.151425" lon="20.222809"><ele>1167</ele></trkpt>
    <trkpt lat="49.151144" lon="20.223180"><ele>1163</ele></trkpt>
    <trkpt lat="49.151063" lon="20.223227"><ele>1162</ele></trkpt>
    <trkpt lat="49.150488" lon="20.223344"><ele>1154</ele></trkpt>
    <trkpt lat="49.150427" lon="20.223330"><ele>1153</ele></trkpt>
    <trkpt lat="49.150164" lon="20.223087"><ele>1149</ele></trkpt>
    <trkpt lat="49.150006" lon="20.223099"><ele>1147</ele></trkpt>
    <trkpt lat="49.149807" lon="20.223038"><ele>1144</ele></trkpt>
    <trkpt lat="49.149732" lon="20.223080"><ele>1143</ele></trkpt>
    <trkpt lat="49.149641" lon="20.222963"><ele>1142</ele></trkpt>
    <trkpt lat="49.149475" lon="20.222886"><ele>1140</ele></trkpt>
    <trkpt lat="49.149194" lon="20.222999"><ele>1136</ele></trkpt>
    <trkpt lat="49.148135" lon="20.222985"><ele>1121</ele></trkpt>
    <trkpt lat="49.147386" lon="20.222628"><ele>1111</ele></trkpt>
    <trkpt lat="49.147185" lon="20.222481"><ele>1108</ele></trkpt>
    <trkpt lat="49.146942" lon="20.222260"><ele>1104</ele></trkpt>
    <trkpt lat="49.146557" lon="20.221804"><ele>1097</ele></trkpt>
    <trkpt lat="49.146181" lon="20.221533"><ele>1090</ele></trkpt>
    <trkpt lat="49.145781" lon="20.221027"><ele>1085</ele></trkpt>
    <trkpt lat="49.145430" lon="20.220707"><ele>1080</ele></trkpt>
    <trkpt lat="49.145361" lon="20.220574"><ele>1079</ele></trkpt>
    <trkpt lat="49.144757" lon="20.219984"><ele>1071</ele></trkpt>
    <trkpt lat="49.144424" lon="20.219904"><ele>1066</ele></trkpt>
    <trkpt lat="49.144242" lon="20.219781"><ele>1064</ele></trkpt>
    <trkpt lat="49.143854" lon="20.219702"><ele>1058</ele></trkpt>
    <trkpt lat="49.143579" lon="20.219553"><ele>1053</ele></trkpt>
    <trkpt lat="49.143096" lon="20.219662"><ele>1046</ele></trkpt>
    <trkpt lat="49.142915" lon="20.219801"><ele>1044</ele></trkpt>
    <trkpt lat="49.142768" lon="20.219828"><ele>1043</ele></trkpt>
    <trkpt lat="49.142459" lon="20.220019"><ele>1039</ele></trkpt>
    <trkpt lat="49.142199" lon="20.220259"><ele>1037</ele></trkpt>
    <trkpt lat="49.141949" lon="20.220729"><ele>1034</ele></trkpt>
    <trkpt lat="49.141593" lon="20.221036"><ele>1028</ele></trkpt>
    <trkpt lat="49.141500" lon="20.220913"><ele>1027</ele></trkpt>
    <trkpt lat="49.141453" lon="20.220722"><ele>1026</ele></trkpt>
    <trkpt lat="49.141357" lon="20.220557"><ele>1024</ele></trkpt>
    <trkpt lat="49.141157" lon="20.220402"><ele>1023</ele></trkpt>
    <trkpt lat="49.141015" lon="20.220360"><ele>1022</ele></trkpt>
  </trkseg></trk>
</gpx>
