<?xml version="1.0" encoding="UTF-8"?>
<gpx version="1.1" creator="MounTour (OpenStreetMap)" xmlns="http://www.topografix.com/GPX/1/1">
  <metadata><name>Plačlivé</name><copyright author="OpenStreetMap contributors"><license>https://opendatacommons.org/licenses/odbl/</license></copyright></metadata>
  <trk><name>Plačlivé</name><trkseg>
    <trkpt lat="49.236618" lon="19.718023"><ele>1065</ele></trkpt>
    <trkpt lat="49.236699" lon="19.718219"><ele>1068</ele></trkpt>
    <trkpt lat="49.234960" lon="19.719392"><ele>1094</ele></trkpt>
    <trkpt lat="49.232220" lon="19.720886"><ele>1111</ele></trkpt>
    <trkpt lat="49.231288" lon="19.721503"><ele>1119</ele></trkpt>
    <trkpt lat="49.230315" lon="19.722034"><ele>1124</ele></trkpt>
    <trkpt lat="49.228733" lon="19.722580"><ele>1136</ele></trkpt>
    <trkpt lat="49.228200" lon="19.722834"><ele>1139</ele></trkpt>
    <trkpt lat="49.227533" lon="19.723291"><ele>1147</ele></trkpt>
    <trkpt lat="49.226406" lon="19.724328"><ele>1159</ele></trkpt>
    <trkpt lat="49.226126" lon="19.724468"><ele>1161</ele></trkpt>
    <trkpt lat="49.225238" lon="19.724732"><ele>1167</ele></trkpt>
    <trkpt lat="49.225011" lon="19.724887"><ele>1170</ele></trkpt>
    <trkpt lat="49.224781" lon="19.725154"><ele>1174</ele></trkpt>
    <trkpt lat="49.224572" lon="19.725529"><ele>1177</ele></trkpt>
    <trkpt lat="49.224009" lon="19.726923"><ele>1187</ele></trkpt>
    <trkpt lat="49.223532" lon="19.727787"><ele>1191</ele></trkpt>
    <trkpt lat="49.222548" lon="19.728990"><ele>1201</ele></trkpt>
    <trkpt lat="49.221920" lon="19.730111"><ele>1214</ele></trkpt>
    <trkpt lat="49.221745" lon="19.730309"><ele>1216</ele></trkpt>
    <trkpt lat="49.221276" lon="19.730646"><ele>1217</ele></trkpt>
    <trkpt lat="49.221063" lon="19.730890"><ele>1217</ele></trkpt>
    <trkpt lat="49.220269" lon="19.732499"><ele>1227</ele></trkpt>
    <trkpt lat="49.220063" lon="19.732809"><ele>1231</ele></trkpt>
    <trkpt lat="49.219347" lon="19.733674"><ele>1243</ele></trkpt>
    <trkpt lat="49.219178" lon="19.733967"><ele>1247</ele></trkpt>
    <trkpt lat="49.219059" lon="19.734262"><ele>1251</ele></trkpt>
    <trkpt lat="49.218737" lon="19.735347"><ele>1260</ele></trkpt>
    <trkpt lat="49.218212" lon="19.737300"><ele>1275</ele></trkpt>
    <trkpt lat="49.217230" lon="19.741990"><ele>1312</ele></trkpt>
    <trkpt lat="49.217034" lon="19.742703"><ele>1320</ele></trkpt>
    <trkpt lat="49.216765" lon="19.743283"><ele>1327</ele></trkpt>
    <trkpt lat="49.216526" lon="19.743635"><ele>1330</ele></trkpt>
    <trkpt lat="49.216311" lon="19.743879"><ele>1334</ele></trkpt>
    <trkpt lat="49.215564" lon="19.744575"><ele>1346</ele></trkpt>
    <trkpt lat="49.215349" lon="19.744832"><ele>1347</ele></trkpt>
    <trkpt lat="49.215098" lon="19.745333"><ele>1354</ele></trkpt>
    <trkpt lat="49.214785" lon="19.746350"><ele>1366</ele></trkpt>
    <trkpt lat="49.214630" lon="19.746675"><ele>1369</ele></trkpt>
    <trkpt lat="49.214329" lon="19.747042"><ele>1372</ele></trkpt>
    <trkpt lat="49.213871" lon="19.747444"><ele>1373</ele></trkpt>
    <trkpt lat="49.213915" lon="19.747582"><ele>1375</ele></trkpt>
    <trkpt lat="49.213787" lon="19.747917"><ele>1377</ele></trkpt>
    <trkpt lat="49.213709" lon="19.748510"><ele>1383</ele></trkpt>
    <trkpt lat="49.213559" lon="19.749109"><ele>1393</ele></trkpt>
    <trkpt lat="49.213360" lon="19.749698"><ele>1403</ele></trkpt>
    <trkpt lat="49.213085" lon="19.750225"><ele>1412</ele></trkpt>
    <trkpt lat="49.212945" lon="19.750408"><ele>1417</ele></trkpt>
    <trkpt lat="49.212835" lon="19.750418"><ele>1416</ele></trkpt>
    <trkpt lat="49.212657" lon="19.750566"><ele>1419</ele></trkpt>
    <trkpt lat="49.212194" lon="19.750756"><ele>1422</ele></trkpt>
    <trkpt lat="49.211956" lon="19.750916"><ele>1426</ele></trkpt>
    <trkpt lat="49.211793" lon="19.750937"><ele>1427</ele></trkpt>
    <trkpt lat="49.211468" lon="19.751106"><ele>1430</ele></trkpt>
    <trkpt lat="49.211327" lon="19.751121"><ele>1430</ele></trkpt>
    <trkpt lat="49.211050" lon="19.751311"><ele>1437</ele></trkpt>
    <trkpt lat="49.211001" lon="19.751306"><ele>1437</ele></trkpt>
    <trkpt lat="49.210944" lon="19.751233"><ele>1436</ele></trkpt>
    <trkpt lat="49.210758" lon="19.751213"><ele>1438</ele></trkpt>
    <trkpt lat="49.210492" lon="19.751423"><ele>1444</ele></trkpt>
    <trkpt lat="49.210184" lon="19.751422"><ele>1450</ele></trkpt>
    <trkpt lat="49.209962" lon="19.751535"><ele>1455</ele></trkpt>
    <trkpt lat="49.209865" lon="19.751438"><ele>1454</ele></trkpt>
    <trkpt lat="49.209736" lon="19.751414"><ele>1454</ele></trkpt>
    <trkpt lat="49.209535" lon="19.751518"><ele>1457</ele></trkpt>
    <trkpt lat="49.209205" lon="19.751597"><ele>1459</ele></trkpt>
    <trkpt lat="49.208955" lon="19.751573"><ele>1460</ele></trkpt>
    <trkpt lat="49.208748" lon="19.751472"><ele>1461</ele></trkpt>
    <trkpt lat="49.208447" lon="19.751590"><ele>1468</ele></trkpt>
    <trkpt lat="49.208216" lon="19.751606"><ele>1471</ele></trkpt>
    <trkpt lat="49.207754" lon="19.751747"><ele>1480</ele></trkpt>
    <trkpt lat="49.207609" lon="19.751853"><ele>1484</ele></trkpt>
    <trkpt lat="49.207432" lon="19.751845"><ele>1486</ele></trkpt>
    <trkpt lat="49.207238" lon="19.751733"><ele>1489</ele></trkpt>
    <trkpt lat="49.206943" lon="19.751762"><ele>1496</ele></trkpt>
    <trkpt lat="49.206757" lon="19.751825"><ele>1499</ele></trkpt>
    <trkpt lat="49.206676" lon="19.752001"><ele>1502</ele></trkpt>
    <trkpt lat="49.206359" lon="19.752094"><ele>1507</ele></trkpt>
    <trkpt lat="49.206120" lon="19.752050"><ele>1509</ele></trkpt>
    <trkpt lat="49.205976" lon="19.751887"><ele>1509</ele></trkpt>
    <trkpt lat="49.205785" lon="19.751919"><ele>1510</ele></trkpt>
    <trkpt lat="49.205494" lon="19.751884"><ele>1514</ele></trkpt>
    <trkpt lat="49.205400" lon="19.751811"><ele>1514</ele></trkpt>
    <trkpt lat="49.205184" lon="19.751776"><ele>1517</ele></trkpt>
    <trkpt lat="49.204926" lon="19.751577"><ele>1521</ele></trkpt>
    <trkpt lat="49.204893" lon="19.751457"><ele>1522</ele></trkpt>
    <trkpt lat="49.204734" lon="19.751425"><ele>1525</ele></trkpt>
    <trkpt lat="49.204709" lon="19.751295"><ele>1526</ele></trkpt>
    <trkpt lat="49.204448" lon="19.751152"><ele>1533</ele></trkpt>
    <trkpt lat="49.204183" lon="19.750933"><ele>1539</ele></trkpt>
    <trkpt lat="49.203949" lon="19.750890"><ele>1544</ele></trkpt>
    <trkpt lat="49.203857" lon="19.750763"><ele>1547</ele></trkpt>
    <trkpt lat="49.203593" lon="19.750742"><ele>1553</ele></trkpt>
    <trkpt lat="49.203278" lon="19.750533"><ele>1564</ele></trkpt>
    <trkpt lat="49.203128" lon="19.750515"><ele>1569</ele></trkpt>
    <trkpt lat="49.202939" lon="19.750576"><ele>1576</ele></trkpt>
    <trkpt lat="49.202871" lon="19.750527"><ele>1579</ele></trkpt>
    <trkpt lat="49.202780" lon="19.750016"><ele>1584</ele></trkpt>
    <trkpt lat="49.202479" lon="19.749506"><ele>1591</ele></trkpt>
    <trkpt lat="49.202440" lon="19.749244"><ele>1594</ele></trkpt>
    <trkpt lat="49.202381" lon="19.749119"><ele>1597</ele></trkpt>
    <trkpt lat="49.202151" lon="19.748939"><ele>1606</ele></trkpt>
    <trkpt lat="49.202031" lon="19.748706"><ele>1614</ele></trkpt>
    <trkpt lat="49.202068" lon="19.748470"><ele>1617</ele></trkpt>
    <trkpt lat="49.202059" lon="19.748307"><ele>1620</ele></trkpt>
    <trkpt lat="49.202155" lon="19.747944"><ele>1624</ele></trkpt>
    <trkpt lat="49.202252" lon="19.747768"><ele>1627</ele></trkpt>
    <trkpt lat="49.202248" lon="19.747636"><ele>1630</ele></trkpt>
    <trkpt lat="49.202335" lon="19.747222"><ele>1639</ele></trkpt>
    <trkpt lat="49.201859" lon="19.746056"><ele>1667</ele></trkpt>
    <trkpt lat="49.201834" lon="19.745791"><ele>1671</ele></trkpt>
    <trkpt lat="49.201784" lon="19.745602"><ele>1675</ele></trkpt>
    <trkpt lat="49.201785" lon="19.745328"><ele>1681</ele></trkpt>
    <trkpt lat="49.201721" lon="19.744947"><ele>1689</ele></trkpt>
    <trkpt lat="49.201649" lon="19.744745"><ele>1693</ele></trkpt>
    <trkpt lat="49.201637" lon="19.744539"><ele>1697</ele></trkpt>
    <trkpt lat="49.201469" lon="19.744188"><ele>1702</ele></trkpt>
    <trkpt lat="49.201347" lon="19.743694"><ele>1709</ele></trkpt>
    <trkpt lat="49.201219" lon="19.743347"><ele>1714</ele></trkpt>
    <trkpt lat="49.201098" lon="19.743126"><ele>1715</ele></trkpt>
    <trkpt lat="49.200847" lon="19.742184"><ele>1726</ele></trkpt>
    <trkpt lat="49.200577" lon="19.741707"><ele>1734</ele></trkpt>
    <trkpt lat="49.200443" lon="19.741393"><ele>1743</ele></trkpt>
    <trkpt lat="49.200417" lon="19.740993"><ele>1750</ele></trkpt>
    <trkpt lat="49.200301" lon="19.740510"><ele>1759</ele></trkpt>
    <trkpt lat="49.200663" lon="19.739473"><ele>1782</ele></trkpt>
    <trkpt lat="49.200572" lon="19.739194"><ele>1786</ele></trkpt>
    <trkpt lat="49.200430" lon="19.739098"><ele>1788</ele></trkpt>
    <trkpt lat="49.200312" lon="19.738906"><ele>1792</ele></trkpt>
    <trkpt lat="49.200307" lon="19.738654"><ele>1794</ele></trkpt>
    <trkpt lat="49.200163" lon="19.738235"><ele>1801</ele></trkpt>
    <trkpt lat="49.200140" lon="19.737862"><ele>1808</ele></trkpt>
    <trkpt lat="49.200064" lon="19.737476"><ele>1811</ele></trkpt>
    <trkpt lat="49.200075" lon="19.737009"><ele>1815</ele></trkpt>
    <trkpt lat="49.199920" lon="19.736086"><ele>1835</ele></trkpt>
    <trkpt lat="49.199819" lon="19.735792"><ele>1843</ele></trkpt>
    <trkpt lat="49.199629" lon="19.735560"><ele>1851</ele></trkpt>
    <trkpt lat="49.199920" lon="19.735262"><ele>1859</ele></trkpt>
    <trkpt lat="49.199647" lon="19.734851"><ele>1874</ele></trkpt>
    <trkpt lat="49.199500" lon="19.734896"><ele>1875</ele></trkpt>
    <trkpt lat="49.199581" lon="19.734581"><ele>1885</ele></trkpt>
    <trkpt lat="49.199745" lon="19.734294"><ele>1892</ele></trkpt>
    <trkpt lat="49.199891" lon="19.734252"><ele>1895</ele></trkpt>
    <trkpt lat="49.200135" lon="19.734084"><ele>1906</ele></trkpt>
    <trkpt lat="49.199972" lon="19.733902"><ele>1910</ele></trkpt>
    <trkpt lat="49.199925" lon="19.733791"><ele>1915</ele></trkpt>
    <trkpt lat="49.199831" lon="19.733712"><ele>1919</ele></trkpt>
    <trkpt lat="49.199621" lon="19.733664"><ele>1924</ele></trkpt>
    <trkpt lat="49.199232" lon="19.733688"><ele>1935</ele></trkpt>
    <trkpt lat="49.198977" lon="19.733745"><ele>1941</ele></trkpt>
    <trkpt lat="49.198502" lon="19.733940"><ele>1945</ele></trkpt>
    <trkpt lat="49.198380" lon="19.733908"><ele>1951</ele></trkpt>
    <trkpt lat="49.198170" lon="19.734017"><ele>1952</ele></trkpt>
    <trkpt lat="49.198048" lon="19.734000"><ele>1957</ele></trkpt>
    <trkpt lat="49.197754" lon="19.734070"><ele>1963</ele></trkpt>
    <trkpt lat="49.197535" lon="19.734270"><ele>1960</ele></trkpt>
    <trkpt lat="49.197535" lon="19.734458"><ele>1958</ele></trkpt>
    <trkpt lat="49.197505" lon="19.734524"><ele>1958</ele></trkpt>
    <trkpt lat="49.197450" lon="19.734599"><ele>1958</ele></trkpt>
    <trkpt lat="49.197390" lon="19.734558"><ele>1958</ele></trkpt>
    <trkpt lat="49.197323" lon="19.734777"><ele>1961</ele></trkpt>
    <trkpt lat="49.197126" lon="19.735107"><ele>1968</ele></trkpt>
    <trkpt lat="49.196844" lon="19.735772"><ele>1992</ele></trkpt>
    <trkpt lat="49.196812" lon="19.735900"><ele>1995</ele></trkpt>
    <trkpt lat="49.196881" lon="19.736096"><ele>2001</ele></trkpt>
    <trkpt lat="49.196860" lon="19.736421"><ele>2001</ele></trkpt>
    <trkpt lat="49.196884" lon="19.736633"><ele>2004</ele></trkpt>
    <trkpt lat="49.196781" lon="19.737081"><ele>2010</ele></trkpt>
    <trkpt lat="49.196646" lon="19.737311"><ele>2016</ele></trkpt>
    <trkpt lat="49.196651" lon="19.737454"><ele>2016</ele></trkpt>
    <trkpt lat="49.196613" lon="19.737561"><ele>2013</ele></trkpt>
    <trkpt lat="49.196403" lon="19.737967"><ele>2011</ele></trkpt>
    <trkpt lat="49.196427" lon="19.738223"><ele>2016</ele></trkpt>
    <trkpt lat="49.196344" lon="19.738508"><ele>2021</ele></trkpt>
    <trkpt lat="49.196235" lon="19.739200"><ele>2022</ele></trkpt>
    <trkpt lat="49.196253" lon="19.739430"><ele>2025</ele></trkpt>
    <trkpt lat="49.196207" lon="19.740096"><ele>2032</ele></trkpt>
    <trkpt lat="49.196253" lon="19.740307"><ele>2035</ele></trkpt>
    <trkpt lat="49.196235" lon="19.740932"><ele>2041</ele></trkpt>
    <trkpt lat="49.196271" lon="19.741217"><ele>2042</ele></trkpt>
    <trkpt lat="49.196364" lon="19.741533"><ele>2042</ele></trkpt>
    <trkpt lat="49.196359" lon="19.741727"><ele>2041</ele></trkpt>
    <trkpt lat="49.196426" lon="19.742225"><ele>2033</ele></trkpt>
    <trkpt lat="49.196667" lon="19.743003"><ele>2021</ele></trkpt>
    <trkpt lat="49.196698" lon="19.743273"><ele>2017</ele></trkpt>
    <trkpt lat="49.196727" lon="19.743328"><ele>2014</ele></trkpt>
    <trkpt lat="49.196709" lon="19.743464"><ele>2015</ele></trkpt>
    <trkpt lat="49.196737" lon="19.743605"><ele>2012</ele></trkpt>
    <trkpt lat="49.196910" lon="19.744073"><ele>2012</ele></trkpt>
    <trkpt lat="49.196969" lon="19.744686"><ele>2025</ele></trkpt>
    <trkpt lat="49.197018" lon="19.744827"><ele>2025</ele></trkpt>
    <trkpt lat="49.197007" lon="19.745283"><ele>2029</ele></trkpt>
    <trkpt lat="49.197058" lon="19.745351"><ele>2029</ele></trkpt>
    <trkpt lat="49.197044" lon="19.745465"><ele>2030</ele></trkpt>
    <trkpt lat="49.197112" lon="19.745495"><ele>2030</ele></trkpt>
    <trkpt lat="49.197213" lon="19.746090"><ele>2039</ele></trkpt>
    <trkpt lat="49.197217" lon="19.746326"><ele>2049</ele></trkpt>
    <trkpt lat="49.197112" lon="19.746539"><ele>2062</ele></trkpt>
    <trkpt lat="49.197135" lon="19.746724"><ele>2073</ele></trkpt>
    <trkpt lat="49.197114" lon="19.746855"><ele>2076</ele></trkpt>
    <trkpt lat="49.197154" lon="19.746987"><ele>2081</ele></trkpt>
    <trkpt lat="49.197091" lon="19.747118"><ele>2084</ele></trkpt>
    <trkpt lat="49.197090" lon="19.747272"><ele>2088</ele></trkpt>
    <trkpt lat="49.196998" lon="19.747410"><ele>2090</ele></trkpt>
    <trkpt lat="49.196991" lon="19.747498"><ele>2092</ele></trkpt>
    <trkpt lat="49.197014" lon="19.747549"><ele>2093</ele></trkpt>
    <trkpt lat="49.197072" lon="19.747555"><ele>2094</ele></trkpt>
    <trkpt lat="49.197089" lon="19.747595"><ele>2094</ele></trkpt>
    <trkpt lat="49.197065" lon="19.747734"><ele>2095</ele></trkpt>
    <trkpt lat="49.197136" lon="19.747784"><ele>2096</ele></trkpt>
    <trkpt lat="49.197121" lon="19.748123"><ele>2104</ele></trkpt>
    <trkpt lat="49.197136" lon="19.747784"><ele>2096</ele></trkpt>
    <trkpt lat="49.197065" lon="19.747734"><ele>2095</ele></trkpt>
    <trkpt lat="49.197089" lon="19.747595"><ele>2094</ele></trkpt>
    <trkpt lat="49.197072" lon="19.747555"><ele>2094</ele></trkpt>
    <trkpt lat="49.197014" lon="19.747549"><ele>2093</ele></trkpt>
    <trkpt lat="49.196991" lon="19.747498"><ele>2092</ele></trkpt>
    <trkpt lat="49.196998" lon="19.747410"><ele>2090</ele></trkpt>
    <trkpt lat="49.197090" lon="19.747272"><ele>2088</ele></trkpt>
    <trkpt lat="49.197091" lon="19.747118"><ele>2084</ele></trkpt>
    <trkpt lat="49.197154" lon="19.746987"><ele>2081</ele></trkpt>
    <trkpt lat="49.197114" lon="19.746855"><ele>2076</ele></trkpt>
    <trkpt lat="49.197135" lon="19.746724"><ele>2073</ele></trkpt>
    <trkpt lat="49.197112" lon="19.746539"><ele>2062</ele></trkpt>
    <trkpt lat="49.197217" lon="19.746326"><ele>2049</ele></trkpt>
    <trkpt lat="49.197213" lon="19.746090"><ele>2039</ele></trkpt>
    <trkpt lat="49.197112" lon="19.745495"><ele>2030</ele></trkpt>
    <trkpt lat="49.197044" lon="19.745465"><ele>2030</ele></trkpt>
    <trkpt lat="49.197058" lon="19.745351"><ele>2029</ele></trkpt>
    <trkpt lat="49.197007" lon="19.745283"><ele>2029</ele></trkpt>
    <trkpt lat="49.197018" lon="19.744827"><ele>2025</ele></trkpt>
    <trkpt lat="49.196969" lon="19.744686"><ele>2025</ele></trkpt>
    <trkpt lat="49.196910" lon="19.744073"><ele>2012</ele></trkpt>
    <trkpt lat="49.196737" lon="19.743605"><ele>2012</ele></trkpt>
    <trkpt lat="49.196709" lon="19.743464"><ele>2015</ele></trkpt>
    <trkpt lat="49.196727" lon="19.743328"><ele>2014</ele></trkpt>
    <trkpt lat="49.196698" lon="19.743273"><ele>2017</ele></trkpt>
    <trkpt lat="49.196667" lon="19.743003"><ele>2021</ele></trkpt>
    <trkpt lat="49.196426" lon="19.742225"><ele>2033</ele></trkpt>
    <trkpt lat="49.196359" lon="19.741727"><ele>2041</ele></trkpt>
    <trkpt lat="49.196364" lon="19.741533"><ele>2042</ele></trkpt>
    <trkpt lat="49.196271" lon="19.741217"><ele>2042</ele></trkpt>
    <trkpt lat="49.196235" lon="19.740932"><ele>2041</ele></trkpt>
    <trkpt lat="49.196253" lon="19.740307"><ele>2035</ele></trkpt>
    <trkpt lat="49.196207" lon="19.740096"><ele>2032</ele></trkpt>
    <trkpt lat="49.196253" lon="19.739430"><ele>2025</ele></trkpt>
    <trkpt lat="49.196235" lon="19.739200"><ele>2022</ele></trkpt>
    <trkpt lat="49.196344" lon="19.738508"><ele>2021</ele></trkpt>
    <trkpt lat="49.196427" lon="19.738223"><ele>2016</ele></trkpt>
    <trkpt lat="49.196403" lon="19.737967"><ele>2011</ele></trkpt>
    <trkpt lat="49.196613" lon="19.737561"><ele>2013</ele></trkpt>
    <trkpt lat="49.196651" lon="19.737454"><ele>2016</ele></trkpt>
    <trkpt lat="49.196646" lon="19.737311"><ele>2016</ele></trkpt>
    <trkpt lat="49.196781" lon="19.737081"><ele>2010</ele></trkpt>
    <trkpt lat="49.196884" lon="19.736633"><ele>2004</ele></trkpt>
    <trkpt lat="49.196860" lon="19.736421"><ele>2001</ele></trkpt>
    <trkpt lat="49.196881" lon="19.736096"><ele>2001</ele></trkpt>
    <trkpt lat="49.196812" lon="19.735900"><ele>1995</ele></trkpt>
    <trkpt lat="49.196844" lon="19.735772"><ele>1992</ele></trkpt>
    <trkpt lat="49.197126" lon="19.735107"><ele>1968</ele></trkpt>
    <trkpt lat="49.197323" lon="19.734777"><ele>1961</ele></trkpt>
    <trkpt lat="49.197390" lon="19.734558"><ele>1958</ele></trkpt>
    <trkpt lat="49.197450" lon="19.734599"><ele>1958</ele></trkpt>
    <trkpt lat="49.197505" lon="19.734524"><ele>1958</ele></trkpt>
    <trkpt lat="49.197535" lon="19.734458"><ele>1958</ele></trkpt>
    <trkpt lat="49.197535" lon="19.734270"><ele>1960</ele></trkpt>
    <trkpt lat="49.197754" lon="19.734070"><ele>1963</ele></trkpt>
    <trkpt lat="49.198048" lon="19.734000"><ele>1957</ele></trkpt>
    <trkpt lat="49.198170" lon="19.734017"><ele>1952</ele></trkpt>
    <trkpt lat="49.198380" lon="19.733908"><ele>1951</ele></trkpt>
    <trkpt lat="49.198502" lon="19.733940"><ele>1945</ele></trkpt>
    <trkpt lat="49.198977" lon="19.733745"><ele>1941</ele></trkpt>
    <trkpt lat="49.199232" lon="19.733688"><ele>1935</ele></trkpt>
    <trkpt lat="49.199621" lon="19.733664"><ele>1924</ele></trkpt>
    <trkpt lat="49.199831" lon="19.733712"><ele>1919</ele></trkpt>
    <trkpt lat="49.199925" lon="19.733791"><ele>1915</ele></trkpt>
    <trkpt lat="49.199972" lon="19.733902"><ele>1910</ele></trkpt>
    <trkpt lat="49.200135" lon="19.734084"><ele>1906</ele></trkpt>
    <trkpt lat="49.199891" lon="19.734252"><ele>1895</ele></trkpt>
    <trkpt lat="49.199745" lon="19.734294"><ele>1892</ele></trkpt>
    <trkpt lat="49.199581" lon="19.734581"><ele>1885</ele></trkpt>
    <trkpt lat="49.199500" lon="19.734896"><ele>1875</ele></trkpt>
    <trkpt lat="49.199647" lon="19.734851"><ele>1874</ele></trkpt>
    <trkpt lat="49.199920" lon="19.735262"><ele>1859</ele></trkpt>
    <trkpt lat="49.199629" lon="19.735560"><ele>1851</ele></trkpt>
    <trkpt lat="49.199819" lon="19.735792"><ele>1843</ele></trkpt>
    <trkpt lat="49.199920" lon="19.736086"><ele>1835</ele></trkpt>
    <trkpt lat="49.200075" lon="19.737009"><ele>1815</ele></trkpt>
    <trkpt lat="49.200064" lon="19.737476"><ele>1811</ele></trkpt>
    <trkpt lat="49.200140" lon="19.737862"><ele>1808</ele></trkpt>
    <trkpt lat="49.200163" lon="19.738235"><ele>1801</ele></trkpt>
    <trkpt lat="49.200307" lon="19.738654"><ele>1794</ele></trkpt>
    <trkpt lat="49.200312" lon="19.738906"><ele>1792</ele></trkpt>
    <trkpt lat="49.200430" lon="19.739098"><ele>1788</ele></trkpt>
    <trkpt lat="49.200572" lon="19.739194"><ele>1786</ele></trkpt>
    <trkpt lat="49.200663" lon="19.739473"><ele>1782</ele></trkpt>
    <trkpt lat="49.200301" lon="19.740510"><ele>1759</ele></trkpt>
    <trkpt lat="49.200417" lon="19.740993"><ele>1750</ele></trkpt>
    <trkpt lat="49.200443" lon="19.741393"><ele>1743</ele></trkpt>
    <trkpt lat="49.200577" lon="19.741707"><ele>1734</ele></trkpt>
    <trkpt lat="49.200847" lon="19.742184"><ele>1726</ele></trkpt>
    <trkpt lat="49.201098" lon="19.743126"><ele>1715</ele></trkpt>
    <trkpt lat="49.201219" lon="19.743347"><ele>1714</ele></trkpt>
    <trkpt lat="49.201347" lon="19.743694"><ele>1709</ele></trkpt>
    <trkpt lat="49.201469" lon="19.744188"><ele>1702</ele></trkpt>
    <trkpt lat="49.201637" lon="19.744539"><ele>1697</ele></trkpt>
    <trkpt lat="49.201649" lon="19.744745"><ele>1693</ele></trkpt>
    <trkpt lat="49.201721" lon="19.744947"><ele>1689</ele></trkpt>
    <trkpt lat="49.201785" lon="19.745328"><ele>1681</ele></trkpt>
    <trkpt lat="49.201784" lon="19.745602"><ele>1675</ele></trkpt>
    <trkpt lat="49.201834" lon="19.745791"><ele>1671</ele></trkpt>
    <trkpt lat="49.201859" lon="19.746056"><ele>1667</ele></trkpt>
    <trkpt lat="49.202335" lon="19.747222"><ele>1639</ele></trkpt>
    <trkpt lat="49.202248" lon="19.747636"><ele>1630</ele></trkpt>
    <trkpt lat="49.202252" lon="19.747768"><ele>1627</ele></trkpt>
    <trkpt lat="49.202155" lon="19.747944"><ele>1624</ele></trkpt>
    <trkpt lat="49.202059" lon="19.748307"><ele>1620</ele></trkpt>
    <trkpt lat="49.202068" lon="19.748470"><ele>1617</ele></trkpt>
    <trkpt lat="49.202031" lon="19.748706"><ele>1614</ele></trkpt>
    <trkpt lat="49.202151" lon="19.748939"><ele>1606</ele></trkpt>
    <trkpt lat="49.202381" lon="19.749119"><ele>1597</ele></trkpt>
    <trkpt lat="49.202440" lon="19.749244"><ele>1594</ele></trkpt>
    <trkpt lat="49.202479" lon="19.749506"><ele>1591</ele></trkpt>
    <trkpt lat="49.202780" lon="19.750016"><ele>1584</ele></trkpt>
    <trkpt lat="49.202871" lon="19.750527"><ele>1579</ele></trkpt>
    <trkpt lat="49.202939" lon="19.750576"><ele>1576</ele></trkpt>
    <trkpt lat="49.203128" lon="19.750515"><ele>1569</ele></trkpt>
    <trkpt lat="49.203278" lon="19.750533"><ele>1564</ele></trkpt>
    <trkpt lat="49.203593" lon="19.750742"><ele>1553</ele></trkpt>
    <trkpt lat="49.203857" lon="19.750763"><ele>1547</ele></trkpt>
    <trkpt lat="49.203949" lon="19.750890"><ele>1544</ele></trkpt>
    <trkpt lat="49.204183" lon="19.750933"><ele>1539</ele></trkpt>
    <trkpt lat="49.204448" lon="19.751152"><ele>1533</ele></trkpt>
    <trkpt lat="49.204709" lon="19.751295"><ele>1526</ele></trkpt>
    <trkpt lat="49.204734" lon="19.751425"><ele>1525</ele></trkpt>
    <trkpt lat="49.204893" lon="19.751457"><ele>1522</ele></trkpt>
    <trkpt lat="49.204926" lon="19.751577"><ele>1521</ele></trkpt>
    <trkpt lat="49.205184" lon="19.751776"><ele>1517</ele></trkpt>
    <trkpt lat="49.205400" lon="19.751811"><ele>1514</ele></trkpt>
    <trkpt lat="49.205494" lon="19.751884"><ele>1514</ele></trkpt>
    <trkpt lat="49.205785" lon="19.751919"><ele>1510</ele></trkpt>
    <trkpt lat="49.205976" lon="19.751887"><ele>1509</ele></trkpt>
    <trkpt lat="49.206120" lon="19.752050"><ele>1509</ele></trkpt>
    <trkpt lat="49.206359" lon="19.752094"><ele>1507</ele></trkpt>
    <trkpt lat="49.206676" lon="19.752001"><ele>1502</ele></trkpt>
    <trkpt lat="49.206757" lon="19.751825"><ele>1499</ele></trkpt>
    <trkpt lat="49.206943" lon="19.751762"><ele>1496</ele></trkpt>
    <trkpt lat="49.207238" lon="19.751733"><ele>1489</ele></trkpt>
    <trkpt lat="49.207432" lon="19.751845"><ele>1486</ele></trkpt>
    <trkpt lat="49.207609" lon="19.751853"><ele>1484</ele></trkpt>
    <trkpt lat="49.207754" lon="19.751747"><ele>1480</ele></trkpt>
    <trkpt lat="49.208216" lon="19.751606"><ele>1471</ele></trkpt>
    <trkpt lat="49.208447" lon="19.751590"><ele>1468</ele></trkpt>
    <trkpt lat="49.208748" lon="19.751472"><ele>1461</ele></trkpt>
    <trkpt lat="49.208955" lon="19.751573"><ele>1460</ele></trkpt>
    <trkpt lat="49.209205" lon="19.751597"><ele>1459</ele></trkpt>
    <trkpt lat="49.209535" lon="19.751518"><ele>1457</ele></trkpt>
    <trkpt lat="49.209736" lon="19.751414"><ele>1454</ele></trkpt>
    <trkpt lat="49.209865" lon="19.751438"><ele>1454</ele></trkpt>
    <trkpt lat="49.209962" lon="19.751535"><ele>1455</ele></trkpt>
    <trkpt lat="49.210184" lon="19.751422"><ele>1450</ele></trkpt>
    <trkpt lat="49.210492" lon="19.751423"><ele>1444</ele></trkpt>
    <trkpt lat="49.210758" lon="19.751213"><ele>1438</ele></trkpt>
    <trkpt lat="49.210944" lon="19.751233"><ele>1436</ele></trkpt>
    <trkpt lat="49.211001" lon="19.751306"><ele>1437</ele></trkpt>
    <trkpt lat="49.211050" lon="19.751311"><ele>1437</ele></trkpt>
    <trkpt lat="49.211327" lon="19.751121"><ele>1430</ele></trkpt>
    <trkpt lat="49.211468" lon="19.751106"><ele>1430</ele></trkpt>
    <trkpt lat="49.211793" lon="19.750937"><ele>1427</ele></trkpt>
    <trkpt lat="49.211956" lon="19.750916"><ele>1426</ele></trkpt>
    <trkpt lat="49.212194" lon="19.750756"><ele>1422</ele></trkpt>
    <trkpt lat="49.212657" lon="19.750566"><ele>1419</ele></trkpt>
    <trkpt lat="49.212835" lon="19.750418"><ele>1416</ele></trkpt>
    <trkpt lat="49.212945" lon="19.750408"><ele>1417</ele></trkpt>
    <trkpt lat="49.213085" lon="19.750225"><ele>1412</ele></trkpt>
    <trkpt lat="49.213360" lon="19.749698"><ele>1403</ele></trkpt>
    <trkpt lat="49.213559" lon="19.749109"><ele>1393</ele></trkpt>
    <trkpt lat="49.213709" lon="19.748510"><ele>1383</ele></trkpt>
    <trkpt lat="49.213787" lon="19.747917"><ele>1377</ele></trkpt>
    <trkpt lat="49.213915" lon="19.747582"><ele>1375</ele></trkpt>
    <trkpt lat="49.213871" lon="19.747444"><ele>1373</ele></trkpt>
    <trkpt lat="49.214329" lon="19.747042"><ele>1372</ele></trkpt>
    <trkpt lat="49.214630" lon="19.746675"><ele>1369</ele></trkpt>
    <trkpt lat="49.214785" lon="19.746350"><ele>1366</ele></trkpt>
    <trkpt lat="49.215098" lon="19.745333"><ele>1354</ele></trkpt>
    <trkpt lat="49.215349" lon="19.744832"><ele>1347</ele></trkpt>
    <trkpt lat="49.215564" lon="19.744575"><ele>1346</ele></trkpt>
    <trkpt lat="49.216311" lon="19.743879"><ele>1334</ele></trkpt>
    <trkpt lat="49.216526" lon="19.743635"><ele>1330</ele></trkpt>
    <trkpt lat="49.216765" lon="19.743283"><ele>1327</ele></trkpt>
    <trkpt lat="49.217034" lon="19.742703"><ele>1320</ele></trkpt>
    <trkpt lat="49.217230" lon="19.741990"><ele>1312</ele></trkpt>
    <trkpt lat="49.218212" lon="19.737300"><ele>1275</ele></trkpt>
    <trkpt lat="49.218737" lon="19.735347"><ele>1260</ele></trkpt>
    <trkpt lat="49.219059" lon="19.734262"><ele>1251</ele></trkpt>
    <trkpt lat="49.219178" lon="19.733967"><ele>1247</ele></trkpt>
    <trkpt lat="49.219347" lon="19.733674"><ele>1243</ele></trkpt>
    <trkpt lat="49.220063" lon="19.732809"><ele>1231</ele></trkpt>
    <trkpt lat="49.220269" lon="19.732499"><ele>1227</ele></trkpt>
    <trkpt lat="49.221063" lon="19.730890"><ele>1217</ele></trkpt>
    <trkpt lat="49.221276" lon="19.730646"><ele>1217</ele></trkpt>
    <trkpt lat="49.221745" lon="19.730309"><ele>1216</ele></trkpt>
    <trkpt lat="49.221920" lon="19.730111"><ele>1214</ele></trkpt>
    <trkpt lat="49.222548" lon="19.728990"><ele>1201</ele></trkpt>
    <trkpt lat="49.223532" lon="19.727787"><ele>1191</ele></trkpt>
    <trkpt lat="49.224009" lon="19.726923"><ele>1187</ele></trkpt>
    <trkpt lat="49.224572" lon="19.725529"><ele>1177</ele></trkpt>
    <trkpt lat="49.224781" lon="19.725154"><ele>1174</ele></trkpt>
    <trkpt lat="49.225011" lon="19.724887"><ele>1170</ele></trkpt>
    <trkpt lat="49.225238" lon="19.724732"><ele>1167</ele></trkpt>
    <trkpt lat="49.226126" lon="19.724468"><ele>1161</ele></trkpt>
    <trkpt lat="49.226406" lon="19.724328"><ele>1159</ele></trkpt>
    <trkpt lat="49.227533" lon="19.723291"><ele>1147</ele></trkpt>
    <trkpt lat="49.228200" lon="19.722834"><ele>1139</ele></trkpt>
    <trkpt lat="49.228733" lon="19.722580"><ele>1136</ele></trkpt>
    <trkpt lat="49.230315" lon="19.722034"><ele>1124</ele></trkpt>
    <trkpt lat="49.231288" lon="19.721503"><ele>1119</ele></trkpt>
    <trkpt lat="49.232220" lon="19.720886"><ele>1111</ele></trkpt>
    <trkpt lat="49.234960" lon="19.719392"><ele>1094</ele></trkpt>
    <trkpt lat="49.236699" lon="19.718219"><ele>1068</ele></trkpt>
    <trkpt lat="49.236618" lon="19.718023"><ele>1065</ele></trkpt>
  </trkseg></trk>
</gpx>
