<?xml version="1.0" encoding="UTF-8"?>
<gpx version="1.1" creator="MounTour (OpenStreetMap)" xmlns="http://www.topografix.com/GPX/1/1">
  <metadata><name>Plavecký hrad z Plaveckého Podhradia</name><copyright author="OpenStreetMap contributors"><license>https://opendatacommons.org/licenses/odbl/</license></copyright></metadata>
  <trk><name>Plavecký hrad z Plaveckého Podhradia</name><trkseg>
    <trkpt lat="48.483052" lon="17.260000"><ele>224</ele></trkpt>
    <trkpt lat="48.483739" lon="17.259183"><ele>223</ele></trkpt>
    <trkpt lat="48.483885" lon="17.259080"><ele>220</ele></trkpt>
    <trkpt lat="48.484273" lon="17.258931"><ele>219</ele></trkpt>
    <trkpt lat="48.484322" lon="17.259031"><ele>219</ele></trkpt>
    <trkpt lat="48.485782" lon="17.260671"><ele>220</ele></trkpt>
    <trkpt lat="48.486846" lon="17.262314"><ele>233</ele></trkpt>
    <trkpt lat="48.487051" lon="17.262368"><ele>232</ele></trkpt>
    <trkpt lat="48.487186" lon="17.262937"><ele>242</ele></trkpt>
    <trkpt lat="48.487392" lon="17.263264"><ele>251</ele></trkpt>
    <trkpt lat="48.487954" lon="17.263751"><ele>264</ele></trkpt>
    <trkpt lat="48.489268" lon="17.264272"><ele>281</ele></trkpt>
    <trkpt lat="48.489625" lon="17.264661"><ele>297</ele></trkpt>
    <trkpt lat="48.489888" lon="17.265167"><ele>310</ele></trkpt>
    <trkpt lat="48.490388" lon="17.265689"><ele>320</ele></trkpt>
    <trkpt lat="48.490988" lon="17.266053"><ele>322</ele></trkpt>
    <trkpt lat="48.491233" lon="17.266278"><ele>327</ele></trkpt>
    <trkpt lat="48.491437" lon="17.266663"><ele>336</ele></trkpt>
    <trkpt lat="48.491596" lon="17.267337"><ele>349</ele></trkpt>
    <trkpt lat="48.492139" lon="17.268423"><ele>362</ele></trkpt>
    <trkpt lat="48.492148" lon="17.268648"><ele>369</ele></trkpt>
    <trkpt lat="48.492410" lon="17.269247"><ele>379</ele></trkpt>
    <trkpt lat="48.492495" lon="17.269640"><ele>384</ele></trkpt>
    <trkpt lat="48.492485" lon="17.269762"><ele>384</ele></trkpt>
    <trkpt lat="48.492584" lon="17.269753"><ele>385</ele></trkpt>
    <trkpt lat="48.492873" lon="17.269874"><ele>389</ele></trkpt>
    <trkpt lat="48.492934" lon="17.269393"><ele>386</ele></trkpt>
    <trkpt lat="48.493018" lon="17.269060"><ele>385</ele></trkpt>
    <trkpt lat="48.493133" lon="17.268765"><ele>387</ele></trkpt>
    <trkpt lat="48.493257" lon="17.268570"><ele>390</ele></trkpt>
    <trkpt lat="48.493472" lon="17.268352"><ele>393</ele></trkpt>
    <trkpt lat="48.493826" lon="17.268368"><ele>403</ele></trkpt>
    <trkpt lat="48.493933" lon="17.268421"><ele>406</ele></trkpt>
    <trkpt lat="48.493826" lon="17.268368"><ele>403</ele></trkpt>
    <trkpt lat="48.493472" lon="17.268352"><ele>393</ele></trkpt>
    <trkpt lat="48.493257" lon="17.268570"><ele>390</ele></trkpt>
    <trkpt lat="48.493133" lon="17.268765"><ele>387</ele></trkpt>
    <trkpt lat="48.493018" lon="17.269060"><ele>385</ele></trkpt>
    <trkpt lat="48.492934" lon="17.269393"><ele>386</ele></trkpt>
    <trkpt lat="48.492873" lon="17.269874"><ele>389</ele></trkpt>
    <trkpt lat="48.492584" lon="17.269753"><ele>385</ele></trkpt>
    <trkpt lat="48.492485" lon="17.269762"><ele>384</ele></trkpt>
    <trkpt lat="48.492495" lon="17.269640"><ele>384</ele></trkpt>
    <trkpt lat="48.492410" lon="17.269247"><ele>379</ele></trkpt>
    <trkpt lat="48.492148" lon="17.268648"><ele>369</ele></trkpt>
    <trkpt lat="48.492139" lon="17.268423"><ele>362</ele></trkpt>
    <trkpt lat="48.491596" lon="17.267337"><ele>349</ele></trkpt>
    <trkpt lat="48.491437" lon="17.266663"><ele>336</ele></trkpt>
    <trkpt lat="48.491233" lon="17.266278"><ele>327</ele></trkpt>
    <trkpt lat="48.490988" lon="17.266053"><ele>322</ele></trkpt>
    <trkpt lat="48.490388" lon="17.265689"><ele>320</ele></trkpt>
    <trkpt lat="48.489888" lon="17.265167"><ele>310</ele></trkpt>
    <trkpt lat="48.489625" lon="17.264661"><ele>297</ele></trkpt>
    <trkpt lat="48.489268" lon="17.264272"><ele>281</ele></trkpt>
    <trkpt lat="48.487954" lon="17.263751"><ele>264</ele></trkpt>
    <trkpt lat="48.487392" lon="17.263264"><ele>251</ele></trkpt>
    <trkpt lat="48.487186" lon="17.262937"><ele>242</ele></trkpt>
    <trkpt lat="48.487051" lon="17.262368"><ele>232</ele></trkpt>
    <trkpt lat="48.486846" lon="17.262314"><ele>233</ele></trkpt>
    <trkpt lat="48.485782" lon="17.260671"><ele>220</ele></trkpt>
    <trkpt lat="48.484322" lon="17.259031"><ele>219</ele></trkpt>
    <trkpt lat="48.484273" lon="17.258931"><ele>219</ele></trkpt>
    <trkpt lat="48.483885" lon="17.259080"><ele>220</ele></trkpt>
    <trkpt lat="48.483739" lon="17.259183"><ele>223</ele></trkpt>
    <trkpt lat="48.483052" lon="17.260000"><ele>224</ele></trkpt>
  </trkseg></trk>
</gpx>
