<?xml version="1.0" encoding="UTF-8"?>
<gpx version="1.1" creator="MounTour (OpenStreetMap)" xmlns="http://www.topografix.com/GPX/1/1">
  <metadata><name>Polianky</name><copyright author="OpenStreetMap contributors"><license>https://opendatacommons.org/licenses/odbl/</license></copyright></metadata>
  <trk><name>Polianky</name><trkseg>
    <trkpt lat="49.203506" lon="19.505944"><ele>898</ele></trkpt>
    <trkpt lat="49.203653" lon="19.506432"><ele>901</ele></trkpt>
    <trkpt lat="49.203982" lon="19.507180"><ele>907</ele></trkpt>
    <trkpt lat="49.204410" lon="19.508666"><ele>917</ele></trkpt>
    <trkpt lat="49.204857" lon="19.509855"><ele>932</ele></trkpt>
    <trkpt lat="49.204927" lon="19.510498"><ele>940</ele></trkpt>
    <trkpt lat="49.205055" lon="19.510863"><ele>946</ele></trkpt>
    <trkpt lat="49.205346" lon="19.511464"><ele>953</ele></trkpt>
    <trkpt lat="49.205430" lon="19.511555"><ele>953</ele></trkpt>
    <trkpt lat="49.205574" lon="19.511638"><ele>952</ele></trkpt>
    <trkpt lat="49.206069" lon="19.511587"><ele>954</ele></trkpt>
    <trkpt lat="49.206967" lon="19.511839"><ele>960</ele></trkpt>
    <trkpt lat="49.208300" lon="19.512427"><ele>967</ele></trkpt>
    <trkpt lat="49.209660" lon="19.512864"><ele>978</ele></trkpt>
    <trkpt lat="49.210345" lon="19.512987"><ele>984</ele></trkpt>
    <trkpt lat="49.211402" lon="19.513425"><ele>988</ele></trkpt>
    <trkpt lat="49.212134" lon="19.513859"><ele>994</ele></trkpt>
    <trkpt lat="49.213336" lon="19.515325"><ele>1008</ele></trkpt>
    <trkpt lat="49.213911" lon="19.516271"><ele>1016</ele></trkpt>
    <trkpt lat="49.214267" lon="19.516741"><ele>1020</ele></trkpt>
    <trkpt lat="49.214529" lon="19.517158"><ele>1020</ele></trkpt>
    <trkpt lat="49.215787" lon="19.518298"><ele>1011</ele></trkpt>
    <trkpt lat="49.216414" lon="19.518950"><ele>1014</ele></trkpt>
    <trkpt lat="49.217056" lon="19.520128"><ele>1030</ele></trkpt>
    <trkpt lat="49.217441" lon="19.520688"><ele>1038</ele></trkpt>
    <trkpt lat="49.218106" lon="19.522062"><ele>1044</ele></trkpt>
    <trkpt lat="49.218734" lon="19.522574"><ele>1057</ele></trkpt>
    <trkpt lat="49.219566" lon="19.523105"><ele>1062</ele></trkpt>
    <trkpt lat="49.218734" lon="19.522574"><ele>1057</ele></trkpt>
    <trkpt lat="49.218106" lon="19.522062"><ele>1044</ele></trkpt>
    <trkpt lat="49.217441" lon="19.520688"><ele>1038</ele></trkpt>
    <trkpt lat="49.217056" lon="19.520128"><ele>1030</ele></trkpt>
    <trkpt lat="49.216414" lon="19.518950"><ele>1014</ele></trkpt>
    <trkpt lat="49.215787" lon="19.518298"><ele>1011</ele></trkpt>
    <trkpt lat="49.214529" lon="19.517158"><ele>1020</ele></trkpt>
    <trkpt lat="49.214267" lon="19.516741"><ele>1020</ele></trkpt>
    <trkpt lat="49.213911" lon="19.516271"><ele>1016</ele></trkpt>
    <trkpt lat="49.213336" lon="19.515325"><ele>1008</ele></trkpt>
    <trkpt lat="49.212134" lon="19.513859"><ele>994</ele></trkpt>
    <trkpt lat="49.211402" lon="19.513425"><ele>988</ele></trkpt>
    <trkpt lat="49.210345" lon="19.512987"><ele>984</ele></trkpt>
    <trkpt lat="49.209660" lon="19.512864"><ele>978</ele></trkpt>
    <trkpt lat="49.208300" lon="19.512427"><ele>967</ele></trkpt>
    <trkpt lat="49.206967" lon="19.511839"><ele>960</ele></trkpt>
    <trkpt lat="49.206069" lon="19.511587"><ele>954</ele></trkpt>
    <trkpt lat="49.205574" lon="19.511638"><ele>952</ele></trkpt>
    <trkpt lat="49.205430" lon="19.511555"><ele>953</ele></trkpt>
    <trkpt lat="49.205346" lon="19.511464"><ele>953</ele></trkpt>
    <trkpt lat="49.205055" lon="19.510863"><ele>946</ele></trkpt>
    <trkpt lat="49.204927" lon="19.510498"><ele>940</ele></trkpt>
    <trkpt lat="49.204857" lon="19.509855"><ele>932</ele></trkpt>
    <trkpt lat="49.204410" lon="19.508666"><ele>917</ele></trkpt>
    <trkpt lat="49.203982" lon="19.507180"><ele>907</ele></trkpt>
    <trkpt lat="49.203653" lon="19.506432"><ele>901</ele></trkpt>
    <trkpt lat="49.203506" lon="19.505944"><ele>898</ele></trkpt>
  </trkseg></trk>
</gpx>
