<?xml version="1.0" encoding="UTF-8"?>
<gpx version="1.1" creator="MounTour (OpenStreetMap)" xmlns="http://www.topografix.com/GPX/1/1">
  <metadata><name>Popradské pleso</name><copyright author="OpenStreetMap contributors"><license>https://opendatacommons.org/licenses/odbl/</license></copyright></metadata>
  <trk><name>Popradské pleso</name><trkseg>
    <trkpt lat="49.130385" lon="20.076317"><ele>1290</ele></trkpt>
    <trkpt lat="49.130415" lon="20.076468"><ele>1292</ele></trkpt>
    <trkpt lat="49.130539" lon="20.076631"><ele>1295</ele></trkpt>
    <trkpt lat="49.132095" lon="20.077356"><ele>1313</ele></trkpt>
    <trkpt lat="49.132263" lon="20.077456"><ele>1316</ele></trkpt>
    <trkpt lat="49.132600" lon="20.077785"><ele>1322</ele></trkpt>
    <trkpt lat="49.132761" lon="20.078057"><ele>1325</ele></trkpt>
    <trkpt lat="49.132977" lon="20.078667"><ele>1330</ele></trkpt>
    <trkpt lat="49.133574" lon="20.079473"><ele>1342</ele></trkpt>
    <trkpt lat="49.133930" lon="20.080106"><ele>1349</ele></trkpt>
    <trkpt lat="49.134158" lon="20.080307"><ele>1351</ele></trkpt>
    <trkpt lat="49.134495" lon="20.080411"><ele>1357</ele></trkpt>
    <trkpt lat="49.134911" lon="20.080395"><ele>1365</ele></trkpt>
    <trkpt lat="49.135031" lon="20.080427"><ele>1367</ele></trkpt>
    <trkpt lat="49.135706" lon="20.080891"><ele>1377</ele></trkpt>
    <trkpt lat="49.136508" lon="20.080913"><ele>1385</ele></trkpt>
    <trkpt lat="49.136871" lon="20.080976"><ele>1387</ele></trkpt>
    <trkpt lat="49.137589" lon="20.081338"><ele>1396</ele></trkpt>
    <trkpt lat="49.137662" lon="20.081314"><ele>1397</ele></trkpt>
    <trkpt lat="49.137734" lon="20.081198"><ele>1398</ele></trkpt>
    <trkpt lat="49.137825" lon="20.080902"><ele>1397</ele></trkpt>
    <trkpt lat="49.137937" lon="20.080769"><ele>1397</ele></trkpt>
    <trkpt lat="49.138507" lon="20.080886"><ele>1403</ele></trkpt>
    <trkpt lat="49.139226" lon="20.080737"><ele>1410</ele></trkpt>
    <trkpt lat="49.139427" lon="20.080744"><ele>1412</ele></trkpt>
    <trkpt lat="49.139758" lon="20.080608"><ele>1411</ele></trkpt>
    <trkpt lat="49.140114" lon="20.080317"><ele>1411</ele></trkpt>
    <trkpt lat="49.140214" lon="20.080122"><ele>1413</ele></trkpt>
    <trkpt lat="49.140245" lon="20.079952"><ele>1415</ele></trkpt>
    <trkpt lat="49.140128" lon="20.079632"><ele>1416</ele></trkpt>
    <trkpt lat="49.140088" lon="20.079424"><ele>1418</ele></trkpt>
    <trkpt lat="49.140111" lon="20.078193"><ele>1431</ele></trkpt>
    <trkpt lat="49.140154" lon="20.078039"><ele>1431</ele></trkpt>
    <trkpt lat="49.140395" lon="20.077633"><ele>1434</ele></trkpt>
    <trkpt lat="49.141061" lon="20.076780"><ele>1445</ele></trkpt>
    <trkpt lat="49.141593" lon="20.075954"><ele>1442</ele></trkpt>
    <trkpt lat="49.141643" lon="20.075943"><ele>1444</ele></trkpt>
    <trkpt lat="49.141702" lon="20.076003"><ele>1447</ele></trkpt>
    <trkpt lat="49.141671" lon="20.076182"><ele>1450</ele></trkpt>
    <trkpt lat="49.141397" lon="20.076624"><ele>1454</ele></trkpt>
    <trkpt lat="49.141225" lon="20.077005"><ele>1458</ele></trkpt>
    <trkpt lat="49.141071" lon="20.077596"><ele>1459</ele></trkpt>
    <trkpt lat="49.141054" lon="20.077824"><ele>1459</ele></trkpt>
    <trkpt lat="49.141083" lon="20.078063"><ele>1460</ele></trkpt>
    <trkpt lat="49.141151" lon="20.078282"><ele>1462</ele></trkpt>
    <trkpt lat="49.141232" lon="20.078402"><ele>1463</ele></trkpt>
    <trkpt lat="49.141373" lon="20.078525"><ele>1465</ele></trkpt>
    <trkpt lat="49.141608" lon="20.078626"><ele>1462</ele></trkpt>
    <trkpt lat="49.141764" lon="20.078619"><ele>1466</ele></trkpt>
    <trkpt lat="49.141854" lon="20.078519"><ele>1470</ele></trkpt>
    <trkpt lat="49.141811" lon="20.078360"><ele>1470</ele></trkpt>
    <trkpt lat="49.141558" lon="20.078049"><ele>1467</ele></trkpt>
    <trkpt lat="49.141530" lon="20.077917"><ele>1468</ele></trkpt>
    <trkpt lat="49.141603" lon="20.077683"><ele>1471</ele></trkpt>
    <trkpt lat="49.142189" lon="20.077216"><ele>1480</ele></trkpt>
    <trkpt lat="49.142567" lon="20.077018"><ele>1485</ele></trkpt>
    <trkpt lat="49.143132" lon="20.076994"><ele>1489</ele></trkpt>
    <trkpt lat="49.143594" lon="20.077068"><ele>1493</ele></trkpt>
    <trkpt lat="49.144171" lon="20.076829"><ele>1494</ele></trkpt>
    <trkpt lat="49.144415" lon="20.076804"><ele>1496</ele></trkpt>
    <trkpt lat="49.144704" lon="20.076935"><ele>1498</ele></trkpt>
    <trkpt lat="49.145016" lon="20.077208"><ele>1499</ele></trkpt>
    <trkpt lat="49.145239" lon="20.077252"><ele>1499</ele></trkpt>
    <trkpt lat="49.146312" lon="20.077012"><ele>1497</ele></trkpt>
    <trkpt lat="49.146839" lon="20.076969"><ele>1500</ele></trkpt>
    <trkpt lat="49.147889" lon="20.077071"><ele>1498</ele></trkpt>
    <trkpt lat="49.148483" lon="20.077037"><ele>1501</ele></trkpt>
    <trkpt lat="49.148587" lon="20.077282"><ele>1502</ele></trkpt>
    <trkpt lat="49.148681" lon="20.077622"><ele>1504</ele></trkpt>
    <trkpt lat="49.148651" lon="20.077760"><ele>1505</ele></trkpt>
    <trkpt lat="49.148531" lon="20.077922"><ele>1504</ele></trkpt>
    <trkpt lat="49.148512" lon="20.078055"><ele>1504</ele></trkpt>
    <trkpt lat="49.148557" lon="20.078360"><ele>1501</ele></trkpt>
    <trkpt lat="49.148612" lon="20.078460"><ele>1499</ele></trkpt>
    <trkpt lat="49.148711" lon="20.078519"><ele>1499</ele></trkpt>
    <trkpt lat="49.148737" lon="20.078749"><ele>1499</ele></trkpt>
    <trkpt lat="49.148483" lon="20.079227"><ele>1510</ele></trkpt>
    <trkpt lat="49.148429" lon="20.079429"><ele>1514</ele></trkpt>
    <trkpt lat="49.148496" lon="20.079529"><ele>1519</ele></trkpt>
    <trkpt lat="49.148580" lon="20.079539"><ele>1521</ele></trkpt>
    <trkpt lat="49.148799" lon="20.079408"><ele>1520</ele></trkpt>
    <trkpt lat="49.148856" lon="20.079313"><ele>1518</ele></trkpt>
    <trkpt lat="49.149043" lon="20.079300"><ele>1517</ele></trkpt>
    <trkpt lat="49.149357" lon="20.079373"><ele>1518</ele></trkpt>
    <trkpt lat="49.149341" lon="20.079148"><ele>1511</ele></trkpt>
    <trkpt lat="49.149447" lon="20.079092"><ele>1508</ele></trkpt>
    <trkpt lat="49.149495" lon="20.078955"><ele>1503</ele></trkpt>
    <trkpt lat="49.149622" lon="20.078977"><ele>1503</ele></trkpt>
    <trkpt lat="49.149907" lon="20.079253"><ele>1505</ele></trkpt>
    <trkpt lat="49.150098" lon="20.079588"><ele>1508</ele></trkpt>
    <trkpt lat="49.150275" lon="20.079819"><ele>1510</ele></trkpt>
    <trkpt lat="49.150384" lon="20.079859"><ele>1510</ele></trkpt>
    <trkpt lat="49.150719" lon="20.079859"><ele>1509</ele></trkpt>
    <trkpt lat="49.150866" lon="20.079915"><ele>1509</ele></trkpt>
    <trkpt lat="49.151485" lon="20.080315"><ele>1506</ele></trkpt>
    <trkpt lat="49.151801" lon="20.079631"><ele>1506</ele></trkpt>
    <trkpt lat="49.151961" lon="20.079371"><ele>1508</ele></trkpt>
    <trkpt lat="49.152054" lon="20.079285"><ele>1506</ele></trkpt>
    <trkpt lat="49.151961" lon="20.079371"><ele>1508</ele></trkpt>
    <trkpt lat="49.151801" lon="20.079631"><ele>1506</ele></trkpt>
    <trkpt lat="49.151485" lon="20.080315"><ele>1506</ele></trkpt>
    <trkpt lat="49.150866" lon="20.079915"><ele>1509</ele></trkpt>
    <trkpt lat="49.150719" lon="20.079859"><ele>1509</ele></trkpt>
    <trkpt lat="49.150384" lon="20.079859"><ele>1510</ele></trkpt>
    <trkpt lat="49.150275" lon="20.079819"><ele>1510</ele></trkpt>
    <trkpt lat="49.150098" lon="20.079588"><ele>1508</ele></trkpt>
    <trkpt lat="49.149907" lon="20.079253"><ele>1505</ele></trkpt>
    <trkpt lat="49.149622" lon="20.078977"><ele>1503</ele></trkpt>
    <trkpt lat="49.149495" lon="20.078955"><ele>1503</ele></trkpt>
    <trkpt lat="49.149447" lon="20.079092"><ele>1508</ele></trkpt>
    <trkpt lat="49.149341" lon="20.079148"><ele>1511</ele></trkpt>
    <trkpt lat="49.149357" lon="20.079373"><ele>1518</ele></trkpt>
    <trkpt lat="49.149043" lon="20.079300"><ele>1517</ele></trkpt>
    <trkpt lat="49.148856" lon="20.079313"><ele>1518</ele></trkpt>
    <trkpt lat="49.148799" lon="20.079408"><ele>1520</ele></trkpt>
    <trkpt lat="49.148580" lon="20.079539"><ele>1521</ele></trkpt>
    <trkpt lat="49.148496" lon="20.079529"><ele>1519</ele></trkpt>
    <trkpt lat="49.148429" lon="20.079429"><ele>1514</ele></trkpt>
    <trkpt lat="49.148483" lon="20.079227"><ele>1510</ele></trkpt>
    <trkpt lat="49.148737" lon="20.078749"><ele>1499</ele></trkpt>
    <trkpt lat="49.148711" lon="20.078519"><ele>1499</ele></trkpt>
    <trkpt lat="49.148612" lon="20.078460"><ele>1499</ele></trkpt>
    <trkpt lat="49.148557" lon="20.078360"><ele>1501</ele></trkpt>
    <trkpt lat="49.148512" lon="20.078055"><ele>1504</ele></trkpt>
    <trkpt lat="49.148531" lon="20.077922"><ele>1504</ele></trkpt>
    <trkpt lat="49.148651" lon="20.077760"><ele>1505</ele></trkpt>
    <trkpt lat="49.148681" lon="20.077622"><ele>1504</ele></trkpt>
    <trkpt lat="49.148587" lon="20.077282"><ele>1502</ele></trkpt>
    <trkpt lat="49.148483" lon="20.077037"><ele>1501</ele></trkpt>
    <trkpt lat="49.147889" lon="20.077071"><ele>1498</ele></trkpt>
    <trkpt lat="49.146839" lon="20.076969"><ele>1500</ele></trkpt>
    <trkpt lat="49.146312" lon="20.077012"><ele>1497</ele></trkpt>
    <trkpt lat="49.145239" lon="20.077252"><ele>1499</ele></trkpt>
    <trkpt lat="49.145016" lon="20.077208"><ele>1499</ele></trkpt>
    <trkpt lat="49.144704" lon="20.076935"><ele>1498</ele></trkpt>
    <trkpt lat="49.144415" lon="20.076804"><ele>1496</ele></trkpt>
    <trkpt lat="49.144171" lon="20.076829"><ele>1494</ele></trkpt>
    <trkpt lat="49.143594" lon="20.077068"><ele>1493</ele></trkpt>
    <trkpt lat="49.143132" lon="20.076994"><ele>1489</ele></trkpt>
    <trkpt lat="49.142567" lon="20.077018"><ele>1485</ele></trkpt>
    <trkpt lat="49.142189" lon="20.077216"><ele>1480</ele></trkpt>
    <trkpt lat="49.141603" lon="20.077683"><ele>1471</ele></trkpt>
    <trkpt lat="49.141530" lon="20.077917"><ele>1468</ele></trkpt>
    <trkpt lat="49.141558" lon="20.078049"><ele>1467</ele></trkpt>
    <trkpt lat="49.141811" lon="20.078360"><ele>1470</ele></trkpt>
    <trkpt lat="49.141854" lon="20.078519"><ele>1470</ele></trkpt>
    <trkpt lat="49.141764" lon="20.078619"><ele>1466</ele></trkpt>
    <trkpt lat="49.141608" lon="20.078626"><ele>1462</ele></trkpt>
    <trkpt lat="49.141373" lon="20.078525"><ele>1465</ele></trkpt>
    <trkpt lat="49.141232" lon="20.078402"><ele>1463</ele></trkpt>
    <trkpt lat="49.141151" lon="20.078282"><ele>1462</ele></trkpt>
    <trkpt lat="49.141083" lon="20.078063"><ele>1460</ele></trkpt>
    <trkpt lat="49.141054" lon="20.077824"><ele>1459</ele></trkpt>
    <trkpt lat="49.141071" lon="20.077596"><ele>1459</ele></trkpt>
    <trkpt lat="49.141225" lon="20.077005"><ele>1458</ele></trkpt>
    <trkpt lat="49.141397" lon="20.076624"><ele>1454</ele></trkpt>
    <trkpt lat="49.141671" lon="20.076182"><ele>1450</ele></trkpt>
    <trkpt lat="49.141702" lon="20.076003"><ele>1447</ele></trkpt>
    <trkpt lat="49.141643" lon="20.075943"><ele>1444</ele></trkpt>
    <trkpt lat="49.141593" lon="20.075954"><ele>1442</ele></trkpt>
    <trkpt lat="49.141061" lon="20.076780"><ele>1445</ele></trkpt>
    <trkpt lat="49.140395" lon="20.077633"><ele>1434</ele></trkpt>
    <trkpt lat="49.140154" lon="20.078039"><ele>1431</ele></trkpt>
    <trkpt lat="49.140111" lon="20.078193"><ele>1431</ele></trkpt>
    <trkpt lat="49.140088" lon="20.079424"><ele>1418</ele></trkpt>
    <trkpt lat="49.140128" lon="20.079632"><ele>1416</ele></trkpt>
    <trkpt lat="49.140245" lon="20.079952"><ele>1415</ele></trkpt>
    <trkpt lat="49.140214" lon="20.080122"><ele>1413</ele></trkpt>
    <trkpt lat="49.140114" lon="20.080317"><ele>1411</ele></trkpt>
    <trkpt lat="49.139758" lon="20.080608"><ele>1411</ele></trkpt>
    <trkpt lat="49.139427" lon="20.080744"><ele>1412</ele></trkpt>
    <trkpt lat="49.139226" lon="20.080737"><ele>1410</ele></trkpt>
    <trkpt lat="49.138507" lon="20.080886"><ele>1403</ele></trkpt>
    <trkpt lat="49.137937" lon="20.080769"><ele>1397</ele></trkpt>
    <trkpt lat="49.137825" lon="20.080902"><ele>1397</ele></trkpt>
    <trkpt lat="49.137734" lon="20.081198"><ele>1398</ele></trkpt>
    <trkpt lat="49.137662" lon="20.081314"><ele>1397</ele></trkpt>
    <trkpt lat="49.137589" lon="20.081338"><ele>1396</ele></trkpt>
    <trkpt lat="49.136871" lon="20.080976"><ele>1387</ele></trkpt>
    <trkpt lat="49.136508" lon="20.080913"><ele>1385</ele></trkpt>
    <trkpt lat="49.135706" lon="20.080891"><ele>1377</ele></trkpt>
    <trkpt lat="49.135031" lon="20.080427"><ele>1367</ele></trkpt>
    <trkpt lat="49.134911" lon="20.080395"><ele>1365</ele></trkpt>
    <trkpt lat="49.134495" lon="20.080411"><ele>1357</ele></trkpt>
    <trkpt lat="49.134158" lon="20.080307"><ele>1351</ele></trkpt>
    <trkpt lat="49.133930" lon="20.080106"><ele>1349</ele></trkpt>
    <trkpt lat="49.133574" lon="20.079473"><ele>1342</ele></trkpt>
    <trkpt lat="49.132977" lon="20.078667"><ele>1330</ele></trkpt>
    <trkpt lat="49.132761" lon="20.078057"><ele>1325</ele></trkpt>
    <trkpt lat="49.132600" lon="20.077785"><ele>1322</ele></trkpt>
    <trkpt lat="49.132263" lon="20.077456"><ele>1316</ele></trkpt>
    <trkpt lat="49.132095" lon="20.077356"><ele>1313</ele></trkpt>
    <trkpt lat="49.130539" lon="20.076631"><ele>1295</ele></trkpt>
    <trkpt lat="49.130415" lon="20.076468"><ele>1292</ele></trkpt>
    <trkpt lat="49.130385" lon="20.076317"><ele>1290</ele></trkpt>
  </trkseg></trk>
</gpx>
