<?xml version="1.0" encoding="UTF-8"?>
<gpx version="1.1" creator="MounTour (OpenStreetMap)" xmlns="http://www.topografix.com/GPX/1/1">
  <metadata><name>Predné Solisko</name><copyright author="OpenStreetMap contributors"><license>https://opendatacommons.org/licenses/odbl/</license></copyright></metadata>
  <trk><name>Predné Solisko</name><trkseg>
    <trkpt lat="49.124852" lon="20.057212"><ele>1358</ele></trkpt>
    <trkpt lat="49.124950" lon="20.057125"><ele>1362</ele></trkpt>
    <trkpt lat="49.125084" lon="20.056918"><ele>1366</ele></trkpt>
    <trkpt lat="49.125790" lon="20.056268"><ele>1395</ele></trkpt>
    <trkpt lat="49.127279" lon="20.054972"><ele>1426</ele></trkpt>
    <trkpt lat="49.127573" lon="20.054772"><ele>1434</ele></trkpt>
    <trkpt lat="49.129037" lon="20.053443"><ele>1461</ele></trkpt>
    <trkpt lat="49.130328" lon="20.052363"><ele>1497</ele></trkpt>
    <trkpt lat="49.130441" lon="20.052327"><ele>1500</ele></trkpt>
    <trkpt lat="49.130586" lon="20.052344"><ele>1503</ele></trkpt>
    <trkpt lat="49.131675" lon="20.051397"><ele>1525</ele></trkpt>
    <trkpt lat="49.132919" lon="20.050537"><ele>1532</ele></trkpt>
    <trkpt lat="49.133274" lon="20.050237"><ele>1537</ele></trkpt>
    <trkpt lat="49.133746" lon="20.049987"><ele>1544</ele></trkpt>
    <trkpt lat="49.134610" lon="20.049097"><ele>1558</ele></trkpt>
    <trkpt lat="49.134960" lon="20.048563"><ele>1567</ele></trkpt>
    <trkpt lat="49.135239" lon="20.048214"><ele>1572</ele></trkpt>
    <trkpt lat="49.135719" lon="20.047739"><ele>1586</ele></trkpt>
    <trkpt lat="49.139119" lon="20.044749"><ele>1660</ele></trkpt>
    <trkpt lat="49.139913" lon="20.044100"><ele>1681</ele></trkpt>
    <trkpt lat="49.143276" lon="20.041167"><ele>1800</ele></trkpt>
    <trkpt lat="49.143534" lon="20.041208"><ele>1807</ele></trkpt>
    <trkpt lat="49.143815" lon="20.041166"><ele>1814</ele></trkpt>
    <trkpt lat="49.144130" lon="20.041056"><ele>1821</ele></trkpt>
    <trkpt lat="49.144142" lon="20.040985"><ele>1821</ele></trkpt>
    <trkpt lat="49.144188" lon="20.040985"><ele>1822</ele></trkpt>
    <trkpt lat="49.144315" lon="20.040789"><ele>1826</ele></trkpt>
    <trkpt lat="49.144441" lon="20.040732"><ele>1830</ele></trkpt>
    <trkpt lat="49.144485" lon="20.040625"><ele>1832</ele></trkpt>
    <trkpt lat="49.144677" lon="20.040542"><ele>1840</ele></trkpt>
    <trkpt lat="49.144862" lon="20.040400"><ele>1847</ele></trkpt>
    <trkpt lat="49.144921" lon="20.040165"><ele>1848</ele></trkpt>
    <trkpt lat="49.145114" lon="20.039867"><ele>1855</ele></trkpt>
    <trkpt lat="49.145277" lon="20.039958"><ele>1865</ele></trkpt>
    <trkpt lat="49.145305" lon="20.040150"><ele>1868</ele></trkpt>
    <trkpt lat="49.145417" lon="20.040170"><ele>1874</ele></trkpt>
    <trkpt lat="49.145482" lon="20.040298"><ele>1879</ele></trkpt>
    <trkpt lat="49.145548" lon="20.040350"><ele>1882</ele></trkpt>
    <trkpt lat="49.145757" lon="20.040208"><ele>1891</ele></trkpt>
    <trkpt lat="49.145796" lon="20.040296"><ele>1894</ele></trkpt>
    <trkpt lat="49.145855" lon="20.040308"><ele>1897</ele></trkpt>
    <trkpt lat="49.146014" lon="20.040619"><ele>1904</ele></trkpt>
    <trkpt lat="49.146137" lon="20.040699"><ele>1908</ele></trkpt>
    <trkpt lat="49.146191" lon="20.040666"><ele>1911</ele></trkpt>
    <trkpt lat="49.146186" lon="20.040507"><ele>1913</ele></trkpt>
    <trkpt lat="49.146260" lon="20.040328"><ele>1918</ele></trkpt>
    <trkpt lat="49.146458" lon="20.040316"><ele>1930</ele></trkpt>
    <trkpt lat="49.146554" lon="20.040180"><ele>1936</ele></trkpt>
    <trkpt lat="49.146662" lon="20.040275"><ele>1943</ele></trkpt>
    <trkpt lat="49.146698" lon="20.040100"><ele>1946</ele></trkpt>
    <trkpt lat="49.146731" lon="20.040075"><ele>1949</ele></trkpt>
    <trkpt lat="49.146797" lon="20.040161"><ele>1953</ele></trkpt>
    <trkpt lat="49.146825" lon="20.040157"><ele>1955</ele></trkpt>
    <trkpt lat="49.146848" lon="20.040075"><ele>1958</ele></trkpt>
    <trkpt lat="49.146882" lon="20.040066"><ele>1960</ele></trkpt>
    <trkpt lat="49.146935" lon="20.040144"><ele>1963</ele></trkpt>
    <trkpt lat="49.147059" lon="20.040025"><ele>1972</ele></trkpt>
    <trkpt lat="49.147188" lon="20.040033"><ele>1979</ele></trkpt>
    <trkpt lat="49.147260" lon="20.039965"><ele>1984</ele></trkpt>
    <trkpt lat="49.147317" lon="20.040013"><ele>1987</ele></trkpt>
    <trkpt lat="49.147448" lon="20.039822"><ele>1995</ele></trkpt>
    <trkpt lat="49.147481" lon="20.039839"><ele>1997</ele></trkpt>
    <trkpt lat="49.147507" lon="20.039973"><ele>1997</ele></trkpt>
    <trkpt lat="49.147541" lon="20.039962"><ele>1999</ele></trkpt>
    <trkpt lat="49.147577" lon="20.039889"><ele>2001</ele></trkpt>
    <trkpt lat="49.147699" lon="20.039884"><ele>2008</ele></trkpt>
    <trkpt lat="49.147865" lon="20.039766"><ele>2017</ele></trkpt>
    <trkpt lat="49.147954" lon="20.039610"><ele>2021</ele></trkpt>
    <trkpt lat="49.148148" lon="20.039564"><ele>2030</ele></trkpt>
    <trkpt lat="49.148294" lon="20.039631"><ele>2038</ele></trkpt>
    <trkpt lat="49.148360" lon="20.039614"><ele>2041</ele></trkpt>
    <trkpt lat="49.148484" lon="20.039569"><ele>2047</ele></trkpt>
    <trkpt lat="49.148516" lon="20.039457"><ele>2050</ele></trkpt>
    <trkpt lat="49.148582" lon="20.039456"><ele>2054</ele></trkpt>
    <trkpt lat="49.148619" lon="20.039402"><ele>2056</ele></trkpt>
    <trkpt lat="49.148710" lon="20.039411"><ele>2059</ele></trkpt>
    <trkpt lat="49.148887" lon="20.039303"><ele>2066</ele></trkpt>
    <trkpt lat="49.149020" lon="20.039287"><ele>2069</ele></trkpt>
    <trkpt lat="49.149084" lon="20.039223"><ele>2072</ele></trkpt>
    <trkpt lat="49.149211" lon="20.039253"><ele>2074</ele></trkpt>
    <trkpt lat="49.149515" lon="20.039170"><ele>2074</ele></trkpt>
    <trkpt lat="49.149645" lon="20.039063"><ele>2074</ele></trkpt>
    <trkpt lat="49.149515" lon="20.039170"><ele>2074</ele></trkpt>
    <trkpt lat="49.149211" lon="20.039253"><ele>2074</ele></trkpt>
    <trkpt lat="49.149084" lon="20.039223"><ele>2072</ele></trkpt>
    <trkpt lat="49.149020" lon="20.039287"><ele>2069</ele></trkpt>
    <trkpt lat="49.148887" lon="20.039303"><ele>2066</ele></trkpt>
    <trkpt lat="49.148710" lon="20.039411"><ele>2059</ele></trkpt>
    <trkpt lat="49.148619" lon="20.039402"><ele>2056</ele></trkpt>
    <trkpt lat="49.148582" lon="20.039456"><ele>2054</ele></trkpt>
    <trkpt lat="49.148516" lon="20.039457"><ele>2050</ele></trkpt>
    <trkpt lat="49.148484" lon="20.039569"><ele>2047</ele></trkpt>
    <trkpt lat="49.148360" lon="20.039614"><ele>2041</ele></trkpt>
    <trkpt lat="49.148294" lon="20.039631"><ele>2038</ele></trkpt>
    <trkpt lat="49.148148" lon="20.039564"><ele>2030</ele></trkpt>
    <trkpt lat="49.147954" lon="20.039610"><ele>2021</ele></trkpt>
    <trkpt lat="49.147865" lon="20.039766"><ele>2017</ele></trkpt>
    <trkpt lat="49.147699" lon="20.039884"><ele>2008</ele></trkpt>
    <trkpt lat="49.147577" lon="20.039889"><ele>2001</ele></trkpt>
    <trkpt lat="49.147541" lon="20.039962"><ele>1999</ele></trkpt>
    <trkpt lat="49.147507" lon="20.039973"><ele>1997</ele></trkpt>
    <trkpt lat="49.147481" lon="20.039839"><ele>1997</ele></trkpt>
    <trkpt lat="49.147448" lon="20.039822"><ele>1995</ele></trkpt>
    <trkpt lat="49.147317" lon="20.040013"><ele>1987</ele></trkpt>
    <trkpt lat="49.147260" lon="20.039965"><ele>1984</ele></trkpt>
    <trkpt lat="49.147188" lon="20.040033"><ele>1979</ele></trkpt>
    <trkpt lat="49.147059" lon="20.040025"><ele>1972</ele></trkpt>
    <trkpt lat="49.146935" lon="20.040144"><ele>1963</ele></trkpt>
    <trkpt lat="49.146882" lon="20.040066"><ele>1960</ele></trkpt>
    <trkpt lat="49.146848" lon="20.040075"><ele>1958</ele></trkpt>
    <trkpt lat="49.146825" lon="20.040157"><ele>1955</ele></trkpt>
    <trkpt lat="49.146797" lon="20.040161"><ele>1953</ele></trkpt>
    <trkpt lat="49.146731" lon="20.040075"><ele>1949</ele></trkpt>
    <trkpt lat="49.146698" lon="20.040100"><ele>1946</ele></trkpt>
    <trkpt lat="49.146662" lon="20.040275"><ele>1943</ele></trkpt>
    <trkpt lat="49.146554" lon="20.040180"><ele>1936</ele></trkpt>
    <trkpt lat="49.146458" lon="20.040316"><ele>1930</ele></trkpt>
    <trkpt lat="49.146260" lon="20.040328"><ele>1918</ele></trkpt>
    <trkpt lat="49.146186" lon="20.040507"><ele>1913</ele></trkpt>
    <trkpt lat="49.146191" lon="20.040666"><ele>1911</ele></trkpt>
    <trkpt lat="49.146137" lon="20.040699"><ele>1908</ele></trkpt>
    <trkpt lat="49.146014" lon="20.040619"><ele>1904</ele></trkpt>
    <trkpt lat="49.145855" lon="20.040308"><ele>1897</ele></trkpt>
    <trkpt lat="49.145796" lon="20.040296"><ele>1894</ele></trkpt>
    <trkpt lat="49.145757" lon="20.040208"><ele>1891</ele></trkpt>
    <trkpt lat="49.145548" lon="20.040350"><ele>1882</ele></trkpt>
    <trkpt lat="49.145482" lon="20.040298"><ele>1879</ele></trkpt>
    <trkpt lat="49.145417" lon="20.040170"><ele>1874</ele></trkpt>
    <trkpt lat="49.145305" lon="20.040150"><ele>1868</ele></trkpt>
    <trkpt lat="49.145277" lon="20.039958"><ele>1865</ele></trkpt>
    <trkpt lat="49.145114" lon="20.039867"><ele>1855</ele></trkpt>
    <trkpt lat="49.144921" lon="20.040165"><ele>1848</ele></trkpt>
    <trkpt lat="49.144862" lon="20.040400"><ele>1847</ele></trkpt>
    <trkpt lat="49.144677" lon="20.040542"><ele>1840</ele></trkpt>
    <trkpt lat="49.144485" lon="20.040625"><ele>1832</ele></trkpt>
    <trkpt lat="49.144441" lon="20.040732"><ele>1830</ele></trkpt>
    <trkpt lat="49.144315" lon="20.040789"><ele>1826</ele></trkpt>
    <trkpt lat="49.144188" lon="20.040985"><ele>1822</ele></trkpt>
    <trkpt lat="49.144142" lon="20.040985"><ele>1821</ele></trkpt>
    <trkpt lat="49.144130" lon="20.041056"><ele>1821</ele></trkpt>
    <trkpt lat="49.143815" lon="20.041166"><ele>1814</ele></trkpt>
    <trkpt lat="49.143534" lon="20.041208"><ele>1807</ele></trkpt>
    <trkpt lat="49.143276" lon="20.041167"><ele>1800</ele></trkpt>
    <trkpt lat="49.139913" lon="20.044100"><ele>1681</ele></trkpt>
    <trkpt lat="49.139119" lon="20.044749"><ele>1660</ele></trkpt>
    <trkpt lat="49.135719" lon="20.047739"><ele>1586</ele></trkpt>
    <trkpt lat="49.135239" lon="20.048214"><ele>1572</ele></trkpt>
    <trkpt lat="49.134960" lon="20.048563"><ele>1567</ele></trkpt>
    <trkpt lat="49.134610" lon="20.049097"><ele>1558</ele></trkpt>
    <trkpt lat="49.133746" lon="20.049987"><ele>1544</ele></trkpt>
    <trkpt lat="49.133274" lon="20.050237"><ele>1537</ele></trkpt>
    <trkpt lat="49.132919" lon="20.050537"><ele>1532</ele></trkpt>
    <trkpt lat="49.131675" lon="20.051397"><ele>1525</ele></trkpt>
    <trkpt lat="49.130586" lon="20.052344"><ele>1503</ele></trkpt>
    <trkpt lat="49.130441" lon="20.052327"><ele>1500</ele></trkpt>
    <trkpt lat="49.130328" lon="20.052363"><ele>1497</ele></trkpt>
    <trkpt lat="49.129037" lon="20.053443"><ele>1461</ele></trkpt>
    <trkpt lat="49.127573" lon="20.054772"><ele>1434</ele></trkpt>
    <trkpt lat="49.127279" lon="20.054972"><ele>1426</ele></trkpt>
    <trkpt lat="49.125790" lon="20.056268"><ele>1395</ele></trkpt>
    <trkpt lat="49.125084" lon="20.056918"><ele>1366</ele></trkpt>
    <trkpt lat="49.124950" lon="20.057125"><ele>1362</ele></trkpt>
    <trkpt lat="49.124852" lon="20.057212"><ele>1358</ele></trkpt>
  </trkseg></trk>
</gpx>
