<?xml version="1.0" encoding="UTF-8"?>
<gpx version="1.1" creator="MounTour (OpenStreetMap)" xmlns="http://www.topografix.com/GPX/1/1">
  <metadata><name>Predná hoľa</name><copyright author="OpenStreetMap contributors"><license>https://opendatacommons.org/licenses/odbl/</license></copyright></metadata>
  <trk><name>Predná hoľa</name><trkseg>
    <trkpt lat="48.885529" lon="20.239480"><ele>915</ele></trkpt>
    <trkpt lat="48.885595" lon="20.239386"><ele>917</ele></trkpt>
    <trkpt lat="48.885677" lon="20.239141"><ele>922</ele></trkpt>
    <trkpt lat="48.885806" lon="20.238131"><ele>923</ele></trkpt>
    <trkpt lat="48.885766" lon="20.237845"><ele>922</ele></trkpt>
    <trkpt lat="48.885654" lon="20.237439"><ele>923</ele></trkpt>
    <trkpt lat="48.885626" lon="20.237097"><ele>923</ele></trkpt>
    <trkpt lat="48.885737" lon="20.235212"><ele>931</ele></trkpt>
    <trkpt lat="48.885796" lon="20.234978"><ele>930</ele></trkpt>
    <trkpt lat="48.886229" lon="20.233958"><ele>931</ele></trkpt>
    <trkpt lat="48.886329" lon="20.233648"><ele>932</ele></trkpt>
    <trkpt lat="48.886681" lon="20.231938"><ele>941</ele></trkpt>
    <trkpt lat="48.888006" lon="20.228686"><ele>942</ele></trkpt>
    <trkpt lat="48.888183" lon="20.228469"><ele>944</ele></trkpt>
    <trkpt lat="48.888674" lon="20.228023"><ele>948</ele></trkpt>
    <trkpt lat="48.889265" lon="20.227235"><ele>954</ele></trkpt>
    <trkpt lat="48.890376" lon="20.226124"><ele>960</ele></trkpt>
    <trkpt lat="48.890599" lon="20.225853"><ele>960</ele></trkpt>
    <trkpt lat="48.891636" lon="20.223787"><ele>973</ele></trkpt>
    <trkpt lat="48.891707" lon="20.223570"><ele>973</ele></trkpt>
    <trkpt lat="48.891802" lon="20.223016"><ele>976</ele></trkpt>
    <trkpt lat="48.891882" lon="20.222778"><ele>976</ele></trkpt>
    <trkpt lat="48.891999" lon="20.222578"><ele>975</ele></trkpt>
    <trkpt lat="48.892409" lon="20.222164"><ele>964</ele></trkpt>
    <trkpt lat="48.892780" lon="20.221540"><ele>969</ele></trkpt>
    <trkpt lat="48.892863" lon="20.221261"><ele>974</ele></trkpt>
    <trkpt lat="48.892892" lon="20.220952"><ele>975</ele></trkpt>
    <trkpt lat="48.892855" lon="20.217975"><ele>984</ele></trkpt>
    <trkpt lat="48.892964" lon="20.217276"><ele>986</ele></trkpt>
    <trkpt lat="48.893307" lon="20.216121"><ele>987</ele></trkpt>
    <trkpt lat="48.894160" lon="20.214765"><ele>998</ele></trkpt>
    <trkpt lat="48.894319" lon="20.214406"><ele>998</ele></trkpt>
    <trkpt lat="48.894887" lon="20.212887"><ele>1002</ele></trkpt>
    <trkpt lat="48.895207" lon="20.211846"><ele>1002</ele></trkpt>
    <trkpt lat="48.895234" lon="20.211589"><ele>1002</ele></trkpt>
    <trkpt lat="48.895193" lon="20.211316"><ele>1000</ele></trkpt>
    <trkpt lat="48.894849" lon="20.210423"><ele>997</ele></trkpt>
    <trkpt lat="48.894703" lon="20.209912"><ele>1000</ele></trkpt>
    <trkpt lat="48.894544" lon="20.209608"><ele>1007</ele></trkpt>
    <trkpt lat="48.894166" lon="20.209182"><ele>1012</ele></trkpt>
    <trkpt lat="48.894042" lon="20.208879"><ele>1010</ele></trkpt>
    <trkpt lat="48.893990" lon="20.208587"><ele>1011</ele></trkpt>
    <trkpt lat="48.894003" lon="20.207166"><ele>1025</ele></trkpt>
    <trkpt lat="48.893921" lon="20.206373"><ele>1029</ele></trkpt>
    <trkpt lat="48.893712" lon="20.204894"><ele>1033</ele></trkpt>
    <trkpt lat="48.893678" lon="20.204415"><ele>1037</ele></trkpt>
    <trkpt lat="48.893767" lon="20.201253"><ele>1051</ele></trkpt>
    <trkpt lat="48.893817" lon="20.200929"><ele>1056</ele></trkpt>
    <trkpt lat="48.894061" lon="20.200314"><ele>1062</ele></trkpt>
    <trkpt lat="48.894194" lon="20.199727"><ele>1060</ele></trkpt>
    <trkpt lat="48.894231" lon="20.199378"><ele>1064</ele></trkpt>
    <trkpt lat="48.894213" lon="20.197745"><ele>1062</ele></trkpt>
    <trkpt lat="48.894189" lon="20.197483"><ele>1064</ele></trkpt>
    <trkpt lat="48.894120" lon="20.197253"><ele>1065</ele></trkpt>
    <trkpt lat="48.893875" lon="20.196793"><ele>1074</ele></trkpt>
    <trkpt lat="48.893807" lon="20.196591"><ele>1076</ele></trkpt>
    <trkpt lat="48.893785" lon="20.196322"><ele>1076</ele></trkpt>
    <trkpt lat="48.893931" lon="20.193542"><ele>1088</ele></trkpt>
    <trkpt lat="48.894063" lon="20.192254"><ele>1096</ele></trkpt>
    <trkpt lat="48.894120" lon="20.192016"><ele>1098</ele></trkpt>
    <trkpt lat="48.894672" lon="20.190551"><ele>1108</ele></trkpt>
    <trkpt lat="48.894825" lon="20.190251"><ele>1111</ele></trkpt>
    <trkpt lat="48.895508" lon="20.189183"><ele>1112</ele></trkpt>
    <trkpt lat="48.895750" lon="20.188602"><ele>1106</ele></trkpt>
    <trkpt lat="48.896014" lon="20.187717"><ele>1114</ele></trkpt>
    <trkpt lat="48.896015" lon="20.186791"><ele>1128</ele></trkpt>
    <trkpt lat="48.896196" lon="20.186253"><ele>1129</ele></trkpt>
    <trkpt lat="48.896579" lon="20.185711"><ele>1144</ele></trkpt>
    <trkpt lat="48.897130" lon="20.185050"><ele>1150</ele></trkpt>
    <trkpt lat="48.897742" lon="20.184536"><ele>1155</ele></trkpt>
    <trkpt lat="48.897963" lon="20.184444"><ele>1156</ele></trkpt>
    <trkpt lat="48.898482" lon="20.184391"><ele>1157</ele></trkpt>
    <trkpt lat="48.898928" lon="20.184157"><ele>1168</ele></trkpt>
    <trkpt lat="48.899489" lon="20.183929"><ele>1177</ele></trkpt>
    <trkpt lat="48.899852" lon="20.183982"><ele>1177</ele></trkpt>
    <trkpt lat="48.900261" lon="20.184165"><ele>1180</ele></trkpt>
    <trkpt lat="48.900515" lon="20.184087"><ele>1188</ele></trkpt>
    <trkpt lat="48.900999" lon="20.183756"><ele>1193</ele></trkpt>
    <trkpt lat="48.901504" lon="20.183760"><ele>1203</ele></trkpt>
    <trkpt lat="48.901556" lon="20.183663"><ele>1204</ele></trkpt>
    <trkpt lat="48.901551" lon="20.183487"><ele>1207</ele></trkpt>
    <trkpt lat="48.901353" lon="20.183134"><ele>1210</ele></trkpt>
    <trkpt lat="48.901221" lon="20.182685"><ele>1212</ele></trkpt>
    <trkpt lat="48.901046" lon="20.182412"><ele>1209</ele></trkpt>
    <trkpt lat="48.901004" lon="20.182288"><ele>1211</ele></trkpt>
    <trkpt lat="48.901037" lon="20.182180"><ele>1212</ele></trkpt>
    <trkpt lat="48.901109" lon="20.182148"><ele>1212</ele></trkpt>
    <trkpt lat="48.901199" lon="20.182195"><ele>1215</ele></trkpt>
    <trkpt lat="48.901589" lon="20.182588"><ele>1230</ele></trkpt>
    <trkpt lat="48.901938" lon="20.183164"><ele>1232</ele></trkpt>
    <trkpt lat="48.902940" lon="20.183411"><ele>1246</ele></trkpt>
    <trkpt lat="48.903037" lon="20.183518"><ele>1245</ele></trkpt>
    <trkpt lat="48.903072" lon="20.183655"><ele>1243</ele></trkpt>
    <trkpt lat="48.903098" lon="20.183811"><ele>1245</ele></trkpt>
    <trkpt lat="48.903081" lon="20.183996"><ele>1245</ele></trkpt>
    <trkpt lat="48.902878" lon="20.184575"><ele>1245</ele></trkpt>
    <trkpt lat="48.902730" lon="20.185243"><ele>1249</ele></trkpt>
    <trkpt lat="48.902638" lon="20.185399"><ele>1249</ele></trkpt>
    <trkpt lat="48.902355" lon="20.185705"><ele>1244</ele></trkpt>
    <trkpt lat="48.902369" lon="20.185868"><ele>1246</ele></trkpt>
    <trkpt lat="48.902140" lon="20.186295"><ele>1240</ele></trkpt>
    <trkpt lat="48.902236" lon="20.186386"><ele>1243</ele></trkpt>
    <trkpt lat="48.903135" lon="20.187653"><ele>1265</ele></trkpt>
    <trkpt lat="48.903289" lon="20.187817"><ele>1268</ele></trkpt>
    <trkpt lat="48.903459" lon="20.187946"><ele>1273</ele></trkpt>
    <trkpt lat="48.903926" lon="20.188045"><ele>1287</ele></trkpt>
    <trkpt lat="48.904430" lon="20.188340"><ele>1299</ele></trkpt>
    <trkpt lat="48.904723" lon="20.188748"><ele>1301</ele></trkpt>
    <trkpt lat="48.905043" lon="20.189094"><ele>1308</ele></trkpt>
    <trkpt lat="48.905308" lon="20.189556"><ele>1314</ele></trkpt>
    <trkpt lat="48.905407" lon="20.189684"><ele>1316</ele></trkpt>
    <trkpt lat="48.905501" lon="20.189736"><ele>1318</ele></trkpt>
    <trkpt lat="48.906143" lon="20.189884"><ele>1329</ele></trkpt>
    <trkpt lat="48.906951" lon="20.189627"><ele>1345</ele></trkpt>
    <trkpt lat="48.907240" lon="20.189159"><ele>1359</ele></trkpt>
    <trkpt lat="48.907418" lon="20.189017"><ele>1365</ele></trkpt>
    <trkpt lat="48.907566" lon="20.188983"><ele>1367</ele></trkpt>
    <trkpt lat="48.908109" lon="20.189005"><ele>1372</ele></trkpt>
    <trkpt lat="48.908435" lon="20.189172"><ele>1375</ele></trkpt>
    <trkpt lat="48.909005" lon="20.189112"><ele>1388</ele></trkpt>
    <trkpt lat="48.909082" lon="20.189028"><ele>1389</ele></trkpt>
    <trkpt lat="48.909242" lon="20.188657"><ele>1395</ele></trkpt>
    <trkpt lat="48.909542" lon="20.188355"><ele>1402</ele></trkpt>
    <trkpt lat="48.909608" lon="20.188055"><ele>1409</ele></trkpt>
    <trkpt lat="48.909813" lon="20.187812"><ele>1417</ele></trkpt>
    <trkpt lat="48.910071" lon="20.187719"><ele>1419</ele></trkpt>
    <trkpt lat="48.910161" lon="20.187644"><ele>1420</ele></trkpt>
    <trkpt lat="48.910771" lon="20.187544"><ele>1427</ele></trkpt>
    <trkpt lat="48.911171" lon="20.187319"><ele>1431</ele></trkpt>
    <trkpt lat="48.911523" lon="20.187327"><ele>1437</ele></trkpt>
    <trkpt lat="48.911767" lon="20.187249"><ele>1440</ele></trkpt>
    <trkpt lat="48.912738" lon="20.186651"><ele>1447</ele></trkpt>
    <trkpt lat="48.912888" lon="20.186436"><ele>1444</ele></trkpt>
    <trkpt lat="48.913133" lon="20.186632"><ele>1443</ele></trkpt>
    <trkpt lat="48.913306" lon="20.187560"><ele>1450</ele></trkpt>
    <trkpt lat="48.913926" lon="20.188944"><ele>1457</ele></trkpt>
    <trkpt lat="48.914335" lon="20.190425"><ele>1468</ele></trkpt>
    <trkpt lat="48.914398" lon="20.191594"><ele>1475</ele></trkpt>
    <trkpt lat="48.915033" lon="20.194019"><ele>1501</ele></trkpt>
    <trkpt lat="48.915350" lon="20.195854"><ele>1515</ele></trkpt>
    <trkpt lat="48.915470" lon="20.196841"><ele>1521</ele></trkpt>
    <trkpt lat="48.915329" lon="20.197863"><ele>1522</ele></trkpt>
    <trkpt lat="48.915065" lon="20.198023"><ele>1519</ele></trkpt>
    <trkpt lat="48.914758" lon="20.198811"><ele>1523</ele></trkpt>
    <trkpt lat="48.914771" lon="20.199107"><ele>1526</ele></trkpt>
    <trkpt lat="48.914872" lon="20.199506"><ele>1528</ele></trkpt>
    <trkpt lat="48.914786" lon="20.199833"><ele>1532</ele></trkpt>
    <trkpt lat="48.914716" lon="20.199887"><ele>1533</ele></trkpt>
    <trkpt lat="48.914720" lon="20.200266"><ele>1534</ele></trkpt>
    <trkpt lat="48.914662" lon="20.200357"><ele>1535</ele></trkpt>
    <trkpt lat="48.914559" lon="20.200368"><ele>1535</ele></trkpt>
    <trkpt lat="48.914492" lon="20.200475"><ele>1537</ele></trkpt>
    <trkpt lat="48.914477" lon="20.200605"><ele>1538</ele></trkpt>
    <trkpt lat="48.914245" lon="20.201213"><ele>1539</ele></trkpt>
    <trkpt lat="48.914115" lon="20.201358"><ele>1540</ele></trkpt>
    <trkpt lat="48.913778" lon="20.201870"><ele>1543</ele></trkpt>
    <trkpt lat="48.913723" lon="20.201983"><ele>1542</ele></trkpt>
    <trkpt lat="48.913702" lon="20.202304"><ele>1543</ele></trkpt>
    <trkpt lat="48.913723" lon="20.201983"><ele>1542</ele></trkpt>
    <trkpt lat="48.913778" lon="20.201870"><ele>1543</ele></trkpt>
    <trkpt lat="48.914115" lon="20.201358"><ele>1540</ele></trkpt>
    <trkpt lat="48.914245" lon="20.201213"><ele>1539</ele></trkpt>
    <trkpt lat="48.914477" lon="20.200605"><ele>1538</ele></trkpt>
    <trkpt lat="48.914492" lon="20.200475"><ele>1537</ele></trkpt>
    <trkpt lat="48.914559" lon="20.200368"><ele>1535</ele></trkpt>
    <trkpt lat="48.914662" lon="20.200357"><ele>1535</ele></trkpt>
    <trkpt lat="48.914720" lon="20.200266"><ele>1534</ele></trkpt>
    <trkpt lat="48.914716" lon="20.199887"><ele>1533</ele></trkpt>
    <trkpt lat="48.914786" lon="20.199833"><ele>1532</ele></trkpt>
    <trkpt lat="48.914872" lon="20.199506"><ele>1528</ele></trkpt>
    <trkpt lat="48.914771" lon="20.199107"><ele>1526</ele></trkpt>
    <trkpt lat="48.914758" lon="20.198811"><ele>1523</ele></trkpt>
    <trkpt lat="48.915065" lon="20.198023"><ele>1519</ele></trkpt>
    <trkpt lat="48.915329" lon="20.197863"><ele>1522</ele></trkpt>
    <trkpt lat="48.915470" lon="20.196841"><ele>1521</ele></trkpt>
    <trkpt lat="48.915350" lon="20.195854"><ele>1515</ele></trkpt>
    <trkpt lat="48.915033" lon="20.194019"><ele>1501</ele></trkpt>
    <trkpt lat="48.914398" lon="20.191594"><ele>1475</ele></trkpt>
    <trkpt lat="48.914335" lon="20.190425"><ele>1468</ele></trkpt>
    <trkpt lat="48.913926" lon="20.188944"><ele>1457</ele></trkpt>
    <trkpt lat="48.913306" lon="20.187560"><ele>1450</ele></trkpt>
    <trkpt lat="48.913133" lon="20.186632"><ele>1443</ele></trkpt>
    <trkpt lat="48.913041" lon="20.186536"><ele>1443</ele></trkpt>
    <trkpt lat="48.912888" lon="20.186436"><ele>1444</ele></trkpt>
    <trkpt lat="48.912738" lon="20.186651"><ele>1447</ele></trkpt>
    <trkpt lat="48.911767" lon="20.187249"><ele>1440</ele></trkpt>
    <trkpt lat="48.911523" lon="20.187327"><ele>1437</ele></trkpt>
    <trkpt lat="48.911171" lon="20.187319"><ele>1431</ele></trkpt>
    <trkpt lat="48.910771" lon="20.187544"><ele>1427</ele></trkpt>
    <trkpt lat="48.910161" lon="20.187644"><ele>1420</ele></trkpt>
    <trkpt lat="48.910071" lon="20.187719"><ele>1419</ele></trkpt>
    <trkpt lat="48.909813" lon="20.187812"><ele>1417</ele></trkpt>
    <trkpt lat="48.909608" lon="20.188055"><ele>1409</ele></trkpt>
    <trkpt lat="48.909542" lon="20.188355"><ele>1402</ele></trkpt>
    <trkpt lat="48.909242" lon="20.188657"><ele>1395</ele></trkpt>
    <trkpt lat="48.909082" lon="20.189028"><ele>1389</ele></trkpt>
    <trkpt lat="48.909005" lon="20.189112"><ele>1388</ele></trkpt>
    <trkpt lat="48.908435" lon="20.189172"><ele>1375</ele></trkpt>
    <trkpt lat="48.908109" lon="20.189005"><ele>1372</ele></trkpt>
    <trkpt lat="48.907566" lon="20.188983"><ele>1367</ele></trkpt>
    <trkpt lat="48.907418" lon="20.189017"><ele>1365</ele></trkpt>
    <trkpt lat="48.907240" lon="20.189159"><ele>1359</ele></trkpt>
    <trkpt lat="48.906951" lon="20.189627"><ele>1345</ele></trkpt>
    <trkpt lat="48.906143" lon="20.189884"><ele>1329</ele></trkpt>
    <trkpt lat="48.905501" lon="20.189736"><ele>1318</ele></trkpt>
    <trkpt lat="48.905407" lon="20.189684"><ele>1316</ele></trkpt>
    <trkpt lat="48.905308" lon="20.189556"><ele>1314</ele></trkpt>
    <trkpt lat="48.905043" lon="20.189094"><ele>1308</ele></trkpt>
    <trkpt lat="48.904723" lon="20.188748"><ele>1301</ele></trkpt>
    <trkpt lat="48.904430" lon="20.188340"><ele>1299</ele></trkpt>
    <trkpt lat="48.903926" lon="20.188045"><ele>1287</ele></trkpt>
    <trkpt lat="48.903459" lon="20.187946"><ele>1273</ele></trkpt>
    <trkpt lat="48.903289" lon="20.187817"><ele>1268</ele></trkpt>
    <trkpt lat="48.903135" lon="20.187653"><ele>1265</ele></trkpt>
    <trkpt lat="48.902236" lon="20.186386"><ele>1243</ele></trkpt>
    <trkpt lat="48.902140" lon="20.186295"><ele>1240</ele></trkpt>
    <trkpt lat="48.902369" lon="20.185868"><ele>1246</ele></trkpt>
    <trkpt lat="48.902355" lon="20.185705"><ele>1244</ele></trkpt>
    <trkpt lat="48.902638" lon="20.185399"><ele>1249</ele></trkpt>
    <trkpt lat="48.902730" lon="20.185243"><ele>1249</ele></trkpt>
    <trkpt lat="48.902878" lon="20.184575"><ele>1245</ele></trkpt>
    <trkpt lat="48.903081" lon="20.183996"><ele>1245</ele></trkpt>
    <trkpt lat="48.903098" lon="20.183811"><ele>1245</ele></trkpt>
    <trkpt lat="48.903072" lon="20.183655"><ele>1243</ele></trkpt>
    <trkpt lat="48.903037" lon="20.183518"><ele>1245</ele></trkpt>
    <trkpt lat="48.902940" lon="20.183411"><ele>1246</ele></trkpt>
    <trkpt lat="48.901938" lon="20.183164"><ele>1232</ele></trkpt>
    <trkpt lat="48.901589" lon="20.182588"><ele>1230</ele></trkpt>
    <trkpt lat="48.901199" lon="20.182195"><ele>1215</ele></trkpt>
    <trkpt lat="48.901109" lon="20.182148"><ele>1212</ele></trkpt>
    <trkpt lat="48.901037" lon="20.182180"><ele>1212</ele></trkpt>
    <trkpt lat="48.901004" lon="20.182288"><ele>1211</ele></trkpt>
    <trkpt lat="48.901046" lon="20.182412"><ele>1209</ele></trkpt>
    <trkpt lat="48.901221" lon="20.182685"><ele>1212</ele></trkpt>
    <trkpt lat="48.901353" lon="20.183134"><ele>1210</ele></trkpt>
    <trkpt lat="48.901551" lon="20.183487"><ele>1207</ele></trkpt>
    <trkpt lat="48.901556" lon="20.183663"><ele>1204</ele></trkpt>
    <trkpt lat="48.901504" lon="20.183760"><ele>1203</ele></trkpt>
    <trkpt lat="48.900999" lon="20.183756"><ele>1193</ele></trkpt>
    <trkpt lat="48.900515" lon="20.184087"><ele>1188</ele></trkpt>
    <trkpt lat="48.900261" lon="20.184165"><ele>1180</ele></trkpt>
    <trkpt lat="48.899852" lon="20.183982"><ele>1177</ele></trkpt>
    <trkpt lat="48.899489" lon="20.183929"><ele>1177</ele></trkpt>
    <trkpt lat="48.898928" lon="20.184157"><ele>1168</ele></trkpt>
    <trkpt lat="48.898482" lon="20.184391"><ele>1157</ele></trkpt>
    <trkpt lat="48.897963" lon="20.184444"><ele>1156</ele></trkpt>
    <trkpt lat="48.897742" lon="20.184536"><ele>1155</ele></trkpt>
    <trkpt lat="48.897130" lon="20.185050"><ele>1150</ele></trkpt>
    <trkpt lat="48.896579" lon="20.185711"><ele>1144</ele></trkpt>
    <trkpt lat="48.896196" lon="20.186253"><ele>1129</ele></trkpt>
    <trkpt lat="48.896015" lon="20.186791"><ele>1128</ele></trkpt>
    <trkpt lat="48.896014" lon="20.187717"><ele>1114</ele></trkpt>
    <trkpt lat="48.895750" lon="20.188602"><ele>1106</ele></trkpt>
    <trkpt lat="48.895508" lon="20.189183"><ele>1112</ele></trkpt>
    <trkpt lat="48.894825" lon="20.190251"><ele>1111</ele></trkpt>
    <trkpt lat="48.894672" lon="20.190551"><ele>1108</ele></trkpt>
    <trkpt lat="48.894120" lon="20.192016"><ele>1098</ele></trkpt>
    <trkpt lat="48.894063" lon="20.192254"><ele>1096</ele></trkpt>
    <trkpt lat="48.893931" lon="20.193542"><ele>1088</ele></trkpt>
    <trkpt lat="48.893785" lon="20.196322"><ele>1076</ele></trkpt>
    <trkpt lat="48.893807" lon="20.196591"><ele>1076</ele></trkpt>
    <trkpt lat="48.893875" lon="20.196793"><ele>1074</ele></trkpt>
    <trkpt lat="48.894120" lon="20.197253"><ele>1065</ele></trkpt>
    <trkpt lat="48.894189" lon="20.197483"><ele>1064</ele></trkpt>
    <trkpt lat="48.894213" lon="20.197745"><ele>1062</ele></trkpt>
    <trkpt lat="48.894231" lon="20.199378"><ele>1064</ele></trkpt>
    <trkpt lat="48.894194" lon="20.199727"><ele>1060</ele></trkpt>
    <trkpt lat="48.894061" lon="20.200314"><ele>1062</ele></trkpt>
    <trkpt lat="48.893817" lon="20.200929"><ele>1056</ele></trkpt>
    <trkpt lat="48.893767" lon="20.201253"><ele>1051</ele></trkpt>
    <trkpt lat="48.893678" lon="20.204415"><ele>1037</ele></trkpt>
    <trkpt lat="48.893712" lon="20.204894"><ele>1033</ele></trkpt>
    <trkpt lat="48.893921" lon="20.206373"><ele>1029</ele></trkpt>
    <trkpt lat="48.894003" lon="20.207166"><ele>1025</ele></trkpt>
    <trkpt lat="48.893990" lon="20.208587"><ele>1011</ele></trkpt>
    <trkpt lat="48.894042" lon="20.208879"><ele>1010</ele></trkpt>
    <trkpt lat="48.894166" lon="20.209182"><ele>1012</ele></trkpt>
    <trkpt lat="48.894544" lon="20.209608"><ele>1007</ele></trkpt>
    <trkpt lat="48.894703" lon="20.209912"><ele>1000</ele></trkpt>
    <trkpt lat="48.894849" lon="20.210423"><ele>997</ele></trkpt>
    <trkpt lat="48.895193" lon="20.211316"><ele>1000</ele></trkpt>
    <trkpt lat="48.895234" lon="20.211589"><ele>1002</ele></trkpt>
    <trkpt lat="48.895207" lon="20.211846"><ele>1002</ele></trkpt>
    <trkpt lat="48.894887" lon="20.212887"><ele>1002</ele></trkpt>
    <trkpt lat="48.894319" lon="20.214406"><ele>998</ele></trkpt>
    <trkpt lat="48.894160" lon="20.214765"><ele>998</ele></trkpt>
    <trkpt lat="48.893307" lon="20.216121"><ele>987</ele></trkpt>
    <trkpt lat="48.892964" lon="20.217276"><ele>986</ele></trkpt>
    <trkpt lat="48.892855" lon="20.217975"><ele>984</ele></trkpt>
    <trkpt lat="48.892892" lon="20.220952"><ele>975</ele></trkpt>
    <trkpt lat="48.892863" lon="20.221261"><ele>974</ele></trkpt>
    <trkpt lat="48.892780" lon="20.221540"><ele>969</ele></trkpt>
    <trkpt lat="48.892409" lon="20.222164"><ele>964</ele></trkpt>
    <trkpt lat="48.891999" lon="20.222578"><ele>975</ele></trkpt>
    <trkpt lat="48.891882" lon="20.222778"><ele>976</ele></trkpt>
    <trkpt lat="48.891802" lon="20.223016"><ele>976</ele></trkpt>
    <trkpt lat="48.891707" lon="20.223570"><ele>973</ele></trkpt>
    <trkpt lat="48.891636" lon="20.223787"><ele>973</ele></trkpt>
    <trkpt lat="48.890599" lon="20.225853"><ele>960</ele></trkpt>
    <trkpt lat="48.890376" lon="20.226124"><ele>960</ele></trkpt>
    <trkpt lat="48.889265" lon="20.227235"><ele>954</ele></trkpt>
    <trkpt lat="48.888674" lon="20.228023"><ele>948</ele></trkpt>
    <trkpt lat="48.888183" lon="20.228469"><ele>944</ele></trkpt>
    <trkpt lat="48.888006" lon="20.228686"><ele>942</ele></trkpt>
    <trkpt lat="48.886681" lon="20.231938"><ele>941</ele></trkpt>
    <trkpt lat="48.886329" lon="20.233648"><ele>932</ele></trkpt>
    <trkpt lat="48.886229" lon="20.233958"><ele>931</ele></trkpt>
    <trkpt lat="48.885796" lon="20.234978"><ele>930</ele></trkpt>
    <trkpt lat="48.885737" lon="20.235212"><ele>931</ele></trkpt>
    <trkpt lat="48.885626" lon="20.237097"><ele>923</ele></trkpt>
    <trkpt lat="48.885654" lon="20.237439"><ele>923</ele></trkpt>
    <trkpt lat="48.885766" lon="20.237845"><ele>922</ele></trkpt>
    <trkpt lat="48.885806" lon="20.238131"><ele>923</ele></trkpt>
    <trkpt lat="48.885677" lon="20.239141"><ele>922</ele></trkpt>
    <trkpt lat="48.885595" lon="20.239386"><ele>917</ele></trkpt>
    <trkpt lat="48.885529" lon="20.239480"><ele>915</ele></trkpt>
  </trkseg></trk>
</gpx>
