<?xml version="1.0" encoding="UTF-8"?>
<gpx version="1.1" creator="MounTour (OpenStreetMap)" xmlns="http://www.topografix.com/GPX/1/1">
  <metadata><name>Rozhľadňa Schulerloch</name><copyright author="OpenStreetMap contributors"><license>https://opendatacommons.org/licenses/odbl/</license></copyright></metadata>
  <trk><name>Rozhľadňa Schulerloch</name><trkseg>
    <trkpt lat="48.928019" lon="20.569779"><ele>466</ele></trkpt>
    <trkpt lat="48.928084" lon="20.569872"><ele>466</ele></trkpt>
    <trkpt lat="48.927575" lon="20.570007"><ele>465</ele></trkpt>
    <trkpt lat="48.926705" lon="20.569992"><ele>463</ele></trkpt>
    <trkpt lat="48.926069" lon="20.570054"><ele>462</ele></trkpt>
    <trkpt lat="48.925648" lon="20.570167"><ele>462</ele></trkpt>
    <trkpt lat="48.925118" lon="20.570219"><ele>464</ele></trkpt>
    <trkpt lat="48.923963" lon="20.570191"><ele>467</ele></trkpt>
    <trkpt lat="48.923446" lon="20.570238"><ele>468</ele></trkpt>
    <trkpt lat="48.922859" lon="20.570004"><ele>466</ele></trkpt>
    <trkpt lat="48.922558" lon="20.569943"><ele>464</ele></trkpt>
    <trkpt lat="48.922367" lon="20.569821"><ele>463</ele></trkpt>
    <trkpt lat="48.922090" lon="20.569510"><ele>462</ele></trkpt>
    <trkpt lat="48.921690" lon="20.568791"><ele>463</ele></trkpt>
    <trkpt lat="48.920971" lon="20.568281"><ele>464</ele></trkpt>
    <trkpt lat="48.920716" lon="20.568247"><ele>465</ele></trkpt>
    <trkpt lat="48.920311" lon="20.568367"><ele>469</ele></trkpt>
    <trkpt lat="48.920167" lon="20.568222"><ele>471</ele></trkpt>
    <trkpt lat="48.920062" lon="20.568185"><ele>472</ele></trkpt>
    <trkpt lat="48.919707" lon="20.568269"><ele>475</ele></trkpt>
    <trkpt lat="48.919281" lon="20.568147"><ele>480</ele></trkpt>
    <trkpt lat="48.918174" lon="20.566937"><ele>496</ele></trkpt>
    <trkpt lat="48.916664" lon="20.564519"><ele>519</ele></trkpt>
    <trkpt lat="48.916538" lon="20.564240"><ele>525</ele></trkpt>
    <trkpt lat="48.916244" lon="20.564056"><ele>532</ele></trkpt>
    <trkpt lat="48.916184" lon="20.564104"><ele>533</ele></trkpt>
    <trkpt lat="48.916165" lon="20.564242"><ele>532</ele></trkpt>
    <trkpt lat="48.915985" lon="20.564625"><ele>536</ele></trkpt>
    <trkpt lat="48.915265" lon="20.565753"><ele>550</ele></trkpt>
    <trkpt lat="48.915001" lon="20.566141"><ele>552</ele></trkpt>
    <trkpt lat="48.914643" lon="20.566380"><ele>552</ele></trkpt>
    <trkpt lat="48.914612" lon="20.566487"><ele>552</ele></trkpt>
    <trkpt lat="48.914511" lon="20.566244"><ele>555</ele></trkpt>
    <trkpt lat="48.914442" lon="20.565932"><ele>563</ele></trkpt>
    <trkpt lat="48.914408" lon="20.565584"><ele>568</ele></trkpt>
    <trkpt lat="48.914323" lon="20.565235"><ele>575</ele></trkpt>
    <trkpt lat="48.914304" lon="20.564933"><ele>579</ele></trkpt>
    <trkpt lat="48.914161" lon="20.564416"><ele>587</ele></trkpt>
    <trkpt lat="48.914057" lon="20.563864"><ele>592</ele></trkpt>
    <trkpt lat="48.914047" lon="20.563587"><ele>595</ele></trkpt>
    <trkpt lat="48.913897" lon="20.563264"><ele>600</ele></trkpt>
    <trkpt lat="48.913774" lon="20.562333"><ele>611</ele></trkpt>
    <trkpt lat="48.913687" lon="20.561914"><ele>614</ele></trkpt>
    <trkpt lat="48.913541" lon="20.561575"><ele>618</ele></trkpt>
    <trkpt lat="48.913517" lon="20.561298"><ele>620</ele></trkpt>
    <trkpt lat="48.913663" lon="20.560833"><ele>624</ele></trkpt>
    <trkpt lat="48.913831" lon="20.560041"><ele>627</ele></trkpt>
    <trkpt lat="48.914023" lon="20.559496"><ele>627</ele></trkpt>
    <trkpt lat="48.914055" lon="20.559203"><ele>629</ele></trkpt>
    <trkpt lat="48.914017" lon="20.558297"><ele>639</ele></trkpt>
    <trkpt lat="48.913889" lon="20.557804"><ele>638</ele></trkpt>
    <trkpt lat="48.913895" lon="20.557548"><ele>639</ele></trkpt>
    <trkpt lat="48.913976" lon="20.557169"><ele>640</ele></trkpt>
    <trkpt lat="48.914003" lon="20.556212"><ele>642</ele></trkpt>
    <trkpt lat="48.913952" lon="20.555955"><ele>643</ele></trkpt>
    <trkpt lat="48.913790" lon="20.555490"><ele>644</ele></trkpt>
    <trkpt lat="48.913952" lon="20.555955"><ele>643</ele></trkpt>
    <trkpt lat="48.914003" lon="20.556212"><ele>642</ele></trkpt>
    <trkpt lat="48.913976" lon="20.557169"><ele>640</ele></trkpt>
    <trkpt lat="48.913895" lon="20.557548"><ele>639</ele></trkpt>
    <trkpt lat="48.913889" lon="20.557804"><ele>638</ele></trkpt>
    <trkpt lat="48.914017" lon="20.558297"><ele>639</ele></trkpt>
    <trkpt lat="48.914055" lon="20.559203"><ele>629</ele></trkpt>
    <trkpt lat="48.914023" lon="20.559496"><ele>627</ele></trkpt>
    <trkpt lat="48.913831" lon="20.560041"><ele>627</ele></trkpt>
    <trkpt lat="48.913663" lon="20.560833"><ele>624</ele></trkpt>
    <trkpt lat="48.913517" lon="20.561298"><ele>620</ele></trkpt>
    <trkpt lat="48.913541" lon="20.561575"><ele>618</ele></trkpt>
    <trkpt lat="48.913687" lon="20.561914"><ele>614</ele></trkpt>
    <trkpt lat="48.913774" lon="20.562333"><ele>611</ele></trkpt>
    <trkpt lat="48.913897" lon="20.563264"><ele>600</ele></trkpt>
    <trkpt lat="48.914047" lon="20.563587"><ele>595</ele></trkpt>
    <trkpt lat="48.914057" lon="20.563864"><ele>592</ele></trkpt>
    <trkpt lat="48.914161" lon="20.564416"><ele>587</ele></trkpt>
    <trkpt lat="48.914304" lon="20.564933"><ele>579</ele></trkpt>
    <trkpt lat="48.914323" lon="20.565235"><ele>575</ele></trkpt>
    <trkpt lat="48.914408" lon="20.565584"><ele>568</ele></trkpt>
    <trkpt lat="48.914442" lon="20.565932"><ele>563</ele></trkpt>
    <trkpt lat="48.914511" lon="20.566244"><ele>555</ele></trkpt>
    <trkpt lat="48.914612" lon="20.566487"><ele>552</ele></trkpt>
    <trkpt lat="48.914643" lon="20.566380"><ele>552</ele></trkpt>
    <trkpt lat="48.915001" lon="20.566141"><ele>552</ele></trkpt>
    <trkpt lat="48.915265" lon="20.565753"><ele>550</ele></trkpt>
    <trkpt lat="48.915985" lon="20.564625"><ele>536</ele></trkpt>
    <trkpt lat="48.916165" lon="20.564242"><ele>532</ele></trkpt>
    <trkpt lat="48.916184" lon="20.564104"><ele>533</ele></trkpt>
    <trkpt lat="48.916244" lon="20.564056"><ele>532</ele></trkpt>
    <trkpt lat="48.916538" lon="20.564240"><ele>525</ele></trkpt>
    <trkpt lat="48.916664" lon="20.564519"><ele>519</ele></trkpt>
    <trkpt lat="48.918174" lon="20.566937"><ele>496</ele></trkpt>
    <trkpt lat="48.919281" lon="20.568147"><ele>480</ele></trkpt>
    <trkpt lat="48.919707" lon="20.568269"><ele>475</ele></trkpt>
    <trkpt lat="48.920062" lon="20.568185"><ele>472</ele></trkpt>
    <trkpt lat="48.920167" lon="20.568222"><ele>471</ele></trkpt>
    <trkpt lat="48.920311" lon="20.568367"><ele>469</ele></trkpt>
    <trkpt lat="48.920716" lon="20.568247"><ele>465</ele></trkpt>
    <trkpt lat="48.920971" lon="20.568281"><ele>464</ele></trkpt>
    <trkpt lat="48.921690" lon="20.568791"><ele>463</ele></trkpt>
    <trkpt lat="48.922090" lon="20.569510"><ele>462</ele></trkpt>
    <trkpt lat="48.922367" lon="20.569821"><ele>463</ele></trkpt>
    <trkpt lat="48.922558" lon="20.569943"><ele>464</ele></trkpt>
    <trkpt lat="48.922859" lon="20.570004"><ele>466</ele></trkpt>
    <trkpt lat="48.923446" lon="20.570238"><ele>468</ele></trkpt>
    <trkpt lat="48.923963" lon="20.570191"><ele>467</ele></trkpt>
    <trkpt lat="48.925118" lon="20.570219"><ele>464</ele></trkpt>
    <trkpt lat="48.925648" lon="20.570167"><ele>462</ele></trkpt>
    <trkpt lat="48.926069" lon="20.570054"><ele>462</ele></trkpt>
    <trkpt lat="48.926705" lon="20.569992"><ele>463</ele></trkpt>
    <trkpt lat="48.927575" lon="20.570007"><ele>465</ele></trkpt>
    <trkpt lat="48.928084" lon="20.569872"><ele>466</ele></trkpt>
    <trkpt lat="48.928019" lon="20.569779"><ele>466</ele></trkpt>
  </trkseg></trk>
</gpx>
