<?xml version="1.0" encoding="UTF-8"?>
<gpx version="1.1" creator="MounTour (OpenStreetMap)" xmlns="http://www.topografix.com/GPX/1/1">
  <metadata><name>Rysy</name><copyright author="OpenStreetMap contributors"><license>https://opendatacommons.org/licenses/odbl/</license></copyright></metadata>
  <trk><name>Rysy</name><trkseg>
    <trkpt lat="49.130385" lon="20.076317"><ele>1290</ele></trkpt>
    <trkpt lat="49.130415" lon="20.076468"><ele>1292</ele></trkpt>
    <trkpt lat="49.130539" lon="20.076631"><ele>1295</ele></trkpt>
    <trkpt lat="49.132095" lon="20.077356"><ele>1313</ele></trkpt>
    <trkpt lat="49.132263" lon="20.077456"><ele>1316</ele></trkpt>
    <trkpt lat="49.132600" lon="20.077785"><ele>1322</ele></trkpt>
    <trkpt lat="49.132761" lon="20.078057"><ele>1325</ele></trkpt>
    <trkpt lat="49.132977" lon="20.078667"><ele>1330</ele></trkpt>
    <trkpt lat="49.133574" lon="20.079473"><ele>1342</ele></trkpt>
    <trkpt lat="49.133930" lon="20.080106"><ele>1349</ele></trkpt>
    <trkpt lat="49.134158" lon="20.080307"><ele>1351</ele></trkpt>
    <trkpt lat="49.134495" lon="20.080411"><ele>1357</ele></trkpt>
    <trkpt lat="49.134911" lon="20.080395"><ele>1365</ele></trkpt>
    <trkpt lat="49.135031" lon="20.080427"><ele>1367</ele></trkpt>
    <trkpt lat="49.135706" lon="20.080891"><ele>1377</ele></trkpt>
    <trkpt lat="49.136508" lon="20.080913"><ele>1385</ele></trkpt>
    <trkpt lat="49.136871" lon="20.080976"><ele>1387</ele></trkpt>
    <trkpt lat="49.137589" lon="20.081338"><ele>1396</ele></trkpt>
    <trkpt lat="49.137662" lon="20.081314"><ele>1397</ele></trkpt>
    <trkpt lat="49.137734" lon="20.081198"><ele>1398</ele></trkpt>
    <trkpt lat="49.137825" lon="20.080902"><ele>1397</ele></trkpt>
    <trkpt lat="49.137937" lon="20.080769"><ele>1397</ele></trkpt>
    <trkpt lat="49.138507" lon="20.080886"><ele>1403</ele></trkpt>
    <trkpt lat="49.139226" lon="20.080737"><ele>1410</ele></trkpt>
    <trkpt lat="49.139427" lon="20.080744"><ele>1412</ele></trkpt>
    <trkpt lat="49.139758" lon="20.080608"><ele>1411</ele></trkpt>
    <trkpt lat="49.140114" lon="20.080317"><ele>1411</ele></trkpt>
    <trkpt lat="49.140214" lon="20.080122"><ele>1413</ele></trkpt>
    <trkpt lat="49.140245" lon="20.079952"><ele>1415</ele></trkpt>
    <trkpt lat="49.140128" lon="20.079632"><ele>1416</ele></trkpt>
    <trkpt lat="49.140088" lon="20.079424"><ele>1418</ele></trkpt>
    <trkpt lat="49.140111" lon="20.078193"><ele>1431</ele></trkpt>
    <trkpt lat="49.140154" lon="20.078039"><ele>1431</ele></trkpt>
    <trkpt lat="49.140395" lon="20.077633"><ele>1434</ele></trkpt>
    <trkpt lat="49.141061" lon="20.076780"><ele>1445</ele></trkpt>
    <trkpt lat="49.141593" lon="20.075954"><ele>1442</ele></trkpt>
    <trkpt lat="49.141666" lon="20.075946"><ele>1444</ele></trkpt>
    <trkpt lat="49.141707" lon="20.076059"><ele>1448</ele></trkpt>
    <trkpt lat="49.141671" lon="20.076182"><ele>1450</ele></trkpt>
    <trkpt lat="49.141397" lon="20.076624"><ele>1454</ele></trkpt>
    <trkpt lat="49.141225" lon="20.077005"><ele>1458</ele></trkpt>
    <trkpt lat="49.141071" lon="20.077596"><ele>1459</ele></trkpt>
    <trkpt lat="49.141054" lon="20.077824"><ele>1459</ele></trkpt>
    <trkpt lat="49.141083" lon="20.078063"><ele>1460</ele></trkpt>
    <trkpt lat="49.141151" lon="20.078282"><ele>1462</ele></trkpt>
    <trkpt lat="49.141232" lon="20.078402"><ele>1463</ele></trkpt>
    <trkpt lat="49.141373" lon="20.078525"><ele>1465</ele></trkpt>
    <trkpt lat="49.141608" lon="20.078626"><ele>1462</ele></trkpt>
    <trkpt lat="49.141764" lon="20.078619"><ele>1466</ele></trkpt>
    <trkpt lat="49.141854" lon="20.078519"><ele>1470</ele></trkpt>
    <trkpt lat="49.141811" lon="20.078360"><ele>1470</ele></trkpt>
    <trkpt lat="49.141558" lon="20.078049"><ele>1467</ele></trkpt>
    <trkpt lat="49.141530" lon="20.077917"><ele>1468</ele></trkpt>
    <trkpt lat="49.141549" lon="20.077803"><ele>1469</ele></trkpt>
    <trkpt lat="49.141603" lon="20.077683"><ele>1471</ele></trkpt>
    <trkpt lat="49.141694" lon="20.077586"><ele>1474</ele></trkpt>
    <trkpt lat="49.142189" lon="20.077216"><ele>1480</ele></trkpt>
    <trkpt lat="49.142567" lon="20.077018"><ele>1485</ele></trkpt>
    <trkpt lat="49.143132" lon="20.076994"><ele>1489</ele></trkpt>
    <trkpt lat="49.143594" lon="20.077068"><ele>1493</ele></trkpt>
    <trkpt lat="49.144292" lon="20.076813"><ele>1495</ele></trkpt>
    <trkpt lat="49.144540" lon="20.076839"><ele>1497</ele></trkpt>
    <trkpt lat="49.144852" lon="20.077040"><ele>1498</ele></trkpt>
    <trkpt lat="49.145016" lon="20.077208"><ele>1499</ele></trkpt>
    <trkpt lat="49.145239" lon="20.077252"><ele>1499</ele></trkpt>
    <trkpt lat="49.146312" lon="20.077012"><ele>1497</ele></trkpt>
    <trkpt lat="49.146839" lon="20.076969"><ele>1500</ele></trkpt>
    <trkpt lat="49.147889" lon="20.077071"><ele>1498</ele></trkpt>
    <trkpt lat="49.149279" lon="20.077011"><ele>1507</ele></trkpt>
    <trkpt lat="49.150250" lon="20.076737"><ele>1519</ele></trkpt>
    <trkpt lat="49.150649" lon="20.076567"><ele>1523</ele></trkpt>
    <trkpt lat="49.151063" lon="20.076502"><ele>1524</ele></trkpt>
    <trkpt lat="49.151460" lon="20.076513"><ele>1523</ele></trkpt>
    <trkpt lat="49.152576" lon="20.076901"><ele>1531</ele></trkpt>
    <trkpt lat="49.153380" lon="20.077258"><ele>1529</ele></trkpt>
    <trkpt lat="49.153852" lon="20.077364"><ele>1529</ele></trkpt>
    <trkpt lat="49.154095" lon="20.077497"><ele>1530</ele></trkpt>
    <trkpt lat="49.154220" lon="20.077634"><ele>1530</ele></trkpt>
    <trkpt lat="49.154280" lon="20.077619"><ele>1532</ele></trkpt>
    <trkpt lat="49.154328" lon="20.077550"><ele>1534</ele></trkpt>
    <trkpt lat="49.154334" lon="20.077405"><ele>1535</ele></trkpt>
    <trkpt lat="49.154403" lon="20.077287"><ele>1538</ele></trkpt>
    <trkpt lat="49.154762" lon="20.077026"><ele>1539</ele></trkpt>
    <trkpt lat="49.155185" lon="20.076882"><ele>1543</ele></trkpt>
    <trkpt lat="49.155761" lon="20.076112"><ele>1548</ele></trkpt>
    <trkpt lat="49.155925" lon="20.076012"><ele>1547</ele></trkpt>
    <trkpt lat="49.157020" lon="20.075850"><ele>1561</ele></trkpt>
    <trkpt lat="49.157469" lon="20.075652"><ele>1561</ele></trkpt>
    <trkpt lat="49.157601" lon="20.075478"><ele>1562</ele></trkpt>
    <trkpt lat="49.158734" lon="20.074696"><ele>1565</ele></trkpt>
    <trkpt lat="49.158774" lon="20.074604"><ele>1564</ele></trkpt>
    <trkpt lat="49.158888" lon="20.074517"><ele>1564</ele></trkpt>
    <trkpt lat="49.158972" lon="20.074157"><ele>1562</ele></trkpt>
    <trkpt lat="49.159162" lon="20.073998"><ele>1562</ele></trkpt>
    <trkpt lat="49.159360" lon="20.073561"><ele>1557</ele></trkpt>
    <trkpt lat="49.159648" lon="20.073371"><ele>1558</ele></trkpt>
    <trkpt lat="49.159932" lon="20.073258"><ele>1564</ele></trkpt>
    <trkpt lat="49.160125" lon="20.073292"><ele>1568</ele></trkpt>
    <trkpt lat="49.160334" lon="20.073215"><ele>1572</ele></trkpt>
    <trkpt lat="49.160560" lon="20.073030"><ele>1574</ele></trkpt>
    <trkpt lat="49.160747" lon="20.072934"><ele>1577</ele></trkpt>
    <trkpt lat="49.160849" lon="20.072778"><ele>1577</ele></trkpt>
    <trkpt lat="49.161266" lon="20.072434"><ele>1582</ele></trkpt>
    <trkpt lat="49.161498" lon="20.072420"><ele>1589</ele></trkpt>
    <trkpt lat="49.161754" lon="20.072121"><ele>1593</ele></trkpt>
    <trkpt lat="49.161940" lon="20.072063"><ele>1598</ele></trkpt>
    <trkpt lat="49.162221" lon="20.071823"><ele>1604</ele></trkpt>
    <trkpt lat="49.162367" lon="20.071866"><ele>1608</ele></trkpt>
    <trkpt lat="49.162497" lon="20.071835"><ele>1611</ele></trkpt>
    <trkpt lat="49.162528" lon="20.071628"><ele>1611</ele></trkpt>
    <trkpt lat="49.162781" lon="20.071387"><ele>1617</ele></trkpt>
    <trkpt lat="49.162831" lon="20.071260"><ele>1618</ele></trkpt>
    <trkpt lat="49.162932" lon="20.071237"><ele>1620</ele></trkpt>
    <trkpt lat="49.163063" lon="20.071023"><ele>1622</ele></trkpt>
    <trkpt lat="49.163180" lon="20.070957"><ele>1625</ele></trkpt>
    <trkpt lat="49.163224" lon="20.070970"><ele>1626</ele></trkpt>
    <trkpt lat="49.163248" lon="20.071044"><ele>1627</ele></trkpt>
    <trkpt lat="49.163378" lon="20.071080"><ele>1631</ele></trkpt>
    <trkpt lat="49.163406" lon="20.071130"><ele>1633</ele></trkpt>
    <trkpt lat="49.163596" lon="20.071109"><ele>1638</ele></trkpt>
    <trkpt lat="49.163802" lon="20.071451"><ele>1645</ele></trkpt>
    <trkpt lat="49.164254" lon="20.071252"><ele>1650</ele></trkpt>
    <trkpt lat="49.164482" lon="20.070886"><ele>1651</ele></trkpt>
    <trkpt lat="49.164565" lon="20.070845"><ele>1650</ele></trkpt>
    <trkpt lat="49.164764" lon="20.070867"><ele>1651</ele></trkpt>
    <trkpt lat="49.164886" lon="20.070947"><ele>1653</ele></trkpt>
    <trkpt lat="49.164972" lon="20.071268"><ele>1654</ele></trkpt>
    <trkpt lat="49.165247" lon="20.071675"><ele>1659</ele></trkpt>
    <trkpt lat="49.165503" lon="20.071777"><ele>1665</ele></trkpt>
    <trkpt lat="49.165536" lon="20.071830"><ele>1666</ele></trkpt>
    <trkpt lat="49.165544" lon="20.071942"><ele>1667</ele></trkpt>
    <trkpt lat="49.165608" lon="20.072007"><ele>1670</ele></trkpt>
    <trkpt lat="49.165605" lon="20.072117"><ele>1671</ele></trkpt>
    <trkpt lat="49.165527" lon="20.072291"><ele>1670</ele></trkpt>
    <trkpt lat="49.165547" lon="20.072567"><ele>1675</ele></trkpt>
    <trkpt lat="49.165507" lon="20.072691"><ele>1674</ele></trkpt>
    <trkpt lat="49.165509" lon="20.072736"><ele>1675</ele></trkpt>
    <trkpt lat="49.165570" lon="20.072771"><ele>1677</ele></trkpt>
    <trkpt lat="49.165603" lon="20.072889"><ele>1679</ele></trkpt>
    <trkpt lat="49.165598" lon="20.073115"><ele>1680</ele></trkpt>
    <trkpt lat="49.165309" lon="20.073793"><ele>1686</ele></trkpt>
    <trkpt lat="49.165458" lon="20.073734"><ele>1690</ele></trkpt>
    <trkpt lat="49.165658" lon="20.073519"><ele>1693</ele></trkpt>
    <trkpt lat="49.166288" lon="20.072535"><ele>1711</ele></trkpt>
    <trkpt lat="49.166338" lon="20.072669"><ele>1716</ele></trkpt>
    <trkpt lat="49.166447" lon="20.072555"><ele>1718</ele></trkpt>
    <trkpt lat="49.166609" lon="20.072279"><ele>1720</ele></trkpt>
    <trkpt lat="49.166672" lon="20.072279"><ele>1722</ele></trkpt>
    <trkpt lat="49.166771" lon="20.072426"><ele>1726</ele></trkpt>
    <trkpt lat="49.166880" lon="20.072460"><ele>1729</ele></trkpt>
    <trkpt lat="49.166939" lon="20.072546"><ele>1733</ele></trkpt>
    <trkpt lat="49.167065" lon="20.072583"><ele>1738</ele></trkpt>
    <trkpt lat="49.166970" lon="20.072864"><ele>1740</ele></trkpt>
    <trkpt lat="49.167006" lon="20.072936"><ele>1743</ele></trkpt>
    <trkpt lat="49.167124" lon="20.072744"><ele>1743</ele></trkpt>
    <trkpt lat="49.167220" lon="20.072683"><ele>1745</ele></trkpt>
    <trkpt lat="49.167184" lon="20.072917"><ele>1749</ele></trkpt>
    <trkpt lat="49.167323" lon="20.072817"><ele>1752</ele></trkpt>
    <trkpt lat="49.167242" lon="20.073141"><ele>1757</ele></trkpt>
    <trkpt lat="49.167420" lon="20.073066"><ele>1760</ele></trkpt>
    <trkpt lat="49.167518" lon="20.073098"><ele>1764</ele></trkpt>
    <trkpt lat="49.167396" lon="20.073261"><ele>1764</ele></trkpt>
    <trkpt lat="49.167427" lon="20.073355"><ele>1768</ele></trkpt>
    <trkpt lat="49.167617" lon="20.073304"><ele>1771</ele></trkpt>
    <trkpt lat="49.167840" lon="20.073402"><ele>1779</ele></trkpt>
    <trkpt lat="49.167944" lon="20.073344"><ele>1780</ele></trkpt>
    <trkpt lat="49.167999" lon="20.073399"><ele>1782</ele></trkpt>
    <trkpt lat="49.168067" lon="20.073593"><ele>1786</ele></trkpt>
    <trkpt lat="49.168299" lon="20.073912"><ele>1790</ele></trkpt>
    <trkpt lat="49.168202" lon="20.073975"><ele>1793</ele></trkpt>
    <trkpt lat="49.168198" lon="20.074024"><ele>1794</ele></trkpt>
    <trkpt lat="49.168254" lon="20.074075"><ele>1795</ele></trkpt>
    <trkpt lat="49.168220" lon="20.074134"><ele>1796</ele></trkpt>
    <trkpt lat="49.167920" lon="20.074068"><ele>1796</ele></trkpt>
    <trkpt lat="49.167699" lon="20.074177"><ele>1799</ele></trkpt>
    <trkpt lat="49.167754" lon="20.074232"><ele>1801</ele></trkpt>
    <trkpt lat="49.167748" lon="20.074279"><ele>1803</ele></trkpt>
    <trkpt lat="49.167510" lon="20.074523"><ele>1811</ele></trkpt>
    <trkpt lat="49.167490" lon="20.074571"><ele>1812</ele></trkpt>
    <trkpt lat="49.167567" lon="20.074627"><ele>1814</ele></trkpt>
    <trkpt lat="49.167691" lon="20.074600"><ele>1814</ele></trkpt>
    <trkpt lat="49.167672" lon="20.074666"><ele>1816</ele></trkpt>
    <trkpt lat="49.167840" lon="20.074702"><ele>1818</ele></trkpt>
    <trkpt lat="49.168056" lon="20.074863"><ele>1827</ele></trkpt>
    <trkpt lat="49.167860" lon="20.074916"><ele>1829</ele></trkpt>
    <trkpt lat="49.167689" lon="20.075042"><ele>1834</ele></trkpt>
    <trkpt lat="49.167524" lon="20.075058"><ele>1833</ele></trkpt>
    <trkpt lat="49.167403" lon="20.075183"><ele>1837</ele></trkpt>
    <trkpt lat="49.167406" lon="20.075223"><ele>1839</ele></trkpt>
    <trkpt lat="49.167603" lon="20.075276"><ele>1844</ele></trkpt>
    <trkpt lat="49.167587" lon="20.075318"><ele>1845</ele></trkpt>
    <trkpt lat="49.167491" lon="20.075343"><ele>1845</ele></trkpt>
    <trkpt lat="49.167465" lon="20.075415"><ele>1848</ele></trkpt>
    <trkpt lat="49.167690" lon="20.075494"><ele>1854</ele></trkpt>
    <trkpt lat="49.167524" lon="20.075614"><ele>1857</ele></trkpt>
    <trkpt lat="49.167514" lon="20.075657"><ele>1858</ele></trkpt>
    <trkpt lat="49.167684" lon="20.075676"><ele>1860</ele></trkpt>
    <trkpt lat="49.167811" lon="20.075745"><ele>1863</ele></trkpt>
    <trkpt lat="49.167961" lon="20.075676"><ele>1865</ele></trkpt>
    <trkpt lat="49.168033" lon="20.075736"><ele>1869</ele></trkpt>
    <trkpt lat="49.168154" lon="20.075744"><ele>1872</ele></trkpt>
    <trkpt lat="49.168377" lon="20.075894"><ele>1880</ele></trkpt>
    <trkpt lat="49.168493" lon="20.075862"><ele>1881</ele></trkpt>
    <trkpt lat="49.168412" lon="20.076074"><ele>1886</ele></trkpt>
    <trkpt lat="49.168307" lon="20.076217"><ele>1889</ele></trkpt>
    <trkpt lat="49.168525" lon="20.076302"><ele>1894</ele></trkpt>
    <trkpt lat="49.168414" lon="20.076479"><ele>1898</ele></trkpt>
    <trkpt lat="49.168428" lon="20.076521"><ele>1900</ele></trkpt>
    <trkpt lat="49.168893" lon="20.076628"><ele>1911</ele></trkpt>
    <trkpt lat="49.169274" lon="20.076541"><ele>1915</ele></trkpt>
    <trkpt lat="49.169366" lon="20.076609"><ele>1918</ele></trkpt>
    <trkpt lat="49.169454" lon="20.076793"><ele>1922</ele></trkpt>
    <trkpt lat="49.169615" lon="20.076846"><ele>1926</ele></trkpt>
    <trkpt lat="49.169711" lon="20.076961"><ele>1927</ele></trkpt>
    <trkpt lat="49.169805" lon="20.077012"><ele>1928</ele></trkpt>
    <trkpt lat="49.169833" lon="20.077099"><ele>1929</ele></trkpt>
    <trkpt lat="49.169893" lon="20.077155"><ele>1929</ele></trkpt>
    <trkpt lat="49.170137" lon="20.077216"><ele>1927</ele></trkpt>
    <trkpt lat="49.170393" lon="20.077478"><ele>1929</ele></trkpt>
    <trkpt lat="49.170435" lon="20.077574"><ele>1930</ele></trkpt>
    <trkpt lat="49.170473" lon="20.077837"><ele>1933</ele></trkpt>
    <trkpt lat="49.170696" lon="20.078050"><ele>1934</ele></trkpt>
    <trkpt lat="49.170908" lon="20.078160"><ele>1933</ele></trkpt>
    <trkpt lat="49.171171" lon="20.078570"><ele>1939</ele></trkpt>
    <trkpt lat="49.171205" lon="20.078703"><ele>1942</ele></trkpt>
    <trkpt lat="49.171395" lon="20.078854"><ele>1943</ele></trkpt>
    <trkpt lat="49.171555" lon="20.079041"><ele>1944</ele></trkpt>
    <trkpt lat="49.171630" lon="20.079213"><ele>1946</ele></trkpt>
    <trkpt lat="49.171836" lon="20.079322"><ele>1946</ele></trkpt>
    <trkpt lat="49.171989" lon="20.079586"><ele>1952</ele></trkpt>
    <trkpt lat="49.172210" lon="20.079703"><ele>1953</ele></trkpt>
    <trkpt lat="49.172514" lon="20.079967"><ele>1959</ele></trkpt>
    <trkpt lat="49.172789" lon="20.080292"><ele>1963</ele></trkpt>
    <trkpt lat="49.173048" lon="20.080703"><ele>1972</ele></trkpt>
    <trkpt lat="49.173174" lon="20.080832"><ele>1974</ele></trkpt>
    <trkpt lat="49.173440" lon="20.080853"><ele>1974</ele></trkpt>
    <trkpt lat="49.173870" lon="20.081276"><ele>1985</ele></trkpt>
    <trkpt lat="49.174148" lon="20.081210"><ele>1987</ele></trkpt>
    <trkpt lat="49.174472" lon="20.081471"><ele>1993</ele></trkpt>
    <trkpt lat="49.174574" lon="20.081468"><ele>1995</ele></trkpt>
    <trkpt lat="49.174574" lon="20.081561"><ele>1998</ele></trkpt>
    <trkpt lat="49.174612" lon="20.081589"><ele>1999</ele></trkpt>
    <trkpt lat="49.174703" lon="20.081578"><ele>2000</ele></trkpt>
    <trkpt lat="49.174898" lon="20.081643"><ele>2006</ele></trkpt>
    <trkpt lat="49.174812" lon="20.081813"><ele>2011</ele></trkpt>
    <trkpt lat="49.175111" lon="20.081746"><ele>2016</ele></trkpt>
    <trkpt lat="49.174927" lon="20.082068"><ele>2025</ele></trkpt>
    <trkpt lat="49.175186" lon="20.082073"><ele>2034</ele></trkpt>
    <trkpt lat="49.174795" lon="20.082536"><ele>2053</ele></trkpt>
    <trkpt lat="49.174974" lon="20.082582"><ele>2062</ele></trkpt>
    <trkpt lat="49.174800" lon="20.082714"><ele>2069</ele></trkpt>
    <trkpt lat="49.174972" lon="20.082789"><ele>2081</ele></trkpt>
    <trkpt lat="49.174887" lon="20.082905"><ele>2088</ele></trkpt>
    <trkpt lat="49.174979" lon="20.082921"><ele>2092</ele></trkpt>
    <trkpt lat="49.174674" lon="20.083014"><ele>2095</ele></trkpt>
    <trkpt lat="49.173861" lon="20.082721"><ele>2064</ele></trkpt>
    <trkpt lat="49.173632" lon="20.082778"><ele>2071</ele></trkpt>
    <trkpt lat="49.173472" lon="20.082870"><ele>2077</ele></trkpt>
    <trkpt lat="49.173394" lon="20.083031"><ele>2086</ele></trkpt>
    <trkpt lat="49.173408" lon="20.083125"><ele>2091</ele></trkpt>
    <trkpt lat="49.173335" lon="20.083232"><ele>2097</ele></trkpt>
    <trkpt lat="49.173399" lon="20.083296"><ele>2100</ele></trkpt>
    <trkpt lat="49.173422" lon="20.083378"><ele>2104</ele></trkpt>
    <trkpt lat="49.173285" lon="20.083575"><ele>2113</ele></trkpt>
    <trkpt lat="49.173276" lon="20.083668"><ele>2116</ele></trkpt>
    <trkpt lat="49.173351" lon="20.083846"><ele>2117</ele></trkpt>
    <trkpt lat="49.173334" lon="20.083943"><ele>2119</ele></trkpt>
    <trkpt lat="49.173412" lon="20.083977"><ele>2120</ele></trkpt>
    <trkpt lat="49.173420" lon="20.084070"><ele>2121</ele></trkpt>
    <trkpt lat="49.173456" lon="20.084120"><ele>2123</ele></trkpt>
    <trkpt lat="49.173493" lon="20.084365"><ele>2129</ele></trkpt>
    <trkpt lat="49.173405" lon="20.084930"><ele>2155</ele></trkpt>
    <trkpt lat="49.173432" lon="20.085320"><ele>2165</ele></trkpt>
    <trkpt lat="49.173383" lon="20.085681"><ele>2172</ele></trkpt>
    <trkpt lat="49.173430" lon="20.085762"><ele>2175</ele></trkpt>
    <trkpt lat="49.173618" lon="20.085880"><ele>2181</ele></trkpt>
    <trkpt lat="49.173822" lon="20.085911"><ele>2188</ele></trkpt>
    <trkpt lat="49.173921" lon="20.085851"><ele>2191</ele></trkpt>
    <trkpt lat="49.173960" lon="20.085874"><ele>2195</ele></trkpt>
    <trkpt lat="49.173995" lon="20.086405"><ele>2206</ele></trkpt>
    <trkpt lat="49.174185" lon="20.086688"><ele>2220</ele></trkpt>
    <trkpt lat="49.174237" lon="20.086933"><ele>2228</ele></trkpt>
    <trkpt lat="49.174283" lon="20.087000"><ele>2231</ele></trkpt>
    <trkpt lat="49.174479" lon="20.087082"><ele>2240</ele></trkpt>
    <trkpt lat="49.174603" lon="20.087256"><ele>2247</ele></trkpt>
    <trkpt lat="49.174705" lon="20.087286"><ele>2252</ele></trkpt>
    <trkpt lat="49.174820" lon="20.087250"><ele>2259</ele></trkpt>
    <trkpt lat="49.174986" lon="20.087345"><ele>2268</ele></trkpt>
    <trkpt lat="49.175174" lon="20.087605"><ele>2275</ele></trkpt>
    <trkpt lat="49.175562" lon="20.088631"><ele>2295</ele></trkpt>
    <trkpt lat="49.175582" lon="20.089029"><ele>2301</ele></trkpt>
    <trkpt lat="49.175565" lon="20.089500"><ele>2302</ele></trkpt>
    <trkpt lat="49.175663" lon="20.089493"><ele>2306</ele></trkpt>
    <trkpt lat="49.175994" lon="20.089235"><ele>2321</ele></trkpt>
    <trkpt lat="49.176052" lon="20.089286"><ele>2324</ele></trkpt>
    <trkpt lat="49.176153" lon="20.089589"><ele>2330</ele></trkpt>
    <trkpt lat="49.176451" lon="20.089615"><ele>2342</ele></trkpt>
    <trkpt lat="49.176466" lon="20.089409"><ele>2344</ele></trkpt>
    <trkpt lat="49.176493" lon="20.089376"><ele>2346</ele></trkpt>
    <trkpt lat="49.176606" lon="20.089440"><ele>2349</ele></trkpt>
    <trkpt lat="49.176684" lon="20.089411"><ele>2353</ele></trkpt>
    <trkpt lat="49.176736" lon="20.089315"><ele>2358</ele></trkpt>
    <trkpt lat="49.176764" lon="20.089056"><ele>2365</ele></trkpt>
    <trkpt lat="49.176833" lon="20.088966"><ele>2370</ele></trkpt>
    <trkpt lat="49.176977" lon="20.089093"><ele>2373</ele></trkpt>
    <trkpt lat="49.177143" lon="20.089165"><ele>2375</ele></trkpt>
    <trkpt lat="49.177182" lon="20.088989"><ele>2378</ele></trkpt>
    <trkpt lat="49.177289" lon="20.088984"><ele>2380</ele></trkpt>
    <trkpt lat="49.177257" lon="20.088686"><ele>2385</ele></trkpt>
    <trkpt lat="49.177352" lon="20.088442"><ele>2391</ele></trkpt>
    <trkpt lat="49.177492" lon="20.088234"><ele>2401</ele></trkpt>
    <trkpt lat="49.177719" lon="20.088238"><ele>2409</ele></trkpt>
    <trkpt lat="49.177761" lon="20.088134"><ele>2413</ele></trkpt>
    <trkpt lat="49.177832" lon="20.088103"><ele>2416</ele></trkpt>
    <trkpt lat="49.177832" lon="20.087998"><ele>2417</ele></trkpt>
    <trkpt lat="49.178011" lon="20.088040"><ele>2424</ele></trkpt>
    <trkpt lat="49.178113" lon="20.087973"><ele>2427</ele></trkpt>
    <trkpt lat="49.178458" lon="20.087956"><ele>2436</ele></trkpt>
    <trkpt lat="49.178659" lon="20.087822"><ele>2437</ele></trkpt>
    <trkpt lat="49.178785" lon="20.087822"><ele>2438</ele></trkpt>
    <trkpt lat="49.178806" lon="20.087867"><ele>2439</ele></trkpt>
    <trkpt lat="49.178887" lon="20.087843"><ele>2439</ele></trkpt>
    <trkpt lat="49.178908" lon="20.087884"><ele>2440</ele></trkpt>
    <trkpt lat="49.179124" lon="20.087799"><ele>2447</ele></trkpt>
    <trkpt lat="49.179173" lon="20.087860"><ele>2450</ele></trkpt>
    <trkpt lat="49.179208" lon="20.087842"><ele>2451</ele></trkpt>
    <trkpt lat="49.179250" lon="20.088075"><ele>2455</ele></trkpt>
    <trkpt lat="49.179311" lon="20.087991"><ele>2457</ele></trkpt>
    <trkpt lat="49.179341" lon="20.088009"><ele>2459</ele></trkpt>
    <trkpt lat="49.179337" lon="20.088174"><ele>2459</ele></trkpt>
    <trkpt lat="49.179392" lon="20.088180"><ele>2461</ele></trkpt>
    <trkpt lat="49.179471" lon="20.088080"><ele>2464</ele></trkpt>
    <trkpt lat="49.179575" lon="20.088108"><ele>2466</ele></trkpt>
    <trkpt lat="49.179488" lon="20.088154"><ele>2465</ele></trkpt>
    <trkpt lat="49.179437" lon="20.088292"><ele>2464</ele></trkpt>
    <trkpt lat="49.179373" lon="20.088335"><ele>2460</ele></trkpt>
    <trkpt lat="49.179350" lon="20.088464"><ele>2456</ele></trkpt>
    <trkpt lat="49.179320" lon="20.088469"><ele>2455</ele></trkpt>
    <trkpt lat="49.179350" lon="20.088464"><ele>2456</ele></trkpt>
    <trkpt lat="49.179373" lon="20.088335"><ele>2460</ele></trkpt>
    <trkpt lat="49.179437" lon="20.088292"><ele>2464</ele></trkpt>
    <trkpt lat="49.179488" lon="20.088154"><ele>2465</ele></trkpt>
    <trkpt lat="49.179575" lon="20.088108"><ele>2466</ele></trkpt>
    <trkpt lat="49.179471" lon="20.088080"><ele>2464</ele></trkpt>
    <trkpt lat="49.179392" lon="20.088180"><ele>2461</ele></trkpt>
    <trkpt lat="49.179337" lon="20.088174"><ele>2459</ele></trkpt>
    <trkpt lat="49.179341" lon="20.088009"><ele>2459</ele></trkpt>
    <trkpt lat="49.179311" lon="20.087991"><ele>2457</ele></trkpt>
    <trkpt lat="49.179250" lon="20.088075"><ele>2455</ele></trkpt>
    <trkpt lat="49.179208" lon="20.087842"><ele>2451</ele></trkpt>
    <trkpt lat="49.179173" lon="20.087860"><ele>2450</ele></trkpt>
    <trkpt lat="49.179124" lon="20.087799"><ele>2447</ele></trkpt>
    <trkpt lat="49.178908" lon="20.087884"><ele>2440</ele></trkpt>
    <trkpt lat="49.178887" lon="20.087843"><ele>2439</ele></trkpt>
    <trkpt lat="49.178806" lon="20.087867"><ele>2439</ele></trkpt>
    <trkpt lat="49.178785" lon="20.087822"><ele>2438</ele></trkpt>
    <trkpt lat="49.178659" lon="20.087822"><ele>2437</ele></trkpt>
    <trkpt lat="49.178458" lon="20.087956"><ele>2436</ele></trkpt>
    <trkpt lat="49.178113" lon="20.087973"><ele>2427</ele></trkpt>
    <trkpt lat="49.178011" lon="20.088040"><ele>2424</ele></trkpt>
    <trkpt lat="49.177832" lon="20.087998"><ele>2417</ele></trkpt>
    <trkpt lat="49.177832" lon="20.088103"><ele>2416</ele></trkpt>
    <trkpt lat="49.177761" lon="20.088134"><ele>2413</ele></trkpt>
    <trkpt lat="49.177719" lon="20.088238"><ele>2409</ele></trkpt>
    <trkpt lat="49.177492" lon="20.088234"><ele>2401</ele></trkpt>
    <trkpt lat="49.177352" lon="20.088442"><ele>2391</ele></trkpt>
    <trkpt lat="49.177257" lon="20.088686"><ele>2385</ele></trkpt>
    <trkpt lat="49.177289" lon="20.088984"><ele>2380</ele></trkpt>
    <trkpt lat="49.177182" lon="20.088989"><ele>2378</ele></trkpt>
    <trkpt lat="49.177143" lon="20.089165"><ele>2375</ele></trkpt>
    <trkpt lat="49.176977" lon="20.089093"><ele>2373</ele></trkpt>
    <trkpt lat="49.176833" lon="20.088966"><ele>2370</ele></trkpt>
    <trkpt lat="49.176764" lon="20.089056"><ele>2365</ele></trkpt>
    <trkpt lat="49.176736" lon="20.089315"><ele>2358</ele></trkpt>
    <trkpt lat="49.176684" lon="20.089411"><ele>2353</ele></trkpt>
    <trkpt lat="49.176606" lon="20.089440"><ele>2349</ele></trkpt>
    <trkpt lat="49.176493" lon="20.089376"><ele>2346</ele></trkpt>
    <trkpt lat="49.176466" lon="20.089409"><ele>2344</ele></trkpt>
    <trkpt lat="49.176451" lon="20.089615"><ele>2342</ele></trkpt>
    <trkpt lat="49.176153" lon="20.089589"><ele>2330</ele></trkpt>
    <trkpt lat="49.176052" lon="20.089286"><ele>2324</ele></trkpt>
    <trkpt lat="49.175994" lon="20.089235"><ele>2321</ele></trkpt>
    <trkpt lat="49.175663" lon="20.089493"><ele>2306</ele></trkpt>
    <trkpt lat="49.175565" lon="20.089500"><ele>2302</ele></trkpt>
    <trkpt lat="49.175582" lon="20.089029"><ele>2301</ele></trkpt>
    <trkpt lat="49.175562" lon="20.088631"><ele>2295</ele></trkpt>
    <trkpt lat="49.175174" lon="20.087605"><ele>2275</ele></trkpt>
    <trkpt lat="49.174986" lon="20.087345"><ele>2268</ele></trkpt>
    <trkpt lat="49.174820" lon="20.087250"><ele>2259</ele></trkpt>
    <trkpt lat="49.174705" lon="20.087286"><ele>2252</ele></trkpt>
    <trkpt lat="49.174603" lon="20.087256"><ele>2247</ele></trkpt>
    <trkpt lat="49.174479" lon="20.087082"><ele>2240</ele></trkpt>
    <trkpt lat="49.174283" lon="20.087000"><ele>2231</ele></trkpt>
    <trkpt lat="49.174237" lon="20.086933"><ele>2228</ele></trkpt>
    <trkpt lat="49.174185" lon="20.086688"><ele>2220</ele></trkpt>
    <trkpt lat="49.173995" lon="20.086405"><ele>2206</ele></trkpt>
    <trkpt lat="49.173960" lon="20.085874"><ele>2195</ele></trkpt>
    <trkpt lat="49.173921" lon="20.085851"><ele>2191</ele></trkpt>
    <trkpt lat="49.173822" lon="20.085911"><ele>2188</ele></trkpt>
    <trkpt lat="49.173618" lon="20.085880"><ele>2181</ele></trkpt>
    <trkpt lat="49.173430" lon="20.085762"><ele>2175</ele></trkpt>
    <trkpt lat="49.173383" lon="20.085681"><ele>2172</ele></trkpt>
    <trkpt lat="49.173432" lon="20.085320"><ele>2165</ele></trkpt>
    <trkpt lat="49.173405" lon="20.084930"><ele>2155</ele></trkpt>
    <trkpt lat="49.173493" lon="20.084365"><ele>2129</ele></trkpt>
    <trkpt lat="49.173456" lon="20.084120"><ele>2123</ele></trkpt>
    <trkpt lat="49.173420" lon="20.084070"><ele>2121</ele></trkpt>
    <trkpt lat="49.173412" lon="20.083977"><ele>2120</ele></trkpt>
    <trkpt lat="49.173334" lon="20.083943"><ele>2119</ele></trkpt>
    <trkpt lat="49.173351" lon="20.083846"><ele>2117</ele></trkpt>
    <trkpt lat="49.173276" lon="20.083668"><ele>2116</ele></trkpt>
    <trkpt lat="49.173285" lon="20.083575"><ele>2113</ele></trkpt>
    <trkpt lat="49.173422" lon="20.083378"><ele>2104</ele></trkpt>
    <trkpt lat="49.173399" lon="20.083296"><ele>2100</ele></trkpt>
    <trkpt lat="49.173335" lon="20.083232"><ele>2097</ele></trkpt>
    <trkpt lat="49.173408" lon="20.083125"><ele>2091</ele></trkpt>
    <trkpt lat="49.173394" lon="20.083031"><ele>2086</ele></trkpt>
    <trkpt lat="49.173472" lon="20.082870"><ele>2077</ele></trkpt>
    <trkpt lat="49.173632" lon="20.082778"><ele>2071</ele></trkpt>
    <trkpt lat="49.173861" lon="20.082721"><ele>2064</ele></trkpt>
    <trkpt lat="49.174674" lon="20.083014"><ele>2095</ele></trkpt>
    <trkpt lat="49.174979" lon="20.082921"><ele>2092</ele></trkpt>
    <trkpt lat="49.174887" lon="20.082905"><ele>2088</ele></trkpt>
    <trkpt lat="49.174972" lon="20.082789"><ele>2081</ele></trkpt>
    <trkpt lat="49.174800" lon="20.082714"><ele>2069</ele></trkpt>
    <trkpt lat="49.174974" lon="20.082582"><ele>2062</ele></trkpt>
    <trkpt lat="49.174795" lon="20.082536"><ele>2053</ele></trkpt>
    <trkpt lat="49.175186" lon="20.082073"><ele>2034</ele></trkpt>
    <trkpt lat="49.174927" lon="20.082068"><ele>2025</ele></trkpt>
    <trkpt lat="49.175111" lon="20.081746"><ele>2016</ele></trkpt>
    <trkpt lat="49.174812" lon="20.081813"><ele>2011</ele></trkpt>
    <trkpt lat="49.174898" lon="20.081643"><ele>2006</ele></trkpt>
    <trkpt lat="49.174703" lon="20.081578"><ele>2000</ele></trkpt>
    <trkpt lat="49.174612" lon="20.081589"><ele>1999</ele></trkpt>
    <trkpt lat="49.174574" lon="20.081561"><ele>1998</ele></trkpt>
    <trkpt lat="49.174574" lon="20.081468"><ele>1995</ele></trkpt>
    <trkpt lat="49.174472" lon="20.081471"><ele>1993</ele></trkpt>
    <trkpt lat="49.174148" lon="20.081210"><ele>1987</ele></trkpt>
    <trkpt lat="49.173870" lon="20.081276"><ele>1985</ele></trkpt>
    <trkpt lat="49.173440" lon="20.080853"><ele>1974</ele></trkpt>
    <trkpt lat="49.173174" lon="20.080832"><ele>1974</ele></trkpt>
    <trkpt lat="49.173048" lon="20.080703"><ele>1972</ele></trkpt>
    <trkpt lat="49.172789" lon="20.080292"><ele>1963</ele></trkpt>
    <trkpt lat="49.172514" lon="20.079967"><ele>1959</ele></trkpt>
    <trkpt lat="49.172210" lon="20.079703"><ele>1953</ele></trkpt>
    <trkpt lat="49.171989" lon="20.079586"><ele>1952</ele></trkpt>
    <trkpt lat="49.171836" lon="20.079322"><ele>1946</ele></trkpt>
    <trkpt lat="49.171630" lon="20.079213"><ele>1946</ele></trkpt>
    <trkpt lat="49.171555" lon="20.079041"><ele>1944</ele></trkpt>
    <trkpt lat="49.171395" lon="20.078854"><ele>1943</ele></trkpt>
    <trkpt lat="49.171205" lon="20.078703"><ele>1942</ele></trkpt>
    <trkpt lat="49.171171" lon="20.078570"><ele>1939</ele></trkpt>
    <trkpt lat="49.170908" lon="20.078160"><ele>1933</ele></trkpt>
    <trkpt lat="49.170696" lon="20.078050"><ele>1934</ele></trkpt>
    <trkpt lat="49.170473" lon="20.077837"><ele>1933</ele></trkpt>
    <trkpt lat="49.170435" lon="20.077574"><ele>1930</ele></trkpt>
    <trkpt lat="49.170393" lon="20.077478"><ele>1929</ele></trkpt>
    <trkpt lat="49.170137" lon="20.077216"><ele>1927</ele></trkpt>
    <trkpt lat="49.169893" lon="20.077155"><ele>1929</ele></trkpt>
    <trkpt lat="49.169833" lon="20.077099"><ele>1929</ele></trkpt>
    <trkpt lat="49.169805" lon="20.077012"><ele>1928</ele></trkpt>
    <trkpt lat="49.169711" lon="20.076961"><ele>1927</ele></trkpt>
    <trkpt lat="49.169615" lon="20.076846"><ele>1926</ele></trkpt>
    <trkpt lat="49.169454" lon="20.076793"><ele>1922</ele></trkpt>
    <trkpt lat="49.169366" lon="20.076609"><ele>1918</ele></trkpt>
    <trkpt lat="49.169274" lon="20.076541"><ele>1915</ele></trkpt>
    <trkpt lat="49.168893" lon="20.076628"><ele>1911</ele></trkpt>
    <trkpt lat="49.168428" lon="20.076521"><ele>1900</ele></trkpt>
    <trkpt lat="49.168414" lon="20.076479"><ele>1898</ele></trkpt>
    <trkpt lat="49.168525" lon="20.076302"><ele>1894</ele></trkpt>
    <trkpt lat="49.168307" lon="20.076217"><ele>1889</ele></trkpt>
    <trkpt lat="49.168412" lon="20.076074"><ele>1886</ele></trkpt>
    <trkpt lat="49.168493" lon="20.075862"><ele>1881</ele></trkpt>
    <trkpt lat="49.168377" lon="20.075894"><ele>1880</ele></trkpt>
    <trkpt lat="49.168154" lon="20.075744"><ele>1872</ele></trkpt>
    <trkpt lat="49.168033" lon="20.075736"><ele>1869</ele></trkpt>
    <trkpt lat="49.167961" lon="20.075676"><ele>1865</ele></trkpt>
    <trkpt lat="49.167811" lon="20.075745"><ele>1863</ele></trkpt>
    <trkpt lat="49.167684" lon="20.075676"><ele>1860</ele></trkpt>
    <trkpt lat="49.167514" lon="20.075657"><ele>1858</ele></trkpt>
    <trkpt lat="49.167524" lon="20.075614"><ele>1857</ele></trkpt>
    <trkpt lat="49.167690" lon="20.075494"><ele>1854</ele></trkpt>
    <trkpt lat="49.167465" lon="20.075415"><ele>1848</ele></trkpt>
    <trkpt lat="49.167491" lon="20.075343"><ele>1845</ele></trkpt>
    <trkpt lat="49.167587" lon="20.075318"><ele>1845</ele></trkpt>
    <trkpt lat="49.167603" lon="20.075276"><ele>1844</ele></trkpt>
    <trkpt lat="49.167406" lon="20.075223"><ele>1839</ele></trkpt>
    <trkpt lat="49.167403" lon="20.075183"><ele>1837</ele></trkpt>
    <trkpt lat="49.167524" lon="20.075058"><ele>1833</ele></trkpt>
    <trkpt lat="49.167689" lon="20.075042"><ele>1834</ele></trkpt>
    <trkpt lat="49.167860" lon="20.074916"><ele>1829</ele></trkpt>
    <trkpt lat="49.168056" lon="20.074863"><ele>1827</ele></trkpt>
    <trkpt lat="49.167840" lon="20.074702"><ele>1818</ele></trkpt>
    <trkpt lat="49.167672" lon="20.074666"><ele>1816</ele></trkpt>
    <trkpt lat="49.167691" lon="20.074600"><ele>1814</ele></trkpt>
    <trkpt lat="49.167567" lon="20.074627"><ele>1814</ele></trkpt>
    <trkpt lat="49.167490" lon="20.074571"><ele>1812</ele></trkpt>
    <trkpt lat="49.167510" lon="20.074523"><ele>1811</ele></trkpt>
    <trkpt lat="49.167748" lon="20.074279"><ele>1803</ele></trkpt>
    <trkpt lat="49.167754" lon="20.074232"><ele>1801</ele></trkpt>
    <trkpt lat="49.167699" lon="20.074177"><ele>1799</ele></trkpt>
    <trkpt lat="49.167920" lon="20.074068"><ele>1796</ele></trkpt>
    <trkpt lat="49.168220" lon="20.074134"><ele>1796</ele></trkpt>
    <trkpt lat="49.168254" lon="20.074075"><ele>1795</ele></trkpt>
    <trkpt lat="49.168198" lon="20.074024"><ele>1794</ele></trkpt>
    <trkpt lat="49.168202" lon="20.073975"><ele>1793</ele></trkpt>
    <trkpt lat="49.168299" lon="20.073912"><ele>1790</ele></trkpt>
    <trkpt lat="49.168067" lon="20.073593"><ele>1786</ele></trkpt>
    <trkpt lat="49.167999" lon="20.073399"><ele>1782</ele></trkpt>
    <trkpt lat="49.167944" lon="20.073344"><ele>1780</ele></trkpt>
    <trkpt lat="49.167840" lon="20.073402"><ele>1779</ele></trkpt>
    <trkpt lat="49.167617" lon="20.073304"><ele>1771</ele></trkpt>
    <trkpt lat="49.167427" lon="20.073355"><ele>1768</ele></trkpt>
    <trkpt lat="49.167396" lon="20.073261"><ele>1764</ele></trkpt>
    <trkpt lat="49.167518" lon="20.073098"><ele>1764</ele></trkpt>
    <trkpt lat="49.167420" lon="20.073066"><ele>1760</ele></trkpt>
    <trkpt lat="49.167242" lon="20.073141"><ele>1757</ele></trkpt>
    <trkpt lat="49.167323" lon="20.072817"><ele>1752</ele></trkpt>
    <trkpt lat="49.167184" lon="20.072917"><ele>1749</ele></trkpt>
    <trkpt lat="49.167220" lon="20.072683"><ele>1745</ele></trkpt>
    <trkpt lat="49.167124" lon="20.072744"><ele>1743</ele></trkpt>
    <trkpt lat="49.167006" lon="20.072936"><ele>1743</ele></trkpt>
    <trkpt lat="49.166970" lon="20.072864"><ele>1740</ele></trkpt>
    <trkpt lat="49.167065" lon="20.072583"><ele>1738</ele></trkpt>
    <trkpt lat="49.166939" lon="20.072546"><ele>1733</ele></trkpt>
    <trkpt lat="49.166880" lon="20.072460"><ele>1729</ele></trkpt>
    <trkpt lat="49.166771" lon="20.072426"><ele>1726</ele></trkpt>
    <trkpt lat="49.166672" lon="20.072279"><ele>1722</ele></trkpt>
    <trkpt lat="49.166609" lon="20.072279"><ele>1720</ele></trkpt>
    <trkpt lat="49.166447" lon="20.072555"><ele>1718</ele></trkpt>
    <trkpt lat="49.166338" lon="20.072669"><ele>1716</ele></trkpt>
    <trkpt lat="49.166288" lon="20.072535"><ele>1711</ele></trkpt>
    <trkpt lat="49.165658" lon="20.073519"><ele>1693</ele></trkpt>
    <trkpt lat="49.165458" lon="20.073734"><ele>1690</ele></trkpt>
    <trkpt lat="49.165309" lon="20.073793"><ele>1686</ele></trkpt>
    <trkpt lat="49.165598" lon="20.073115"><ele>1680</ele></trkpt>
    <trkpt lat="49.165603" lon="20.072889"><ele>1679</ele></trkpt>
    <trkpt lat="49.165570" lon="20.072771"><ele>1677</ele></trkpt>
    <trkpt lat="49.165509" lon="20.072736"><ele>1675</ele></trkpt>
    <trkpt lat="49.165507" lon="20.072691"><ele>1674</ele></trkpt>
    <trkpt lat="49.165547" lon="20.072567"><ele>1675</ele></trkpt>
    <trkpt lat="49.165527" lon="20.072291"><ele>1670</ele></trkpt>
    <trkpt lat="49.165605" lon="20.072117"><ele>1671</ele></trkpt>
    <trkpt lat="49.165608" lon="20.072007"><ele>1670</ele></trkpt>
    <trkpt lat="49.165544" lon="20.071942"><ele>1667</ele></trkpt>
    <trkpt lat="49.165536" lon="20.071830"><ele>1666</ele></trkpt>
    <trkpt lat="49.165503" lon="20.071777"><ele>1665</ele></trkpt>
    <trkpt lat="49.165247" lon="20.071675"><ele>1659</ele></trkpt>
    <trkpt lat="49.164972" lon="20.071268"><ele>1654</ele></trkpt>
    <trkpt lat="49.164886" lon="20.070947"><ele>1653</ele></trkpt>
    <trkpt lat="49.164764" lon="20.070867"><ele>1651</ele></trkpt>
    <trkpt lat="49.164565" lon="20.070845"><ele>1650</ele></trkpt>
    <trkpt lat="49.164482" lon="20.070886"><ele>1651</ele></trkpt>
    <trkpt lat="49.164254" lon="20.071252"><ele>1650</ele></trkpt>
    <trkpt lat="49.163802" lon="20.071451"><ele>1645</ele></trkpt>
    <trkpt lat="49.163596" lon="20.071109"><ele>1638</ele></trkpt>
    <trkpt lat="49.163406" lon="20.071130"><ele>1633</ele></trkpt>
    <trkpt lat="49.163378" lon="20.071080"><ele>1631</ele></trkpt>
    <trkpt lat="49.163248" lon="20.071044"><ele>1627</ele></trkpt>
    <trkpt lat="49.163224" lon="20.070970"><ele>1626</ele></trkpt>
    <trkpt lat="49.163180" lon="20.070957"><ele>1625</ele></trkpt>
    <trkpt lat="49.163063" lon="20.071023"><ele>1622</ele></trkpt>
    <trkpt lat="49.162932" lon="20.071237"><ele>1620</ele></trkpt>
    <trkpt lat="49.162831" lon="20.071260"><ele>1618</ele></trkpt>
    <trkpt lat="49.162781" lon="20.071387"><ele>1617</ele></trkpt>
    <trkpt lat="49.162528" lon="20.071628"><ele>1611</ele></trkpt>
    <trkpt lat="49.162497" lon="20.071835"><ele>1611</ele></trkpt>
    <trkpt lat="49.162367" lon="20.071866"><ele>1608</ele></trkpt>
    <trkpt lat="49.162221" lon="20.071823"><ele>1604</ele></trkpt>
    <trkpt lat="49.161940" lon="20.072063"><ele>1598</ele></trkpt>
    <trkpt lat="49.161754" lon="20.072121"><ele>1593</ele></trkpt>
    <trkpt lat="49.161498" lon="20.072420"><ele>1589</ele></trkpt>
    <trkpt lat="49.161266" lon="20.072434"><ele>1582</ele></trkpt>
    <trkpt lat="49.160849" lon="20.072778"><ele>1577</ele></trkpt>
    <trkpt lat="49.160747" lon="20.072934"><ele>1577</ele></trkpt>
    <trkpt lat="49.160560" lon="20.073030"><ele>1574</ele></trkpt>
    <trkpt lat="49.160334" lon="20.073215"><ele>1572</ele></trkpt>
    <trkpt lat="49.160125" lon="20.073292"><ele>1568</ele></trkpt>
    <trkpt lat="49.159932" lon="20.073258"><ele>1564</ele></trkpt>
    <trkpt lat="49.159648" lon="20.073371"><ele>1558</ele></trkpt>
    <trkpt lat="49.159360" lon="20.073561"><ele>1557</ele></trkpt>
    <trkpt lat="49.159162" lon="20.073998"><ele>1562</ele></trkpt>
    <trkpt lat="49.158972" lon="20.074157"><ele>1562</ele></trkpt>
    <trkpt lat="49.158888" lon="20.074517"><ele>1564</ele></trkpt>
    <trkpt lat="49.158774" lon="20.074604"><ele>1564</ele></trkpt>
    <trkpt lat="49.158734" lon="20.074696"><ele>1565</ele></trkpt>
    <trkpt lat="49.157601" lon="20.075478"><ele>1562</ele></trkpt>
    <trkpt lat="49.157469" lon="20.075652"><ele>1561</ele></trkpt>
    <trkpt lat="49.157020" lon="20.075850"><ele>1561</ele></trkpt>
    <trkpt lat="49.155925" lon="20.076012"><ele>1547</ele></trkpt>
    <trkpt lat="49.155761" lon="20.076112"><ele>1548</ele></trkpt>
    <trkpt lat="49.155185" lon="20.076882"><ele>1543</ele></trkpt>
    <trkpt lat="49.154762" lon="20.077026"><ele>1539</ele></trkpt>
    <trkpt lat="49.154403" lon="20.077287"><ele>1538</ele></trkpt>
    <trkpt lat="49.154334" lon="20.077405"><ele>1535</ele></trkpt>
    <trkpt lat="49.154328" lon="20.077550"><ele>1534</ele></trkpt>
    <trkpt lat="49.154280" lon="20.077619"><ele>1532</ele></trkpt>
    <trkpt lat="49.154220" lon="20.077634"><ele>1530</ele></trkpt>
    <trkpt lat="49.154095" lon="20.077497"><ele>1530</ele></trkpt>
    <trkpt lat="49.153852" lon="20.077364"><ele>1529</ele></trkpt>
    <trkpt lat="49.153380" lon="20.077258"><ele>1529</ele></trkpt>
    <trkpt lat="49.152576" lon="20.076901"><ele>1531</ele></trkpt>
    <trkpt lat="49.151460" lon="20.076513"><ele>1523</ele></trkpt>
    <trkpt lat="49.151063" lon="20.076502"><ele>1524</ele></trkpt>
    <trkpt lat="49.150649" lon="20.076567"><ele>1523</ele></trkpt>
    <trkpt lat="49.150250" lon="20.076737"><ele>1519</ele></trkpt>
    <trkpt lat="49.149279" lon="20.077011"><ele>1507</ele></trkpt>
    <trkpt lat="49.147889" lon="20.077071"><ele>1498</ele></trkpt>
    <trkpt lat="49.146839" lon="20.076969"><ele>1500</ele></trkpt>
    <trkpt lat="49.146312" lon="20.077012"><ele>1497</ele></trkpt>
    <trkpt lat="49.145239" lon="20.077252"><ele>1499</ele></trkpt>
    <trkpt lat="49.145016" lon="20.077208"><ele>1499</ele></trkpt>
    <trkpt lat="49.144852" lon="20.077040"><ele>1498</ele></trkpt>
    <trkpt lat="49.144540" lon="20.076839"><ele>1497</ele></trkpt>
    <trkpt lat="49.144292" lon="20.076813"><ele>1495</ele></trkpt>
    <trkpt lat="49.143594" lon="20.077068"><ele>1493</ele></trkpt>
    <trkpt lat="49.143132" lon="20.076994"><ele>1489</ele></trkpt>
    <trkpt lat="49.142567" lon="20.077018"><ele>1485</ele></trkpt>
    <trkpt lat="49.142189" lon="20.077216"><ele>1480</ele></trkpt>
    <trkpt lat="49.141694" lon="20.077586"><ele>1474</ele></trkpt>
    <trkpt lat="49.141603" lon="20.077683"><ele>1471</ele></trkpt>
    <trkpt lat="49.141549" lon="20.077803"><ele>1469</ele></trkpt>
    <trkpt lat="49.141530" lon="20.077917"><ele>1468</ele></trkpt>
    <trkpt lat="49.141558" lon="20.078049"><ele>1467</ele></trkpt>
    <trkpt lat="49.141811" lon="20.078360"><ele>1470</ele></trkpt>
    <trkpt lat="49.141854" lon="20.078519"><ele>1470</ele></trkpt>
    <trkpt lat="49.141764" lon="20.078619"><ele>1466</ele></trkpt>
    <trkpt lat="49.141608" lon="20.078626"><ele>1462</ele></trkpt>
    <trkpt lat="49.141373" lon="20.078525"><ele>1465</ele></trkpt>
    <trkpt lat="49.141232" lon="20.078402"><ele>1463</ele></trkpt>
    <trkpt lat="49.141151" lon="20.078282"><ele>1462</ele></trkpt>
    <trkpt lat="49.141083" lon="20.078063"><ele>1460</ele></trkpt>
    <trkpt lat="49.141054" lon="20.077824"><ele>1459</ele></trkpt>
    <trkpt lat="49.141071" lon="20.077596"><ele>1459</ele></trkpt>
    <trkpt lat="49.141225" lon="20.077005"><ele>1458</ele></trkpt>
    <trkpt lat="49.141397" lon="20.076624"><ele>1454</ele></trkpt>
    <trkpt lat="49.141671" lon="20.076182"><ele>1450</ele></trkpt>
    <trkpt lat="49.141707" lon="20.076059"><ele>1448</ele></trkpt>
    <trkpt lat="49.141666" lon="20.075946"><ele>1444</ele></trkpt>
    <trkpt lat="49.141593" lon="20.075954"><ele>1442</ele></trkpt>
    <trkpt lat="49.141061" lon="20.076780"><ele>1445</ele></trkpt>
    <trkpt lat="49.140395" lon="20.077633"><ele>1434</ele></trkpt>
    <trkpt lat="49.140154" lon="20.078039"><ele>1431</ele></trkpt>
    <trkpt lat="49.140111" lon="20.078193"><ele>1431</ele></trkpt>
    <trkpt lat="49.140088" lon="20.079424"><ele>1418</ele></trkpt>
    <trkpt lat="49.140128" lon="20.079632"><ele>1416</ele></trkpt>
    <trkpt lat="49.140245" lon="20.079952"><ele>1415</ele></trkpt>
    <trkpt lat="49.140214" lon="20.080122"><ele>1413</ele></trkpt>
    <trkpt lat="49.140114" lon="20.080317"><ele>1411</ele></trkpt>
    <trkpt lat="49.139758" lon="20.080608"><ele>1411</ele></trkpt>
    <trkpt lat="49.139427" lon="20.080744"><ele>1412</ele></trkpt>
    <trkpt lat="49.139226" lon="20.080737"><ele>1410</ele></trkpt>
    <trkpt lat="49.138507" lon="20.080886"><ele>1403</ele></trkpt>
    <trkpt lat="49.137937" lon="20.080769"><ele>1397</ele></trkpt>
    <trkpt lat="49.137825" lon="20.080902"><ele>1397</ele></trkpt>
    <trkpt lat="49.137734" lon="20.081198"><ele>1398</ele></trkpt>
    <trkpt lat="49.137662" lon="20.081314"><ele>1397</ele></trkpt>
    <trkpt lat="49.137589" lon="20.081338"><ele>1396</ele></trkpt>
    <trkpt lat="49.136871" lon="20.080976"><ele>1387</ele></trkpt>
    <trkpt lat="49.136508" lon="20.080913"><ele>1385</ele></trkpt>
    <trkpt lat="49.135706" lon="20.080891"><ele>1377</ele></trkpt>
    <trkpt lat="49.135031" lon="20.080427"><ele>1367</ele></trkpt>
    <trkpt lat="49.134911" lon="20.080395"><ele>1365</ele></trkpt>
    <trkpt lat="49.134495" lon="20.080411"><ele>1357</ele></trkpt>
    <trkpt lat="49.134158" lon="20.080307"><ele>1351</ele></trkpt>
    <trkpt lat="49.133930" lon="20.080106"><ele>1349</ele></trkpt>
    <trkpt lat="49.133574" lon="20.079473"><ele>1342</ele></trkpt>
    <trkpt lat="49.132977" lon="20.078667"><ele>1330</ele></trkpt>
    <trkpt lat="49.132761" lon="20.078057"><ele>1325</ele></trkpt>
    <trkpt lat="49.132600" lon="20.077785"><ele>1322</ele></trkpt>
    <trkpt lat="49.132263" lon="20.077456"><ele>1316</ele></trkpt>
    <trkpt lat="49.132095" lon="20.077356"><ele>1313</ele></trkpt>
    <trkpt lat="49.130539" lon="20.076631"><ele>1295</ele></trkpt>
    <trkpt lat="49.130415" lon="20.076468"><ele>1292</ele></trkpt>
    <trkpt lat="49.130385" lon="20.076317"><ele>1290</ele></trkpt>
  </trkseg></trk>
</gpx>
