<?xml version="1.0" encoding="UTF-8"?>
<gpx version="1.1" creator="MounTour (OpenStreetMap)" xmlns="http://www.topografix.com/GPX/1/1">
  <metadata><name>Šíp</name><copyright author="OpenStreetMap contributors"><license>https://opendatacommons.org/licenses/odbl/</license></copyright></metadata>
  <trk><name>Šíp</name><trkseg>
    <trkpt lat="49.150519" lon="19.160595"><ele>448</ele></trkpt>
    <trkpt lat="49.150952" lon="19.160167"><ele>462</ele></trkpt>
    <trkpt lat="49.151096" lon="19.160097"><ele>467</ele></trkpt>
    <trkpt lat="49.151406" lon="19.160051"><ele>474</ele></trkpt>
    <trkpt lat="49.151390" lon="19.159698"><ele>476</ele></trkpt>
    <trkpt lat="49.151459" lon="19.159354"><ele>483</ele></trkpt>
    <trkpt lat="49.151663" lon="19.158973"><ele>490</ele></trkpt>
    <trkpt lat="49.151840" lon="19.158769"><ele>497</ele></trkpt>
    <trkpt lat="49.152115" lon="19.158574"><ele>503</ele></trkpt>
    <trkpt lat="49.152668" lon="19.158732"><ele>519</ele></trkpt>
    <trkpt lat="49.152815" lon="19.158869"><ele>525</ele></trkpt>
    <trkpt lat="49.153178" lon="19.159023"><ele>526</ele></trkpt>
    <trkpt lat="49.153680" lon="19.159359"><ele>521</ele></trkpt>
    <trkpt lat="49.153808" lon="19.159351"><ele>524</ele></trkpt>
    <trkpt lat="49.153981" lon="19.159197"><ele>531</ele></trkpt>
    <trkpt lat="49.154000" lon="19.159126"><ele>533</ele></trkpt>
    <trkpt lat="49.153949" lon="19.158725"><ele>542</ele></trkpt>
    <trkpt lat="49.154024" lon="19.158500"><ele>550</ele></trkpt>
    <trkpt lat="49.154145" lon="19.158383"><ele>556</ele></trkpt>
    <trkpt lat="49.154376" lon="19.157953"><ele>571</ele></trkpt>
    <trkpt lat="49.154441" lon="19.157887"><ele>574</ele></trkpt>
    <trkpt lat="49.154485" lon="19.157882"><ele>576</ele></trkpt>
    <trkpt lat="49.154592" lon="19.158027"><ele>583</ele></trkpt>
    <trkpt lat="49.154788" lon="19.158570"><ele>591</ele></trkpt>
    <trkpt lat="49.154834" lon="19.158597"><ele>592</ele></trkpt>
    <trkpt lat="49.154900" lon="19.158522"><ele>597</ele></trkpt>
    <trkpt lat="49.154959" lon="19.158568"><ele>598</ele></trkpt>
    <trkpt lat="49.155017" lon="19.158547"><ele>601</ele></trkpt>
    <trkpt lat="49.155066" lon="19.158450"><ele>606</ele></trkpt>
    <trkpt lat="49.155257" lon="19.158453"><ele>612</ele></trkpt>
    <trkpt lat="49.155387" lon="19.158390"><ele>619</ele></trkpt>
    <trkpt lat="49.155401" lon="19.158284"><ele>621</ele></trkpt>
    <trkpt lat="49.155546" lon="19.158459"><ele>623</ele></trkpt>
    <trkpt lat="49.156040" lon="19.158540"><ele>650</ele></trkpt>
    <trkpt lat="49.156122" lon="19.158609"><ele>654</ele></trkpt>
    <trkpt lat="49.156253" lon="19.158642"><ele>660</ele></trkpt>
    <trkpt lat="49.156443" lon="19.158882"><ele>671</ele></trkpt>
    <trkpt lat="49.156513" lon="19.158914"><ele>673</ele></trkpt>
    <trkpt lat="49.156925" lon="19.158947"><ele>679</ele></trkpt>
    <trkpt lat="49.158736" lon="19.158732"><ele>700</ele></trkpt>
    <trkpt lat="49.159157" lon="19.158762"><ele>707</ele></trkpt>
    <trkpt lat="49.159797" lon="19.158684"><ele>711</ele></trkpt>
    <trkpt lat="49.159988" lon="19.158627"><ele>715</ele></trkpt>
    <trkpt lat="49.160272" lon="19.158470"><ele>716</ele></trkpt>
    <trkpt lat="49.161179" lon="19.158255"><ele>722</ele></trkpt>
    <trkpt lat="49.161550" lon="19.157987"><ele>723</ele></trkpt>
    <trkpt lat="49.161800" lon="19.157867"><ele>726</ele></trkpt>
    <trkpt lat="49.162147" lon="19.157579"><ele>728</ele></trkpt>
    <trkpt lat="49.162507" lon="19.157372"><ele>733</ele></trkpt>
    <trkpt lat="49.162743" lon="19.157318"><ele>737</ele></trkpt>
    <trkpt lat="49.163075" lon="19.157166"><ele>737</ele></trkpt>
    <trkpt lat="49.163345" lon="19.157217"><ele>741</ele></trkpt>
    <trkpt lat="49.163433" lon="19.157426"><ele>748</ele></trkpt>
    <trkpt lat="49.163489" lon="19.157458"><ele>749</ele></trkpt>
    <trkpt lat="49.163675" lon="19.157353"><ele>751</ele></trkpt>
    <trkpt lat="49.163812" lon="19.157349"><ele>754</ele></trkpt>
    <trkpt lat="49.163857" lon="19.157452"><ele>758</ele></trkpt>
    <trkpt lat="49.163976" lon="19.157523"><ele>762</ele></trkpt>
    <trkpt lat="49.164135" lon="19.157718"><ele>769</ele></trkpt>
    <trkpt lat="49.164696" lon="19.157935"><ele>772</ele></trkpt>
    <trkpt lat="49.164830" lon="19.158126"><ele>775</ele></trkpt>
    <trkpt lat="49.165083" lon="19.158373"><ele>780</ele></trkpt>
    <trkpt lat="49.165222" lon="19.158450"><ele>782</ele></trkpt>
    <trkpt lat="49.165353" lon="19.158603"><ele>784</ele></trkpt>
    <trkpt lat="49.165579" lon="19.158976"><ele>793</ele></trkpt>
    <trkpt lat="49.165801" lon="19.159260"><ele>795</ele></trkpt>
    <trkpt lat="49.165971" lon="19.159639"><ele>806</ele></trkpt>
    <trkpt lat="49.166109" lon="19.160049"><ele>818</ele></trkpt>
    <trkpt lat="49.166258" lon="19.160328"><ele>821</ele></trkpt>
    <trkpt lat="49.166560" lon="19.161508"><ele>843</ele></trkpt>
    <trkpt lat="49.166556" lon="19.161629"><ele>846</ele></trkpt>
    <trkpt lat="49.166432" lon="19.161902"><ele>857</ele></trkpt>
    <trkpt lat="49.166113" lon="19.162340"><ele>875</ele></trkpt>
    <trkpt lat="49.165900" lon="19.162710"><ele>889</ele></trkpt>
    <trkpt lat="49.165768" lon="19.162773"><ele>896</ele></trkpt>
    <trkpt lat="49.165670" lon="19.162908"><ele>902</ele></trkpt>
    <trkpt lat="49.165637" lon="19.163176"><ele>908</ele></trkpt>
    <trkpt lat="49.165508" lon="19.163168"><ele>911</ele></trkpt>
    <trkpt lat="49.165527" lon="19.163217"><ele>911</ele></trkpt>
    <trkpt lat="49.165452" lon="19.163682"><ele>925</ele></trkpt>
    <trkpt lat="49.165422" lon="19.163782"><ele>928</ele></trkpt>
    <trkpt lat="49.165354" lon="19.163848"><ele>930</ele></trkpt>
    <trkpt lat="49.165286" lon="19.163843"><ele>931</ele></trkpt>
    <trkpt lat="49.165280" lon="19.163794"><ele>930</ele></trkpt>
    <trkpt lat="49.165160" lon="19.163760"><ele>938</ele></trkpt>
    <trkpt lat="49.165125" lon="19.163705"><ele>939</ele></trkpt>
    <trkpt lat="49.164792" lon="19.163563"><ele>956</ele></trkpt>
    <trkpt lat="49.164725" lon="19.163455"><ele>958</ele></trkpt>
    <trkpt lat="49.164683" lon="19.163458"><ele>961</ele></trkpt>
    <trkpt lat="49.164515" lon="19.163219"><ele>969</ele></trkpt>
    <trkpt lat="49.164324" lon="19.162785"><ele>975</ele></trkpt>
    <trkpt lat="49.164268" lon="19.162750"><ele>976</ele></trkpt>
    <trkpt lat="49.164210" lon="19.162788"><ele>978</ele></trkpt>
    <trkpt lat="49.164180" lon="19.162903"><ele>982</ele></trkpt>
    <trkpt lat="49.164025" lon="19.163014"><ele>983</ele></trkpt>
    <trkpt lat="49.164071" lon="19.163433"><ele>995</ele></trkpt>
    <trkpt lat="49.164056" lon="19.164033"><ele>1008</ele></trkpt>
    <trkpt lat="49.163970" lon="19.163936"><ele>1007</ele></trkpt>
    <trkpt lat="49.163906" lon="19.164212"><ele>1015</ele></trkpt>
    <trkpt lat="49.163935" lon="19.164402"><ele>1019</ele></trkpt>
    <trkpt lat="49.163903" lon="19.164560"><ele>1023</ele></trkpt>
    <trkpt lat="49.163908" lon="19.164766"><ele>1029</ele></trkpt>
    <trkpt lat="49.163940" lon="19.164922"><ele>1033</ele></trkpt>
    <trkpt lat="49.163899" lon="19.165082"><ele>1039</ele></trkpt>
    <trkpt lat="49.163933" lon="19.165427"><ele>1049</ele></trkpt>
    <trkpt lat="49.163848" lon="19.165659"><ele>1057</ele></trkpt>
    <trkpt lat="49.163691" lon="19.165810"><ele>1063</ele></trkpt>
    <trkpt lat="49.163620" lon="19.165785"><ele>1062</ele></trkpt>
    <trkpt lat="49.163519" lon="19.165826"><ele>1064</ele></trkpt>
    <trkpt lat="49.163427" lon="19.165947"><ele>1069</ele></trkpt>
    <trkpt lat="49.163183" lon="19.166013"><ele>1071</ele></trkpt>
    <trkpt lat="49.163073" lon="19.166127"><ele>1073</ele></trkpt>
    <trkpt lat="49.163075" lon="19.166269"><ele>1077</ele></trkpt>
    <trkpt lat="49.163157" lon="19.166344"><ele>1080</ele></trkpt>
    <trkpt lat="49.163166" lon="19.166484"><ele>1085</ele></trkpt>
    <trkpt lat="49.163202" lon="19.166560"><ele>1088</ele></trkpt>
    <trkpt lat="49.163165" lon="19.166661"><ele>1090</ele></trkpt>
    <trkpt lat="49.163222" lon="19.166745"><ele>1095</ele></trkpt>
    <trkpt lat="49.163224" lon="19.166838"><ele>1098</ele></trkpt>
    <trkpt lat="49.163280" lon="19.166864"><ele>1101</ele></trkpt>
    <trkpt lat="49.163284" lon="19.166937"><ele>1104</ele></trkpt>
    <trkpt lat="49.163419" lon="19.167269"><ele>1119</ele></trkpt>
    <trkpt lat="49.163329" lon="19.167658"><ele>1130</ele></trkpt>
    <trkpt lat="49.163326" lon="19.167795"><ele>1135</ele></trkpt>
    <trkpt lat="49.163235" lon="19.167936"><ele>1137</ele></trkpt>
    <trkpt lat="49.163239" lon="19.168079"><ele>1141</ele></trkpt>
    <trkpt lat="49.163196" lon="19.168122"><ele>1141</ele></trkpt>
    <trkpt lat="49.163199" lon="19.168416"><ele>1143</ele></trkpt>
    <trkpt lat="49.163354" lon="19.168443"><ele>1148</ele></trkpt>
    <trkpt lat="49.163467" lon="19.168519"><ele>1149</ele></trkpt>
    <trkpt lat="49.163638" lon="19.169061"><ele>1145</ele></trkpt>
    <trkpt lat="49.163970" lon="19.169431"><ele>1139</ele></trkpt>
    <trkpt lat="49.164424" lon="19.170479"><ele>1138</ele></trkpt>
    <trkpt lat="49.164657" lon="19.170825"><ele>1135</ele></trkpt>
    <trkpt lat="49.164740" lon="19.171145"><ele>1134</ele></trkpt>
    <trkpt lat="49.164715" lon="19.171245"><ele>1133</ele></trkpt>
    <trkpt lat="49.164731" lon="19.171360"><ele>1132</ele></trkpt>
    <trkpt lat="49.164871" lon="19.172077"><ele>1117</ele></trkpt>
    <trkpt lat="49.164761" lon="19.172503"><ele>1103</ele></trkpt>
    <trkpt lat="49.164951" lon="19.173112"><ele>1108</ele></trkpt>
    <trkpt lat="49.164983" lon="19.173630"><ele>1115</ele></trkpt>
    <trkpt lat="49.164960" lon="19.173869"><ele>1118</ele></trkpt>
    <trkpt lat="49.165085" lon="19.174283"><ele>1126</ele></trkpt>
    <trkpt lat="49.165066" lon="19.174672"><ele>1134</ele></trkpt>
    <trkpt lat="49.165113" lon="19.174933"><ele>1134</ele></trkpt>
    <trkpt lat="49.165099" lon="19.174982"><ele>1134</ele></trkpt>
    <trkpt lat="49.165343" lon="19.176360"><ele>1138</ele></trkpt>
    <trkpt lat="49.165336" lon="19.176697"><ele>1143</ele></trkpt>
    <trkpt lat="49.165260" lon="19.177312"><ele>1146</ele></trkpt>
    <trkpt lat="49.165301" lon="19.177880"><ele>1151</ele></trkpt>
    <trkpt lat="49.165246" lon="19.178191"><ele>1154</ele></trkpt>
    <trkpt lat="49.165238" lon="19.178473"><ele>1157</ele></trkpt>
    <trkpt lat="49.165251" lon="19.178582"><ele>1159</ele></trkpt>
    <trkpt lat="49.165334" lon="19.178739"><ele>1162</ele></trkpt>
    <trkpt lat="49.165329" lon="19.179060"><ele>1163</ele></trkpt>
    <trkpt lat="49.165334" lon="19.178739"><ele>1162</ele></trkpt>
    <trkpt lat="49.165251" lon="19.178582"><ele>1159</ele></trkpt>
    <trkpt lat="49.165238" lon="19.178473"><ele>1157</ele></trkpt>
    <trkpt lat="49.165246" lon="19.178191"><ele>1154</ele></trkpt>
    <trkpt lat="49.165301" lon="19.177880"><ele>1151</ele></trkpt>
    <trkpt lat="49.165260" lon="19.177312"><ele>1146</ele></trkpt>
    <trkpt lat="49.165336" lon="19.176697"><ele>1143</ele></trkpt>
    <trkpt lat="49.165343" lon="19.176360"><ele>1138</ele></trkpt>
    <trkpt lat="49.165099" lon="19.174982"><ele>1134</ele></trkpt>
    <trkpt lat="49.165113" lon="19.174933"><ele>1134</ele></trkpt>
    <trkpt lat="49.165066" lon="19.174672"><ele>1134</ele></trkpt>
    <trkpt lat="49.165085" lon="19.174283"><ele>1126</ele></trkpt>
    <trkpt lat="49.164960" lon="19.173869"><ele>1118</ele></trkpt>
    <trkpt lat="49.164983" lon="19.173630"><ele>1115</ele></trkpt>
    <trkpt lat="49.164951" lon="19.173112"><ele>1108</ele></trkpt>
    <trkpt lat="49.164761" lon="19.172503"><ele>1103</ele></trkpt>
    <trkpt lat="49.164871" lon="19.172077"><ele>1117</ele></trkpt>
    <trkpt lat="49.164731" lon="19.171360"><ele>1132</ele></trkpt>
    <trkpt lat="49.164715" lon="19.171245"><ele>1133</ele></trkpt>
    <trkpt lat="49.164740" lon="19.171145"><ele>1134</ele></trkpt>
    <trkpt lat="49.164657" lon="19.170825"><ele>1135</ele></trkpt>
    <trkpt lat="49.164424" lon="19.170479"><ele>1138</ele></trkpt>
    <trkpt lat="49.163970" lon="19.169431"><ele>1139</ele></trkpt>
    <trkpt lat="49.163638" lon="19.169061"><ele>1145</ele></trkpt>
    <trkpt lat="49.163467" lon="19.168519"><ele>1149</ele></trkpt>
    <trkpt lat="49.163354" lon="19.168443"><ele>1148</ele></trkpt>
    <trkpt lat="49.163199" lon="19.168416"><ele>1143</ele></trkpt>
    <trkpt lat="49.163196" lon="19.168122"><ele>1141</ele></trkpt>
    <trkpt lat="49.163239" lon="19.168079"><ele>1141</ele></trkpt>
    <trkpt lat="49.163235" lon="19.167936"><ele>1137</ele></trkpt>
    <trkpt lat="49.163326" lon="19.167795"><ele>1135</ele></trkpt>
    <trkpt lat="49.163329" lon="19.167658"><ele>1130</ele></trkpt>
    <trkpt lat="49.163419" lon="19.167269"><ele>1119</ele></trkpt>
    <trkpt lat="49.163284" lon="19.166937"><ele>1104</ele></trkpt>
    <trkpt lat="49.163280" lon="19.166864"><ele>1101</ele></trkpt>
    <trkpt lat="49.163224" lon="19.166838"><ele>1098</ele></trkpt>
    <trkpt lat="49.163222" lon="19.166745"><ele>1095</ele></trkpt>
    <trkpt lat="49.163165" lon="19.166661"><ele>1090</ele></trkpt>
    <trkpt lat="49.163202" lon="19.166560"><ele>1088</ele></trkpt>
    <trkpt lat="49.163166" lon="19.166484"><ele>1085</ele></trkpt>
    <trkpt lat="49.163157" lon="19.166344"><ele>1080</ele></trkpt>
    <trkpt lat="49.163075" lon="19.166269"><ele>1077</ele></trkpt>
    <trkpt lat="49.163073" lon="19.166127"><ele>1073</ele></trkpt>
    <trkpt lat="49.163183" lon="19.166013"><ele>1071</ele></trkpt>
    <trkpt lat="49.163427" lon="19.165947"><ele>1069</ele></trkpt>
    <trkpt lat="49.163519" lon="19.165826"><ele>1064</ele></trkpt>
    <trkpt lat="49.163620" lon="19.165785"><ele>1062</ele></trkpt>
    <trkpt lat="49.163691" lon="19.165810"><ele>1063</ele></trkpt>
    <trkpt lat="49.163848" lon="19.165659"><ele>1057</ele></trkpt>
    <trkpt lat="49.163933" lon="19.165427"><ele>1049</ele></trkpt>
    <trkpt lat="49.163899" lon="19.165082"><ele>1039</ele></trkpt>
    <trkpt lat="49.163940" lon="19.164922"><ele>1033</ele></trkpt>
    <trkpt lat="49.163908" lon="19.164766"><ele>1029</ele></trkpt>
    <trkpt lat="49.163903" lon="19.164560"><ele>1023</ele></trkpt>
    <trkpt lat="49.163935" lon="19.164402"><ele>1019</ele></trkpt>
    <trkpt lat="49.163906" lon="19.164212"><ele>1015</ele></trkpt>
    <trkpt lat="49.163970" lon="19.163936"><ele>1007</ele></trkpt>
    <trkpt lat="49.164056" lon="19.164033"><ele>1008</ele></trkpt>
    <trkpt lat="49.164071" lon="19.163433"><ele>995</ele></trkpt>
    <trkpt lat="49.164025" lon="19.163014"><ele>983</ele></trkpt>
    <trkpt lat="49.164180" lon="19.162903"><ele>982</ele></trkpt>
    <trkpt lat="49.164210" lon="19.162788"><ele>978</ele></trkpt>
    <trkpt lat="49.164268" lon="19.162750"><ele>976</ele></trkpt>
    <trkpt lat="49.164324" lon="19.162785"><ele>975</ele></trkpt>
    <trkpt lat="49.164515" lon="19.163219"><ele>969</ele></trkpt>
    <trkpt lat="49.164683" lon="19.163458"><ele>961</ele></trkpt>
    <trkpt lat="49.164725" lon="19.163455"><ele>958</ele></trkpt>
    <trkpt lat="49.164792" lon="19.163563"><ele>956</ele></trkpt>
    <trkpt lat="49.165125" lon="19.163705"><ele>939</ele></trkpt>
    <trkpt lat="49.165160" lon="19.163760"><ele>938</ele></trkpt>
    <trkpt lat="49.165280" lon="19.163794"><ele>930</ele></trkpt>
    <trkpt lat="49.165286" lon="19.163843"><ele>931</ele></trkpt>
    <trkpt lat="49.165354" lon="19.163848"><ele>930</ele></trkpt>
    <trkpt lat="49.165422" lon="19.163782"><ele>928</ele></trkpt>
    <trkpt lat="49.165452" lon="19.163682"><ele>925</ele></trkpt>
    <trkpt lat="49.165527" lon="19.163217"><ele>911</ele></trkpt>
    <trkpt lat="49.165508" lon="19.163168"><ele>911</ele></trkpt>
    <trkpt lat="49.165637" lon="19.163176"><ele>908</ele></trkpt>
    <trkpt lat="49.165670" lon="19.162908"><ele>902</ele></trkpt>
    <trkpt lat="49.165768" lon="19.162773"><ele>896</ele></trkpt>
    <trkpt lat="49.165900" lon="19.162710"><ele>889</ele></trkpt>
    <trkpt lat="49.166113" lon="19.162340"><ele>875</ele></trkpt>
    <trkpt lat="49.166432" lon="19.161902"><ele>857</ele></trkpt>
    <trkpt lat="49.166556" lon="19.161629"><ele>846</ele></trkpt>
    <trkpt lat="49.166560" lon="19.161508"><ele>843</ele></trkpt>
    <trkpt lat="49.166258" lon="19.160328"><ele>821</ele></trkpt>
    <trkpt lat="49.166109" lon="19.160049"><ele>818</ele></trkpt>
    <trkpt lat="49.165971" lon="19.159639"><ele>806</ele></trkpt>
    <trkpt lat="49.165801" lon="19.159260"><ele>795</ele></trkpt>
    <trkpt lat="49.165579" lon="19.158976"><ele>793</ele></trkpt>
    <trkpt lat="49.165353" lon="19.158603"><ele>784</ele></trkpt>
    <trkpt lat="49.165222" lon="19.158450"><ele>782</ele></trkpt>
    <trkpt lat="49.165083" lon="19.158373"><ele>780</ele></trkpt>
    <trkpt lat="49.164830" lon="19.158126"><ele>775</ele></trkpt>
    <trkpt lat="49.164696" lon="19.157935"><ele>772</ele></trkpt>
    <trkpt lat="49.164135" lon="19.157718"><ele>769</ele></trkpt>
    <trkpt lat="49.163976" lon="19.157523"><ele>762</ele></trkpt>
    <trkpt lat="49.163857" lon="19.157452"><ele>758</ele></trkpt>
    <trkpt lat="49.163812" lon="19.157349"><ele>754</ele></trkpt>
    <trkpt lat="49.163675" lon="19.157353"><ele>751</ele></trkpt>
    <trkpt lat="49.163489" lon="19.157458"><ele>749</ele></trkpt>
    <trkpt lat="49.163433" lon="19.157426"><ele>748</ele></trkpt>
    <trkpt lat="49.163345" lon="19.157217"><ele>741</ele></trkpt>
    <trkpt lat="49.163075" lon="19.157166"><ele>737</ele></trkpt>
    <trkpt lat="49.162743" lon="19.157318"><ele>737</ele></trkpt>
    <trkpt lat="49.162507" lon="19.157372"><ele>733</ele></trkpt>
    <trkpt lat="49.162147" lon="19.157579"><ele>728</ele></trkpt>
    <trkpt lat="49.161800" lon="19.157867"><ele>726</ele></trkpt>
    <trkpt lat="49.161550" lon="19.157987"><ele>723</ele></trkpt>
    <trkpt lat="49.161179" lon="19.158255"><ele>722</ele></trkpt>
    <trkpt lat="49.160272" lon="19.158470"><ele>716</ele></trkpt>
    <trkpt lat="49.159988" lon="19.158627"><ele>715</ele></trkpt>
    <trkpt lat="49.159797" lon="19.158684"><ele>711</ele></trkpt>
    <trkpt lat="49.159157" lon="19.158762"><ele>707</ele></trkpt>
    <trkpt lat="49.158736" lon="19.158732"><ele>700</ele></trkpt>
    <trkpt lat="49.156925" lon="19.158947"><ele>679</ele></trkpt>
    <trkpt lat="49.156513" lon="19.158914"><ele>673</ele></trkpt>
    <trkpt lat="49.156443" lon="19.158882"><ele>671</ele></trkpt>
    <trkpt lat="49.156253" lon="19.158642"><ele>660</ele></trkpt>
    <trkpt lat="49.156122" lon="19.158609"><ele>654</ele></trkpt>
    <trkpt lat="49.156040" lon="19.158540"><ele>650</ele></trkpt>
    <trkpt lat="49.155546" lon="19.158459"><ele>623</ele></trkpt>
    <trkpt lat="49.155401" lon="19.158284"><ele>621</ele></trkpt>
    <trkpt lat="49.155387" lon="19.158390"><ele>619</ele></trkpt>
    <trkpt lat="49.155257" lon="19.158453"><ele>612</ele></trkpt>
    <trkpt lat="49.155066" lon="19.158450"><ele>606</ele></trkpt>
    <trkpt lat="49.155017" lon="19.158547"><ele>601</ele></trkpt>
    <trkpt lat="49.154959" lon="19.158568"><ele>598</ele></trkpt>
    <trkpt lat="49.154900" lon="19.158522"><ele>597</ele></trkpt>
    <trkpt lat="49.154834" lon="19.158597"><ele>592</ele></trkpt>
    <trkpt lat="49.154788" lon="19.158570"><ele>591</ele></trkpt>
    <trkpt lat="49.154592" lon="19.158027"><ele>583</ele></trkpt>
    <trkpt lat="49.154485" lon="19.157882"><ele>576</ele></trkpt>
    <trkpt lat="49.154441" lon="19.157887"><ele>574</ele></trkpt>
    <trkpt lat="49.154376" lon="19.157953"><ele>571</ele></trkpt>
    <trkpt lat="49.154145" lon="19.158383"><ele>556</ele></trkpt>
    <trkpt lat="49.154024" lon="19.158500"><ele>550</ele></trkpt>
    <trkpt lat="49.153949" lon="19.158725"><ele>542</ele></trkpt>
    <trkpt lat="49.154000" lon="19.159126"><ele>533</ele></trkpt>
    <trkpt lat="49.153981" lon="19.159197"><ele>531</ele></trkpt>
    <trkpt lat="49.153808" lon="19.159351"><ele>524</ele></trkpt>
    <trkpt lat="49.153680" lon="19.159359"><ele>521</ele></trkpt>
    <trkpt lat="49.153178" lon="19.159023"><ele>526</ele></trkpt>
    <trkpt lat="49.152815" lon="19.158869"><ele>525</ele></trkpt>
    <trkpt lat="49.152668" lon="19.158732"><ele>519</ele></trkpt>
    <trkpt lat="49.152115" lon="19.158574"><ele>503</ele></trkpt>
    <trkpt lat="49.151840" lon="19.158769"><ele>497</ele></trkpt>
    <trkpt lat="49.151663" lon="19.158973"><ele>490</ele></trkpt>
    <trkpt lat="49.151459" lon="19.159354"><ele>483</ele></trkpt>
    <trkpt lat="49.151390" lon="19.159698"><ele>476</ele></trkpt>
    <trkpt lat="49.151406" lon="19.160051"><ele>474</ele></trkpt>
    <trkpt lat="49.151096" lon="19.160097"><ele>467</ele></trkpt>
    <trkpt lat="49.150952" lon="19.160167"><ele>462</ele></trkpt>
    <trkpt lat="49.150519" lon="19.160595"><ele>448</ele></trkpt>
  </trkseg></trk>
</gpx>
