<?xml version="1.0" encoding="UTF-8"?>
<gpx version="1.1" creator="MounTour (OpenStreetMap)" xmlns="http://www.topografix.com/GPX/1/1">
  <metadata><name>Sivý vrch</name><copyright author="OpenStreetMap contributors"><license>https://opendatacommons.org/licenses/odbl/</license></copyright></metadata>
  <trk><name>Sivý vrch</name><trkseg>
    <trkpt lat="49.163190" lon="19.630091"><ele>831</ele></trkpt>
    <trkpt lat="49.163982" lon="19.630612"><ele>853</ele></trkpt>
    <trkpt lat="49.164338" lon="19.630752"><ele>855</ele></trkpt>
    <trkpt lat="49.164500" lon="19.630859"><ele>854</ele></trkpt>
    <trkpt lat="49.164578" lon="19.630975"><ele>853</ele></trkpt>
    <trkpt lat="49.164664" lon="19.630990"><ele>853</ele></trkpt>
    <trkpt lat="49.164726" lon="19.631193"><ele>853</ele></trkpt>
    <trkpt lat="49.164868" lon="19.631379"><ele>863</ele></trkpt>
    <trkpt lat="49.165251" lon="19.631725"><ele>879</ele></trkpt>
    <trkpt lat="49.165328" lon="19.632003"><ele>879</ele></trkpt>
    <trkpt lat="49.165173" lon="19.633089"><ele>908</ele></trkpt>
    <trkpt lat="49.165171" lon="19.633255"><ele>911</ele></trkpt>
    <trkpt lat="49.165219" lon="19.633523"><ele>917</ele></trkpt>
    <trkpt lat="49.165482" lon="19.633958"><ele>925</ele></trkpt>
    <trkpt lat="49.165799" lon="19.634175"><ele>937</ele></trkpt>
    <trkpt lat="49.166036" lon="19.634455"><ele>949</ele></trkpt>
    <trkpt lat="49.166259" lon="19.634567"><ele>956</ele></trkpt>
    <trkpt lat="49.166448" lon="19.634729"><ele>963</ele></trkpt>
    <trkpt lat="49.166811" lon="19.634652"><ele>974</ele></trkpt>
    <trkpt lat="49.166879" lon="19.634714"><ele>978</ele></trkpt>
    <trkpt lat="49.166939" lon="19.635046"><ele>986</ele></trkpt>
    <trkpt lat="49.166925" lon="19.635218"><ele>989</ele></trkpt>
    <trkpt lat="49.166973" lon="19.635292"><ele>992</ele></trkpt>
    <trkpt lat="49.167115" lon="19.635305"><ele>1000</ele></trkpt>
    <trkpt lat="49.167289" lon="19.635255"><ele>1008</ele></trkpt>
    <trkpt lat="49.167528" lon="19.635084"><ele>1017</ele></trkpt>
    <trkpt lat="49.168135" lon="19.634561"><ele>1036</ele></trkpt>
    <trkpt lat="49.168268" lon="19.634344"><ele>1041</ele></trkpt>
    <trkpt lat="49.168263" lon="19.634245"><ele>1040</ele></trkpt>
    <trkpt lat="49.168514" lon="19.634014"><ele>1050</ele></trkpt>
    <trkpt lat="49.168764" lon="19.633977"><ele>1061</ele></trkpt>
    <trkpt lat="49.169085" lon="19.633719"><ele>1068</ele></trkpt>
    <trkpt lat="49.169349" lon="19.633426"><ele>1073</ele></trkpt>
    <trkpt lat="49.169817" lon="19.633210"><ele>1087</ele></trkpt>
    <trkpt lat="49.170049" lon="19.632934"><ele>1095</ele></trkpt>
    <trkpt lat="49.170032" lon="19.632576"><ele>1099</ele></trkpt>
    <trkpt lat="49.169862" lon="19.632298"><ele>1100</ele></trkpt>
    <trkpt lat="49.169506" lon="19.631892"><ele>1108</ele></trkpt>
    <trkpt lat="49.169370" lon="19.631787"><ele>1110</ele></trkpt>
    <trkpt lat="49.169256" lon="19.631773"><ele>1109</ele></trkpt>
    <trkpt lat="49.169076" lon="19.631652"><ele>1109</ele></trkpt>
    <trkpt lat="49.168987" lon="19.631588"><ele>1108</ele></trkpt>
    <trkpt lat="49.168938" lon="19.631487"><ele>1108</ele></trkpt>
    <trkpt lat="49.168904" lon="19.630921"><ele>1109</ele></trkpt>
    <trkpt lat="49.168970" lon="19.630085"><ele>1122</ele></trkpt>
    <trkpt lat="49.168773" lon="19.629530"><ele>1123</ele></trkpt>
    <trkpt lat="49.168504" lon="19.629249"><ele>1116</ele></trkpt>
    <trkpt lat="49.168432" lon="19.629048"><ele>1115</ele></trkpt>
    <trkpt lat="49.168448" lon="19.628903"><ele>1117</ele></trkpt>
    <trkpt lat="49.168597" lon="19.628440"><ele>1126</ele></trkpt>
    <trkpt lat="49.168716" lon="19.628252"><ele>1128</ele></trkpt>
    <trkpt lat="49.168900" lon="19.628080"><ele>1132</ele></trkpt>
    <trkpt lat="49.168976" lon="19.628063"><ele>1135</ele></trkpt>
    <trkpt lat="49.169056" lon="19.628117"><ele>1139</ele></trkpt>
    <trkpt lat="49.169559" lon="19.628933"><ele>1162</ele></trkpt>
    <trkpt lat="49.170149" lon="19.629665"><ele>1177</ele></trkpt>
    <trkpt lat="49.170248" lon="19.629826"><ele>1181</ele></trkpt>
    <trkpt lat="49.170388" lon="19.630207"><ele>1184</ele></trkpt>
    <trkpt lat="49.170472" lon="19.630264"><ele>1184</ele></trkpt>
    <trkpt lat="49.170538" lon="19.630248"><ele>1185</ele></trkpt>
    <trkpt lat="49.170711" lon="19.630047"><ele>1186</ele></trkpt>
    <trkpt lat="49.171188" lon="19.630108"><ele>1208</ele></trkpt>
    <trkpt lat="49.171275" lon="19.630201"><ele>1212</ele></trkpt>
    <trkpt lat="49.171295" lon="19.630291"><ele>1212</ele></trkpt>
    <trkpt lat="49.171358" lon="19.630312"><ele>1215</ele></trkpt>
    <trkpt lat="49.171390" lon="19.630499"><ele>1216</ele></trkpt>
    <trkpt lat="49.171507" lon="19.630520"><ele>1220</ele></trkpt>
    <trkpt lat="49.171647" lon="19.630770"><ele>1223</ele></trkpt>
    <trkpt lat="49.171802" lon="19.630945"><ele>1226</ele></trkpt>
    <trkpt lat="49.172169" lon="19.631137"><ele>1234</ele></trkpt>
    <trkpt lat="49.172371" lon="19.631324"><ele>1238</ele></trkpt>
    <trkpt lat="49.172866" lon="19.631375"><ele>1245</ele></trkpt>
    <trkpt lat="49.173833" lon="19.631002"><ele>1254</ele></trkpt>
    <trkpt lat="49.173968" lon="19.631016"><ele>1255</ele></trkpt>
    <trkpt lat="49.174082" lon="19.631176"><ele>1254</ele></trkpt>
    <trkpt lat="49.174289" lon="19.631145"><ele>1259</ele></trkpt>
    <trkpt lat="49.174858" lon="19.630939"><ele>1278</ele></trkpt>
    <trkpt lat="49.175216" lon="19.630760"><ele>1286</ele></trkpt>
    <trkpt lat="49.175293" lon="19.630802"><ele>1288</ele></trkpt>
    <trkpt lat="49.175402" lon="19.630748"><ele>1291</ele></trkpt>
    <trkpt lat="49.175506" lon="19.630781"><ele>1294</ele></trkpt>
    <trkpt lat="49.175724" lon="19.630748"><ele>1299</ele></trkpt>
    <trkpt lat="49.176611" lon="19.630875"><ele>1321</ele></trkpt>
    <trkpt lat="49.176779" lon="19.630865"><ele>1325</ele></trkpt>
    <trkpt lat="49.177230" lon="19.630630"><ele>1339</ele></trkpt>
    <trkpt lat="49.177500" lon="19.630406"><ele>1350</ele></trkpt>
    <trkpt lat="49.177708" lon="19.630373"><ele>1355</ele></trkpt>
    <trkpt lat="49.177970" lon="19.630205"><ele>1364</ele></trkpt>
    <trkpt lat="49.177999" lon="19.630266"><ele>1364</ele></trkpt>
    <trkpt lat="49.178031" lon="19.630236"><ele>1365</ele></trkpt>
    <trkpt lat="49.178080" lon="19.630284"><ele>1366</ele></trkpt>
    <trkpt lat="49.178175" lon="19.630271"><ele>1371</ele></trkpt>
    <trkpt lat="49.178365" lon="19.630364"><ele>1379</ele></trkpt>
    <trkpt lat="49.178454" lon="19.630294"><ele>1383</ele></trkpt>
    <trkpt lat="49.178526" lon="19.630373"><ele>1385</ele></trkpt>
    <trkpt lat="49.178720" lon="19.630298"><ele>1394</ele></trkpt>
    <trkpt lat="49.178781" lon="19.630342"><ele>1397</ele></trkpt>
    <trkpt lat="49.179014" lon="19.630205"><ele>1408</ele></trkpt>
    <trkpt lat="49.179127" lon="19.630192"><ele>1414</ele></trkpt>
    <trkpt lat="49.179162" lon="19.630128"><ele>1416</ele></trkpt>
    <trkpt lat="49.179291" lon="19.630134"><ele>1423</ele></trkpt>
    <trkpt lat="49.179417" lon="19.629940"><ele>1432</ele></trkpt>
    <trkpt lat="49.179475" lon="19.629936"><ele>1435</ele></trkpt>
    <trkpt lat="49.179721" lon="19.629485"><ele>1454</ele></trkpt>
    <trkpt lat="49.179747" lon="19.629492"><ele>1455</ele></trkpt>
    <trkpt lat="49.179774" lon="19.629352"><ele>1459</ele></trkpt>
    <trkpt lat="49.179650" lon="19.628776"><ele>1469</ele></trkpt>
    <trkpt lat="49.179442" lon="19.628175"><ele>1476</ele></trkpt>
    <trkpt lat="49.179419" lon="19.628014"><ele>1480</ele></trkpt>
    <trkpt lat="49.179288" lon="19.627786"><ele>1484</ele></trkpt>
    <trkpt lat="49.179186" lon="19.627519"><ele>1490</ele></trkpt>
    <trkpt lat="49.179170" lon="19.627326"><ele>1495</ele></trkpt>
    <trkpt lat="49.178975" lon="19.627003"><ele>1498</ele></trkpt>
    <trkpt lat="49.178971" lon="19.626844"><ele>1502</ele></trkpt>
    <trkpt lat="49.178990" lon="19.626556"><ele>1509</ele></trkpt>
    <trkpt lat="49.179044" lon="19.626543"><ele>1512</ele></trkpt>
    <trkpt lat="49.179068" lon="19.626462"><ele>1514</ele></trkpt>
    <trkpt lat="49.179143" lon="19.626405"><ele>1519</ele></trkpt>
    <trkpt lat="49.179414" lon="19.626276"><ele>1530</ele></trkpt>
    <trkpt lat="49.179482" lon="19.626129"><ele>1534</ele></trkpt>
    <trkpt lat="49.179652" lon="19.626001"><ele>1542</ele></trkpt>
    <trkpt lat="49.179897" lon="19.625670"><ele>1554</ele></trkpt>
    <trkpt lat="49.180006" lon="19.625812"><ele>1561</ele></trkpt>
    <trkpt lat="49.180063" lon="19.625812"><ele>1561</ele></trkpt>
    <trkpt lat="49.180112" lon="19.625998"><ele>1560</ele></trkpt>
    <trkpt lat="49.180236" lon="19.626269"><ele>1558</ele></trkpt>
    <trkpt lat="49.180264" lon="19.626421"><ele>1556</ele></trkpt>
    <trkpt lat="49.180359" lon="19.626593"><ele>1552</ele></trkpt>
    <trkpt lat="49.180972" lon="19.627223"><ele>1545</ele></trkpt>
    <trkpt lat="49.181107" lon="19.627258"><ele>1546</ele></trkpt>
    <trkpt lat="49.181458" lon="19.627794"><ele>1540</ele></trkpt>
    <trkpt lat="49.181821" lon="19.627905"><ele>1531</ele></trkpt>
    <trkpt lat="49.182234" lon="19.628183"><ele>1522</ele></trkpt>
    <trkpt lat="49.182741" lon="19.628597"><ele>1519</ele></trkpt>
    <trkpt lat="49.183245" lon="19.628770"><ele>1512</ele></trkpt>
    <trkpt lat="49.183444" lon="19.628921"><ele>1510</ele></trkpt>
    <trkpt lat="49.184326" lon="19.629913"><ele>1498</ele></trkpt>
    <trkpt lat="49.184631" lon="19.630187"><ele>1496</ele></trkpt>
    <trkpt lat="49.185085" lon="19.630679"><ele>1495</ele></trkpt>
    <trkpt lat="49.185570" lon="19.631323"><ele>1497</ele></trkpt>
    <trkpt lat="49.185766" lon="19.631777"><ele>1498</ele></trkpt>
    <trkpt lat="49.185994" lon="19.632193"><ele>1498</ele></trkpt>
    <trkpt lat="49.186337" lon="19.632606"><ele>1494</ele></trkpt>
    <trkpt lat="49.186404" lon="19.632804"><ele>1494</ele></trkpt>
    <trkpt lat="49.186482" lon="19.633224"><ele>1496</ele></trkpt>
    <trkpt lat="49.186628" lon="19.633628"><ele>1501</ele></trkpt>
    <trkpt lat="49.186799" lon="19.634063"><ele>1505</ele></trkpt>
    <trkpt lat="49.186926" lon="19.634186"><ele>1510</ele></trkpt>
    <trkpt lat="49.187057" lon="19.634514"><ele>1517</ele></trkpt>
    <trkpt lat="49.187140" lon="19.634893"><ele>1527</ele></trkpt>
    <trkpt lat="49.187241" lon="19.635083"><ele>1533</ele></trkpt>
    <trkpt lat="49.187335" lon="19.635138"><ele>1535</ele></trkpt>
    <trkpt lat="49.187418" lon="19.635319"><ele>1539</ele></trkpt>
    <trkpt lat="49.187495" lon="19.635391"><ele>1542</ele></trkpt>
    <trkpt lat="49.188313" lon="19.636002"><ele>1559</ele></trkpt>
    <trkpt lat="49.188466" lon="19.636241"><ele>1561</ele></trkpt>
    <trkpt lat="49.188684" lon="19.636417"><ele>1563</ele></trkpt>
    <trkpt lat="49.188726" lon="19.636498"><ele>1562</ele></trkpt>
    <trkpt lat="49.188976" lon="19.636638"><ele>1562</ele></trkpt>
    <trkpt lat="49.189203" lon="19.636951"><ele>1561</ele></trkpt>
    <trkpt lat="49.189357" lon="19.637049"><ele>1560</ele></trkpt>
    <trkpt lat="49.189591" lon="19.637092"><ele>1562</ele></trkpt>
    <trkpt lat="49.189951" lon="19.636845"><ele>1564</ele></trkpt>
    <trkpt lat="49.190138" lon="19.636800"><ele>1568</ele></trkpt>
    <trkpt lat="49.190244" lon="19.636822"><ele>1572</ele></trkpt>
    <trkpt lat="49.190493" lon="19.636610"><ele>1575</ele></trkpt>
    <trkpt lat="49.190604" lon="19.636603"><ele>1577</ele></trkpt>
    <trkpt lat="49.191012" lon="19.636948"><ele>1583</ele></trkpt>
    <trkpt lat="49.191228" lon="19.636986"><ele>1581</ele></trkpt>
    <trkpt lat="49.191415" lon="19.637107"><ele>1584</ele></trkpt>
    <trkpt lat="49.191646" lon="19.637021"><ele>1583</ele></trkpt>
    <trkpt lat="49.191837" lon="19.637057"><ele>1582</ele></trkpt>
    <trkpt lat="49.191956" lon="19.637218"><ele>1586</ele></trkpt>
    <trkpt lat="49.192317" lon="19.637452"><ele>1584</ele></trkpt>
    <trkpt lat="49.192421" lon="19.637563"><ele>1585</ele></trkpt>
    <trkpt lat="49.192530" lon="19.637604"><ele>1584</ele></trkpt>
    <trkpt lat="49.192707" lon="19.637788"><ele>1586</ele></trkpt>
    <trkpt lat="49.193013" lon="19.637878"><ele>1585</ele></trkpt>
    <trkpt lat="49.193266" lon="19.638173"><ele>1588</ele></trkpt>
    <trkpt lat="49.193412" lon="19.638252"><ele>1589</ele></trkpt>
    <trkpt lat="49.193548" lon="19.638245"><ele>1590</ele></trkpt>
    <trkpt lat="49.193671" lon="19.638139"><ele>1590</ele></trkpt>
    <trkpt lat="49.194003" lon="19.637964"><ele>1590</ele></trkpt>
    <trkpt lat="49.194127" lon="19.637835"><ele>1590</ele></trkpt>
    <trkpt lat="49.194171" lon="19.637856"><ele>1591</ele></trkpt>
    <trkpt lat="49.194334" lon="19.637797"><ele>1594</ele></trkpt>
    <trkpt lat="49.194375" lon="19.637733"><ele>1595</ele></trkpt>
    <trkpt lat="49.194496" lon="19.637687"><ele>1598</ele></trkpt>
    <trkpt lat="49.194522" lon="19.637622"><ele>1599</ele></trkpt>
    <trkpt lat="49.195372" lon="19.637189"><ele>1621</ele></trkpt>
    <trkpt lat="49.195631" lon="19.637237"><ele>1624</ele></trkpt>
    <trkpt lat="49.195699" lon="19.637213"><ele>1625</ele></trkpt>
    <trkpt lat="49.196158" lon="19.637639"><ele>1625</ele></trkpt>
    <trkpt lat="49.196776" lon="19.637796"><ele>1632</ele></trkpt>
    <trkpt lat="49.197215" lon="19.637670"><ele>1635</ele></trkpt>
    <trkpt lat="49.197367" lon="19.637573"><ele>1635</ele></trkpt>
    <trkpt lat="49.197590" lon="19.637344"><ele>1638</ele></trkpt>
    <trkpt lat="49.198068" lon="19.637165"><ele>1638</ele></trkpt>
    <trkpt lat="49.198344" lon="19.637278"><ele>1639</ele></trkpt>
    <trkpt lat="49.199172" lon="19.638117"><ele>1632</ele></trkpt>
    <trkpt lat="49.199488" lon="19.638197"><ele>1636</ele></trkpt>
    <trkpt lat="49.199759" lon="19.638469"><ele>1635</ele></trkpt>
    <trkpt lat="49.199903" lon="19.638770"><ele>1636</ele></trkpt>
    <trkpt lat="49.200213" lon="19.639187"><ele>1640</ele></trkpt>
    <trkpt lat="49.200512" lon="19.639349"><ele>1644</ele></trkpt>
    <trkpt lat="49.200612" lon="19.639468"><ele>1644</ele></trkpt>
    <trkpt lat="49.200741" lon="19.639550"><ele>1647</ele></trkpt>
    <trkpt lat="49.200778" lon="19.639677"><ele>1644</ele></trkpt>
    <trkpt lat="49.200840" lon="19.639740"><ele>1645</ele></trkpt>
    <trkpt lat="49.200973" lon="19.639806"><ele>1649</ele></trkpt>
    <trkpt lat="49.201043" lon="19.639910"><ele>1648</ele></trkpt>
    <trkpt lat="49.201223" lon="19.640044"><ele>1651</ele></trkpt>
    <trkpt lat="49.201597" lon="19.640213"><ele>1655</ele></trkpt>
    <trkpt lat="49.202369" lon="19.640261"><ele>1658</ele></trkpt>
    <trkpt lat="49.202718" lon="19.640394"><ele>1659</ele></trkpt>
    <trkpt lat="49.202908" lon="19.640387"><ele>1661</ele></trkpt>
    <trkpt lat="49.203059" lon="19.640446"><ele>1660</ele></trkpt>
    <trkpt lat="49.203239" lon="19.640541"><ele>1661</ele></trkpt>
    <trkpt lat="49.203582" lon="19.640906"><ele>1662</ele></trkpt>
    <trkpt lat="49.203662" lon="19.641085"><ele>1662</ele></trkpt>
    <trkpt lat="49.203722" lon="19.641139"><ele>1662</ele></trkpt>
    <trkpt lat="49.203868" lon="19.641091"><ele>1664</ele></trkpt>
    <trkpt lat="49.203902" lon="19.641015"><ele>1664</ele></trkpt>
    <trkpt lat="49.203951" lon="19.640991"><ele>1664</ele></trkpt>
    <trkpt lat="49.204261" lon="19.641198"><ele>1667</ele></trkpt>
    <trkpt lat="49.204642" lon="19.641193"><ele>1663</ele></trkpt>
    <trkpt lat="49.204815" lon="19.641282"><ele>1663</ele></trkpt>
    <trkpt lat="49.204870" lon="19.641364"><ele>1664</ele></trkpt>
    <trkpt lat="49.204939" lon="19.641378"><ele>1664</ele></trkpt>
    <trkpt lat="49.205099" lon="19.641285"><ele>1658</ele></trkpt>
    <trkpt lat="49.205182" lon="19.641291"><ele>1656</ele></trkpt>
    <trkpt lat="49.205266" lon="19.641331"><ele>1655</ele></trkpt>
    <trkpt lat="49.205376" lon="19.641485"><ele>1658</ele></trkpt>
    <trkpt lat="49.205990" lon="19.641537"><ele>1655</ele></trkpt>
    <trkpt lat="49.206570" lon="19.641904"><ele>1655</ele></trkpt>
    <trkpt lat="49.207002" lon="19.642108"><ele>1654</ele></trkpt>
    <trkpt lat="49.207112" lon="19.642101"><ele>1656</ele></trkpt>
    <trkpt lat="49.207287" lon="19.642014"><ele>1659</ele></trkpt>
    <trkpt lat="49.207623" lon="19.641972"><ele>1665</ele></trkpt>
    <trkpt lat="49.207874" lon="19.642007"><ele>1671</ele></trkpt>
    <trkpt lat="49.207961" lon="19.641780"><ele>1675</ele></trkpt>
    <trkpt lat="49.208136" lon="19.641731"><ele>1682</ele></trkpt>
    <trkpt lat="49.208269" lon="19.641543"><ele>1688</ele></trkpt>
    <trkpt lat="49.208396" lon="19.641551"><ele>1691</ele></trkpt>
    <trkpt lat="49.208573" lon="19.641397"><ele>1695</ele></trkpt>
    <trkpt lat="49.208831" lon="19.641392"><ele>1698</ele></trkpt>
    <trkpt lat="49.208867" lon="19.641300"><ele>1697</ele></trkpt>
    <trkpt lat="49.208930" lon="19.641259"><ele>1697</ele></trkpt>
    <trkpt lat="49.209022" lon="19.641268"><ele>1698</ele></trkpt>
    <trkpt lat="49.209064" lon="19.641362"><ele>1701</ele></trkpt>
    <trkpt lat="49.209534" lon="19.641556"><ele>1712</ele></trkpt>
    <trkpt lat="49.209597" lon="19.641519"><ele>1714</ele></trkpt>
    <trkpt lat="49.209781" lon="19.641538"><ele>1721</ele></trkpt>
    <trkpt lat="49.210031" lon="19.641666"><ele>1733</ele></trkpt>
    <trkpt lat="49.210207" lon="19.641653"><ele>1741</ele></trkpt>
    <trkpt lat="49.210249" lon="19.641707"><ele>1742</ele></trkpt>
    <trkpt lat="49.210327" lon="19.641721"><ele>1746</ele></trkpt>
    <trkpt lat="49.210672" lon="19.641653"><ele>1762</ele></trkpt>
    <trkpt lat="49.210806" lon="19.641701"><ele>1771</ele></trkpt>
    <trkpt lat="49.210853" lon="19.641750"><ele>1776</ele></trkpt>
    <trkpt lat="49.210880" lon="19.641856"><ele>1781</ele></trkpt>
    <trkpt lat="49.210967" lon="19.641947"><ele>1789</ele></trkpt>
    <trkpt lat="49.211007" lon="19.642027"><ele>1792</ele></trkpt>
    <trkpt lat="49.211000" lon="19.642083"><ele>1792</ele></trkpt>
    <trkpt lat="49.211145" lon="19.642126"><ele>1796</ele></trkpt>
    <trkpt lat="49.211000" lon="19.642083"><ele>1792</ele></trkpt>
    <trkpt lat="49.211007" lon="19.642027"><ele>1792</ele></trkpt>
    <trkpt lat="49.210967" lon="19.641947"><ele>1789</ele></trkpt>
    <trkpt lat="49.210880" lon="19.641856"><ele>1781</ele></trkpt>
    <trkpt lat="49.210853" lon="19.641750"><ele>1776</ele></trkpt>
    <trkpt lat="49.210806" lon="19.641701"><ele>1771</ele></trkpt>
    <trkpt lat="49.210672" lon="19.641653"><ele>1762</ele></trkpt>
    <trkpt lat="49.210327" lon="19.641721"><ele>1746</ele></trkpt>
    <trkpt lat="49.210249" lon="19.641707"><ele>1742</ele></trkpt>
    <trkpt lat="49.210207" lon="19.641653"><ele>1741</ele></trkpt>
    <trkpt lat="49.210031" lon="19.641666"><ele>1733</ele></trkpt>
    <trkpt lat="49.209781" lon="19.641538"><ele>1721</ele></trkpt>
    <trkpt lat="49.209597" lon="19.641519"><ele>1714</ele></trkpt>
    <trkpt lat="49.209534" lon="19.641556"><ele>1712</ele></trkpt>
    <trkpt lat="49.209064" lon="19.641362"><ele>1701</ele></trkpt>
    <trkpt lat="49.209022" lon="19.641268"><ele>1698</ele></trkpt>
    <trkpt lat="49.208930" lon="19.641259"><ele>1697</ele></trkpt>
    <trkpt lat="49.208867" lon="19.641300"><ele>1697</ele></trkpt>
    <trkpt lat="49.208831" lon="19.641392"><ele>1698</ele></trkpt>
    <trkpt lat="49.208573" lon="19.641397"><ele>1695</ele></trkpt>
    <trkpt lat="49.208396" lon="19.641551"><ele>1691</ele></trkpt>
    <trkpt lat="49.208269" lon="19.641543"><ele>1688</ele></trkpt>
    <trkpt lat="49.208136" lon="19.641731"><ele>1682</ele></trkpt>
    <trkpt lat="49.207961" lon="19.641780"><ele>1675</ele></trkpt>
    <trkpt lat="49.207874" lon="19.642007"><ele>1671</ele></trkpt>
    <trkpt lat="49.207623" lon="19.641972"><ele>1665</ele></trkpt>
    <trkpt lat="49.207287" lon="19.642014"><ele>1659</ele></trkpt>
    <trkpt lat="49.207112" lon="19.642101"><ele>1656</ele></trkpt>
    <trkpt lat="49.207002" lon="19.642108"><ele>1654</ele></trkpt>
    <trkpt lat="49.206570" lon="19.641904"><ele>1655</ele></trkpt>
    <trkpt lat="49.205990" lon="19.641537"><ele>1655</ele></trkpt>
    <trkpt lat="49.205376" lon="19.641485"><ele>1658</ele></trkpt>
    <trkpt lat="49.205266" lon="19.641331"><ele>1655</ele></trkpt>
    <trkpt lat="49.205182" lon="19.641291"><ele>1656</ele></trkpt>
    <trkpt lat="49.205099" lon="19.641285"><ele>1658</ele></trkpt>
    <trkpt lat="49.204939" lon="19.641378"><ele>1664</ele></trkpt>
    <trkpt lat="49.204870" lon="19.641364"><ele>1664</ele></trkpt>
    <trkpt lat="49.204815" lon="19.641282"><ele>1663</ele></trkpt>
    <trkpt lat="49.204642" lon="19.641193"><ele>1663</ele></trkpt>
    <trkpt lat="49.204261" lon="19.641198"><ele>1667</ele></trkpt>
    <trkpt lat="49.203951" lon="19.640991"><ele>1664</ele></trkpt>
    <trkpt lat="49.203902" lon="19.641015"><ele>1664</ele></trkpt>
    <trkpt lat="49.203868" lon="19.641091"><ele>1664</ele></trkpt>
    <trkpt lat="49.203722" lon="19.641139"><ele>1662</ele></trkpt>
    <trkpt lat="49.203662" lon="19.641085"><ele>1662</ele></trkpt>
    <trkpt lat="49.203582" lon="19.640906"><ele>1662</ele></trkpt>
    <trkpt lat="49.203239" lon="19.640541"><ele>1661</ele></trkpt>
    <trkpt lat="49.203059" lon="19.640446"><ele>1660</ele></trkpt>
    <trkpt lat="49.202908" lon="19.640387"><ele>1661</ele></trkpt>
    <trkpt lat="49.202718" lon="19.640394"><ele>1659</ele></trkpt>
    <trkpt lat="49.202369" lon="19.640261"><ele>1658</ele></trkpt>
    <trkpt lat="49.201597" lon="19.640213"><ele>1655</ele></trkpt>
    <trkpt lat="49.201223" lon="19.640044"><ele>1651</ele></trkpt>
    <trkpt lat="49.201043" lon="19.639910"><ele>1648</ele></trkpt>
    <trkpt lat="49.200973" lon="19.639806"><ele>1649</ele></trkpt>
    <trkpt lat="49.200840" lon="19.639740"><ele>1645</ele></trkpt>
    <trkpt lat="49.200778" lon="19.639677"><ele>1644</ele></trkpt>
    <trkpt lat="49.200741" lon="19.639550"><ele>1647</ele></trkpt>
    <trkpt lat="49.200612" lon="19.639468"><ele>1644</ele></trkpt>
    <trkpt lat="49.200512" lon="19.639349"><ele>1644</ele></trkpt>
    <trkpt lat="49.200213" lon="19.639187"><ele>1640</ele></trkpt>
    <trkpt lat="49.199903" lon="19.638770"><ele>1636</ele></trkpt>
    <trkpt lat="49.199759" lon="19.638469"><ele>1635</ele></trkpt>
    <trkpt lat="49.199488" lon="19.638197"><ele>1636</ele></trkpt>
    <trkpt lat="49.199172" lon="19.638117"><ele>1632</ele></trkpt>
    <trkpt lat="49.198344" lon="19.637278"><ele>1639</ele></trkpt>
    <trkpt lat="49.198068" lon="19.637165"><ele>1638</ele></trkpt>
    <trkpt lat="49.197590" lon="19.637344"><ele>1638</ele></trkpt>
    <trkpt lat="49.197367" lon="19.637573"><ele>1635</ele></trkpt>
    <trkpt lat="49.197215" lon="19.637670"><ele>1635</ele></trkpt>
    <trkpt lat="49.196776" lon="19.637796"><ele>1632</ele></trkpt>
    <trkpt lat="49.196158" lon="19.637639"><ele>1625</ele></trkpt>
    <trkpt lat="49.195699" lon="19.637213"><ele>1625</ele></trkpt>
    <trkpt lat="49.195631" lon="19.637237"><ele>1624</ele></trkpt>
    <trkpt lat="49.195372" lon="19.637189"><ele>1621</ele></trkpt>
    <trkpt lat="49.194522" lon="19.637622"><ele>1599</ele></trkpt>
    <trkpt lat="49.194496" lon="19.637687"><ele>1598</ele></trkpt>
    <trkpt lat="49.194375" lon="19.637733"><ele>1595</ele></trkpt>
    <trkpt lat="49.194334" lon="19.637797"><ele>1594</ele></trkpt>
    <trkpt lat="49.194171" lon="19.637856"><ele>1591</ele></trkpt>
    <trkpt lat="49.194127" lon="19.637835"><ele>1590</ele></trkpt>
    <trkpt lat="49.194003" lon="19.637964"><ele>1590</ele></trkpt>
    <trkpt lat="49.193671" lon="19.638139"><ele>1590</ele></trkpt>
    <trkpt lat="49.193548" lon="19.638245"><ele>1590</ele></trkpt>
    <trkpt lat="49.193412" lon="19.638252"><ele>1589</ele></trkpt>
    <trkpt lat="49.193266" lon="19.638173"><ele>1588</ele></trkpt>
    <trkpt lat="49.193013" lon="19.637878"><ele>1585</ele></trkpt>
    <trkpt lat="49.192707" lon="19.637788"><ele>1586</ele></trkpt>
    <trkpt lat="49.192530" lon="19.637604"><ele>1584</ele></trkpt>
    <trkpt lat="49.192421" lon="19.637563"><ele>1585</ele></trkpt>
    <trkpt lat="49.192317" lon="19.637452"><ele>1584</ele></trkpt>
    <trkpt lat="49.191956" lon="19.637218"><ele>1586</ele></trkpt>
    <trkpt lat="49.191837" lon="19.637057"><ele>1582</ele></trkpt>
    <trkpt lat="49.191646" lon="19.637021"><ele>1583</ele></trkpt>
    <trkpt lat="49.191415" lon="19.637107"><ele>1584</ele></trkpt>
    <trkpt lat="49.191228" lon="19.636986"><ele>1581</ele></trkpt>
    <trkpt lat="49.191012" lon="19.636948"><ele>1583</ele></trkpt>
    <trkpt lat="49.190604" lon="19.636603"><ele>1577</ele></trkpt>
    <trkpt lat="49.190493" lon="19.636610"><ele>1575</ele></trkpt>
    <trkpt lat="49.190244" lon="19.636822"><ele>1572</ele></trkpt>
    <trkpt lat="49.190138" lon="19.636800"><ele>1568</ele></trkpt>
    <trkpt lat="49.189951" lon="19.636845"><ele>1564</ele></trkpt>
    <trkpt lat="49.189591" lon="19.637092"><ele>1562</ele></trkpt>
    <trkpt lat="49.189357" lon="19.637049"><ele>1560</ele></trkpt>
    <trkpt lat="49.189203" lon="19.636951"><ele>1561</ele></trkpt>
    <trkpt lat="49.188976" lon="19.636638"><ele>1562</ele></trkpt>
    <trkpt lat="49.188726" lon="19.636498"><ele>1562</ele></trkpt>
    <trkpt lat="49.188684" lon="19.636417"><ele>1563</ele></trkpt>
    <trkpt lat="49.188466" lon="19.636241"><ele>1561</ele></trkpt>
    <trkpt lat="49.188313" lon="19.636002"><ele>1559</ele></trkpt>
    <trkpt lat="49.187495" lon="19.635391"><ele>1542</ele></trkpt>
    <trkpt lat="49.187418" lon="19.635319"><ele>1539</ele></trkpt>
    <trkpt lat="49.187335" lon="19.635138"><ele>1535</ele></trkpt>
    <trkpt lat="49.187241" lon="19.635083"><ele>1533</ele></trkpt>
    <trkpt lat="49.187140" lon="19.634893"><ele>1527</ele></trkpt>
    <trkpt lat="49.187057" lon="19.634514"><ele>1517</ele></trkpt>
    <trkpt lat="49.186926" lon="19.634186"><ele>1510</ele></trkpt>
    <trkpt lat="49.186799" lon="19.634063"><ele>1505</ele></trkpt>
    <trkpt lat="49.186628" lon="19.633628"><ele>1501</ele></trkpt>
    <trkpt lat="49.186482" lon="19.633224"><ele>1496</ele></trkpt>
    <trkpt lat="49.186404" lon="19.632804"><ele>1494</ele></trkpt>
    <trkpt lat="49.186337" lon="19.632606"><ele>1494</ele></trkpt>
    <trkpt lat="49.185994" lon="19.632193"><ele>1498</ele></trkpt>
    <trkpt lat="49.185766" lon="19.631777"><ele>1498</ele></trkpt>
    <trkpt lat="49.185570" lon="19.631323"><ele>1497</ele></trkpt>
    <trkpt lat="49.185085" lon="19.630679"><ele>1495</ele></trkpt>
    <trkpt lat="49.184631" lon="19.630187"><ele>1496</ele></trkpt>
    <trkpt lat="49.184326" lon="19.629913"><ele>1498</ele></trkpt>
    <trkpt lat="49.183444" lon="19.628921"><ele>1510</ele></trkpt>
    <trkpt lat="49.183245" lon="19.628770"><ele>1512</ele></trkpt>
    <trkpt lat="49.182741" lon="19.628597"><ele>1519</ele></trkpt>
    <trkpt lat="49.182234" lon="19.628183"><ele>1522</ele></trkpt>
    <trkpt lat="49.181821" lon="19.627905"><ele>1531</ele></trkpt>
    <trkpt lat="49.181458" lon="19.627794"><ele>1540</ele></trkpt>
    <trkpt lat="49.181107" lon="19.627258"><ele>1546</ele></trkpt>
    <trkpt lat="49.180972" lon="19.627223"><ele>1545</ele></trkpt>
    <trkpt lat="49.180359" lon="19.626593"><ele>1552</ele></trkpt>
    <trkpt lat="49.180264" lon="19.626421"><ele>1556</ele></trkpt>
    <trkpt lat="49.180236" lon="19.626269"><ele>1558</ele></trkpt>
    <trkpt lat="49.180112" lon="19.625998"><ele>1560</ele></trkpt>
    <trkpt lat="49.180063" lon="19.625812"><ele>1561</ele></trkpt>
    <trkpt lat="49.180006" lon="19.625812"><ele>1561</ele></trkpt>
    <trkpt lat="49.179897" lon="19.625670"><ele>1554</ele></trkpt>
    <trkpt lat="49.179652" lon="19.626001"><ele>1542</ele></trkpt>
    <trkpt lat="49.179482" lon="19.626129"><ele>1534</ele></trkpt>
    <trkpt lat="49.179414" lon="19.626276"><ele>1530</ele></trkpt>
    <trkpt lat="49.179143" lon="19.626405"><ele>1519</ele></trkpt>
    <trkpt lat="49.179068" lon="19.626462"><ele>1514</ele></trkpt>
    <trkpt lat="49.179044" lon="19.626543"><ele>1512</ele></trkpt>
    <trkpt lat="49.178990" lon="19.626556"><ele>1509</ele></trkpt>
    <trkpt lat="49.178971" lon="19.626844"><ele>1502</ele></trkpt>
    <trkpt lat="49.178975" lon="19.627003"><ele>1498</ele></trkpt>
    <trkpt lat="49.179170" lon="19.627326"><ele>1495</ele></trkpt>
    <trkpt lat="49.179186" lon="19.627519"><ele>1490</ele></trkpt>
    <trkpt lat="49.179288" lon="19.627786"><ele>1484</ele></trkpt>
    <trkpt lat="49.179419" lon="19.628014"><ele>1480</ele></trkpt>
    <trkpt lat="49.179442" lon="19.628175"><ele>1476</ele></trkpt>
    <trkpt lat="49.179650" lon="19.628776"><ele>1469</ele></trkpt>
    <trkpt lat="49.179774" lon="19.629352"><ele>1459</ele></trkpt>
    <trkpt lat="49.179747" lon="19.629492"><ele>1455</ele></trkpt>
    <trkpt lat="49.179721" lon="19.629485"><ele>1454</ele></trkpt>
    <trkpt lat="49.179475" lon="19.629936"><ele>1435</ele></trkpt>
    <trkpt lat="49.179417" lon="19.629940"><ele>1432</ele></trkpt>
    <trkpt lat="49.179291" lon="19.630134"><ele>1423</ele></trkpt>
    <trkpt lat="49.179162" lon="19.630128"><ele>1416</ele></trkpt>
    <trkpt lat="49.179127" lon="19.630192"><ele>1414</ele></trkpt>
    <trkpt lat="49.179014" lon="19.630205"><ele>1408</ele></trkpt>
    <trkpt lat="49.178781" lon="19.630342"><ele>1397</ele></trkpt>
    <trkpt lat="49.178720" lon="19.630298"><ele>1394</ele></trkpt>
    <trkpt lat="49.178526" lon="19.630373"><ele>1385</ele></trkpt>
    <trkpt lat="49.178454" lon="19.630294"><ele>1383</ele></trkpt>
    <trkpt lat="49.178365" lon="19.630364"><ele>1379</ele></trkpt>
    <trkpt lat="49.178175" lon="19.630271"><ele>1371</ele></trkpt>
    <trkpt lat="49.178080" lon="19.630284"><ele>1366</ele></trkpt>
    <trkpt lat="49.178031" lon="19.630236"><ele>1365</ele></trkpt>
    <trkpt lat="49.177999" lon="19.630266"><ele>1364</ele></trkpt>
    <trkpt lat="49.177970" lon="19.630205"><ele>1364</ele></trkpt>
    <trkpt lat="49.177708" lon="19.630373"><ele>1355</ele></trkpt>
    <trkpt lat="49.177500" lon="19.630406"><ele>1350</ele></trkpt>
    <trkpt lat="49.177230" lon="19.630630"><ele>1339</ele></trkpt>
    <trkpt lat="49.176779" lon="19.630865"><ele>1325</ele></trkpt>
    <trkpt lat="49.176611" lon="19.630875"><ele>1321</ele></trkpt>
    <trkpt lat="49.175724" lon="19.630748"><ele>1299</ele></trkpt>
    <trkpt lat="49.175506" lon="19.630781"><ele>1294</ele></trkpt>
    <trkpt lat="49.175402" lon="19.630748"><ele>1291</ele></trkpt>
    <trkpt lat="49.175293" lon="19.630802"><ele>1288</ele></trkpt>
    <trkpt lat="49.175216" lon="19.630760"><ele>1286</ele></trkpt>
    <trkpt lat="49.174858" lon="19.630939"><ele>1278</ele></trkpt>
    <trkpt lat="49.174289" lon="19.631145"><ele>1259</ele></trkpt>
    <trkpt lat="49.174082" lon="19.631176"><ele>1254</ele></trkpt>
    <trkpt lat="49.173968" lon="19.631016"><ele>1255</ele></trkpt>
    <trkpt lat="49.173833" lon="19.631002"><ele>1254</ele></trkpt>
    <trkpt lat="49.172866" lon="19.631375"><ele>1245</ele></trkpt>
    <trkpt lat="49.172371" lon="19.631324"><ele>1238</ele></trkpt>
    <trkpt lat="49.172169" lon="19.631137"><ele>1234</ele></trkpt>
    <trkpt lat="49.171802" lon="19.630945"><ele>1226</ele></trkpt>
    <trkpt lat="49.171647" lon="19.630770"><ele>1223</ele></trkpt>
    <trkpt lat="49.171507" lon="19.630520"><ele>1220</ele></trkpt>
    <trkpt lat="49.171390" lon="19.630499"><ele>1216</ele></trkpt>
    <trkpt lat="49.171358" lon="19.630312"><ele>1215</ele></trkpt>
    <trkpt lat="49.171295" lon="19.630291"><ele>1212</ele></trkpt>
    <trkpt lat="49.171275" lon="19.630201"><ele>1212</ele></trkpt>
    <trkpt lat="49.171188" lon="19.630108"><ele>1208</ele></trkpt>
    <trkpt lat="49.170711" lon="19.630047"><ele>1186</ele></trkpt>
    <trkpt lat="49.170538" lon="19.630248"><ele>1185</ele></trkpt>
    <trkpt lat="49.170472" lon="19.630264"><ele>1184</ele></trkpt>
    <trkpt lat="49.170388" lon="19.630207"><ele>1184</ele></trkpt>
    <trkpt lat="49.170248" lon="19.629826"><ele>1181</ele></trkpt>
    <trkpt lat="49.170149" lon="19.629665"><ele>1177</ele></trkpt>
    <trkpt lat="49.169559" lon="19.628933"><ele>1162</ele></trkpt>
    <trkpt lat="49.169056" lon="19.628117"><ele>1139</ele></trkpt>
    <trkpt lat="49.168976" lon="19.628063"><ele>1135</ele></trkpt>
    <trkpt lat="49.168900" lon="19.628080"><ele>1132</ele></trkpt>
    <trkpt lat="49.168716" lon="19.628252"><ele>1128</ele></trkpt>
    <trkpt lat="49.168597" lon="19.628440"><ele>1126</ele></trkpt>
    <trkpt lat="49.168448" lon="19.628903"><ele>1117</ele></trkpt>
    <trkpt lat="49.168432" lon="19.629048"><ele>1115</ele></trkpt>
    <trkpt lat="49.168504" lon="19.629249"><ele>1116</ele></trkpt>
    <trkpt lat="49.168773" lon="19.629530"><ele>1123</ele></trkpt>
    <trkpt lat="49.168970" lon="19.630085"><ele>1122</ele></trkpt>
    <trkpt lat="49.168904" lon="19.630921"><ele>1109</ele></trkpt>
    <trkpt lat="49.168938" lon="19.631487"><ele>1108</ele></trkpt>
    <trkpt lat="49.168987" lon="19.631588"><ele>1108</ele></trkpt>
    <trkpt lat="49.169076" lon="19.631652"><ele>1109</ele></trkpt>
    <trkpt lat="49.169256" lon="19.631773"><ele>1109</ele></trkpt>
    <trkpt lat="49.169370" lon="19.631787"><ele>1110</ele></trkpt>
    <trkpt lat="49.169506" lon="19.631892"><ele>1108</ele></trkpt>
    <trkpt lat="49.169862" lon="19.632298"><ele>1100</ele></trkpt>
    <trkpt lat="49.170032" lon="19.632576"><ele>1099</ele></trkpt>
    <trkpt lat="49.170049" lon="19.632934"><ele>1095</ele></trkpt>
    <trkpt lat="49.169817" lon="19.633210"><ele>1087</ele></trkpt>
    <trkpt lat="49.169349" lon="19.633426"><ele>1073</ele></trkpt>
    <trkpt lat="49.169085" lon="19.633719"><ele>1068</ele></trkpt>
    <trkpt lat="49.168764" lon="19.633977"><ele>1061</ele></trkpt>
    <trkpt lat="49.168514" lon="19.634014"><ele>1050</ele></trkpt>
    <trkpt lat="49.168263" lon="19.634245"><ele>1040</ele></trkpt>
    <trkpt lat="49.168268" lon="19.634344"><ele>1041</ele></trkpt>
    <trkpt lat="49.168135" lon="19.634561"><ele>1036</ele></trkpt>
    <trkpt lat="49.167528" lon="19.635084"><ele>1017</ele></trkpt>
    <trkpt lat="49.167289" lon="19.635255"><ele>1008</ele></trkpt>
    <trkpt lat="49.167115" lon="19.635305"><ele>1000</ele></trkpt>
    <trkpt lat="49.166973" lon="19.635292"><ele>992</ele></trkpt>
    <trkpt lat="49.166925" lon="19.635218"><ele>989</ele></trkpt>
    <trkpt lat="49.166939" lon="19.635046"><ele>986</ele></trkpt>
    <trkpt lat="49.166879" lon="19.634714"><ele>978</ele></trkpt>
    <trkpt lat="49.166811" lon="19.634652"><ele>974</ele></trkpt>
    <trkpt lat="49.166448" lon="19.634729"><ele>963</ele></trkpt>
    <trkpt lat="49.166259" lon="19.634567"><ele>956</ele></trkpt>
    <trkpt lat="49.166036" lon="19.634455"><ele>949</ele></trkpt>
    <trkpt lat="49.165799" lon="19.634175"><ele>937</ele></trkpt>
    <trkpt lat="49.165482" lon="19.633958"><ele>925</ele></trkpt>
    <trkpt lat="49.165219" lon="19.633523"><ele>917</ele></trkpt>
    <trkpt lat="49.165171" lon="19.633255"><ele>911</ele></trkpt>
    <trkpt lat="49.165173" lon="19.633089"><ele>908</ele></trkpt>
    <trkpt lat="49.165328" lon="19.632003"><ele>879</ele></trkpt>
    <trkpt lat="49.165251" lon="19.631725"><ele>879</ele></trkpt>
    <trkpt lat="49.164868" lon="19.631379"><ele>863</ele></trkpt>
    <trkpt lat="49.164726" lon="19.631193"><ele>853</ele></trkpt>
    <trkpt lat="49.164664" lon="19.630990"><ele>853</ele></trkpt>
    <trkpt lat="49.164578" lon="19.630975"><ele>853</ele></trkpt>
    <trkpt lat="49.164500" lon="19.630859"><ele>854</ele></trkpt>
    <trkpt lat="49.164338" lon="19.630752"><ele>855</ele></trkpt>
    <trkpt lat="49.163982" lon="19.630612"><ele>853</ele></trkpt>
    <trkpt lat="49.163190" lon="19.630091"><ele>831</ele></trkpt>
  </trkseg></trk>
</gpx>
