<?xml version="1.0" encoding="UTF-8"?>
<gpx version="1.1" creator="MounTour (OpenStreetMap)" xmlns="http://www.topografix.com/GPX/1/1">
  <metadata><name>Skalnaté pleso</name><copyright author="OpenStreetMap contributors"><license>https://opendatacommons.org/licenses/odbl/</license></copyright></metadata>
  <trk><name>Skalnaté pleso</name><trkseg>
    <trkpt lat="49.173955" lon="20.267354"><ele>1030</ele></trkpt>
    <trkpt lat="49.174140" lon="20.267011"><ele>1033</ele></trkpt>
    <trkpt lat="49.174313" lon="20.266775"><ele>1035</ele></trkpt>
    <trkpt lat="49.174434" lon="20.266476"><ele>1037</ele></trkpt>
    <trkpt lat="49.174701" lon="20.266041"><ele>1041</ele></trkpt>
    <trkpt lat="49.175088" lon="20.265791"><ele>1044</ele></trkpt>
    <trkpt lat="49.175145" lon="20.265693"><ele>1044</ele></trkpt>
    <trkpt lat="49.175316" lon="20.265122"><ele>1048</ele></trkpt>
    <trkpt lat="49.175589" lon="20.264546"><ele>1054</ele></trkpt>
    <trkpt lat="49.176009" lon="20.263850"><ele>1062</ele></trkpt>
    <trkpt lat="49.176140" lon="20.263458"><ele>1067</ele></trkpt>
    <trkpt lat="49.176066" lon="20.262985"><ele>1070</ele></trkpt>
    <trkpt lat="49.176083" lon="20.262811"><ele>1072</ele></trkpt>
    <trkpt lat="49.176207" lon="20.262517"><ele>1074</ele></trkpt>
    <trkpt lat="49.176812" lon="20.261833"><ele>1083</ele></trkpt>
    <trkpt lat="49.176918" lon="20.261769"><ele>1086</ele></trkpt>
    <trkpt lat="49.177166" lon="20.261740"><ele>1088</ele></trkpt>
    <trkpt lat="49.177485" lon="20.261512"><ele>1093</ele></trkpt>
    <trkpt lat="49.177779" lon="20.261370"><ele>1098</ele></trkpt>
    <trkpt lat="49.178060" lon="20.261088"><ele>1103</ele></trkpt>
    <trkpt lat="49.178187" lon="20.260857"><ele>1104</ele></trkpt>
    <trkpt lat="49.178216" lon="20.260417"><ele>1107</ele></trkpt>
    <trkpt lat="49.178321" lon="20.259870"><ele>1113</ele></trkpt>
    <trkpt lat="49.178417" lon="20.258246"><ele>1129</ele></trkpt>
    <trkpt lat="49.178406" lon="20.257717"><ele>1134</ele></trkpt>
    <trkpt lat="49.178317" lon="20.256853"><ele>1143</ele></trkpt>
    <trkpt lat="49.178467" lon="20.256736"><ele>1148</ele></trkpt>
    <trkpt lat="49.178564" lon="20.256320"><ele>1157</ele></trkpt>
    <trkpt lat="49.178656" lon="20.256230"><ele>1161</ele></trkpt>
    <trkpt lat="49.178654" lon="20.256023"><ele>1163</ele></trkpt>
    <trkpt lat="49.178746" lon="20.255737"><ele>1167</ele></trkpt>
    <trkpt lat="49.178989" lon="20.255286"><ele>1172</ele></trkpt>
    <trkpt lat="49.179043" lon="20.255195"><ele>1173</ele></trkpt>
    <trkpt lat="49.179484" lon="20.254790"><ele>1183</ele></trkpt>
    <trkpt lat="49.180053" lon="20.253953"><ele>1197</ele></trkpt>
    <trkpt lat="49.180237" lon="20.253577"><ele>1204</ele></trkpt>
    <trkpt lat="49.181723" lon="20.249485"><ele>1270</ele></trkpt>
    <trkpt lat="49.181796" lon="20.249196"><ele>1275</ele></trkpt>
    <trkpt lat="49.182078" lon="20.248435"><ele>1295</ele></trkpt>
    <trkpt lat="49.182343" lon="20.247583"><ele>1316</ele></trkpt>
    <trkpt lat="49.182492" lon="20.247307"><ele>1324</ele></trkpt>
    <trkpt lat="49.183206" lon="20.246965"><ele>1345</ele></trkpt>
    <trkpt lat="49.183294" lon="20.246694"><ele>1351</ele></trkpt>
    <trkpt lat="49.183349" lon="20.246370"><ele>1356</ele></trkpt>
    <trkpt lat="49.183693" lon="20.245723"><ele>1376</ele></trkpt>
    <trkpt lat="49.183704" lon="20.245582"><ele>1382</ele></trkpt>
    <trkpt lat="49.183664" lon="20.245528"><ele>1383</ele></trkpt>
    <trkpt lat="49.183455" lon="20.245491"><ele>1383</ele></trkpt>
    <trkpt lat="49.183353" lon="20.245426"><ele>1384</ele></trkpt>
    <trkpt lat="49.183283" lon="20.245265"><ele>1388</ele></trkpt>
    <trkpt lat="49.183234" lon="20.244828"><ele>1400</ele></trkpt>
    <trkpt lat="49.183051" lon="20.244167"><ele>1413</ele></trkpt>
    <trkpt lat="49.182827" lon="20.243069"><ele>1433</ele></trkpt>
    <trkpt lat="49.183032" lon="20.243106"><ele>1442</ele></trkpt>
    <trkpt lat="49.183259" lon="20.243239"><ele>1448</ele></trkpt>
    <trkpt lat="49.183579" lon="20.243350"><ele>1450</ele></trkpt>
    <trkpt lat="49.183735" lon="20.243310"><ele>1453</ele></trkpt>
    <trkpt lat="49.183856" lon="20.243197"><ele>1458</ele></trkpt>
    <trkpt lat="49.184093" lon="20.242843"><ele>1469</ele></trkpt>
    <trkpt lat="49.184186" lon="20.242634"><ele>1476</ele></trkpt>
    <trkpt lat="49.184538" lon="20.242315"><ele>1485</ele></trkpt>
    <trkpt lat="49.184943" lon="20.241848"><ele>1494</ele></trkpt>
    <trkpt lat="49.184998" lon="20.241658"><ele>1497</ele></trkpt>
    <trkpt lat="49.185020" lon="20.241432"><ele>1500</ele></trkpt>
    <trkpt lat="49.184959" lon="20.240577"><ele>1510</ele></trkpt>
    <trkpt lat="49.184966" lon="20.240290"><ele>1514</ele></trkpt>
    <trkpt lat="49.184775" lon="20.239885"><ele>1525</ele></trkpt>
    <trkpt lat="49.184740" lon="20.239657"><ele>1528</ele></trkpt>
    <trkpt lat="49.184361" lon="20.238710"><ele>1548</ele></trkpt>
    <trkpt lat="49.184381" lon="20.238530"><ele>1551</ele></trkpt>
    <trkpt lat="49.184345" lon="20.238418"><ele>1554</ele></trkpt>
    <trkpt lat="49.184316" lon="20.237844"><ele>1566</ele></trkpt>
    <trkpt lat="49.184263" lon="20.237761"><ele>1568</ele></trkpt>
    <trkpt lat="49.184328" lon="20.236672"><ele>1594</ele></trkpt>
    <trkpt lat="49.184312" lon="20.236570"><ele>1597</ele></trkpt>
    <trkpt lat="49.184123" lon="20.236385"><ele>1605</ele></trkpt>
    <trkpt lat="49.184161" lon="20.236087"><ele>1611</ele></trkpt>
    <trkpt lat="49.184051" lon="20.235534"><ele>1628</ele></trkpt>
    <trkpt lat="49.184063" lon="20.235328"><ele>1634</ele></trkpt>
    <trkpt lat="49.183956" lon="20.235027"><ele>1643</ele></trkpt>
    <trkpt lat="49.183944" lon="20.234832"><ele>1649</ele></trkpt>
    <trkpt lat="49.183974" lon="20.234539"><ele>1656</ele></trkpt>
    <trkpt lat="49.183790" lon="20.234123"><ele>1664</ele></trkpt>
    <trkpt lat="49.183755" lon="20.233785"><ele>1672</ele></trkpt>
    <trkpt lat="49.183788" lon="20.233685"><ele>1675</ele></trkpt>
    <trkpt lat="49.183881" lon="20.233598"><ele>1679</ele></trkpt>
    <trkpt lat="49.184094" lon="20.233525"><ele>1685</ele></trkpt>
    <trkpt lat="49.184289" lon="20.233579"><ele>1688</ele></trkpt>
    <trkpt lat="49.184307" lon="20.233525"><ele>1690</ele></trkpt>
    <trkpt lat="49.184226" lon="20.233332"><ele>1693</ele></trkpt>
    <trkpt lat="49.184438" lon="20.233418"><ele>1697</ele></trkpt>
    <trkpt lat="49.184403" lon="20.233303"><ele>1700</ele></trkpt>
    <trkpt lat="49.184438" lon="20.233283"><ele>1702</ele></trkpt>
    <trkpt lat="49.184700" lon="20.233450"><ele>1702</ele></trkpt>
    <trkpt lat="49.184984" lon="20.233397"><ele>1706</ele></trkpt>
    <trkpt lat="49.185114" lon="20.233291"><ele>1711</ele></trkpt>
    <trkpt lat="49.185273" lon="20.233316"><ele>1714</ele></trkpt>
    <trkpt lat="49.185679" lon="20.233577"><ele>1718</ele></trkpt>
    <trkpt lat="49.186386" lon="20.233652"><ele>1726</ele></trkpt>
    <trkpt lat="49.186687" lon="20.233795"><ele>1732</ele></trkpt>
    <trkpt lat="49.186648" lon="20.233368"><ele>1739</ele></trkpt>
    <trkpt lat="49.186844" lon="20.233543"><ele>1743</ele></trkpt>
    <trkpt lat="49.187103" lon="20.233463"><ele>1749</ele></trkpt>
    <trkpt lat="49.187421" lon="20.232548"><ele>1766</ele></trkpt>
    <trkpt lat="49.187482" lon="20.232595"><ele>1767</ele></trkpt>
    <trkpt lat="49.187449" lon="20.232692"><ele>1766</ele></trkpt>
    <trkpt lat="49.187506" lon="20.232737"><ele>1767</ele></trkpt>
    <trkpt lat="49.187484" lon="20.232793"><ele>1766</ele></trkpt>
    <trkpt lat="49.187647" lon="20.232911"><ele>1766</ele></trkpt>
    <trkpt lat="49.187628" lon="20.232970"><ele>1766</ele></trkpt>
    <trkpt lat="49.187665" lon="20.233000"><ele>1766</ele></trkpt>
    <trkpt lat="49.187703" lon="20.232930"><ele>1765</ele></trkpt>
    <trkpt lat="49.187859" lon="20.233075"><ele>1761</ele></trkpt>
    <trkpt lat="49.188078" lon="20.232378"><ele>1757</ele></trkpt>
    <trkpt lat="49.188323" lon="20.231766"><ele>1757</ele></trkpt>
    <trkpt lat="49.188078" lon="20.232378"><ele>1757</ele></trkpt>
    <trkpt lat="49.187859" lon="20.233075"><ele>1761</ele></trkpt>
    <trkpt lat="49.187703" lon="20.232930"><ele>1765</ele></trkpt>
    <trkpt lat="49.187665" lon="20.233000"><ele>1766</ele></trkpt>
    <trkpt lat="49.187628" lon="20.232970"><ele>1766</ele></trkpt>
    <trkpt lat="49.187647" lon="20.232911"><ele>1766</ele></trkpt>
    <trkpt lat="49.187484" lon="20.232793"><ele>1766</ele></trkpt>
    <trkpt lat="49.187506" lon="20.232737"><ele>1767</ele></trkpt>
    <trkpt lat="49.187449" lon="20.232692"><ele>1766</ele></trkpt>
    <trkpt lat="49.187482" lon="20.232595"><ele>1767</ele></trkpt>
    <trkpt lat="49.187421" lon="20.232548"><ele>1766</ele></trkpt>
    <trkpt lat="49.187103" lon="20.233463"><ele>1749</ele></trkpt>
    <trkpt lat="49.186844" lon="20.233543"><ele>1743</ele></trkpt>
    <trkpt lat="49.186648" lon="20.233368"><ele>1739</ele></trkpt>
    <trkpt lat="49.186687" lon="20.233795"><ele>1732</ele></trkpt>
    <trkpt lat="49.186386" lon="20.233652"><ele>1726</ele></trkpt>
    <trkpt lat="49.185679" lon="20.233577"><ele>1718</ele></trkpt>
    <trkpt lat="49.185273" lon="20.233316"><ele>1714</ele></trkpt>
    <trkpt lat="49.185114" lon="20.233291"><ele>1711</ele></trkpt>
    <trkpt lat="49.184984" lon="20.233397"><ele>1706</ele></trkpt>
    <trkpt lat="49.184700" lon="20.233450"><ele>1702</ele></trkpt>
    <trkpt lat="49.184438" lon="20.233283"><ele>1702</ele></trkpt>
    <trkpt lat="49.184403" lon="20.233303"><ele>1700</ele></trkpt>
    <trkpt lat="49.184438" lon="20.233418"><ele>1697</ele></trkpt>
    <trkpt lat="49.184226" lon="20.233332"><ele>1693</ele></trkpt>
    <trkpt lat="49.184307" lon="20.233525"><ele>1690</ele></trkpt>
    <trkpt lat="49.184289" lon="20.233579"><ele>1688</ele></trkpt>
    <trkpt lat="49.184094" lon="20.233525"><ele>1685</ele></trkpt>
    <trkpt lat="49.183881" lon="20.233598"><ele>1679</ele></trkpt>
    <trkpt lat="49.183788" lon="20.233685"><ele>1675</ele></trkpt>
    <trkpt lat="49.183755" lon="20.233785"><ele>1672</ele></trkpt>
    <trkpt lat="49.183790" lon="20.234123"><ele>1664</ele></trkpt>
    <trkpt lat="49.183974" lon="20.234539"><ele>1656</ele></trkpt>
    <trkpt lat="49.183944" lon="20.234832"><ele>1649</ele></trkpt>
    <trkpt lat="49.183956" lon="20.235027"><ele>1643</ele></trkpt>
    <trkpt lat="49.184063" lon="20.235328"><ele>1634</ele></trkpt>
    <trkpt lat="49.184051" lon="20.235534"><ele>1628</ele></trkpt>
    <trkpt lat="49.184161" lon="20.236087"><ele>1611</ele></trkpt>
    <trkpt lat="49.184123" lon="20.236385"><ele>1605</ele></trkpt>
    <trkpt lat="49.184312" lon="20.236570"><ele>1597</ele></trkpt>
    <trkpt lat="49.184328" lon="20.236672"><ele>1594</ele></trkpt>
    <trkpt lat="49.184263" lon="20.237761"><ele>1568</ele></trkpt>
    <trkpt lat="49.184316" lon="20.237844"><ele>1566</ele></trkpt>
    <trkpt lat="49.184345" lon="20.238418"><ele>1554</ele></trkpt>
    <trkpt lat="49.184381" lon="20.238530"><ele>1551</ele></trkpt>
    <trkpt lat="49.184361" lon="20.238710"><ele>1548</ele></trkpt>
    <trkpt lat="49.184740" lon="20.239657"><ele>1528</ele></trkpt>
    <trkpt lat="49.184775" lon="20.239885"><ele>1525</ele></trkpt>
    <trkpt lat="49.184966" lon="20.240290"><ele>1514</ele></trkpt>
    <trkpt lat="49.184959" lon="20.240577"><ele>1510</ele></trkpt>
    <trkpt lat="49.185020" lon="20.241432"><ele>1500</ele></trkpt>
    <trkpt lat="49.184998" lon="20.241658"><ele>1497</ele></trkpt>
    <trkpt lat="49.184943" lon="20.241848"><ele>1494</ele></trkpt>
    <trkpt lat="49.184538" lon="20.242315"><ele>1485</ele></trkpt>
    <trkpt lat="49.184186" lon="20.242634"><ele>1476</ele></trkpt>
    <trkpt lat="49.184093" lon="20.242843"><ele>1469</ele></trkpt>
    <trkpt lat="49.183856" lon="20.243197"><ele>1458</ele></trkpt>
    <trkpt lat="49.183735" lon="20.243310"><ele>1453</ele></trkpt>
    <trkpt lat="49.183579" lon="20.243350"><ele>1450</ele></trkpt>
    <trkpt lat="49.183259" lon="20.243239"><ele>1448</ele></trkpt>
    <trkpt lat="49.183032" lon="20.243106"><ele>1442</ele></trkpt>
    <trkpt lat="49.182827" lon="20.243069"><ele>1433</ele></trkpt>
    <trkpt lat="49.183051" lon="20.244167"><ele>1413</ele></trkpt>
    <trkpt lat="49.183234" lon="20.244828"><ele>1400</ele></trkpt>
    <trkpt lat="49.183283" lon="20.245265"><ele>1388</ele></trkpt>
    <trkpt lat="49.183353" lon="20.245426"><ele>1384</ele></trkpt>
    <trkpt lat="49.183455" lon="20.245491"><ele>1383</ele></trkpt>
    <trkpt lat="49.183664" lon="20.245528"><ele>1383</ele></trkpt>
    <trkpt lat="49.183704" lon="20.245582"><ele>1382</ele></trkpt>
    <trkpt lat="49.183693" lon="20.245723"><ele>1376</ele></trkpt>
    <trkpt lat="49.183349" lon="20.246370"><ele>1356</ele></trkpt>
    <trkpt lat="49.183294" lon="20.246694"><ele>1351</ele></trkpt>
    <trkpt lat="49.183206" lon="20.246965"><ele>1345</ele></trkpt>
    <trkpt lat="49.182492" lon="20.247307"><ele>1324</ele></trkpt>
    <trkpt lat="49.182343" lon="20.247583"><ele>1316</ele></trkpt>
    <trkpt lat="49.182078" lon="20.248435"><ele>1295</ele></trkpt>
    <trkpt lat="49.181796" lon="20.249196"><ele>1275</ele></trkpt>
    <trkpt lat="49.181723" lon="20.249485"><ele>1270</ele></trkpt>
    <trkpt lat="49.180237" lon="20.253577"><ele>1204</ele></trkpt>
    <trkpt lat="49.180053" lon="20.253953"><ele>1197</ele></trkpt>
    <trkpt lat="49.179484" lon="20.254790"><ele>1183</ele></trkpt>
    <trkpt lat="49.179043" lon="20.255195"><ele>1173</ele></trkpt>
    <trkpt lat="49.178989" lon="20.255286"><ele>1172</ele></trkpt>
    <trkpt lat="49.178746" lon="20.255737"><ele>1167</ele></trkpt>
    <trkpt lat="49.178654" lon="20.256023"><ele>1163</ele></trkpt>
    <trkpt lat="49.178656" lon="20.256230"><ele>1161</ele></trkpt>
    <trkpt lat="49.178564" lon="20.256320"><ele>1157</ele></trkpt>
    <trkpt lat="49.178467" lon="20.256736"><ele>1148</ele></trkpt>
    <trkpt lat="49.178317" lon="20.256853"><ele>1143</ele></trkpt>
    <trkpt lat="49.178406" lon="20.257717"><ele>1134</ele></trkpt>
    <trkpt lat="49.178417" lon="20.258246"><ele>1129</ele></trkpt>
    <trkpt lat="49.178321" lon="20.259870"><ele>1113</ele></trkpt>
    <trkpt lat="49.178216" lon="20.260417"><ele>1107</ele></trkpt>
    <trkpt lat="49.178187" lon="20.260857"><ele>1104</ele></trkpt>
    <trkpt lat="49.178060" lon="20.261088"><ele>1103</ele></trkpt>
    <trkpt lat="49.177779" lon="20.261370"><ele>1098</ele></trkpt>
    <trkpt lat="49.177485" lon="20.261512"><ele>1093</ele></trkpt>
    <trkpt lat="49.177166" lon="20.261740"><ele>1088</ele></trkpt>
    <trkpt lat="49.176918" lon="20.261769"><ele>1086</ele></trkpt>
    <trkpt lat="49.176812" lon="20.261833"><ele>1083</ele></trkpt>
    <trkpt lat="49.176207" lon="20.262517"><ele>1074</ele></trkpt>
    <trkpt lat="49.176083" lon="20.262811"><ele>1072</ele></trkpt>
    <trkpt lat="49.176066" lon="20.262985"><ele>1070</ele></trkpt>
    <trkpt lat="49.176140" lon="20.263458"><ele>1067</ele></trkpt>
    <trkpt lat="49.176009" lon="20.263850"><ele>1062</ele></trkpt>
    <trkpt lat="49.175589" lon="20.264546"><ele>1054</ele></trkpt>
    <trkpt lat="49.175316" lon="20.265122"><ele>1048</ele></trkpt>
    <trkpt lat="49.175145" lon="20.265693"><ele>1044</ele></trkpt>
    <trkpt lat="49.175088" lon="20.265791"><ele>1044</ele></trkpt>
    <trkpt lat="49.174701" lon="20.266041"><ele>1041</ele></trkpt>
    <trkpt lat="49.174434" lon="20.266476"><ele>1037</ele></trkpt>
    <trkpt lat="49.174313" lon="20.266775"><ele>1035</ele></trkpt>
    <trkpt lat="49.174140" lon="20.267011"><ele>1033</ele></trkpt>
    <trkpt lat="49.173955" lon="20.267354"><ele>1030</ele></trkpt>
  </trkseg></trk>
</gpx>
