<?xml version="1.0" encoding="UTF-8"?>
<gpx version="1.1" creator="MounTour (OpenStreetMap)" xmlns="http://www.topografix.com/GPX/1/1">
  <metadata><name>Skalnatá</name><copyright author="OpenStreetMap contributors"><license>https://opendatacommons.org/licenses/odbl/</license></copyright></metadata>
  <trk><name>Skalnatá</name><trkseg>
    <trkpt lat="48.382320" lon="17.261799"><ele>486</ele></trkpt>
    <trkpt lat="48.382375" lon="17.261389"><ele>484</ele></trkpt>
    <trkpt lat="48.382283" lon="17.260846"><ele>482</ele></trkpt>
    <trkpt lat="48.382297" lon="17.260611"><ele>487</ele></trkpt>
    <trkpt lat="48.382600" lon="17.259789"><ele>515</ele></trkpt>
    <trkpt lat="48.382676" lon="17.259444"><ele>521</ele></trkpt>
    <trkpt lat="48.382720" lon="17.259081"><ele>523</ele></trkpt>
    <trkpt lat="48.382683" lon="17.258430"><ele>528</ele></trkpt>
    <trkpt lat="48.382697" lon="17.258178"><ele>529</ele></trkpt>
    <trkpt lat="48.382774" lon="17.257769"><ele>532</ele></trkpt>
    <trkpt lat="48.382812" lon="17.257344"><ele>533</ele></trkpt>
    <trkpt lat="48.382690" lon="17.256487"><ele>536</ele></trkpt>
    <trkpt lat="48.382745" lon="17.255347"><ele>545</ele></trkpt>
    <trkpt lat="48.382647" lon="17.254791"><ele>551</ele></trkpt>
    <trkpt lat="48.382655" lon="17.254438"><ele>555</ele></trkpt>
    <trkpt lat="48.382761" lon="17.253793"><ele>560</ele></trkpt>
    <trkpt lat="48.383053" lon="17.253210"><ele>561</ele></trkpt>
    <trkpt lat="48.383156" lon="17.252893"><ele>562</ele></trkpt>
    <trkpt lat="48.383151" lon="17.252395"><ele>560</ele></trkpt>
    <trkpt lat="48.383089" lon="17.251870"><ele>564</ele></trkpt>
    <trkpt lat="48.383118" lon="17.251192"><ele>575</ele></trkpt>
    <trkpt lat="48.383188" lon="17.250778"><ele>582</ele></trkpt>
    <trkpt lat="48.383473" lon="17.250056"><ele>594</ele></trkpt>
    <trkpt lat="48.384074" lon="17.249232"><ele>604</ele></trkpt>
    <trkpt lat="48.384386" lon="17.248680"><ele>609</ele></trkpt>
    <trkpt lat="48.384440" lon="17.248395"><ele>610</ele></trkpt>
    <trkpt lat="48.384703" lon="17.247824"><ele>610</ele></trkpt>
    <trkpt lat="48.384819" lon="17.247419"><ele>612</ele></trkpt>
    <trkpt lat="48.384847" lon="17.247207"><ele>613</ele></trkpt>
    <trkpt lat="48.384901" lon="17.246540"><ele>604</ele></trkpt>
    <trkpt lat="48.384857" lon="17.246160"><ele>598</ele></trkpt>
    <trkpt lat="48.385005" lon="17.245759"><ele>602</ele></trkpt>
    <trkpt lat="48.384821" lon="17.244597"><ele>602</ele></trkpt>
    <trkpt lat="48.384768" lon="17.243841"><ele>599</ele></trkpt>
    <trkpt lat="48.384671" lon="17.243687"><ele>599</ele></trkpt>
    <trkpt lat="48.384200" lon="17.243588"><ele>602</ele></trkpt>
    <trkpt lat="48.383281" lon="17.243534"><ele>609</ele></trkpt>
    <trkpt lat="48.383122" lon="17.243454"><ele>612</ele></trkpt>
    <trkpt lat="48.382925" lon="17.243287"><ele>614</ele></trkpt>
    <trkpt lat="48.382795" lon="17.243242"><ele>616</ele></trkpt>
    <trkpt lat="48.382599" lon="17.243274"><ele>620</ele></trkpt>
    <trkpt lat="48.382215" lon="17.243496"><ele>637</ele></trkpt>
    <trkpt lat="48.381766" lon="17.243471"><ele>635</ele></trkpt>
    <trkpt lat="48.381320" lon="17.243374"><ele>636</ele></trkpt>
    <trkpt lat="48.381243" lon="17.243305"><ele>636</ele></trkpt>
    <trkpt lat="48.381201" lon="17.243187"><ele>636</ele></trkpt>
    <trkpt lat="48.381281" lon="17.242683"><ele>634</ele></trkpt>
    <trkpt lat="48.381463" lon="17.242041"><ele>636</ele></trkpt>
    <trkpt lat="48.381557" lon="17.241489"><ele>639</ele></trkpt>
    <trkpt lat="48.381680" lon="17.241013"><ele>639</ele></trkpt>
    <trkpt lat="48.381883" lon="17.240405"><ele>640</ele></trkpt>
    <trkpt lat="48.381936" lon="17.239782"><ele>645</ele></trkpt>
    <trkpt lat="48.381936" lon="17.239110"><ele>648</ele></trkpt>
    <trkpt lat="48.381907" lon="17.238866"><ele>647</ele></trkpt>
    <trkpt lat="48.381761" lon="17.238256"><ele>647</ele></trkpt>
    <trkpt lat="48.381724" lon="17.237926"><ele>646</ele></trkpt>
    <trkpt lat="48.381734" lon="17.237773"><ele>646</ele></trkpt>
    <trkpt lat="48.381853" lon="17.237350"><ele>643</ele></trkpt>
    <trkpt lat="48.381866" lon="17.237078"><ele>641</ele></trkpt>
    <trkpt lat="48.381755" lon="17.236503"><ele>635</ele></trkpt>
    <trkpt lat="48.381675" lon="17.236236"><ele>632</ele></trkpt>
    <trkpt lat="48.381671" lon="17.235926"><ele>627</ele></trkpt>
    <trkpt lat="48.381463" lon="17.235538"><ele>624</ele></trkpt>
    <trkpt lat="48.381440" lon="17.235400"><ele>622</ele></trkpt>
    <trkpt lat="48.381455" lon="17.234727"><ele>607</ele></trkpt>
    <trkpt lat="48.381429" lon="17.234276"><ele>601</ele></trkpt>
    <trkpt lat="48.381456" lon="17.233961"><ele>599</ele></trkpt>
    <trkpt lat="48.381351" lon="17.233225"><ele>609</ele></trkpt>
    <trkpt lat="48.381268" lon="17.232964"><ele>617</ele></trkpt>
    <trkpt lat="48.381218" lon="17.232592"><ele>626</ele></trkpt>
    <trkpt lat="48.381221" lon="17.232301"><ele>630</ele></trkpt>
    <trkpt lat="48.381116" lon="17.231591"><ele>648</ele></trkpt>
    <trkpt lat="48.381126" lon="17.231361"><ele>653</ele></trkpt>
    <trkpt lat="48.381060" lon="17.231064"><ele>662</ele></trkpt>
    <trkpt lat="48.381073" lon="17.230633"><ele>670</ele></trkpt>
    <trkpt lat="48.381131" lon="17.230287"><ele>675</ele></trkpt>
    <trkpt lat="48.381209" lon="17.230045"><ele>680</ele></trkpt>
    <trkpt lat="48.381189" lon="17.229791"><ele>687</ele></trkpt>
    <trkpt lat="48.381224" lon="17.229422"><ele>693</ele></trkpt>
    <trkpt lat="48.381117" lon="17.229181"><ele>698</ele></trkpt>
    <trkpt lat="48.381146" lon="17.228877"><ele>703</ele></trkpt>
    <trkpt lat="48.381058" lon="17.228775"><ele>704</ele></trkpt>
    <trkpt lat="48.381146" lon="17.228877"><ele>703</ele></trkpt>
    <trkpt lat="48.381117" lon="17.229181"><ele>698</ele></trkpt>
    <trkpt lat="48.381224" lon="17.229422"><ele>693</ele></trkpt>
    <trkpt lat="48.381189" lon="17.229791"><ele>687</ele></trkpt>
    <trkpt lat="48.381209" lon="17.230045"><ele>680</ele></trkpt>
    <trkpt lat="48.381131" lon="17.230287"><ele>675</ele></trkpt>
    <trkpt lat="48.381073" lon="17.230633"><ele>670</ele></trkpt>
    <trkpt lat="48.381060" lon="17.231064"><ele>662</ele></trkpt>
    <trkpt lat="48.381126" lon="17.231361"><ele>653</ele></trkpt>
    <trkpt lat="48.381116" lon="17.231591"><ele>648</ele></trkpt>
    <trkpt lat="48.381221" lon="17.232301"><ele>630</ele></trkpt>
    <trkpt lat="48.381218" lon="17.232592"><ele>626</ele></trkpt>
    <trkpt lat="48.381268" lon="17.232964"><ele>617</ele></trkpt>
    <trkpt lat="48.381351" lon="17.233225"><ele>609</ele></trkpt>
    <trkpt lat="48.381456" lon="17.233961"><ele>599</ele></trkpt>
    <trkpt lat="48.381429" lon="17.234276"><ele>601</ele></trkpt>
    <trkpt lat="48.381455" lon="17.234727"><ele>607</ele></trkpt>
    <trkpt lat="48.381440" lon="17.235400"><ele>622</ele></trkpt>
    <trkpt lat="48.381463" lon="17.235538"><ele>624</ele></trkpt>
    <trkpt lat="48.381671" lon="17.235926"><ele>627</ele></trkpt>
    <trkpt lat="48.381675" lon="17.236236"><ele>632</ele></trkpt>
    <trkpt lat="48.381755" lon="17.236503"><ele>635</ele></trkpt>
    <trkpt lat="48.381866" lon="17.237078"><ele>641</ele></trkpt>
    <trkpt lat="48.381853" lon="17.237350"><ele>643</ele></trkpt>
    <trkpt lat="48.381734" lon="17.237773"><ele>646</ele></trkpt>
    <trkpt lat="48.381724" lon="17.237926"><ele>646</ele></trkpt>
    <trkpt lat="48.381761" lon="17.238256"><ele>647</ele></trkpt>
    <trkpt lat="48.381907" lon="17.238866"><ele>647</ele></trkpt>
    <trkpt lat="48.381936" lon="17.239110"><ele>648</ele></trkpt>
    <trkpt lat="48.381936" lon="17.239782"><ele>645</ele></trkpt>
    <trkpt lat="48.381883" lon="17.240405"><ele>640</ele></trkpt>
    <trkpt lat="48.381680" lon="17.241013"><ele>639</ele></trkpt>
    <trkpt lat="48.381557" lon="17.241489"><ele>639</ele></trkpt>
    <trkpt lat="48.381463" lon="17.242041"><ele>636</ele></trkpt>
    <trkpt lat="48.381281" lon="17.242683"><ele>634</ele></trkpt>
    <trkpt lat="48.381201" lon="17.243187"><ele>636</ele></trkpt>
    <trkpt lat="48.381243" lon="17.243305"><ele>636</ele></trkpt>
    <trkpt lat="48.381320" lon="17.243374"><ele>636</ele></trkpt>
    <trkpt lat="48.381766" lon="17.243471"><ele>635</ele></trkpt>
    <trkpt lat="48.382215" lon="17.243496"><ele>637</ele></trkpt>
    <trkpt lat="48.382599" lon="17.243274"><ele>620</ele></trkpt>
    <trkpt lat="48.382795" lon="17.243242"><ele>616</ele></trkpt>
    <trkpt lat="48.382925" lon="17.243287"><ele>614</ele></trkpt>
    <trkpt lat="48.383122" lon="17.243454"><ele>612</ele></trkpt>
    <trkpt lat="48.383281" lon="17.243534"><ele>609</ele></trkpt>
    <trkpt lat="48.384200" lon="17.243588"><ele>602</ele></trkpt>
    <trkpt lat="48.384671" lon="17.243687"><ele>599</ele></trkpt>
    <trkpt lat="48.384768" lon="17.243841"><ele>599</ele></trkpt>
    <trkpt lat="48.384821" lon="17.244597"><ele>602</ele></trkpt>
    <trkpt lat="48.385005" lon="17.245759"><ele>602</ele></trkpt>
    <trkpt lat="48.384857" lon="17.246160"><ele>598</ele></trkpt>
    <trkpt lat="48.384901" lon="17.246540"><ele>604</ele></trkpt>
    <trkpt lat="48.384847" lon="17.247207"><ele>613</ele></trkpt>
    <trkpt lat="48.384819" lon="17.247419"><ele>612</ele></trkpt>
    <trkpt lat="48.384703" lon="17.247824"><ele>610</ele></trkpt>
    <trkpt lat="48.384440" lon="17.248395"><ele>610</ele></trkpt>
    <trkpt lat="48.384386" lon="17.248680"><ele>609</ele></trkpt>
    <trkpt lat="48.384074" lon="17.249232"><ele>604</ele></trkpt>
    <trkpt lat="48.383473" lon="17.250056"><ele>594</ele></trkpt>
    <trkpt lat="48.383188" lon="17.250778"><ele>582</ele></trkpt>
    <trkpt lat="48.383118" lon="17.251192"><ele>575</ele></trkpt>
    <trkpt lat="48.383089" lon="17.251870"><ele>564</ele></trkpt>
    <trkpt lat="48.383151" lon="17.252395"><ele>560</ele></trkpt>
    <trkpt lat="48.383156" lon="17.252893"><ele>562</ele></trkpt>
    <trkpt lat="48.383053" lon="17.253210"><ele>561</ele></trkpt>
    <trkpt lat="48.382761" lon="17.253793"><ele>560</ele></trkpt>
    <trkpt lat="48.382655" lon="17.254438"><ele>555</ele></trkpt>
    <trkpt lat="48.382647" lon="17.254791"><ele>551</ele></trkpt>
    <trkpt lat="48.382745" lon="17.255347"><ele>545</ele></trkpt>
    <trkpt lat="48.382690" lon="17.256487"><ele>536</ele></trkpt>
    <trkpt lat="48.382812" lon="17.257344"><ele>533</ele></trkpt>
    <trkpt lat="48.382774" lon="17.257769"><ele>532</ele></trkpt>
    <trkpt lat="48.382697" lon="17.258178"><ele>529</ele></trkpt>
    <trkpt lat="48.382683" lon="17.258430"><ele>528</ele></trkpt>
    <trkpt lat="48.382720" lon="17.259081"><ele>523</ele></trkpt>
    <trkpt lat="48.382676" lon="17.259444"><ele>521</ele></trkpt>
    <trkpt lat="48.382600" lon="17.259789"><ele>515</ele></trkpt>
    <trkpt lat="48.382297" lon="17.260611"><ele>487</ele></trkpt>
    <trkpt lat="48.382283" lon="17.260846"><ele>482</ele></trkpt>
    <trkpt lat="48.382375" lon="17.261389"><ele>484</ele></trkpt>
    <trkpt lat="48.382320" lon="17.261799"><ele>486</ele></trkpt>
  </trkseg></trk>
</gpx>
