<?xml version="1.0" encoding="UTF-8"?>
<gpx version="1.1" creator="MounTour (OpenStreetMap)" xmlns="http://www.topografix.com/GPX/1/1">
  <metadata><name>Slavkovský štít</name><copyright author="OpenStreetMap contributors"><license>https://opendatacommons.org/licenses/odbl/</license></copyright></metadata>
  <trk><name>Slavkovský štít</name><trkseg>
    <trkpt lat="49.158794" lon="20.225006"><ele>1276</ele></trkpt>
    <trkpt lat="49.158723" lon="20.224986"><ele>1276</ele></trkpt>
    <trkpt lat="49.158683" lon="20.224787"><ele>1277</ele></trkpt>
    <trkpt lat="49.158705" lon="20.224056"><ele>1284</ele></trkpt>
    <trkpt lat="49.158688" lon="20.223722"><ele>1286</ele></trkpt>
    <trkpt lat="49.158296" lon="20.222626"><ele>1288</ele></trkpt>
    <trkpt lat="49.158187" lon="20.222181"><ele>1293</ele></trkpt>
    <trkpt lat="49.157913" lon="20.220741"><ele>1302</ele></trkpt>
    <trkpt lat="49.157807" lon="20.219685"><ele>1314</ele></trkpt>
    <trkpt lat="49.157721" lon="20.219182"><ele>1318</ele></trkpt>
    <trkpt lat="49.157623" lon="20.218828"><ele>1321</ele></trkpt>
    <trkpt lat="49.157257" lon="20.218145"><ele>1324</ele></trkpt>
    <trkpt lat="49.157098" lon="20.217566"><ele>1329</ele></trkpt>
    <trkpt lat="49.156942" lon="20.217303"><ele>1329</ele></trkpt>
    <trkpt lat="49.156875" lon="20.217036"><ele>1332</ele></trkpt>
    <trkpt lat="49.156640" lon="20.216544"><ele>1335</ele></trkpt>
    <trkpt lat="49.156436" lon="20.216259"><ele>1338</ele></trkpt>
    <trkpt lat="49.156028" lon="20.215962"><ele>1340</ele></trkpt>
    <trkpt lat="49.155690" lon="20.215555"><ele>1343</ele></trkpt>
    <trkpt lat="49.155586" lon="20.215061"><ele>1351</ele></trkpt>
    <trkpt lat="49.155598" lon="20.214857"><ele>1354</ele></trkpt>
    <trkpt lat="49.155559" lon="20.214430"><ele>1358</ele></trkpt>
    <trkpt lat="49.155739" lon="20.213696"><ele>1365</ele></trkpt>
    <trkpt lat="49.155746" lon="20.213560"><ele>1367</ele></trkpt>
    <trkpt lat="49.155941" lon="20.213061"><ele>1382</ele></trkpt>
    <trkpt lat="49.155698" lon="20.213040"><ele>1375</ele></trkpt>
    <trkpt lat="49.155685" lon="20.212911"><ele>1376</ele></trkpt>
    <trkpt lat="49.155463" lon="20.212378"><ele>1376</ele></trkpt>
    <trkpt lat="49.155325" lon="20.212227"><ele>1373</ele></trkpt>
    <trkpt lat="49.154813" lon="20.211489"><ele>1374</ele></trkpt>
    <trkpt lat="49.153574" lon="20.210314"><ele>1360</ele></trkpt>
    <trkpt lat="49.153536" lon="20.210163"><ele>1363</ele></trkpt>
    <trkpt lat="49.153613" lon="20.210161"><ele>1366</ele></trkpt>
    <trkpt lat="49.154268" lon="20.210440"><ele>1387</ele></trkpt>
    <trkpt lat="49.154567" lon="20.210656"><ele>1391</ele></trkpt>
    <trkpt lat="49.154959" lon="20.210869"><ele>1399</ele></trkpt>
    <trkpt lat="49.155194" lon="20.210820"><ele>1407</ele></trkpt>
    <trkpt lat="49.155252" lon="20.210923"><ele>1406</ele></trkpt>
    <trkpt lat="49.155502" lon="20.211180"><ele>1403</ele></trkpt>
    <trkpt lat="49.155704" lon="20.211309"><ele>1407</ele></trkpt>
    <trkpt lat="49.156123" lon="20.211479"><ele>1417</ele></trkpt>
    <trkpt lat="49.156575" lon="20.211464"><ele>1430</ele></trkpt>
    <trkpt lat="49.156836" lon="20.211559"><ele>1434</ele></trkpt>
    <trkpt lat="49.156919" lon="20.211567"><ele>1435</ele></trkpt>
    <trkpt lat="49.157025" lon="20.211443"><ele>1440</ele></trkpt>
    <trkpt lat="49.157052" lon="20.211514"><ele>1440</ele></trkpt>
    <trkpt lat="49.157054" lon="20.211712"><ele>1436</ele></trkpt>
    <trkpt lat="49.157249" lon="20.211872"><ele>1441</ele></trkpt>
    <trkpt lat="49.157493" lon="20.211881"><ele>1448</ele></trkpt>
    <trkpt lat="49.157976" lon="20.212218"><ele>1459</ele></trkpt>
    <trkpt lat="49.158078" lon="20.212229"><ele>1462</ele></trkpt>
    <trkpt lat="49.158194" lon="20.212121"><ele>1468</ele></trkpt>
    <trkpt lat="49.158390" lon="20.212426"><ele>1470</ele></trkpt>
    <trkpt lat="49.158592" lon="20.212563"><ele>1474</ele></trkpt>
    <trkpt lat="49.159088" lon="20.213087"><ele>1484</ele></trkpt>
    <trkpt lat="49.159134" lon="20.213197"><ele>1484</ele></trkpt>
    <trkpt lat="49.159297" lon="20.213342"><ele>1487</ele></trkpt>
    <trkpt lat="49.159646" lon="20.213884"><ele>1492</ele></trkpt>
    <trkpt lat="49.160124" lon="20.214481"><ele>1499</ele></trkpt>
    <trkpt lat="49.160439" lon="20.215095"><ele>1501</ele></trkpt>
    <trkpt lat="49.160811" lon="20.215514"><ele>1508</ele></trkpt>
    <trkpt lat="49.161145" lon="20.215990"><ele>1511</ele></trkpt>
    <trkpt lat="49.161735" lon="20.216632"><ele>1519</ele></trkpt>
    <trkpt lat="49.161831" lon="20.216692"><ele>1521</ele></trkpt>
    <trkpt lat="49.162276" lon="20.217282"><ele>1527</ele></trkpt>
    <trkpt lat="49.162427" lon="20.217374"><ele>1523</ele></trkpt>
    <trkpt lat="49.162373" lon="20.217149"><ele>1531</ele></trkpt>
    <trkpt lat="49.162398" lon="20.216901"><ele>1538</ele></trkpt>
    <trkpt lat="49.162488" lon="20.216799"><ele>1542</ele></trkpt>
    <trkpt lat="49.162451" lon="20.216609"><ele>1544</ele></trkpt>
    <trkpt lat="49.162458" lon="20.216339"><ele>1550</ele></trkpt>
    <trkpt lat="49.162317" lon="20.216017"><ele>1554</ele></trkpt>
    <trkpt lat="49.162316" lon="20.215946"><ele>1556</ele></trkpt>
    <trkpt lat="49.162246" lon="20.215846"><ele>1556</ele></trkpt>
    <trkpt lat="49.162216" lon="20.215690"><ele>1559</ele></trkpt>
    <trkpt lat="49.162235" lon="20.215363"><ele>1568</ele></trkpt>
    <trkpt lat="49.162132" lon="20.215134"><ele>1569</ele></trkpt>
    <trkpt lat="49.162127" lon="20.214881"><ele>1576</ele></trkpt>
    <trkpt lat="49.161996" lon="20.214236"><ele>1585</ele></trkpt>
    <trkpt lat="49.161941" lon="20.213697"><ele>1593</ele></trkpt>
    <trkpt lat="49.162011" lon="20.213509"><ele>1601</ele></trkpt>
    <trkpt lat="49.162003" lon="20.213320"><ele>1604</ele></trkpt>
    <trkpt lat="49.162050" lon="20.212952"><ele>1614</ele></trkpt>
    <trkpt lat="49.162125" lon="20.212962"><ele>1617</ele></trkpt>
    <trkpt lat="49.162249" lon="20.213154"><ele>1620</ele></trkpt>
    <trkpt lat="49.162563" lon="20.213287"><ele>1632</ele></trkpt>
    <trkpt lat="49.162944" lon="20.213523"><ele>1645</ele></trkpt>
    <trkpt lat="49.163223" lon="20.213648"><ele>1651</ele></trkpt>
    <trkpt lat="49.163338" lon="20.213630"><ele>1653</ele></trkpt>
    <trkpt lat="49.163289" lon="20.212738"><ele>1673</ele></trkpt>
    <trkpt lat="49.163242" lon="20.212326"><ele>1681</ele></trkpt>
    <trkpt lat="49.163171" lon="20.212058"><ele>1683</ele></trkpt>
    <trkpt lat="49.163190" lon="20.211750"><ele>1691</ele></trkpt>
    <trkpt lat="49.163063" lon="20.211445"><ele>1693</ele></trkpt>
    <trkpt lat="49.163060" lon="20.211135"><ele>1700</ele></trkpt>
    <trkpt lat="49.163108" lon="20.211042"><ele>1704</ele></trkpt>
    <trkpt lat="49.163194" lon="20.211002"><ele>1709</ele></trkpt>
    <trkpt lat="49.163902" lon="20.211336"><ele>1729</ele></trkpt>
    <trkpt lat="49.164001" lon="20.211213"><ele>1734</ele></trkpt>
    <trkpt lat="49.164305" lon="20.211008"><ele>1741</ele></trkpt>
    <trkpt lat="49.164144" lon="20.210716"><ele>1754</ele></trkpt>
    <trkpt lat="49.164039" lon="20.210143"><ele>1769</ele></trkpt>
    <trkpt lat="49.163932" lon="20.209781"><ele>1776</ele></trkpt>
    <trkpt lat="49.163946" lon="20.209722"><ele>1778</ele></trkpt>
    <trkpt lat="49.163909" lon="20.209514"><ele>1783</ele></trkpt>
    <trkpt lat="49.163916" lon="20.209373"><ele>1787</ele></trkpt>
    <trkpt lat="49.164052" lon="20.209334"><ele>1794</ele></trkpt>
    <trkpt lat="49.164202" lon="20.209383"><ele>1797</ele></trkpt>
    <trkpt lat="49.164321" lon="20.209357"><ele>1799</ele></trkpt>
    <trkpt lat="49.164333" lon="20.209243"><ele>1802</ele></trkpt>
    <trkpt lat="49.164191" lon="20.208877"><ele>1812</ele></trkpt>
    <trkpt lat="49.163853" lon="20.208211"><ele>1824</ele></trkpt>
    <trkpt lat="49.163604" lon="20.207430"><ele>1840</ele></trkpt>
    <trkpt lat="49.163429" lon="20.206265"><ele>1864</ele></trkpt>
    <trkpt lat="49.163461" lon="20.206235"><ele>1867</ele></trkpt>
    <trkpt lat="49.163587" lon="20.206294"><ele>1873</ele></trkpt>
    <trkpt lat="49.163994" lon="20.206707"><ele>1884</ele></trkpt>
    <trkpt lat="49.164263" lon="20.206832"><ele>1893</ele></trkpt>
    <trkpt lat="49.164508" lon="20.206890"><ele>1895</ele></trkpt>
    <trkpt lat="49.164542" lon="20.206839"><ele>1895</ele></trkpt>
    <trkpt lat="49.164472" lon="20.206642"><ele>1907</ele></trkpt>
    <trkpt lat="49.164265" lon="20.206317"><ele>1913</ele></trkpt>
    <trkpt lat="49.164492" lon="20.206307"><ele>1916</ele></trkpt>
    <trkpt lat="49.164280" lon="20.205598"><ele>1923</ele></trkpt>
    <trkpt lat="49.164200" lon="20.205528"><ele>1927</ele></trkpt>
    <trkpt lat="49.164147" lon="20.205119"><ele>1934</ele></trkpt>
    <trkpt lat="49.164206" lon="20.204883"><ele>1938</ele></trkpt>
    <trkpt lat="49.164151" lon="20.204487"><ele>1947</ele></trkpt>
    <trkpt lat="49.164264" lon="20.204101"><ele>1952</ele></trkpt>
    <trkpt lat="49.164220" lon="20.203834"><ele>1956</ele></trkpt>
    <trkpt lat="49.164355" lon="20.203445"><ele>1962</ele></trkpt>
    <trkpt lat="49.164361" lon="20.203257"><ele>1964</ele></trkpt>
    <trkpt lat="49.164327" lon="20.202740"><ele>1972</ele></trkpt>
    <trkpt lat="49.164209" lon="20.201978"><ele>1992</ele></trkpt>
    <trkpt lat="49.164321" lon="20.201358"><ele>2008</ele></trkpt>
    <trkpt lat="49.164280" lon="20.200405"><ele>2026</ele></trkpt>
    <trkpt lat="49.164296" lon="20.200199"><ele>2030</ele></trkpt>
    <trkpt lat="49.164183" lon="20.200033"><ele>2037</ele></trkpt>
    <trkpt lat="49.164043" lon="20.199967"><ele>2039</ele></trkpt>
    <trkpt lat="49.163946" lon="20.199869"><ele>2043</ele></trkpt>
    <trkpt lat="49.163880" lon="20.199687"><ele>2050</ele></trkpt>
    <trkpt lat="49.163487" lon="20.199275"><ele>2056</ele></trkpt>
    <trkpt lat="49.163437" lon="20.199133"><ele>2059</ele></trkpt>
    <trkpt lat="49.163461" lon="20.198984"><ele>2065</ele></trkpt>
    <trkpt lat="49.163508" lon="20.198954"><ele>2068</ele></trkpt>
    <trkpt lat="49.163639" lon="20.199005"><ele>2072</ele></trkpt>
    <trkpt lat="49.163987" lon="20.199032"><ele>2078</ele></trkpt>
    <trkpt lat="49.164037" lon="20.198940"><ele>2080</ele></trkpt>
    <trkpt lat="49.163782" lon="20.198569"><ele>2092</ele></trkpt>
    <trkpt lat="49.163633" lon="20.198422"><ele>2094</ele></trkpt>
    <trkpt lat="49.163589" lon="20.198307"><ele>2097</ele></trkpt>
    <trkpt lat="49.163581" lon="20.198065"><ele>2105</ele></trkpt>
    <trkpt lat="49.163619" lon="20.197753"><ele>2114</ele></trkpt>
    <trkpt lat="49.163575" lon="20.197203"><ele>2126</ele></trkpt>
    <trkpt lat="49.163599" lon="20.197187"><ele>2127</ele></trkpt>
    <trkpt lat="49.163749" lon="20.197299"><ele>2121</ele></trkpt>
    <trkpt lat="49.163778" lon="20.197243"><ele>2121</ele></trkpt>
    <trkpt lat="49.163669" lon="20.196404"><ele>2143</ele></trkpt>
    <trkpt lat="49.163585" lon="20.195297"><ele>2167</ele></trkpt>
    <trkpt lat="49.163708" lon="20.194844"><ele>2178</ele></trkpt>
    <trkpt lat="49.163671" lon="20.194564"><ele>2181</ele></trkpt>
    <trkpt lat="49.163683" lon="20.194077"><ele>2189</ele></trkpt>
    <trkpt lat="49.163731" lon="20.193644"><ele>2201</ele></trkpt>
    <trkpt lat="49.163695" lon="20.193394"><ele>2203</ele></trkpt>
    <trkpt lat="49.163687" lon="20.192888"><ele>2211</ele></trkpt>
    <trkpt lat="49.163599" lon="20.192317"><ele>2219</ele></trkpt>
    <trkpt lat="49.163510" lon="20.192027"><ele>2223</ele></trkpt>
    <trkpt lat="49.163513" lon="20.191938"><ele>2226</ele></trkpt>
    <trkpt lat="49.163563" lon="20.191935"><ele>2229</ele></trkpt>
    <trkpt lat="49.163657" lon="20.192061"><ele>2229</ele></trkpt>
    <trkpt lat="49.163837" lon="20.192053"><ele>2236</ele></trkpt>
    <trkpt lat="49.163896" lon="20.192006"><ele>2238</ele></trkpt>
    <trkpt lat="49.163977" lon="20.191739"><ele>2245</ele></trkpt>
    <trkpt lat="49.164093" lon="20.191546"><ele>2248</ele></trkpt>
    <trkpt lat="49.164100" lon="20.191336"><ele>2257</ele></trkpt>
    <trkpt lat="49.164132" lon="20.191262"><ele>2259</ele></trkpt>
    <trkpt lat="49.164320" lon="20.191080"><ele>2264</ele></trkpt>
    <trkpt lat="49.164235" lon="20.190884"><ele>2267</ele></trkpt>
    <trkpt lat="49.164302" lon="20.190736"><ele>2269</ele></trkpt>
    <trkpt lat="49.164444" lon="20.190605"><ele>2276</ele></trkpt>
    <trkpt lat="49.164463" lon="20.190527"><ele>2277</ele></trkpt>
    <trkpt lat="49.164633" lon="20.190283"><ele>2283</ele></trkpt>
    <trkpt lat="49.164700" lon="20.190258"><ele>2286</ele></trkpt>
    <trkpt lat="49.164827" lon="20.190397"><ele>2290</ele></trkpt>
    <trkpt lat="49.165050" lon="20.190383"><ele>2297</ele></trkpt>
    <trkpt lat="49.165102" lon="20.190288"><ele>2299</ele></trkpt>
    <trkpt lat="49.165133" lon="20.190058"><ele>2301</ele></trkpt>
    <trkpt lat="49.165216" lon="20.189945"><ele>2305</ele></trkpt>
    <trkpt lat="49.165325" lon="20.189589"><ele>2310</ele></trkpt>
    <trkpt lat="49.165412" lon="20.189495"><ele>2311</ele></trkpt>
    <trkpt lat="49.165546" lon="20.189187"><ele>2320</ele></trkpt>
    <trkpt lat="49.165626" lon="20.188892"><ele>2328</ele></trkpt>
    <trkpt lat="49.165746" lon="20.188706"><ele>2336</ele></trkpt>
    <trkpt lat="49.165800" lon="20.188554"><ele>2343</ele></trkpt>
    <trkpt lat="49.165914" lon="20.188452"><ele>2350</ele></trkpt>
    <trkpt lat="49.165928" lon="20.188381"><ele>2353</ele></trkpt>
    <trkpt lat="49.165838" lon="20.188199"><ele>2358</ele></trkpt>
    <trkpt lat="49.165796" lon="20.187850"><ele>2368</ele></trkpt>
    <trkpt lat="49.165680" lon="20.187365"><ele>2373</ele></trkpt>
    <trkpt lat="49.165684" lon="20.187165"><ele>2379</ele></trkpt>
    <trkpt lat="49.165719" lon="20.187079"><ele>2383</ele></trkpt>
    <trkpt lat="49.165894" lon="20.187044"><ele>2394</ele></trkpt>
    <trkpt lat="49.165945" lon="20.186985"><ele>2399</ele></trkpt>
    <trkpt lat="49.165959" lon="20.186867"><ele>2403</ele></trkpt>
    <trkpt lat="49.166345" lon="20.186408"><ele>2421</ele></trkpt>
    <trkpt lat="49.166220" lon="20.186045"><ele>2427</ele></trkpt>
    <trkpt lat="49.166160" lon="20.185968"><ele>2429</ele></trkpt>
    <trkpt lat="49.166158" lon="20.185700"><ele>2431</ele></trkpt>
    <trkpt lat="49.166076" lon="20.185465"><ele>2434</ele></trkpt>
    <trkpt lat="49.166102" lon="20.185299"><ele>2438</ele></trkpt>
    <trkpt lat="49.166065" lon="20.184761"><ele>2442</ele></trkpt>
    <trkpt lat="49.166102" lon="20.185299"><ele>2438</ele></trkpt>
    <trkpt lat="49.166076" lon="20.185465"><ele>2434</ele></trkpt>
    <trkpt lat="49.166158" lon="20.185700"><ele>2431</ele></trkpt>
    <trkpt lat="49.166160" lon="20.185968"><ele>2429</ele></trkpt>
    <trkpt lat="49.166220" lon="20.186045"><ele>2427</ele></trkpt>
    <trkpt lat="49.166345" lon="20.186408"><ele>2421</ele></trkpt>
    <trkpt lat="49.165959" lon="20.186867"><ele>2403</ele></trkpt>
    <trkpt lat="49.165945" lon="20.186985"><ele>2399</ele></trkpt>
    <trkpt lat="49.165894" lon="20.187044"><ele>2394</ele></trkpt>
    <trkpt lat="49.165719" lon="20.187079"><ele>2383</ele></trkpt>
    <trkpt lat="49.165684" lon="20.187165"><ele>2379</ele></trkpt>
    <trkpt lat="49.165680" lon="20.187365"><ele>2373</ele></trkpt>
    <trkpt lat="49.165796" lon="20.187850"><ele>2368</ele></trkpt>
    <trkpt lat="49.165838" lon="20.188199"><ele>2358</ele></trkpt>
    <trkpt lat="49.165928" lon="20.188381"><ele>2353</ele></trkpt>
    <trkpt lat="49.165914" lon="20.188452"><ele>2350</ele></trkpt>
    <trkpt lat="49.165800" lon="20.188554"><ele>2343</ele></trkpt>
    <trkpt lat="49.165746" lon="20.188706"><ele>2336</ele></trkpt>
    <trkpt lat="49.165626" lon="20.188892"><ele>2328</ele></trkpt>
    <trkpt lat="49.165546" lon="20.189187"><ele>2320</ele></trkpt>
    <trkpt lat="49.165412" lon="20.189495"><ele>2311</ele></trkpt>
    <trkpt lat="49.165325" lon="20.189589"><ele>2310</ele></trkpt>
    <trkpt lat="49.165216" lon="20.189945"><ele>2305</ele></trkpt>
    <trkpt lat="49.165133" lon="20.190058"><ele>2301</ele></trkpt>
    <trkpt lat="49.165102" lon="20.190288"><ele>2299</ele></trkpt>
    <trkpt lat="49.165050" lon="20.190383"><ele>2297</ele></trkpt>
    <trkpt lat="49.164827" lon="20.190397"><ele>2290</ele></trkpt>
    <trkpt lat="49.164700" lon="20.190258"><ele>2286</ele></trkpt>
    <trkpt lat="49.164633" lon="20.190283"><ele>2283</ele></trkpt>
    <trkpt lat="49.164463" lon="20.190527"><ele>2277</ele></trkpt>
    <trkpt lat="49.164444" lon="20.190605"><ele>2276</ele></trkpt>
    <trkpt lat="49.164302" lon="20.190736"><ele>2269</ele></trkpt>
    <trkpt lat="49.164235" lon="20.190884"><ele>2267</ele></trkpt>
    <trkpt lat="49.164320" lon="20.191080"><ele>2264</ele></trkpt>
    <trkpt lat="49.164132" lon="20.191262"><ele>2259</ele></trkpt>
    <trkpt lat="49.164100" lon="20.191336"><ele>2257</ele></trkpt>
    <trkpt lat="49.164093" lon="20.191546"><ele>2248</ele></trkpt>
    <trkpt lat="49.163977" lon="20.191739"><ele>2245</ele></trkpt>
    <trkpt lat="49.163896" lon="20.192006"><ele>2238</ele></trkpt>
    <trkpt lat="49.163837" lon="20.192053"><ele>2236</ele></trkpt>
    <trkpt lat="49.163657" lon="20.192061"><ele>2229</ele></trkpt>
    <trkpt lat="49.163563" lon="20.191935"><ele>2229</ele></trkpt>
    <trkpt lat="49.163513" lon="20.191938"><ele>2226</ele></trkpt>
    <trkpt lat="49.163510" lon="20.192027"><ele>2223</ele></trkpt>
    <trkpt lat="49.163599" lon="20.192317"><ele>2219</ele></trkpt>
    <trkpt lat="49.163687" lon="20.192888"><ele>2211</ele></trkpt>
    <trkpt lat="49.163695" lon="20.193394"><ele>2203</ele></trkpt>
    <trkpt lat="49.163731" lon="20.193644"><ele>2201</ele></trkpt>
    <trkpt lat="49.163683" lon="20.194077"><ele>2189</ele></trkpt>
    <trkpt lat="49.163671" lon="20.194564"><ele>2181</ele></trkpt>
    <trkpt lat="49.163708" lon="20.194844"><ele>2178</ele></trkpt>
    <trkpt lat="49.163585" lon="20.195297"><ele>2167</ele></trkpt>
    <trkpt lat="49.163669" lon="20.196404"><ele>2143</ele></trkpt>
    <trkpt lat="49.163778" lon="20.197243"><ele>2121</ele></trkpt>
    <trkpt lat="49.163749" lon="20.197299"><ele>2121</ele></trkpt>
    <trkpt lat="49.163599" lon="20.197187"><ele>2127</ele></trkpt>
    <trkpt lat="49.163575" lon="20.197203"><ele>2126</ele></trkpt>
    <trkpt lat="49.163619" lon="20.197753"><ele>2114</ele></trkpt>
    <trkpt lat="49.163581" lon="20.198065"><ele>2105</ele></trkpt>
    <trkpt lat="49.163589" lon="20.198307"><ele>2097</ele></trkpt>
    <trkpt lat="49.163633" lon="20.198422"><ele>2094</ele></trkpt>
    <trkpt lat="49.163782" lon="20.198569"><ele>2092</ele></trkpt>
    <trkpt lat="49.164037" lon="20.198940"><ele>2080</ele></trkpt>
    <trkpt lat="49.163987" lon="20.199032"><ele>2078</ele></trkpt>
    <trkpt lat="49.163639" lon="20.199005"><ele>2072</ele></trkpt>
    <trkpt lat="49.163508" lon="20.198954"><ele>2068</ele></trkpt>
    <trkpt lat="49.163461" lon="20.198984"><ele>2065</ele></trkpt>
    <trkpt lat="49.163437" lon="20.199133"><ele>2059</ele></trkpt>
    <trkpt lat="49.163487" lon="20.199275"><ele>2056</ele></trkpt>
    <trkpt lat="49.163880" lon="20.199687"><ele>2050</ele></trkpt>
    <trkpt lat="49.163946" lon="20.199869"><ele>2043</ele></trkpt>
    <trkpt lat="49.164043" lon="20.199967"><ele>2039</ele></trkpt>
    <trkpt lat="49.164183" lon="20.200033"><ele>2037</ele></trkpt>
    <trkpt lat="49.164296" lon="20.200199"><ele>2030</ele></trkpt>
    <trkpt lat="49.164280" lon="20.200405"><ele>2026</ele></trkpt>
    <trkpt lat="49.164321" lon="20.201358"><ele>2008</ele></trkpt>
    <trkpt lat="49.164209" lon="20.201978"><ele>1992</ele></trkpt>
    <trkpt lat="49.164327" lon="20.202740"><ele>1972</ele></trkpt>
    <trkpt lat="49.164361" lon="20.203257"><ele>1964</ele></trkpt>
    <trkpt lat="49.164355" lon="20.203445"><ele>1962</ele></trkpt>
    <trkpt lat="49.164220" lon="20.203834"><ele>1956</ele></trkpt>
    <trkpt lat="49.164264" lon="20.204101"><ele>1952</ele></trkpt>
    <trkpt lat="49.164151" lon="20.204487"><ele>1947</ele></trkpt>
    <trkpt lat="49.164206" lon="20.204883"><ele>1938</ele></trkpt>
    <trkpt lat="49.164147" lon="20.205119"><ele>1934</ele></trkpt>
    <trkpt lat="49.164200" lon="20.205528"><ele>1927</ele></trkpt>
    <trkpt lat="49.164280" lon="20.205598"><ele>1923</ele></trkpt>
    <trkpt lat="49.164492" lon="20.206307"><ele>1916</ele></trkpt>
    <trkpt lat="49.164265" lon="20.206317"><ele>1913</ele></trkpt>
    <trkpt lat="49.164472" lon="20.206642"><ele>1907</ele></trkpt>
    <trkpt lat="49.164542" lon="20.206839"><ele>1895</ele></trkpt>
    <trkpt lat="49.164508" lon="20.206890"><ele>1895</ele></trkpt>
    <trkpt lat="49.164263" lon="20.206832"><ele>1893</ele></trkpt>
    <trkpt lat="49.163994" lon="20.206707"><ele>1884</ele></trkpt>
    <trkpt lat="49.163587" lon="20.206294"><ele>1873</ele></trkpt>
    <trkpt lat="49.163461" lon="20.206235"><ele>1867</ele></trkpt>
    <trkpt lat="49.163429" lon="20.206265"><ele>1864</ele></trkpt>
    <trkpt lat="49.163604" lon="20.207430"><ele>1840</ele></trkpt>
    <trkpt lat="49.163853" lon="20.208211"><ele>1824</ele></trkpt>
    <trkpt lat="49.164191" lon="20.208877"><ele>1812</ele></trkpt>
    <trkpt lat="49.164333" lon="20.209243"><ele>1802</ele></trkpt>
    <trkpt lat="49.164321" lon="20.209357"><ele>1799</ele></trkpt>
    <trkpt lat="49.164202" lon="20.209383"><ele>1797</ele></trkpt>
    <trkpt lat="49.164052" lon="20.209334"><ele>1794</ele></trkpt>
    <trkpt lat="49.163916" lon="20.209373"><ele>1787</ele></trkpt>
    <trkpt lat="49.163909" lon="20.209514"><ele>1783</ele></trkpt>
    <trkpt lat="49.163946" lon="20.209722"><ele>1778</ele></trkpt>
    <trkpt lat="49.163932" lon="20.209781"><ele>1776</ele></trkpt>
    <trkpt lat="49.164039" lon="20.210143"><ele>1769</ele></trkpt>
    <trkpt lat="49.164144" lon="20.210716"><ele>1754</ele></trkpt>
    <trkpt lat="49.164305" lon="20.211008"><ele>1741</ele></trkpt>
    <trkpt lat="49.164001" lon="20.211213"><ele>1734</ele></trkpt>
    <trkpt lat="49.163902" lon="20.211336"><ele>1729</ele></trkpt>
    <trkpt lat="49.163194" lon="20.211002"><ele>1709</ele></trkpt>
    <trkpt lat="49.163108" lon="20.211042"><ele>1704</ele></trkpt>
    <trkpt lat="49.163060" lon="20.211135"><ele>1700</ele></trkpt>
    <trkpt lat="49.163063" lon="20.211445"><ele>1693</ele></trkpt>
    <trkpt lat="49.163190" lon="20.211750"><ele>1691</ele></trkpt>
    <trkpt lat="49.163171" lon="20.212058"><ele>1683</ele></trkpt>
    <trkpt lat="49.163242" lon="20.212326"><ele>1681</ele></trkpt>
    <trkpt lat="49.163289" lon="20.212738"><ele>1673</ele></trkpt>
    <trkpt lat="49.163338" lon="20.213630"><ele>1653</ele></trkpt>
    <trkpt lat="49.163223" lon="20.213648"><ele>1651</ele></trkpt>
    <trkpt lat="49.162944" lon="20.213523"><ele>1645</ele></trkpt>
    <trkpt lat="49.162563" lon="20.213287"><ele>1632</ele></trkpt>
    <trkpt lat="49.162249" lon="20.213154"><ele>1620</ele></trkpt>
    <trkpt lat="49.162125" lon="20.212962"><ele>1617</ele></trkpt>
    <trkpt lat="49.162050" lon="20.212952"><ele>1614</ele></trkpt>
    <trkpt lat="49.162003" lon="20.213320"><ele>1604</ele></trkpt>
    <trkpt lat="49.162011" lon="20.213509"><ele>1601</ele></trkpt>
    <trkpt lat="49.161941" lon="20.213697"><ele>1593</ele></trkpt>
    <trkpt lat="49.161996" lon="20.214236"><ele>1585</ele></trkpt>
    <trkpt lat="49.162127" lon="20.214881"><ele>1576</ele></trkpt>
    <trkpt lat="49.162132" lon="20.215134"><ele>1569</ele></trkpt>
    <trkpt lat="49.162235" lon="20.215363"><ele>1568</ele></trkpt>
    <trkpt lat="49.162216" lon="20.215690"><ele>1559</ele></trkpt>
    <trkpt lat="49.162246" lon="20.215846"><ele>1556</ele></trkpt>
    <trkpt lat="49.162316" lon="20.215946"><ele>1556</ele></trkpt>
    <trkpt lat="49.162317" lon="20.216017"><ele>1554</ele></trkpt>
    <trkpt lat="49.162458" lon="20.216339"><ele>1550</ele></trkpt>
    <trkpt lat="49.162451" lon="20.216609"><ele>1544</ele></trkpt>
    <trkpt lat="49.162488" lon="20.216799"><ele>1542</ele></trkpt>
    <trkpt lat="49.162398" lon="20.216901"><ele>1538</ele></trkpt>
    <trkpt lat="49.162373" lon="20.217149"><ele>1531</ele></trkpt>
    <trkpt lat="49.162427" lon="20.217374"><ele>1523</ele></trkpt>
    <trkpt lat="49.162276" lon="20.217282"><ele>1527</ele></trkpt>
    <trkpt lat="49.161831" lon="20.216692"><ele>1521</ele></trkpt>
    <trkpt lat="49.161735" lon="20.216632"><ele>1519</ele></trkpt>
    <trkpt lat="49.161145" lon="20.215990"><ele>1511</ele></trkpt>
    <trkpt lat="49.160811" lon="20.215514"><ele>1508</ele></trkpt>
    <trkpt lat="49.160439" lon="20.215095"><ele>1501</ele></trkpt>
    <trkpt lat="49.160124" lon="20.214481"><ele>1499</ele></trkpt>
    <trkpt lat="49.159646" lon="20.213884"><ele>1492</ele></trkpt>
    <trkpt lat="49.159297" lon="20.213342"><ele>1487</ele></trkpt>
    <trkpt lat="49.159134" lon="20.213197"><ele>1484</ele></trkpt>
    <trkpt lat="49.159088" lon="20.213087"><ele>1484</ele></trkpt>
    <trkpt lat="49.158592" lon="20.212563"><ele>1474</ele></trkpt>
    <trkpt lat="49.158390" lon="20.212426"><ele>1470</ele></trkpt>
    <trkpt lat="49.158194" lon="20.212121"><ele>1468</ele></trkpt>
    <trkpt lat="49.158078" lon="20.212229"><ele>1462</ele></trkpt>
    <trkpt lat="49.157976" lon="20.212218"><ele>1459</ele></trkpt>
    <trkpt lat="49.157493" lon="20.211881"><ele>1448</ele></trkpt>
    <trkpt lat="49.157249" lon="20.211872"><ele>1441</ele></trkpt>
    <trkpt lat="49.157054" lon="20.211712"><ele>1436</ele></trkpt>
    <trkpt lat="49.157052" lon="20.211514"><ele>1440</ele></trkpt>
    <trkpt lat="49.157025" lon="20.211443"><ele>1440</ele></trkpt>
    <trkpt lat="49.156919" lon="20.211567"><ele>1435</ele></trkpt>
    <trkpt lat="49.156836" lon="20.211559"><ele>1434</ele></trkpt>
    <trkpt lat="49.156575" lon="20.211464"><ele>1430</ele></trkpt>
    <trkpt lat="49.156123" lon="20.211479"><ele>1417</ele></trkpt>
    <trkpt lat="49.155704" lon="20.211309"><ele>1407</ele></trkpt>
    <trkpt lat="49.155502" lon="20.211180"><ele>1403</ele></trkpt>
    <trkpt lat="49.155252" lon="20.210923"><ele>1406</ele></trkpt>
    <trkpt lat="49.155194" lon="20.210820"><ele>1407</ele></trkpt>
    <trkpt lat="49.154959" lon="20.210869"><ele>1399</ele></trkpt>
    <trkpt lat="49.154567" lon="20.210656"><ele>1391</ele></trkpt>
    <trkpt lat="49.154268" lon="20.210440"><ele>1387</ele></trkpt>
    <trkpt lat="49.153613" lon="20.210161"><ele>1366</ele></trkpt>
    <trkpt lat="49.153536" lon="20.210163"><ele>1363</ele></trkpt>
    <trkpt lat="49.153574" lon="20.210314"><ele>1360</ele></trkpt>
    <trkpt lat="49.154813" lon="20.211489"><ele>1374</ele></trkpt>
    <trkpt lat="49.155325" lon="20.212227"><ele>1373</ele></trkpt>
    <trkpt lat="49.155463" lon="20.212378"><ele>1376</ele></trkpt>
    <trkpt lat="49.155685" lon="20.212911"><ele>1376</ele></trkpt>
    <trkpt lat="49.155698" lon="20.213040"><ele>1375</ele></trkpt>
    <trkpt lat="49.155941" lon="20.213061"><ele>1382</ele></trkpt>
    <trkpt lat="49.155746" lon="20.213560"><ele>1367</ele></trkpt>
    <trkpt lat="49.155739" lon="20.213696"><ele>1365</ele></trkpt>
    <trkpt lat="49.155559" lon="20.214430"><ele>1358</ele></trkpt>
    <trkpt lat="49.155598" lon="20.214857"><ele>1354</ele></trkpt>
    <trkpt lat="49.155586" lon="20.215061"><ele>1351</ele></trkpt>
    <trkpt lat="49.155690" lon="20.215555"><ele>1343</ele></trkpt>
    <trkpt lat="49.156028" lon="20.215962"><ele>1340</ele></trkpt>
    <trkpt lat="49.156436" lon="20.216259"><ele>1338</ele></trkpt>
    <trkpt lat="49.156640" lon="20.216544"><ele>1335</ele></trkpt>
    <trkpt lat="49.156875" lon="20.217036"><ele>1332</ele></trkpt>
    <trkpt lat="49.156942" lon="20.217303"><ele>1329</ele></trkpt>
    <trkpt lat="49.157098" lon="20.217566"><ele>1329</ele></trkpt>
    <trkpt lat="49.157257" lon="20.218145"><ele>1324</ele></trkpt>
    <trkpt lat="49.157623" lon="20.218828"><ele>1321</ele></trkpt>
    <trkpt lat="49.157721" lon="20.219182"><ele>1318</ele></trkpt>
    <trkpt lat="49.157807" lon="20.219685"><ele>1314</ele></trkpt>
    <trkpt lat="49.157913" lon="20.220741"><ele>1302</ele></trkpt>
    <trkpt lat="49.158187" lon="20.222181"><ele>1293</ele></trkpt>
    <trkpt lat="49.158296" lon="20.222626"><ele>1288</ele></trkpt>
    <trkpt lat="49.158688" lon="20.223722"><ele>1286</ele></trkpt>
    <trkpt lat="49.158705" lon="20.224056"><ele>1284</ele></trkpt>
    <trkpt lat="49.158683" lon="20.224787"><ele>1277</ele></trkpt>
    <trkpt lat="49.158723" lon="20.224986"><ele>1276</ele></trkpt>
    <trkpt lat="49.158794" lon="20.225006"><ele>1276</ele></trkpt>
  </trkseg></trk>
</gpx>
