<?xml version="1.0" encoding="UTF-8"?>
<gpx version="1.1" creator="MounTour (OpenStreetMap)" xmlns="http://www.topografix.com/GPX/1/1">
  <metadata><name>Smolenický zámok</name><copyright author="OpenStreetMap contributors"><license>https://opendatacommons.org/licenses/odbl/</license></copyright></metadata>
  <trk><name>Smolenický zámok</name><trkseg>
    <trkpt lat="48.505987" lon="17.430104"><ele>230</ele></trkpt>
    <trkpt lat="48.506225" lon="17.430286"><ele>230</ele></trkpt>
    <trkpt lat="48.506274" lon="17.430174"><ele>231</ele></trkpt>
    <trkpt lat="48.507370" lon="17.431105"><ele>230</ele></trkpt>
    <trkpt lat="48.508127" lon="17.431915"><ele>230</ele></trkpt>
    <trkpt lat="48.508390" lon="17.432259"><ele>232</ele></trkpt>
    <trkpt lat="48.508781" lon="17.431875"><ele>235</ele></trkpt>
    <trkpt lat="48.509126" lon="17.431819"><ele>239</ele></trkpt>
    <trkpt lat="48.509517" lon="17.432286"><ele>241</ele></trkpt>
    <trkpt lat="48.509893" lon="17.432498"><ele>242</ele></trkpt>
    <trkpt lat="48.510146" lon="17.432173"><ele>245</ele></trkpt>
    <trkpt lat="48.510483" lon="17.431925"><ele>244</ele></trkpt>
    <trkpt lat="48.510966" lon="17.431901"><ele>247</ele></trkpt>
    <trkpt lat="48.511874" lon="17.432000"><ele>250</ele></trkpt>
    <trkpt lat="48.512166" lon="17.431873"><ele>260</ele></trkpt>
    <trkpt lat="48.512341" lon="17.431551"><ele>271</ele></trkpt>
    <trkpt lat="48.512468" lon="17.431461"><ele>275</ele></trkpt>
    <trkpt lat="48.513335" lon="17.431117"><ele>278</ele></trkpt>
    <trkpt lat="48.513888" lon="17.430947"><ele>280</ele></trkpt>
    <trkpt lat="48.514241" lon="17.430965"><ele>286</ele></trkpt>
    <trkpt lat="48.514201" lon="17.430865"><ele>285</ele></trkpt>
    <trkpt lat="48.514228" lon="17.430973"><ele>286</ele></trkpt>
    <trkpt lat="48.513888" lon="17.430947"><ele>280</ele></trkpt>
    <trkpt lat="48.513335" lon="17.431117"><ele>278</ele></trkpt>
    <trkpt lat="48.512468" lon="17.431461"><ele>275</ele></trkpt>
    <trkpt lat="48.512341" lon="17.431551"><ele>271</ele></trkpt>
    <trkpt lat="48.512166" lon="17.431873"><ele>260</ele></trkpt>
    <trkpt lat="48.511874" lon="17.432000"><ele>250</ele></trkpt>
    <trkpt lat="48.510966" lon="17.431901"><ele>247</ele></trkpt>
    <trkpt lat="48.510483" lon="17.431925"><ele>244</ele></trkpt>
    <trkpt lat="48.510146" lon="17.432173"><ele>245</ele></trkpt>
    <trkpt lat="48.509893" lon="17.432498"><ele>242</ele></trkpt>
    <trkpt lat="48.509517" lon="17.432286"><ele>241</ele></trkpt>
    <trkpt lat="48.509126" lon="17.431819"><ele>239</ele></trkpt>
    <trkpt lat="48.508781" lon="17.431875"><ele>235</ele></trkpt>
    <trkpt lat="48.508390" lon="17.432259"><ele>232</ele></trkpt>
    <trkpt lat="48.508127" lon="17.431915"><ele>230</ele></trkpt>
    <trkpt lat="48.507370" lon="17.431105"><ele>230</ele></trkpt>
    <trkpt lat="48.506274" lon="17.430174"><ele>231</ele></trkpt>
    <trkpt lat="48.506225" lon="17.430286"><ele>230</ele></trkpt>
    <trkpt lat="48.505987" lon="17.430104"><ele>230</ele></trkpt>
  </trkseg></trk>
</gpx>
