<?xml version="1.0" encoding="UTF-8"?>
<gpx version="1.1" creator="MounTour (OpenStreetMap)" xmlns="http://www.topografix.com/GPX/1/1">
  <metadata><name>Sokolie</name><copyright author="OpenStreetMap contributors"><license>https://opendatacommons.org/licenses/odbl/</license></copyright></metadata>
  <trk><name>Sokolie</name><trkseg>
    <trkpt lat="49.238392" lon="19.027835"><ele>1039</ele></trkpt>
    <trkpt lat="49.238224" lon="19.027416"><ele>1029</ele></trkpt>
    <trkpt lat="49.238158" lon="19.026864"><ele>1030</ele></trkpt>
    <trkpt lat="49.238100" lon="19.026577"><ele>1032</ele></trkpt>
    <trkpt lat="49.238028" lon="19.026451"><ele>1030</ele></trkpt>
    <trkpt lat="49.237977" lon="19.026146"><ele>1032</ele></trkpt>
    <trkpt lat="49.237979" lon="19.025265"><ele>1040</ele></trkpt>
    <trkpt lat="49.237932" lon="19.025056"><ele>1041</ele></trkpt>
    <trkpt lat="49.237332" lon="19.023237"><ele>1068</ele></trkpt>
    <trkpt lat="49.237384" lon="19.022875"><ele>1070</ele></trkpt>
    <trkpt lat="49.237373" lon="19.022580"><ele>1074</ele></trkpt>
    <trkpt lat="49.237293" lon="19.022199"><ele>1081</ele></trkpt>
    <trkpt lat="49.237215" lon="19.021459"><ele>1100</ele></trkpt>
    <trkpt lat="49.237095" lon="19.020960"><ele>1109</ele></trkpt>
    <trkpt lat="49.237065" lon="19.020295"><ele>1117</ele></trkpt>
    <trkpt lat="49.236996" lon="19.019957"><ele>1118</ele></trkpt>
    <trkpt lat="49.236821" lon="19.019488"><ele>1116</ele></trkpt>
    <trkpt lat="49.236767" lon="19.019228"><ele>1114</ele></trkpt>
    <trkpt lat="49.236732" lon="19.018879"><ele>1114</ele></trkpt>
    <trkpt lat="49.236716" lon="19.018165"><ele>1118</ele></trkpt>
    <trkpt lat="49.236680" lon="19.017924"><ele>1120</ele></trkpt>
    <trkpt lat="49.236345" lon="19.017374"><ele>1117</ele></trkpt>
    <trkpt lat="49.236261" lon="19.017101"><ele>1124</ele></trkpt>
    <trkpt lat="49.236131" lon="19.016902"><ele>1135</ele></trkpt>
    <trkpt lat="49.236082" lon="19.016765"><ele>1139</ele></trkpt>
    <trkpt lat="49.236026" lon="19.016435"><ele>1144</ele></trkpt>
    <trkpt lat="49.236026" lon="19.016132"><ele>1146</ele></trkpt>
    <trkpt lat="49.235970" lon="19.015693"><ele>1149</ele></trkpt>
    <trkpt lat="49.236011" lon="19.015545"><ele>1152</ele></trkpt>
    <trkpt lat="49.236140" lon="19.015290"><ele>1159</ele></trkpt>
    <trkpt lat="49.236117" lon="19.015092"><ele>1163</ele></trkpt>
    <trkpt lat="49.236067" lon="19.015035"><ele>1163</ele></trkpt>
    <trkpt lat="49.235926" lon="19.014992"><ele>1163</ele></trkpt>
    <trkpt lat="49.235859" lon="19.014905"><ele>1163</ele></trkpt>
    <trkpt lat="49.235872" lon="19.014842"><ele>1163</ele></trkpt>
    <trkpt lat="49.235646" lon="19.014598"><ele>1159</ele></trkpt>
    <trkpt lat="49.235480" lon="19.014518"><ele>1159</ele></trkpt>
    <trkpt lat="49.235389" lon="19.014402"><ele>1160</ele></trkpt>
    <trkpt lat="49.235480" lon="19.014518"><ele>1159</ele></trkpt>
    <trkpt lat="49.235646" lon="19.014598"><ele>1159</ele></trkpt>
    <trkpt lat="49.235872" lon="19.014842"><ele>1163</ele></trkpt>
    <trkpt lat="49.235859" lon="19.014905"><ele>1163</ele></trkpt>
    <trkpt lat="49.235926" lon="19.014992"><ele>1163</ele></trkpt>
    <trkpt lat="49.236067" lon="19.015035"><ele>1163</ele></trkpt>
    <trkpt lat="49.236117" lon="19.015092"><ele>1163</ele></trkpt>
    <trkpt lat="49.236140" lon="19.015290"><ele>1159</ele></trkpt>
    <trkpt lat="49.236011" lon="19.015545"><ele>1152</ele></trkpt>
    <trkpt lat="49.235970" lon="19.015693"><ele>1149</ele></trkpt>
    <trkpt lat="49.236026" lon="19.016132"><ele>1146</ele></trkpt>
    <trkpt lat="49.236026" lon="19.016435"><ele>1144</ele></trkpt>
    <trkpt lat="49.236082" lon="19.016765"><ele>1139</ele></trkpt>
    <trkpt lat="49.236131" lon="19.016902"><ele>1135</ele></trkpt>
    <trkpt lat="49.236261" lon="19.017101"><ele>1124</ele></trkpt>
    <trkpt lat="49.236345" lon="19.017374"><ele>1117</ele></trkpt>
    <trkpt lat="49.236680" lon="19.017924"><ele>1120</ele></trkpt>
    <trkpt lat="49.236716" lon="19.018165"><ele>1118</ele></trkpt>
    <trkpt lat="49.236732" lon="19.018879"><ele>1114</ele></trkpt>
    <trkpt lat="49.236767" lon="19.019228"><ele>1114</ele></trkpt>
    <trkpt lat="49.236821" lon="19.019488"><ele>1116</ele></trkpt>
    <trkpt lat="49.236996" lon="19.019957"><ele>1118</ele></trkpt>
    <trkpt lat="49.237065" lon="19.020295"><ele>1117</ele></trkpt>
    <trkpt lat="49.237095" lon="19.020960"><ele>1109</ele></trkpt>
    <trkpt lat="49.237215" lon="19.021459"><ele>1100</ele></trkpt>
    <trkpt lat="49.237293" lon="19.022199"><ele>1081</ele></trkpt>
    <trkpt lat="49.237373" lon="19.022580"><ele>1074</ele></trkpt>
    <trkpt lat="49.237384" lon="19.022875"><ele>1070</ele></trkpt>
    <trkpt lat="49.237332" lon="19.023237"><ele>1068</ele></trkpt>
    <trkpt lat="49.237932" lon="19.025056"><ele>1041</ele></trkpt>
    <trkpt lat="49.237979" lon="19.025265"><ele>1040</ele></trkpt>
    <trkpt lat="49.237977" lon="19.026146"><ele>1032</ele></trkpt>
    <trkpt lat="49.238028" lon="19.026451"><ele>1030</ele></trkpt>
    <trkpt lat="49.238100" lon="19.026577"><ele>1032</ele></trkpt>
    <trkpt lat="49.238158" lon="19.026864"><ele>1030</ele></trkpt>
    <trkpt lat="49.238224" lon="19.027416"><ele>1029</ele></trkpt>
    <trkpt lat="49.238392" lon="19.027835"><ele>1039</ele></trkpt>
  </trkseg></trk>
</gpx>
