<?xml version="1.0" encoding="UTF-8"?>
<gpx version="1.1" creator="MounTour (OpenStreetMap)" xmlns="http://www.topografix.com/GPX/1/1">
  <metadata><name>Spálená</name><copyright author="OpenStreetMap contributors"><license>https://opendatacommons.org/licenses/odbl/</license></copyright></metadata>
  <trk><name>Spálená</name><trkseg>
    <trkpt lat="49.236618" lon="19.718023"><ele>1065</ele></trkpt>
    <trkpt lat="49.236699" lon="19.718219"><ele>1068</ele></trkpt>
    <trkpt lat="49.234960" lon="19.719392"><ele>1094</ele></trkpt>
    <trkpt lat="49.232220" lon="19.720886"><ele>1111</ele></trkpt>
    <trkpt lat="49.231288" lon="19.721503"><ele>1119</ele></trkpt>
    <trkpt lat="49.230315" lon="19.722034"><ele>1124</ele></trkpt>
    <trkpt lat="49.228733" lon="19.722580"><ele>1136</ele></trkpt>
    <trkpt lat="49.228200" lon="19.722834"><ele>1139</ele></trkpt>
    <trkpt lat="49.227533" lon="19.723291"><ele>1147</ele></trkpt>
    <trkpt lat="49.226406" lon="19.724328"><ele>1159</ele></trkpt>
    <trkpt lat="49.226126" lon="19.724468"><ele>1161</ele></trkpt>
    <trkpt lat="49.225385" lon="19.724673"><ele>1165</ele></trkpt>
    <trkpt lat="49.225114" lon="19.724804"><ele>1168</ele></trkpt>
    <trkpt lat="49.224909" lon="19.724987"><ele>1172</ele></trkpt>
    <trkpt lat="49.224655" lon="19.725348"><ele>1176</ele></trkpt>
    <trkpt lat="49.224009" lon="19.726923"><ele>1187</ele></trkpt>
    <trkpt lat="49.223654" lon="19.727550"><ele>1190</ele></trkpt>
    <trkpt lat="49.222707" lon="19.728230"><ele>1190</ele></trkpt>
    <trkpt lat="49.222487" lon="19.728311"><ele>1189</ele></trkpt>
    <trkpt lat="49.222389" lon="19.728286"><ele>1189</ele></trkpt>
    <trkpt lat="49.222235" lon="19.728195"><ele>1190</ele></trkpt>
    <trkpt lat="49.222012" lon="19.727963"><ele>1190</ele></trkpt>
    <trkpt lat="49.221894" lon="19.727715"><ele>1188</ele></trkpt>
    <trkpt lat="49.221830" lon="19.727490"><ele>1187</ele></trkpt>
    <trkpt lat="49.221688" lon="19.726669"><ele>1187</ele></trkpt>
    <trkpt lat="49.221531" lon="19.726274"><ele>1189</ele></trkpt>
    <trkpt lat="49.221254" lon="19.725944"><ele>1188</ele></trkpt>
    <trkpt lat="49.221103" lon="19.725850"><ele>1187</ele></trkpt>
    <trkpt lat="49.220783" lon="19.725766"><ele>1189</ele></trkpt>
    <trkpt lat="49.220356" lon="19.726069"><ele>1198</ele></trkpt>
    <trkpt lat="49.219814" lon="19.726906"><ele>1207</ele></trkpt>
    <trkpt lat="49.219707" lon="19.727115"><ele>1208</ele></trkpt>
    <trkpt lat="49.219558" lon="19.727622"><ele>1209</ele></trkpt>
    <trkpt lat="49.219295" lon="19.727771"><ele>1212</ele></trkpt>
    <trkpt lat="49.219173" lon="19.727754"><ele>1214</ele></trkpt>
    <trkpt lat="49.218843" lon="19.727854"><ele>1218</ele></trkpt>
    <trkpt lat="49.218563" lon="19.728144"><ele>1218</ele></trkpt>
    <trkpt lat="49.218350" lon="19.728501"><ele>1223</ele></trkpt>
    <trkpt lat="49.218057" lon="19.728647"><ele>1229</ele></trkpt>
    <trkpt lat="49.217996" lon="19.728722"><ele>1230</ele></trkpt>
    <trkpt lat="49.217625" lon="19.728793"><ele>1239</ele></trkpt>
    <trkpt lat="49.217320" lon="19.728737"><ele>1246</ele></trkpt>
    <trkpt lat="49.217131" lon="19.729083"><ele>1251</ele></trkpt>
    <trkpt lat="49.216821" lon="19.729234"><ele>1259</ele></trkpt>
    <trkpt lat="49.216732" lon="19.729408"><ele>1261</ele></trkpt>
    <trkpt lat="49.216498" lon="19.729215"><ele>1272</ele></trkpt>
    <trkpt lat="49.216288" lon="19.729138"><ele>1285</ele></trkpt>
    <trkpt lat="49.216262" lon="19.729065"><ele>1288</ele></trkpt>
    <trkpt lat="49.216239" lon="19.729113"><ele>1288</ele></trkpt>
    <trkpt lat="49.216196" lon="19.729044"><ele>1292</ele></trkpt>
    <trkpt lat="49.216154" lon="19.729106"><ele>1293</ele></trkpt>
    <trkpt lat="49.216079" lon="19.728937"><ele>1301</ele></trkpt>
    <trkpt lat="49.216004" lon="19.729048"><ele>1302</ele></trkpt>
    <trkpt lat="49.215986" lon="19.728892"><ele>1305</ele></trkpt>
    <trkpt lat="49.215925" lon="19.728943"><ele>1307</ele></trkpt>
    <trkpt lat="49.215885" lon="19.728732"><ele>1311</ele></trkpt>
    <trkpt lat="49.215824" lon="19.728763"><ele>1313</ele></trkpt>
    <trkpt lat="49.215801" lon="19.728594"><ele>1315</ele></trkpt>
    <trkpt lat="49.215604" lon="19.728693"><ele>1322</ele></trkpt>
    <trkpt lat="49.215578" lon="19.728502"><ele>1325</ele></trkpt>
    <trkpt lat="49.215536" lon="19.728448"><ele>1328</ele></trkpt>
    <trkpt lat="49.215338" lon="19.728436"><ele>1335</ele></trkpt>
    <trkpt lat="49.215170" lon="19.728213"><ele>1341</ele></trkpt>
    <trkpt lat="49.214904" lon="19.728081"><ele>1347</ele></trkpt>
    <trkpt lat="49.214735" lon="19.727935"><ele>1352</ele></trkpt>
    <trkpt lat="49.214515" lon="19.728210"><ele>1355</ele></trkpt>
    <trkpt lat="49.214065" lon="19.728038"><ele>1363</ele></trkpt>
    <trkpt lat="49.213628" lon="19.727971"><ele>1372</ele></trkpt>
    <trkpt lat="49.213405" lon="19.727750"><ele>1379</ele></trkpt>
    <trkpt lat="49.213259" lon="19.727710"><ele>1381</ele></trkpt>
    <trkpt lat="49.213193" lon="19.727643"><ele>1382</ele></trkpt>
    <trkpt lat="49.213073" lon="19.727286"><ele>1394</ele></trkpt>
    <trkpt lat="49.213086" lon="19.727166"><ele>1398</ele></trkpt>
    <trkpt lat="49.212956" lon="19.727099"><ele>1399</ele></trkpt>
    <trkpt lat="49.212944" lon="19.726871"><ele>1407</ele></trkpt>
    <trkpt lat="49.212897" lon="19.726785"><ele>1409</ele></trkpt>
    <trkpt lat="49.212764" lon="19.726707"><ele>1409</ele></trkpt>
    <trkpt lat="49.212500" lon="19.726655"><ele>1406</ele></trkpt>
    <trkpt lat="49.212380" lon="19.726493"><ele>1416</ele></trkpt>
    <trkpt lat="49.211827" lon="19.726487"><ele>1434</ele></trkpt>
    <trkpt lat="49.211819" lon="19.726326"><ele>1437</ele></trkpt>
    <trkpt lat="49.211706" lon="19.726392"><ele>1438</ele></trkpt>
    <trkpt lat="49.211660" lon="19.726178"><ele>1443</ele></trkpt>
    <trkpt lat="49.211611" lon="19.726172"><ele>1446</ele></trkpt>
    <trkpt lat="49.211557" lon="19.726244"><ele>1448</ele></trkpt>
    <trkpt lat="49.211489" lon="19.726019"><ele>1454</ele></trkpt>
    <trkpt lat="49.211418" lon="19.726175"><ele>1455</ele></trkpt>
    <trkpt lat="49.211336" lon="19.726021"><ele>1460</ele></trkpt>
    <trkpt lat="49.211260" lon="19.726061"><ele>1462</ele></trkpt>
    <trkpt lat="49.211124" lon="19.726015"><ele>1468</ele></trkpt>
    <trkpt lat="49.211016" lon="19.726226"><ele>1469</ele></trkpt>
    <trkpt lat="49.210974" lon="19.726184"><ele>1469</ele></trkpt>
    <trkpt lat="49.210954" lon="19.726078"><ele>1470</ele></trkpt>
    <trkpt lat="49.210865" lon="19.726011"><ele>1472</ele></trkpt>
    <trkpt lat="49.210456" lon="19.725877"><ele>1477</ele></trkpt>
    <trkpt lat="49.210205" lon="19.725734"><ele>1482</ele></trkpt>
    <trkpt lat="49.210053" lon="19.725705"><ele>1484</ele></trkpt>
    <trkpt lat="49.209819" lon="19.725761"><ele>1487</ele></trkpt>
    <trkpt lat="49.209503" lon="19.725764"><ele>1495</ele></trkpt>
    <trkpt lat="49.208933" lon="19.725095"><ele>1517</ele></trkpt>
    <trkpt lat="49.208765" lon="19.724977"><ele>1522</ele></trkpt>
    <trkpt lat="49.208629" lon="19.724808"><ele>1527</ele></trkpt>
    <trkpt lat="49.208487" lon="19.724528"><ele>1534</ele></trkpt>
    <trkpt lat="49.208268" lon="19.724253"><ele>1539</ele></trkpt>
    <trkpt lat="49.208106" lon="19.724115"><ele>1543</ele></trkpt>
    <trkpt lat="49.207943" lon="19.723838"><ele>1549</ele></trkpt>
    <trkpt lat="49.207704" lon="19.723590"><ele>1554</ele></trkpt>
    <trkpt lat="49.207573" lon="19.723312"><ele>1560</ele></trkpt>
    <trkpt lat="49.207364" lon="19.723135"><ele>1565</ele></trkpt>
    <trkpt lat="49.207315" lon="19.722914"><ele>1569</ele></trkpt>
    <trkpt lat="49.207079" lon="19.722631"><ele>1575</ele></trkpt>
    <trkpt lat="49.207057" lon="19.722482"><ele>1578</ele></trkpt>
    <trkpt lat="49.207014" lon="19.722408"><ele>1580</ele></trkpt>
    <trkpt lat="49.206906" lon="19.721641"><ele>1591</ele></trkpt>
    <trkpt lat="49.206695" lon="19.721448"><ele>1599</ele></trkpt>
    <trkpt lat="49.206693" lon="19.721326"><ele>1602</ele></trkpt>
    <trkpt lat="49.206891" lon="19.720876"><ele>1609</ele></trkpt>
    <trkpt lat="49.206919" lon="19.720464"><ele>1618</ele></trkpt>
    <trkpt lat="49.206828" lon="19.720144"><ele>1625</ele></trkpt>
    <trkpt lat="49.206660" lon="19.719918"><ele>1632</ele></trkpt>
    <trkpt lat="49.206565" lon="19.719926"><ele>1635</ele></trkpt>
    <trkpt lat="49.206485" lon="19.719720"><ele>1642</ele></trkpt>
    <trkpt lat="49.206481" lon="19.719174"><ele>1656</ele></trkpt>
    <trkpt lat="49.206440" lon="19.718631"><ele>1665</ele></trkpt>
    <trkpt lat="49.206350" lon="19.718443"><ele>1668</ele></trkpt>
    <trkpt lat="49.206302" lon="19.718187"><ele>1668</ele></trkpt>
    <trkpt lat="49.206147" lon="19.718067"><ele>1673</ele></trkpt>
    <trkpt lat="49.206060" lon="19.717809"><ele>1675</ele></trkpt>
    <trkpt lat="49.206192" lon="19.717531"><ele>1676</ele></trkpt>
    <trkpt lat="49.206175" lon="19.716350"><ele>1705</ele></trkpt>
    <trkpt lat="49.206139" lon="19.716186"><ele>1709</ele></trkpt>
    <trkpt lat="49.205979" lon="19.716098"><ele>1714</ele></trkpt>
    <trkpt lat="49.205970" lon="19.715946"><ele>1715</ele></trkpt>
    <trkpt lat="49.205751" lon="19.715545"><ele>1720</ele></trkpt>
    <trkpt lat="49.205626" lon="19.715474"><ele>1721</ele></trkpt>
    <trkpt lat="49.205580" lon="19.715355"><ele>1723</ele></trkpt>
    <trkpt lat="49.205393" lon="19.715218"><ele>1726</ele></trkpt>
    <trkpt lat="49.204905" lon="19.714475"><ele>1743</ele></trkpt>
    <trkpt lat="49.204761" lon="19.714365"><ele>1747</ele></trkpt>
    <trkpt lat="49.204675" lon="19.714033"><ele>1755</ele></trkpt>
    <trkpt lat="49.204498" lon="19.713556"><ele>1766</ele></trkpt>
    <trkpt lat="49.204358" lon="19.713448"><ele>1767</ele></trkpt>
    <trkpt lat="49.204235" lon="19.713138"><ele>1774</ele></trkpt>
    <trkpt lat="49.204171" lon="19.712819"><ele>1782</ele></trkpt>
    <trkpt lat="49.204008" lon="19.712680"><ele>1786</ele></trkpt>
    <trkpt lat="49.203934" lon="19.712250"><ele>1802</ele></trkpt>
    <trkpt lat="49.203779" lon="19.712160"><ele>1805</ele></trkpt>
    <trkpt lat="49.203722" lon="19.712008"><ele>1810</ele></trkpt>
    <trkpt lat="49.203632" lon="19.712000"><ele>1810</ele></trkpt>
    <trkpt lat="49.203510" lon="19.711851"><ele>1814</ele></trkpt>
    <trkpt lat="49.203421" lon="19.711817"><ele>1815</ele></trkpt>
    <trkpt lat="49.203379" lon="19.711738"><ele>1817</ele></trkpt>
    <trkpt lat="49.203178" lon="19.711605"><ele>1820</ele></trkpt>
    <trkpt lat="49.203117" lon="19.711494"><ele>1822</ele></trkpt>
    <trkpt lat="49.202682" lon="19.709800"><ele>1835</ele></trkpt>
    <trkpt lat="49.202540" lon="19.709584"><ele>1837</ele></trkpt>
    <trkpt lat="49.202518" lon="19.709164"><ele>1847</ele></trkpt>
    <trkpt lat="49.202144" lon="19.709000"><ele>1855</ele></trkpt>
    <trkpt lat="49.201930" lon="19.708629"><ele>1864</ele></trkpt>
    <trkpt lat="49.201672" lon="19.708274"><ele>1872</ele></trkpt>
    <trkpt lat="49.201678" lon="19.707859"><ele>1886</ele></trkpt>
    <trkpt lat="49.201809" lon="19.707862"><ele>1886</ele></trkpt>
    <trkpt lat="49.201891" lon="19.707733"><ele>1890</ele></trkpt>
    <trkpt lat="49.201897" lon="19.707574"><ele>1895</ele></trkpt>
    <trkpt lat="49.201871" lon="19.707471"><ele>1898</ele></trkpt>
    <trkpt lat="49.201906" lon="19.707478"><ele>1898</ele></trkpt>
    <trkpt lat="49.201901" lon="19.707362"><ele>1902</ele></trkpt>
    <trkpt lat="49.202015" lon="19.707328"><ele>1904</ele></trkpt>
    <trkpt lat="49.202050" lon="19.707206"><ele>1909</ele></trkpt>
    <trkpt lat="49.201991" lon="19.707048"><ele>1916</ele></trkpt>
    <trkpt lat="49.202031" lon="19.706930"><ele>1921</ele></trkpt>
    <trkpt lat="49.201991" lon="19.706932"><ele>1921</ele></trkpt>
    <trkpt lat="49.201868" lon="19.706774"><ele>1928</ele></trkpt>
    <trkpt lat="49.201623" lon="19.706652"><ele>1937</ele></trkpt>
    <trkpt lat="49.201271" lon="19.706708"><ele>1939</ele></trkpt>
    <trkpt lat="49.201174" lon="19.706780"><ele>1936</ele></trkpt>
    <trkpt lat="49.201061" lon="19.706821"><ele>1936</ele></trkpt>
    <trkpt lat="49.200995" lon="19.706796"><ele>1939</ele></trkpt>
    <trkpt lat="49.200959" lon="19.706840"><ele>1938</ele></trkpt>
    <trkpt lat="49.200672" lon="19.706739"><ele>1948</ele></trkpt>
    <trkpt lat="49.200580" lon="19.706775"><ele>1950</ele></trkpt>
    <trkpt lat="49.200517" lon="19.706857"><ele>1951</ele></trkpt>
    <trkpt lat="49.200512" lon="19.706723"><ele>1954</ele></trkpt>
    <trkpt lat="49.200674" lon="19.706280"><ele>1966</ele></trkpt>
    <trkpt lat="49.200279" lon="19.706410"><ele>1974</ele></trkpt>
    <trkpt lat="49.200181" lon="19.706537"><ele>1979</ele></trkpt>
    <trkpt lat="49.200241" lon="19.705980"><ele>1996</ele></trkpt>
    <trkpt lat="49.200302" lon="19.705883"><ele>1998</ele></trkpt>
    <trkpt lat="49.200213" lon="19.705868"><ele>2003</ele></trkpt>
    <trkpt lat="49.200055" lon="19.705935"><ele>2007</ele></trkpt>
    <trkpt lat="49.200169" lon="19.705674"><ele>2014</ele></trkpt>
    <trkpt lat="49.200253" lon="19.705593"><ele>2016</ele></trkpt>
    <trkpt lat="49.200117" lon="19.705571"><ele>2021</ele></trkpt>
    <trkpt lat="49.199950" lon="19.705621"><ele>2026</ele></trkpt>
    <trkpt lat="49.199705" lon="19.705786"><ele>2035</ele></trkpt>
    <trkpt lat="49.199584" lon="19.705805"><ele>2040</ele></trkpt>
    <trkpt lat="49.199529" lon="19.705720"><ele>2041</ele></trkpt>
    <trkpt lat="49.199536" lon="19.705647"><ele>2040</ele></trkpt>
    <trkpt lat="49.199644" lon="19.705599"><ele>2040</ele></trkpt>
    <trkpt lat="49.199741" lon="19.705173"><ele>2046</ele></trkpt>
    <trkpt lat="49.199882" lon="19.704976"><ele>2051</ele></trkpt>
    <trkpt lat="49.199916" lon="19.705000"><ele>2052</ele></trkpt>
    <trkpt lat="49.199948" lon="19.704854"><ele>2055</ele></trkpt>
    <trkpt lat="49.200044" lon="19.704748"><ele>2060</ele></trkpt>
    <trkpt lat="49.200113" lon="19.704544"><ele>2064</ele></trkpt>
    <trkpt lat="49.200164" lon="19.704523"><ele>2067</ele></trkpt>
    <trkpt lat="49.200202" lon="19.704429"><ele>2071</ele></trkpt>
    <trkpt lat="49.200233" lon="19.704439"><ele>2072</ele></trkpt>
    <trkpt lat="49.200305" lon="19.704310"><ele>2076</ele></trkpt>
    <trkpt lat="49.200301" lon="19.704239"><ele>2077</ele></trkpt>
    <trkpt lat="49.200338" lon="19.704176"><ele>2080</ele></trkpt>
    <trkpt lat="49.200359" lon="19.704212"><ele>2079</ele></trkpt>
    <trkpt lat="49.200381" lon="19.704142"><ele>2081</ele></trkpt>
    <trkpt lat="49.200526" lon="19.704006"><ele>2090</ele></trkpt>
    <trkpt lat="49.200546" lon="19.703823"><ele>2096</ele></trkpt>
    <trkpt lat="49.200608" lon="19.703774"><ele>2099</ele></trkpt>
    <trkpt lat="49.200585" lon="19.703745"><ele>2099</ele></trkpt>
    <trkpt lat="49.200626" lon="19.703646"><ele>2104</ele></trkpt>
    <trkpt lat="49.200693" lon="19.703636"><ele>2107</ele></trkpt>
    <trkpt lat="49.200732" lon="19.703545"><ele>2111</ele></trkpt>
    <trkpt lat="49.200804" lon="19.703547"><ele>2115</ele></trkpt>
    <trkpt lat="49.200789" lon="19.703376"><ele>2118</ele></trkpt>
    <trkpt lat="49.200812" lon="19.703266"><ele>2122</ele></trkpt>
    <trkpt lat="49.200862" lon="19.703218"><ele>2125</ele></trkpt>
    <trkpt lat="49.200907" lon="19.703239"><ele>2127</ele></trkpt>
    <trkpt lat="49.200965" lon="19.703037"><ele>2135</ele></trkpt>
    <trkpt lat="49.201033" lon="19.703089"><ele>2138</ele></trkpt>
    <trkpt lat="49.201092" lon="19.703042"><ele>2143</ele></trkpt>
    <trkpt lat="49.201093" lon="19.702993"><ele>2144</ele></trkpt>
    <trkpt lat="49.201139" lon="19.702999"><ele>2146</ele></trkpt>
    <trkpt lat="49.201120" lon="19.702917"><ele>2146</ele></trkpt>
    <trkpt lat="49.201182" lon="19.702934"><ele>2149</ele></trkpt>
    <trkpt lat="49.201272" lon="19.702784"><ele>2155</ele></trkpt>
    <trkpt lat="49.201358" lon="19.702830"><ele>2158</ele></trkpt>
    <trkpt lat="49.201424" lon="19.702667"><ele>2158</ele></trkpt>
    <trkpt lat="49.201549" lon="19.702923"><ele>2153</ele></trkpt>
    <trkpt lat="49.201560" lon="19.703017"><ele>2152</ele></trkpt>
    <trkpt lat="49.201742" lon="19.703204"><ele>2144</ele></trkpt>
    <trkpt lat="49.201769" lon="19.703192"><ele>2143</ele></trkpt>
    <trkpt lat="49.201876" lon="19.703348"><ele>2138</ele></trkpt>
    <trkpt lat="49.201870" lon="19.703384"><ele>2137</ele></trkpt>
    <trkpt lat="49.201963" lon="19.703424"><ele>2132</ele></trkpt>
    <trkpt lat="49.201991" lon="19.703530"><ele>2128</ele></trkpt>
    <trkpt lat="49.202041" lon="19.703553"><ele>2125</ele></trkpt>
    <trkpt lat="49.202048" lon="19.703630"><ele>2124</ele></trkpt>
    <trkpt lat="49.202104" lon="19.703654"><ele>2121</ele></trkpt>
    <trkpt lat="49.202152" lon="19.703815"><ele>2116</ele></trkpt>
    <trkpt lat="49.202122" lon="19.703840"><ele>2116</ele></trkpt>
    <trkpt lat="49.202161" lon="19.703975"><ele>2112</ele></trkpt>
    <trkpt lat="49.202138" lon="19.704006"><ele>2110</ele></trkpt>
    <trkpt lat="49.202196" lon="19.704083"><ele>2108</ele></trkpt>
    <trkpt lat="49.202244" lon="19.704073"><ele>2107</ele></trkpt>
    <trkpt lat="49.202318" lon="19.704152"><ele>2101</ele></trkpt>
    <trkpt lat="49.202404" lon="19.704108"><ele>2097</ele></trkpt>
    <trkpt lat="49.202431" lon="19.704179"><ele>2095</ele></trkpt>
    <trkpt lat="49.202483" lon="19.704194"><ele>2092</ele></trkpt>
    <trkpt lat="49.202537" lon="19.704118"><ele>2088</ele></trkpt>
    <trkpt lat="49.202598" lon="19.704108"><ele>2082</ele></trkpt>
    <trkpt lat="49.202894" lon="19.704560"><ele>2055</ele></trkpt>
    <trkpt lat="49.203006" lon="19.704573"><ele>2050</ele></trkpt>
    <trkpt lat="49.203079" lon="19.704698"><ele>2046</ele></trkpt>
    <trkpt lat="49.203119" lon="19.704869"><ele>2041</ele></trkpt>
    <trkpt lat="49.203203" lon="19.704981"><ele>2038</ele></trkpt>
    <trkpt lat="49.203393" lon="19.705605"><ele>2038</ele></trkpt>
    <trkpt lat="49.203666" lon="19.706041"><ele>2040</ele></trkpt>
    <trkpt lat="49.203992" lon="19.706326"><ele>2038</ele></trkpt>
    <trkpt lat="49.204295" lon="19.706478"><ele>2033</ele></trkpt>
    <trkpt lat="49.204762" lon="19.706825"><ele>2036</ele></trkpt>
    <trkpt lat="49.205016" lon="19.707064"><ele>2045</ele></trkpt>
    <trkpt lat="49.205111" lon="19.707104"><ele>2047</ele></trkpt>
    <trkpt lat="49.205229" lon="19.707260"><ele>2052</ele></trkpt>
    <trkpt lat="49.205732" lon="19.707409"><ele>2068</ele></trkpt>
    <trkpt lat="49.205744" lon="19.707358"><ele>2068</ele></trkpt>
    <trkpt lat="49.205864" lon="19.707249"><ele>2072</ele></trkpt>
    <trkpt lat="49.206078" lon="19.707338"><ele>2076</ele></trkpt>
    <trkpt lat="49.206189" lon="19.707262"><ele>2077</ele></trkpt>
    <trkpt lat="49.206479" lon="19.707229"><ele>2075</ele></trkpt>
    <trkpt lat="49.206724" lon="19.707146"><ele>2075</ele></trkpt>
    <trkpt lat="49.207093" lon="19.706742"><ele>2075</ele></trkpt>
    <trkpt lat="49.207228" lon="19.706698"><ele>2076</ele></trkpt>
    <trkpt lat="49.207342" lon="19.706521"><ele>2074</ele></trkpt>
    <trkpt lat="49.207228" lon="19.706698"><ele>2076</ele></trkpt>
    <trkpt lat="49.207093" lon="19.706742"><ele>2075</ele></trkpt>
    <trkpt lat="49.206724" lon="19.707146"><ele>2075</ele></trkpt>
    <trkpt lat="49.206479" lon="19.707229"><ele>2075</ele></trkpt>
    <trkpt lat="49.206189" lon="19.707262"><ele>2077</ele></trkpt>
    <trkpt lat="49.206078" lon="19.707338"><ele>2076</ele></trkpt>
    <trkpt lat="49.205864" lon="19.707249"><ele>2072</ele></trkpt>
    <trkpt lat="49.205744" lon="19.707358"><ele>2068</ele></trkpt>
    <trkpt lat="49.205732" lon="19.707409"><ele>2068</ele></trkpt>
    <trkpt lat="49.205229" lon="19.707260"><ele>2052</ele></trkpt>
    <trkpt lat="49.205111" lon="19.707104"><ele>2047</ele></trkpt>
    <trkpt lat="49.205016" lon="19.707064"><ele>2045</ele></trkpt>
    <trkpt lat="49.204762" lon="19.706825"><ele>2036</ele></trkpt>
    <trkpt lat="49.204295" lon="19.706478"><ele>2033</ele></trkpt>
    <trkpt lat="49.203992" lon="19.706326"><ele>2038</ele></trkpt>
    <trkpt lat="49.203666" lon="19.706041"><ele>2040</ele></trkpt>
    <trkpt lat="49.203393" lon="19.705605"><ele>2038</ele></trkpt>
    <trkpt lat="49.203203" lon="19.704981"><ele>2038</ele></trkpt>
    <trkpt lat="49.203119" lon="19.704869"><ele>2041</ele></trkpt>
    <trkpt lat="49.203079" lon="19.704698"><ele>2046</ele></trkpt>
    <trkpt lat="49.203006" lon="19.704573"><ele>2050</ele></trkpt>
    <trkpt lat="49.202894" lon="19.704560"><ele>2055</ele></trkpt>
    <trkpt lat="49.202598" lon="19.704108"><ele>2082</ele></trkpt>
    <trkpt lat="49.202537" lon="19.704118"><ele>2088</ele></trkpt>
    <trkpt lat="49.202483" lon="19.704194"><ele>2092</ele></trkpt>
    <trkpt lat="49.202431" lon="19.704179"><ele>2095</ele></trkpt>
    <trkpt lat="49.202404" lon="19.704108"><ele>2097</ele></trkpt>
    <trkpt lat="49.202318" lon="19.704152"><ele>2101</ele></trkpt>
    <trkpt lat="49.202244" lon="19.704073"><ele>2107</ele></trkpt>
    <trkpt lat="49.202196" lon="19.704083"><ele>2108</ele></trkpt>
    <trkpt lat="49.202138" lon="19.704006"><ele>2110</ele></trkpt>
    <trkpt lat="49.202161" lon="19.703975"><ele>2112</ele></trkpt>
    <trkpt lat="49.202122" lon="19.703840"><ele>2116</ele></trkpt>
    <trkpt lat="49.202152" lon="19.703815"><ele>2116</ele></trkpt>
    <trkpt lat="49.202104" lon="19.703654"><ele>2121</ele></trkpt>
    <trkpt lat="49.202048" lon="19.703630"><ele>2124</ele></trkpt>
    <trkpt lat="49.202041" lon="19.703553"><ele>2125</ele></trkpt>
    <trkpt lat="49.201991" lon="19.703530"><ele>2128</ele></trkpt>
    <trkpt lat="49.201963" lon="19.703424"><ele>2132</ele></trkpt>
    <trkpt lat="49.201870" lon="19.703384"><ele>2137</ele></trkpt>
    <trkpt lat="49.201876" lon="19.703348"><ele>2138</ele></trkpt>
    <trkpt lat="49.201769" lon="19.703192"><ele>2143</ele></trkpt>
    <trkpt lat="49.201742" lon="19.703204"><ele>2144</ele></trkpt>
    <trkpt lat="49.201560" lon="19.703017"><ele>2152</ele></trkpt>
    <trkpt lat="49.201549" lon="19.702923"><ele>2153</ele></trkpt>
    <trkpt lat="49.201424" lon="19.702667"><ele>2158</ele></trkpt>
    <trkpt lat="49.201358" lon="19.702830"><ele>2158</ele></trkpt>
    <trkpt lat="49.201272" lon="19.702784"><ele>2155</ele></trkpt>
    <trkpt lat="49.201182" lon="19.702934"><ele>2149</ele></trkpt>
    <trkpt lat="49.201120" lon="19.702917"><ele>2146</ele></trkpt>
    <trkpt lat="49.201139" lon="19.702999"><ele>2146</ele></trkpt>
    <trkpt lat="49.201093" lon="19.702993"><ele>2144</ele></trkpt>
    <trkpt lat="49.201092" lon="19.703042"><ele>2143</ele></trkpt>
    <trkpt lat="49.201033" lon="19.703089"><ele>2138</ele></trkpt>
    <trkpt lat="49.200965" lon="19.703037"><ele>2135</ele></trkpt>
    <trkpt lat="49.200907" lon="19.703239"><ele>2127</ele></trkpt>
    <trkpt lat="49.200862" lon="19.703218"><ele>2125</ele></trkpt>
    <trkpt lat="49.200812" lon="19.703266"><ele>2122</ele></trkpt>
    <trkpt lat="49.200789" lon="19.703376"><ele>2118</ele></trkpt>
    <trkpt lat="49.200804" lon="19.703547"><ele>2115</ele></trkpt>
    <trkpt lat="49.200732" lon="19.703545"><ele>2111</ele></trkpt>
    <trkpt lat="49.200693" lon="19.703636"><ele>2107</ele></trkpt>
    <trkpt lat="49.200626" lon="19.703646"><ele>2104</ele></trkpt>
    <trkpt lat="49.200585" lon="19.703745"><ele>2099</ele></trkpt>
    <trkpt lat="49.200608" lon="19.703774"><ele>2099</ele></trkpt>
    <trkpt lat="49.200546" lon="19.703823"><ele>2096</ele></trkpt>
    <trkpt lat="49.200526" lon="19.704006"><ele>2090</ele></trkpt>
    <trkpt lat="49.200381" lon="19.704142"><ele>2081</ele></trkpt>
    <trkpt lat="49.200359" lon="19.704212"><ele>2079</ele></trkpt>
    <trkpt lat="49.200338" lon="19.704176"><ele>2080</ele></trkpt>
    <trkpt lat="49.200301" lon="19.704239"><ele>2077</ele></trkpt>
    <trkpt lat="49.200305" lon="19.704310"><ele>2076</ele></trkpt>
    <trkpt lat="49.200233" lon="19.704439"><ele>2072</ele></trkpt>
    <trkpt lat="49.200202" lon="19.704429"><ele>2071</ele></trkpt>
    <trkpt lat="49.200164" lon="19.704523"><ele>2067</ele></trkpt>
    <trkpt lat="49.200113" lon="19.704544"><ele>2064</ele></trkpt>
    <trkpt lat="49.200044" lon="19.704748"><ele>2060</ele></trkpt>
    <trkpt lat="49.199948" lon="19.704854"><ele>2055</ele></trkpt>
    <trkpt lat="49.199916" lon="19.705000"><ele>2052</ele></trkpt>
    <trkpt lat="49.199882" lon="19.704976"><ele>2051</ele></trkpt>
    <trkpt lat="49.199741" lon="19.705173"><ele>2046</ele></trkpt>
    <trkpt lat="49.199644" lon="19.705599"><ele>2040</ele></trkpt>
    <trkpt lat="49.199536" lon="19.705647"><ele>2040</ele></trkpt>
    <trkpt lat="49.199529" lon="19.705720"><ele>2041</ele></trkpt>
    <trkpt lat="49.199584" lon="19.705805"><ele>2040</ele></trkpt>
    <trkpt lat="49.199705" lon="19.705786"><ele>2035</ele></trkpt>
    <trkpt lat="49.199950" lon="19.705621"><ele>2026</ele></trkpt>
    <trkpt lat="49.200117" lon="19.705571"><ele>2021</ele></trkpt>
    <trkpt lat="49.200253" lon="19.705593"><ele>2016</ele></trkpt>
    <trkpt lat="49.200169" lon="19.705674"><ele>2014</ele></trkpt>
    <trkpt lat="49.200055" lon="19.705935"><ele>2007</ele></trkpt>
    <trkpt lat="49.200213" lon="19.705868"><ele>2003</ele></trkpt>
    <trkpt lat="49.200302" lon="19.705883"><ele>1998</ele></trkpt>
    <trkpt lat="49.200241" lon="19.705980"><ele>1996</ele></trkpt>
    <trkpt lat="49.200181" lon="19.706537"><ele>1979</ele></trkpt>
    <trkpt lat="49.200279" lon="19.706410"><ele>1974</ele></trkpt>
    <trkpt lat="49.200674" lon="19.706280"><ele>1966</ele></trkpt>
    <trkpt lat="49.200512" lon="19.706723"><ele>1954</ele></trkpt>
    <trkpt lat="49.200517" lon="19.706857"><ele>1951</ele></trkpt>
    <trkpt lat="49.200580" lon="19.706775"><ele>1950</ele></trkpt>
    <trkpt lat="49.200672" lon="19.706739"><ele>1948</ele></trkpt>
    <trkpt lat="49.200959" lon="19.706840"><ele>1938</ele></trkpt>
    <trkpt lat="49.200995" lon="19.706796"><ele>1939</ele></trkpt>
    <trkpt lat="49.201061" lon="19.706821"><ele>1936</ele></trkpt>
    <trkpt lat="49.201174" lon="19.706780"><ele>1936</ele></trkpt>
    <trkpt lat="49.201271" lon="19.706708"><ele>1939</ele></trkpt>
    <trkpt lat="49.201623" lon="19.706652"><ele>1937</ele></trkpt>
    <trkpt lat="49.201868" lon="19.706774"><ele>1928</ele></trkpt>
    <trkpt lat="49.201991" lon="19.706932"><ele>1921</ele></trkpt>
    <trkpt lat="49.202031" lon="19.706930"><ele>1921</ele></trkpt>
    <trkpt lat="49.201991" lon="19.707048"><ele>1916</ele></trkpt>
    <trkpt lat="49.202050" lon="19.707206"><ele>1909</ele></trkpt>
    <trkpt lat="49.202015" lon="19.707328"><ele>1904</ele></trkpt>
    <trkpt lat="49.201901" lon="19.707362"><ele>1902</ele></trkpt>
    <trkpt lat="49.201906" lon="19.707478"><ele>1898</ele></trkpt>
    <trkpt lat="49.201871" lon="19.707471"><ele>1898</ele></trkpt>
    <trkpt lat="49.201897" lon="19.707574"><ele>1895</ele></trkpt>
    <trkpt lat="49.201891" lon="19.707733"><ele>1890</ele></trkpt>
    <trkpt lat="49.201809" lon="19.707862"><ele>1886</ele></trkpt>
    <trkpt lat="49.201678" lon="19.707859"><ele>1886</ele></trkpt>
    <trkpt lat="49.201672" lon="19.708274"><ele>1872</ele></trkpt>
    <trkpt lat="49.201930" lon="19.708629"><ele>1864</ele></trkpt>
    <trkpt lat="49.202144" lon="19.709000"><ele>1855</ele></trkpt>
    <trkpt lat="49.202518" lon="19.709164"><ele>1847</ele></trkpt>
    <trkpt lat="49.202540" lon="19.709584"><ele>1837</ele></trkpt>
    <trkpt lat="49.202682" lon="19.709800"><ele>1835</ele></trkpt>
    <trkpt lat="49.203117" lon="19.711494"><ele>1822</ele></trkpt>
    <trkpt lat="49.203178" lon="19.711605"><ele>1820</ele></trkpt>
    <trkpt lat="49.203379" lon="19.711738"><ele>1817</ele></trkpt>
    <trkpt lat="49.203421" lon="19.711817"><ele>1815</ele></trkpt>
    <trkpt lat="49.203510" lon="19.711851"><ele>1814</ele></trkpt>
    <trkpt lat="49.203632" lon="19.712000"><ele>1810</ele></trkpt>
    <trkpt lat="49.203722" lon="19.712008"><ele>1810</ele></trkpt>
    <trkpt lat="49.203779" lon="19.712160"><ele>1805</ele></trkpt>
    <trkpt lat="49.203934" lon="19.712250"><ele>1802</ele></trkpt>
    <trkpt lat="49.204008" lon="19.712680"><ele>1786</ele></trkpt>
    <trkpt lat="49.204171" lon="19.712819"><ele>1782</ele></trkpt>
    <trkpt lat="49.204235" lon="19.713138"><ele>1774</ele></trkpt>
    <trkpt lat="49.204358" lon="19.713448"><ele>1767</ele></trkpt>
    <trkpt lat="49.204498" lon="19.713556"><ele>1766</ele></trkpt>
    <trkpt lat="49.204675" lon="19.714033"><ele>1755</ele></trkpt>
    <trkpt lat="49.204761" lon="19.714365"><ele>1747</ele></trkpt>
    <trkpt lat="49.204905" lon="19.714475"><ele>1743</ele></trkpt>
    <trkpt lat="49.205393" lon="19.715218"><ele>1726</ele></trkpt>
    <trkpt lat="49.205580" lon="19.715355"><ele>1723</ele></trkpt>
    <trkpt lat="49.205626" lon="19.715474"><ele>1721</ele></trkpt>
    <trkpt lat="49.205751" lon="19.715545"><ele>1720</ele></trkpt>
    <trkpt lat="49.205970" lon="19.715946"><ele>1715</ele></trkpt>
    <trkpt lat="49.205979" lon="19.716098"><ele>1714</ele></trkpt>
    <trkpt lat="49.206139" lon="19.716186"><ele>1709</ele></trkpt>
    <trkpt lat="49.206175" lon="19.716350"><ele>1705</ele></trkpt>
    <trkpt lat="49.206192" lon="19.717531"><ele>1676</ele></trkpt>
    <trkpt lat="49.206060" lon="19.717809"><ele>1675</ele></trkpt>
    <trkpt lat="49.206147" lon="19.718067"><ele>1673</ele></trkpt>
    <trkpt lat="49.206302" lon="19.718187"><ele>1668</ele></trkpt>
    <trkpt lat="49.206350" lon="19.718443"><ele>1668</ele></trkpt>
    <trkpt lat="49.206440" lon="19.718631"><ele>1665</ele></trkpt>
    <trkpt lat="49.206481" lon="19.719174"><ele>1656</ele></trkpt>
    <trkpt lat="49.206485" lon="19.719720"><ele>1642</ele></trkpt>
    <trkpt lat="49.206565" lon="19.719926"><ele>1635</ele></trkpt>
    <trkpt lat="49.206660" lon="19.719918"><ele>1632</ele></trkpt>
    <trkpt lat="49.206828" lon="19.720144"><ele>1625</ele></trkpt>
    <trkpt lat="49.206919" lon="19.720464"><ele>1618</ele></trkpt>
    <trkpt lat="49.206891" lon="19.720876"><ele>1609</ele></trkpt>
    <trkpt lat="49.206693" lon="19.721326"><ele>1602</ele></trkpt>
    <trkpt lat="49.206695" lon="19.721448"><ele>1599</ele></trkpt>
    <trkpt lat="49.206906" lon="19.721641"><ele>1591</ele></trkpt>
    <trkpt lat="49.207014" lon="19.722408"><ele>1580</ele></trkpt>
    <trkpt lat="49.207057" lon="19.722482"><ele>1578</ele></trkpt>
    <trkpt lat="49.207079" lon="19.722631"><ele>1575</ele></trkpt>
    <trkpt lat="49.207315" lon="19.722914"><ele>1569</ele></trkpt>
    <trkpt lat="49.207364" lon="19.723135"><ele>1565</ele></trkpt>
    <trkpt lat="49.207573" lon="19.723312"><ele>1560</ele></trkpt>
    <trkpt lat="49.207704" lon="19.723590"><ele>1554</ele></trkpt>
    <trkpt lat="49.207943" lon="19.723838"><ele>1549</ele></trkpt>
    <trkpt lat="49.208106" lon="19.724115"><ele>1543</ele></trkpt>
    <trkpt lat="49.208268" lon="19.724253"><ele>1539</ele></trkpt>
    <trkpt lat="49.208487" lon="19.724528"><ele>1534</ele></trkpt>
    <trkpt lat="49.208629" lon="19.724808"><ele>1527</ele></trkpt>
    <trkpt lat="49.208765" lon="19.724977"><ele>1522</ele></trkpt>
    <trkpt lat="49.208933" lon="19.725095"><ele>1517</ele></trkpt>
    <trkpt lat="49.209503" lon="19.725764"><ele>1495</ele></trkpt>
    <trkpt lat="49.209819" lon="19.725761"><ele>1487</ele></trkpt>
    <trkpt lat="49.210053" lon="19.725705"><ele>1484</ele></trkpt>
    <trkpt lat="49.210205" lon="19.725734"><ele>1482</ele></trkpt>
    <trkpt lat="49.210456" lon="19.725877"><ele>1477</ele></trkpt>
    <trkpt lat="49.210865" lon="19.726011"><ele>1472</ele></trkpt>
    <trkpt lat="49.210954" lon="19.726078"><ele>1470</ele></trkpt>
    <trkpt lat="49.210974" lon="19.726184"><ele>1469</ele></trkpt>
    <trkpt lat="49.211016" lon="19.726226"><ele>1469</ele></trkpt>
    <trkpt lat="49.211124" lon="19.726015"><ele>1468</ele></trkpt>
    <trkpt lat="49.211260" lon="19.726061"><ele>1462</ele></trkpt>
    <trkpt lat="49.211336" lon="19.726021"><ele>1460</ele></trkpt>
    <trkpt lat="49.211418" lon="19.726175"><ele>1455</ele></trkpt>
    <trkpt lat="49.211489" lon="19.726019"><ele>1454</ele></trkpt>
    <trkpt lat="49.211557" lon="19.726244"><ele>1448</ele></trkpt>
    <trkpt lat="49.211611" lon="19.726172"><ele>1446</ele></trkpt>
    <trkpt lat="49.211660" lon="19.726178"><ele>1443</ele></trkpt>
    <trkpt lat="49.211706" lon="19.726392"><ele>1438</ele></trkpt>
    <trkpt lat="49.211819" lon="19.726326"><ele>1437</ele></trkpt>
    <trkpt lat="49.211827" lon="19.726487"><ele>1434</ele></trkpt>
    <trkpt lat="49.212380" lon="19.726493"><ele>1416</ele></trkpt>
    <trkpt lat="49.212500" lon="19.726655"><ele>1406</ele></trkpt>
    <trkpt lat="49.212764" lon="19.726707"><ele>1409</ele></trkpt>
    <trkpt lat="49.212897" lon="19.726785"><ele>1409</ele></trkpt>
    <trkpt lat="49.212944" lon="19.726871"><ele>1407</ele></trkpt>
    <trkpt lat="49.212956" lon="19.727099"><ele>1399</ele></trkpt>
    <trkpt lat="49.213086" lon="19.727166"><ele>1398</ele></trkpt>
    <trkpt lat="49.213073" lon="19.727286"><ele>1394</ele></trkpt>
    <trkpt lat="49.213193" lon="19.727643"><ele>1382</ele></trkpt>
    <trkpt lat="49.213259" lon="19.727710"><ele>1381</ele></trkpt>
    <trkpt lat="49.213405" lon="19.727750"><ele>1379</ele></trkpt>
    <trkpt lat="49.213628" lon="19.727971"><ele>1372</ele></trkpt>
    <trkpt lat="49.214065" lon="19.728038"><ele>1363</ele></trkpt>
    <trkpt lat="49.214515" lon="19.728210"><ele>1355</ele></trkpt>
    <trkpt lat="49.214735" lon="19.727935"><ele>1352</ele></trkpt>
    <trkpt lat="49.214904" lon="19.728081"><ele>1347</ele></trkpt>
    <trkpt lat="49.215170" lon="19.728213"><ele>1341</ele></trkpt>
    <trkpt lat="49.215338" lon="19.728436"><ele>1335</ele></trkpt>
    <trkpt lat="49.215536" lon="19.728448"><ele>1328</ele></trkpt>
    <trkpt lat="49.215578" lon="19.728502"><ele>1325</ele></trkpt>
    <trkpt lat="49.215604" lon="19.728693"><ele>1322</ele></trkpt>
    <trkpt lat="49.215801" lon="19.728594"><ele>1315</ele></trkpt>
    <trkpt lat="49.215824" lon="19.728763"><ele>1313</ele></trkpt>
    <trkpt lat="49.215885" lon="19.728732"><ele>1311</ele></trkpt>
    <trkpt lat="49.215925" lon="19.728943"><ele>1307</ele></trkpt>
    <trkpt lat="49.215986" lon="19.728892"><ele>1305</ele></trkpt>
    <trkpt lat="49.216004" lon="19.729048"><ele>1302</ele></trkpt>
    <trkpt lat="49.216079" lon="19.728937"><ele>1301</ele></trkpt>
    <trkpt lat="49.216154" lon="19.729106"><ele>1293</ele></trkpt>
    <trkpt lat="49.216196" lon="19.729044"><ele>1292</ele></trkpt>
    <trkpt lat="49.216239" lon="19.729113"><ele>1288</ele></trkpt>
    <trkpt lat="49.216262" lon="19.729065"><ele>1288</ele></trkpt>
    <trkpt lat="49.216288" lon="19.729138"><ele>1285</ele></trkpt>
    <trkpt lat="49.216498" lon="19.729215"><ele>1272</ele></trkpt>
    <trkpt lat="49.216732" lon="19.729408"><ele>1261</ele></trkpt>
    <trkpt lat="49.216821" lon="19.729234"><ele>1259</ele></trkpt>
    <trkpt lat="49.217131" lon="19.729083"><ele>1251</ele></trkpt>
    <trkpt lat="49.217320" lon="19.728737"><ele>1246</ele></trkpt>
    <trkpt lat="49.217625" lon="19.728793"><ele>1239</ele></trkpt>
    <trkpt lat="49.217996" lon="19.728722"><ele>1230</ele></trkpt>
    <trkpt lat="49.218057" lon="19.728647"><ele>1229</ele></trkpt>
    <trkpt lat="49.218350" lon="19.728501"><ele>1223</ele></trkpt>
    <trkpt lat="49.218563" lon="19.728144"><ele>1218</ele></trkpt>
    <trkpt lat="49.218843" lon="19.727854"><ele>1218</ele></trkpt>
    <trkpt lat="49.219173" lon="19.727754"><ele>1214</ele></trkpt>
    <trkpt lat="49.219295" lon="19.727771"><ele>1212</ele></trkpt>
    <trkpt lat="49.219558" lon="19.727622"><ele>1209</ele></trkpt>
    <trkpt lat="49.219707" lon="19.727115"><ele>1208</ele></trkpt>
    <trkpt lat="49.219814" lon="19.726906"><ele>1207</ele></trkpt>
    <trkpt lat="49.220356" lon="19.726069"><ele>1198</ele></trkpt>
    <trkpt lat="49.220783" lon="19.725766"><ele>1189</ele></trkpt>
    <trkpt lat="49.221103" lon="19.725850"><ele>1187</ele></trkpt>
    <trkpt lat="49.221254" lon="19.725944"><ele>1188</ele></trkpt>
    <trkpt lat="49.221531" lon="19.726274"><ele>1189</ele></trkpt>
    <trkpt lat="49.221688" lon="19.726669"><ele>1187</ele></trkpt>
    <trkpt lat="49.221830" lon="19.727490"><ele>1187</ele></trkpt>
    <trkpt lat="49.221894" lon="19.727715"><ele>1188</ele></trkpt>
    <trkpt lat="49.222012" lon="19.727963"><ele>1190</ele></trkpt>
    <trkpt lat="49.222235" lon="19.728195"><ele>1190</ele></trkpt>
    <trkpt lat="49.222389" lon="19.728286"><ele>1189</ele></trkpt>
    <trkpt lat="49.222487" lon="19.728311"><ele>1189</ele></trkpt>
    <trkpt lat="49.222707" lon="19.728230"><ele>1190</ele></trkpt>
    <trkpt lat="49.223654" lon="19.727550"><ele>1190</ele></trkpt>
    <trkpt lat="49.224009" lon="19.726923"><ele>1187</ele></trkpt>
    <trkpt lat="49.224655" lon="19.725348"><ele>1176</ele></trkpt>
    <trkpt lat="49.224909" lon="19.724987"><ele>1172</ele></trkpt>
    <trkpt lat="49.225114" lon="19.724804"><ele>1168</ele></trkpt>
    <trkpt lat="49.225385" lon="19.724673"><ele>1165</ele></trkpt>
    <trkpt lat="49.226126" lon="19.724468"><ele>1161</ele></trkpt>
    <trkpt lat="49.226406" lon="19.724328"><ele>1159</ele></trkpt>
    <trkpt lat="49.227533" lon="19.723291"><ele>1147</ele></trkpt>
    <trkpt lat="49.228200" lon="19.722834"><ele>1139</ele></trkpt>
    <trkpt lat="49.228733" lon="19.722580"><ele>1136</ele></trkpt>
    <trkpt lat="49.230315" lon="19.722034"><ele>1124</ele></trkpt>
    <trkpt lat="49.231288" lon="19.721503"><ele>1119</ele></trkpt>
    <trkpt lat="49.232220" lon="19.720886"><ele>1111</ele></trkpt>
    <trkpt lat="49.234960" lon="19.719392"><ele>1094</ele></trkpt>
    <trkpt lat="49.236699" lon="19.718219"><ele>1068</ele></trkpt>
    <trkpt lat="49.236618" lon="19.718023"><ele>1065</ele></trkpt>
  </trkseg></trk>
</gpx>
