<?xml version="1.0" encoding="UTF-8"?>
<gpx version="1.1" creator="MounTour (OpenStreetMap)" xmlns="http://www.topografix.com/GPX/1/1">
  <metadata><name>Steny, severný vrchol</name><copyright author="OpenStreetMap contributors"><license>https://opendatacommons.org/licenses/odbl/</license></copyright></metadata>
  <trk><name>Steny, severný vrchol</name><trkseg>
    <trkpt lat="49.231702" lon="19.062720"><ele>633</ele></trkpt>
    <trkpt lat="49.231697" lon="19.062527"><ele>631</ele></trkpt>
    <trkpt lat="49.231779" lon="19.061656"><ele>656</ele></trkpt>
    <trkpt lat="49.231694" lon="19.061007"><ele>666</ele></trkpt>
    <trkpt lat="49.231583" lon="19.060750"><ele>664</ele></trkpt>
    <trkpt lat="49.231481" lon="19.060688"><ele>660</ele></trkpt>
    <trkpt lat="49.231254" lon="19.060660"><ele>657</ele></trkpt>
    <trkpt lat="49.230475" lon="19.060670"><ele>692</ele></trkpt>
    <trkpt lat="49.230255" lon="19.060488"><ele>699</ele></trkpt>
    <trkpt lat="49.230106" lon="19.060287"><ele>703</ele></trkpt>
    <trkpt lat="49.229966" lon="19.059928"><ele>709</ele></trkpt>
    <trkpt lat="49.229812" lon="19.059678"><ele>714</ele></trkpt>
    <trkpt lat="49.229175" lon="19.059509"><ele>729</ele></trkpt>
    <trkpt lat="49.229038" lon="19.059396"><ele>735</ele></trkpt>
    <trkpt lat="49.228646" lon="19.058863"><ele>746</ele></trkpt>
    <trkpt lat="49.228493" lon="19.058898"><ele>750</ele></trkpt>
    <trkpt lat="49.227915" lon="19.058881"><ele>772</ele></trkpt>
    <trkpt lat="49.227751" lon="19.058640"><ele>780</ele></trkpt>
    <trkpt lat="49.227208" lon="19.057186"><ele>814</ele></trkpt>
    <trkpt lat="49.226936" lon="19.056711"><ele>822</ele></trkpt>
    <trkpt lat="49.226778" lon="19.056572"><ele>828</ele></trkpt>
    <trkpt lat="49.226722" lon="19.056623"><ele>830</ele></trkpt>
    <trkpt lat="49.226693" lon="19.056931"><ele>826</ele></trkpt>
    <trkpt lat="49.226582" lon="19.057219"><ele>824</ele></trkpt>
    <trkpt lat="49.226370" lon="19.057289"><ele>830</ele></trkpt>
    <trkpt lat="49.226187" lon="19.057097"><ele>839</ele></trkpt>
    <trkpt lat="49.226084" lon="19.056873"><ele>850</ele></trkpt>
    <trkpt lat="49.225541" lon="19.056724"><ele>872</ele></trkpt>
    <trkpt lat="49.225095" lon="19.056407"><ele>893</ele></trkpt>
    <trkpt lat="49.224640" lon="19.056252"><ele>901</ele></trkpt>
    <trkpt lat="49.224425" lon="19.056346"><ele>909</ele></trkpt>
    <trkpt lat="49.224027" lon="19.056997"><ele>922</ele></trkpt>
    <trkpt lat="49.223763" lon="19.057011"><ele>924</ele></trkpt>
    <trkpt lat="49.223439" lon="19.056620"><ele>930</ele></trkpt>
    <trkpt lat="49.223298" lon="19.056508"><ele>934</ele></trkpt>
    <trkpt lat="49.222642" lon="19.056219"><ele>956</ele></trkpt>
    <trkpt lat="49.222054" lon="19.055850"><ele>962</ele></trkpt>
    <trkpt lat="49.221434" lon="19.055561"><ele>976</ele></trkpt>
    <trkpt lat="49.221255" lon="19.055365"><ele>980</ele></trkpt>
    <trkpt lat="49.220799" lon="19.054545"><ele>987</ele></trkpt>
    <trkpt lat="49.220277" lon="19.054190"><ele>983</ele></trkpt>
    <trkpt lat="49.219573" lon="19.053908"><ele>974</ele></trkpt>
    <trkpt lat="49.219284" lon="19.054129"><ele>973</ele></trkpt>
    <trkpt lat="49.219044" lon="19.054209"><ele>972</ele></trkpt>
    <trkpt lat="49.218256" lon="19.054239"><ele>979</ele></trkpt>
    <trkpt lat="49.217786" lon="19.054204"><ele>989</ele></trkpt>
    <trkpt lat="49.217013" lon="19.053977"><ele>1014</ele></trkpt>
    <trkpt lat="49.216695" lon="19.053823"><ele>1024</ele></trkpt>
    <trkpt lat="49.216353" lon="19.053766"><ele>1036</ele></trkpt>
    <trkpt lat="49.216169" lon="19.053651"><ele>1043</ele></trkpt>
    <trkpt lat="49.215981" lon="19.053647"><ele>1050</ele></trkpt>
    <trkpt lat="49.215649" lon="19.053724"><ele>1065</ele></trkpt>
    <trkpt lat="49.215339" lon="19.053986"><ele>1080</ele></trkpt>
    <trkpt lat="49.214932" lon="19.054472"><ele>1101</ele></trkpt>
    <trkpt lat="49.214512" lon="19.055210"><ele>1127</ele></trkpt>
    <trkpt lat="49.214039" lon="19.056371"><ele>1166</ele></trkpt>
    <trkpt lat="49.213655" lon="19.057417"><ele>1200</ele></trkpt>
    <trkpt lat="49.213548" lon="19.057596"><ele>1208</ele></trkpt>
    <trkpt lat="49.213557" lon="19.057763"><ele>1212</ele></trkpt>
    <trkpt lat="49.213468" lon="19.057865"><ele>1218</ele></trkpt>
    <trkpt lat="49.213467" lon="19.057977"><ele>1221</ele></trkpt>
    <trkpt lat="49.213310" lon="19.058094"><ele>1231</ele></trkpt>
    <trkpt lat="49.213443" lon="19.058273"><ele>1229</ele></trkpt>
    <trkpt lat="49.213360" lon="19.058275"><ele>1233</ele></trkpt>
    <trkpt lat="49.213390" lon="19.058357"><ele>1233</ele></trkpt>
    <trkpt lat="49.213289" lon="19.058376"><ele>1238</ele></trkpt>
    <trkpt lat="49.213331" lon="19.058534"><ele>1240</ele></trkpt>
    <trkpt lat="49.213230" lon="19.058510"><ele>1246</ele></trkpt>
    <trkpt lat="49.213322" lon="19.058696"><ele>1244</ele></trkpt>
    <trkpt lat="49.213212" lon="19.058674"><ele>1251</ele></trkpt>
    <trkpt lat="49.213255" lon="19.058919"><ele>1254</ele></trkpt>
    <trkpt lat="49.213154" lon="19.058927"><ele>1259</ele></trkpt>
    <trkpt lat="49.213188" lon="19.059100"><ele>1261</ele></trkpt>
    <trkpt lat="49.213109" lon="19.059126"><ele>1266</ele></trkpt>
    <trkpt lat="49.213141" lon="19.059340"><ele>1270</ele></trkpt>
    <trkpt lat="49.213057" lon="19.059327"><ele>1273</ele></trkpt>
    <trkpt lat="49.213093" lon="19.059473"><ele>1275</ele></trkpt>
    <trkpt lat="49.212915" lon="19.059434"><ele>1282</ele></trkpt>
    <trkpt lat="49.212961" lon="19.059568"><ele>1285</ele></trkpt>
    <trkpt lat="49.212863" lon="19.059631"><ele>1290</ele></trkpt>
    <trkpt lat="49.212914" lon="19.059705"><ele>1291</ele></trkpt>
    <trkpt lat="49.212800" lon="19.059726"><ele>1295</ele></trkpt>
    <trkpt lat="49.212833" lon="19.059866"><ele>1298</ele></trkpt>
    <trkpt lat="49.212726" lon="19.059827"><ele>1301</ele></trkpt>
    <trkpt lat="49.212767" lon="19.059946"><ele>1302</ele></trkpt>
    <trkpt lat="49.212666" lon="19.059913"><ele>1306</ele></trkpt>
    <trkpt lat="49.212699" lon="19.060122"><ele>1310</ele></trkpt>
    <trkpt lat="49.212605" lon="19.060094"><ele>1313</ele></trkpt>
    <trkpt lat="49.212641" lon="19.060228"><ele>1315</ele></trkpt>
    <trkpt lat="49.212502" lon="19.060292"><ele>1320</ele></trkpt>
    <trkpt lat="49.212563" lon="19.060471"><ele>1323</ele></trkpt>
    <trkpt lat="49.212420" lon="19.060437"><ele>1326</ele></trkpt>
    <trkpt lat="49.212486" lon="19.060585"><ele>1327</ele></trkpt>
    <trkpt lat="49.212341" lon="19.060572"><ele>1332</ele></trkpt>
    <trkpt lat="49.212404" lon="19.060761"><ele>1333</ele></trkpt>
    <trkpt lat="49.212299" lon="19.060734"><ele>1336</ele></trkpt>
    <trkpt lat="49.212310" lon="19.060866"><ele>1339</ele></trkpt>
    <trkpt lat="49.212150" lon="19.060866"><ele>1344</ele></trkpt>
    <trkpt lat="49.212185" lon="19.061007"><ele>1346</ele></trkpt>
    <trkpt lat="49.212072" lon="19.061021"><ele>1350</ele></trkpt>
    <trkpt lat="49.212136" lon="19.061128"><ele>1351</ele></trkpt>
    <trkpt lat="49.211962" lon="19.061135"><ele>1356</ele></trkpt>
    <trkpt lat="49.212064" lon="19.061277"><ele>1357</ele></trkpt>
    <trkpt lat="49.211959" lon="19.061320"><ele>1362</ele></trkpt>
    <trkpt lat="49.212047" lon="19.061490"><ele>1364</ele></trkpt>
    <trkpt lat="49.211930" lon="19.061502"><ele>1368</ele></trkpt>
    <trkpt lat="49.211999" lon="19.061637"><ele>1370</ele></trkpt>
    <trkpt lat="49.211859" lon="19.061664"><ele>1374</ele></trkpt>
    <trkpt lat="49.211919" lon="19.061854"><ele>1378</ele></trkpt>
    <trkpt lat="49.211810" lon="19.061829"><ele>1380</ele></trkpt>
    <trkpt lat="49.211844" lon="19.061989"><ele>1383</ele></trkpt>
    <trkpt lat="49.211735" lon="19.061974"><ele>1387</ele></trkpt>
    <trkpt lat="49.211785" lon="19.062111"><ele>1389</ele></trkpt>
    <trkpt lat="49.211683" lon="19.062092"><ele>1392</ele></trkpt>
    <trkpt lat="49.211706" lon="19.062261"><ele>1396</ele></trkpt>
    <trkpt lat="49.211613" lon="19.062227"><ele>1398</ele></trkpt>
    <trkpt lat="49.211653" lon="19.062405"><ele>1402</ele></trkpt>
    <trkpt lat="49.211522" lon="19.062365"><ele>1403</ele></trkpt>
    <trkpt lat="49.211588" lon="19.062539"><ele>1407</ele></trkpt>
    <trkpt lat="49.211463" lon="19.062494"><ele>1409</ele></trkpt>
    <trkpt lat="49.211522" lon="19.062639"><ele>1411</ele></trkpt>
    <trkpt lat="49.211386" lon="19.062600"><ele>1415</ele></trkpt>
    <trkpt lat="49.211444" lon="19.062821"><ele>1420</ele></trkpt>
    <trkpt lat="49.211314" lon="19.062817"><ele>1423</ele></trkpt>
    <trkpt lat="49.211363" lon="19.062992"><ele>1427</ele></trkpt>
    <trkpt lat="49.211252" lon="19.062960"><ele>1429</ele></trkpt>
    <trkpt lat="49.211284" lon="19.063136"><ele>1432</ele></trkpt>
    <trkpt lat="49.211180" lon="19.063122"><ele>1435</ele></trkpt>
    <trkpt lat="49.211212" lon="19.063263"><ele>1437</ele></trkpt>
    <trkpt lat="49.211120" lon="19.063233"><ele>1440</ele></trkpt>
    <trkpt lat="49.211065" lon="19.063390"><ele>1444</ele></trkpt>
    <trkpt lat="49.210978" lon="19.063468"><ele>1446</ele></trkpt>
    <trkpt lat="49.210766" lon="19.063498"><ele>1449</ele></trkpt>
    <trkpt lat="49.210460" lon="19.063436"><ele>1451</ele></trkpt>
    <trkpt lat="49.209401" lon="19.063441"><ele>1451</ele></trkpt>
    <trkpt lat="49.209209" lon="19.063524"><ele>1451</ele></trkpt>
    <trkpt lat="49.208997" lon="19.063554"><ele>1450</ele></trkpt>
    <trkpt lat="49.208734" lon="19.063683"><ele>1450</ele></trkpt>
    <trkpt lat="49.208399" lon="19.063943"><ele>1449</ele></trkpt>
    <trkpt lat="49.207411" lon="19.065120"><ele>1480</ele></trkpt>
    <trkpt lat="49.206887" lon="19.065624"><ele>1501</ele></trkpt>
    <trkpt lat="49.206649" lon="19.065705"><ele>1509</ele></trkpt>
    <trkpt lat="49.206537" lon="19.065807"><ele>1514</ele></trkpt>
    <trkpt lat="49.206268" lon="19.065936"><ele>1520</ele></trkpt>
    <trkpt lat="49.205874" lon="19.066068"><ele>1528</ele></trkpt>
    <trkpt lat="49.206268" lon="19.065936"><ele>1520</ele></trkpt>
    <trkpt lat="49.206537" lon="19.065807"><ele>1514</ele></trkpt>
    <trkpt lat="49.206649" lon="19.065705"><ele>1509</ele></trkpt>
    <trkpt lat="49.206887" lon="19.065624"><ele>1501</ele></trkpt>
    <trkpt lat="49.207411" lon="19.065120"><ele>1480</ele></trkpt>
    <trkpt lat="49.208399" lon="19.063943"><ele>1449</ele></trkpt>
    <trkpt lat="49.208734" lon="19.063683"><ele>1450</ele></trkpt>
    <trkpt lat="49.208997" lon="19.063554"><ele>1450</ele></trkpt>
    <trkpt lat="49.209209" lon="19.063524"><ele>1451</ele></trkpt>
    <trkpt lat="49.209401" lon="19.063441"><ele>1451</ele></trkpt>
    <trkpt lat="49.210460" lon="19.063436"><ele>1451</ele></trkpt>
    <trkpt lat="49.210766" lon="19.063498"><ele>1449</ele></trkpt>
    <trkpt lat="49.210978" lon="19.063468"><ele>1446</ele></trkpt>
    <trkpt lat="49.211065" lon="19.063390"><ele>1444</ele></trkpt>
    <trkpt lat="49.211120" lon="19.063233"><ele>1440</ele></trkpt>
    <trkpt lat="49.211212" lon="19.063263"><ele>1437</ele></trkpt>
    <trkpt lat="49.211180" lon="19.063122"><ele>1435</ele></trkpt>
    <trkpt lat="49.211284" lon="19.063136"><ele>1432</ele></trkpt>
    <trkpt lat="49.211252" lon="19.062960"><ele>1429</ele></trkpt>
    <trkpt lat="49.211363" lon="19.062992"><ele>1427</ele></trkpt>
    <trkpt lat="49.211314" lon="19.062817"><ele>1423</ele></trkpt>
    <trkpt lat="49.211444" lon="19.062821"><ele>1420</ele></trkpt>
    <trkpt lat="49.211386" lon="19.062600"><ele>1415</ele></trkpt>
    <trkpt lat="49.211522" lon="19.062639"><ele>1411</ele></trkpt>
    <trkpt lat="49.211463" lon="19.062494"><ele>1409</ele></trkpt>
    <trkpt lat="49.211588" lon="19.062539"><ele>1407</ele></trkpt>
    <trkpt lat="49.211522" lon="19.062365"><ele>1403</ele></trkpt>
    <trkpt lat="49.211653" lon="19.062405"><ele>1402</ele></trkpt>
    <trkpt lat="49.211613" lon="19.062227"><ele>1398</ele></trkpt>
    <trkpt lat="49.211706" lon="19.062261"><ele>1396</ele></trkpt>
    <trkpt lat="49.211683" lon="19.062092"><ele>1392</ele></trkpt>
    <trkpt lat="49.211785" lon="19.062111"><ele>1389</ele></trkpt>
    <trkpt lat="49.211735" lon="19.061974"><ele>1387</ele></trkpt>
    <trkpt lat="49.211844" lon="19.061989"><ele>1383</ele></trkpt>
    <trkpt lat="49.211810" lon="19.061829"><ele>1380</ele></trkpt>
    <trkpt lat="49.211919" lon="19.061854"><ele>1378</ele></trkpt>
    <trkpt lat="49.211859" lon="19.061664"><ele>1374</ele></trkpt>
    <trkpt lat="49.211999" lon="19.061637"><ele>1370</ele></trkpt>
    <trkpt lat="49.211930" lon="19.061502"><ele>1368</ele></trkpt>
    <trkpt lat="49.212047" lon="19.061490"><ele>1364</ele></trkpt>
    <trkpt lat="49.211959" lon="19.061320"><ele>1362</ele></trkpt>
    <trkpt lat="49.212064" lon="19.061277"><ele>1357</ele></trkpt>
    <trkpt lat="49.211962" lon="19.061135"><ele>1356</ele></trkpt>
    <trkpt lat="49.212136" lon="19.061128"><ele>1351</ele></trkpt>
    <trkpt lat="49.212072" lon="19.061021"><ele>1350</ele></trkpt>
    <trkpt lat="49.212185" lon="19.061007"><ele>1346</ele></trkpt>
    <trkpt lat="49.212150" lon="19.060866"><ele>1344</ele></trkpt>
    <trkpt lat="49.212310" lon="19.060866"><ele>1339</ele></trkpt>
    <trkpt lat="49.212299" lon="19.060734"><ele>1336</ele></trkpt>
    <trkpt lat="49.212404" lon="19.060761"><ele>1333</ele></trkpt>
    <trkpt lat="49.212341" lon="19.060572"><ele>1332</ele></trkpt>
    <trkpt lat="49.212486" lon="19.060585"><ele>1327</ele></trkpt>
    <trkpt lat="49.212420" lon="19.060437"><ele>1326</ele></trkpt>
    <trkpt lat="49.212563" lon="19.060471"><ele>1323</ele></trkpt>
    <trkpt lat="49.212502" lon="19.060292"><ele>1320</ele></trkpt>
    <trkpt lat="49.212641" lon="19.060228"><ele>1315</ele></trkpt>
    <trkpt lat="49.212605" lon="19.060094"><ele>1313</ele></trkpt>
    <trkpt lat="49.212699" lon="19.060122"><ele>1310</ele></trkpt>
    <trkpt lat="49.212666" lon="19.059913"><ele>1306</ele></trkpt>
    <trkpt lat="49.212767" lon="19.059946"><ele>1302</ele></trkpt>
    <trkpt lat="49.212726" lon="19.059827"><ele>1301</ele></trkpt>
    <trkpt lat="49.212833" lon="19.059866"><ele>1298</ele></trkpt>
    <trkpt lat="49.212800" lon="19.059726"><ele>1295</ele></trkpt>
    <trkpt lat="49.212914" lon="19.059705"><ele>1291</ele></trkpt>
    <trkpt lat="49.212863" lon="19.059631"><ele>1290</ele></trkpt>
    <trkpt lat="49.212961" lon="19.059568"><ele>1285</ele></trkpt>
    <trkpt lat="49.212915" lon="19.059434"><ele>1282</ele></trkpt>
    <trkpt lat="49.213093" lon="19.059473"><ele>1275</ele></trkpt>
    <trkpt lat="49.213057" lon="19.059327"><ele>1273</ele></trkpt>
    <trkpt lat="49.213141" lon="19.059340"><ele>1270</ele></trkpt>
    <trkpt lat="49.213109" lon="19.059126"><ele>1266</ele></trkpt>
    <trkpt lat="49.213188" lon="19.059100"><ele>1261</ele></trkpt>
    <trkpt lat="49.213154" lon="19.058927"><ele>1259</ele></trkpt>
    <trkpt lat="49.213255" lon="19.058919"><ele>1254</ele></trkpt>
    <trkpt lat="49.213212" lon="19.058674"><ele>1251</ele></trkpt>
    <trkpt lat="49.213322" lon="19.058696"><ele>1244</ele></trkpt>
    <trkpt lat="49.213230" lon="19.058510"><ele>1246</ele></trkpt>
    <trkpt lat="49.213331" lon="19.058534"><ele>1240</ele></trkpt>
    <trkpt lat="49.213289" lon="19.058376"><ele>1238</ele></trkpt>
    <trkpt lat="49.213390" lon="19.058357"><ele>1233</ele></trkpt>
    <trkpt lat="49.213360" lon="19.058275"><ele>1233</ele></trkpt>
    <trkpt lat="49.213443" lon="19.058273"><ele>1229</ele></trkpt>
    <trkpt lat="49.213310" lon="19.058094"><ele>1231</ele></trkpt>
    <trkpt lat="49.213467" lon="19.057977"><ele>1221</ele></trkpt>
    <trkpt lat="49.213468" lon="19.057865"><ele>1218</ele></trkpt>
    <trkpt lat="49.213557" lon="19.057763"><ele>1212</ele></trkpt>
    <trkpt lat="49.213548" lon="19.057596"><ele>1208</ele></trkpt>
    <trkpt lat="49.213655" lon="19.057417"><ele>1200</ele></trkpt>
    <trkpt lat="49.214039" lon="19.056371"><ele>1166</ele></trkpt>
    <trkpt lat="49.214512" lon="19.055210"><ele>1127</ele></trkpt>
    <trkpt lat="49.214932" lon="19.054472"><ele>1101</ele></trkpt>
    <trkpt lat="49.215339" lon="19.053986"><ele>1080</ele></trkpt>
    <trkpt lat="49.215649" lon="19.053724"><ele>1065</ele></trkpt>
    <trkpt lat="49.215981" lon="19.053647"><ele>1050</ele></trkpt>
    <trkpt lat="49.216169" lon="19.053651"><ele>1043</ele></trkpt>
    <trkpt lat="49.216353" lon="19.053766"><ele>1036</ele></trkpt>
    <trkpt lat="49.216695" lon="19.053823"><ele>1024</ele></trkpt>
    <trkpt lat="49.217013" lon="19.053977"><ele>1014</ele></trkpt>
    <trkpt lat="49.217786" lon="19.054204"><ele>989</ele></trkpt>
    <trkpt lat="49.218256" lon="19.054239"><ele>979</ele></trkpt>
    <trkpt lat="49.219044" lon="19.054209"><ele>972</ele></trkpt>
    <trkpt lat="49.219284" lon="19.054129"><ele>973</ele></trkpt>
    <trkpt lat="49.219573" lon="19.053908"><ele>974</ele></trkpt>
    <trkpt lat="49.220277" lon="19.054190"><ele>983</ele></trkpt>
    <trkpt lat="49.220799" lon="19.054545"><ele>987</ele></trkpt>
    <trkpt lat="49.221255" lon="19.055365"><ele>980</ele></trkpt>
    <trkpt lat="49.221434" lon="19.055561"><ele>976</ele></trkpt>
    <trkpt lat="49.222054" lon="19.055850"><ele>962</ele></trkpt>
    <trkpt lat="49.222642" lon="19.056219"><ele>956</ele></trkpt>
    <trkpt lat="49.223298" lon="19.056508"><ele>934</ele></trkpt>
    <trkpt lat="49.223439" lon="19.056620"><ele>930</ele></trkpt>
    <trkpt lat="49.223763" lon="19.057011"><ele>924</ele></trkpt>
    <trkpt lat="49.224027" lon="19.056997"><ele>922</ele></trkpt>
    <trkpt lat="49.224425" lon="19.056346"><ele>909</ele></trkpt>
    <trkpt lat="49.224640" lon="19.056252"><ele>901</ele></trkpt>
    <trkpt lat="49.225095" lon="19.056407"><ele>893</ele></trkpt>
    <trkpt lat="49.225541" lon="19.056724"><ele>872</ele></trkpt>
    <trkpt lat="49.226084" lon="19.056873"><ele>850</ele></trkpt>
    <trkpt lat="49.226187" lon="19.057097"><ele>839</ele></trkpt>
    <trkpt lat="49.226370" lon="19.057289"><ele>830</ele></trkpt>
    <trkpt lat="49.226582" lon="19.057219"><ele>824</ele></trkpt>
    <trkpt lat="49.226693" lon="19.056931"><ele>826</ele></trkpt>
    <trkpt lat="49.226722" lon="19.056623"><ele>830</ele></trkpt>
    <trkpt lat="49.226778" lon="19.056572"><ele>828</ele></trkpt>
    <trkpt lat="49.226936" lon="19.056711"><ele>822</ele></trkpt>
    <trkpt lat="49.227208" lon="19.057186"><ele>814</ele></trkpt>
    <trkpt lat="49.227751" lon="19.058640"><ele>780</ele></trkpt>
    <trkpt lat="49.227915" lon="19.058881"><ele>772</ele></trkpt>
    <trkpt lat="49.228493" lon="19.058898"><ele>750</ele></trkpt>
    <trkpt lat="49.228646" lon="19.058863"><ele>746</ele></trkpt>
    <trkpt lat="49.229038" lon="19.059396"><ele>735</ele></trkpt>
    <trkpt lat="49.229175" lon="19.059509"><ele>729</ele></trkpt>
    <trkpt lat="49.229812" lon="19.059678"><ele>714</ele></trkpt>
    <trkpt lat="49.229966" lon="19.059928"><ele>709</ele></trkpt>
    <trkpt lat="49.230106" lon="19.060287"><ele>703</ele></trkpt>
    <trkpt lat="49.230255" lon="19.060488"><ele>699</ele></trkpt>
    <trkpt lat="49.230475" lon="19.060670"><ele>692</ele></trkpt>
    <trkpt lat="49.231254" lon="19.060660"><ele>657</ele></trkpt>
    <trkpt lat="49.231481" lon="19.060688"><ele>660</ele></trkpt>
    <trkpt lat="49.231583" lon="19.060750"><ele>664</ele></trkpt>
    <trkpt lat="49.231694" lon="19.061007"><ele>666</ele></trkpt>
    <trkpt lat="49.231779" lon="19.061656"><ele>656</ele></trkpt>
    <trkpt lat="49.231697" lon="19.062527"><ele>631</ele></trkpt>
    <trkpt lat="49.231702" lon="19.062720"><ele>633</ele></trkpt>
  </trkseg></trk>
</gpx>
