<?xml version="1.0" encoding="UTF-8"?>
<gpx version="1.1" creator="MounTour (OpenStreetMap)" xmlns="http://www.topografix.com/GPX/1/1">
  <metadata><name>Šútovský vodopád</name><copyright author="OpenStreetMap contributors"><license>https://opendatacommons.org/licenses/odbl/</license></copyright></metadata>
  <trk><name>Šútovský vodopád</name><trkseg>
    <trkpt lat="49.153869" lon="19.091231"><ele>453</ele></trkpt>
    <trkpt lat="49.154255" lon="19.090794"><ele>457</ele></trkpt>
    <trkpt lat="49.154567" lon="19.090323"><ele>463</ele></trkpt>
    <trkpt lat="49.154968" lon="19.089917"><ele>462</ele></trkpt>
    <trkpt lat="49.155727" lon="19.089268"><ele>466</ele></trkpt>
    <trkpt lat="49.156148" lon="19.088659"><ele>470</ele></trkpt>
    <trkpt lat="49.157069" lon="19.087712"><ele>478</ele></trkpt>
    <trkpt lat="49.157680" lon="19.087478"><ele>483</ele></trkpt>
    <trkpt lat="49.158783" lon="19.086845"><ele>506</ele></trkpt>
    <trkpt lat="49.160283" lon="19.086206"><ele>516</ele></trkpt>
    <trkpt lat="49.160664" lon="19.086121"><ele>513</ele></trkpt>
    <trkpt lat="49.161065" lon="19.086305"><ele>513</ele></trkpt>
    <trkpt lat="49.161157" lon="19.086306"><ele>514</ele></trkpt>
    <trkpt lat="49.161453" lon="19.086157"><ele>517</ele></trkpt>
    <trkpt lat="49.162573" lon="19.085183"><ele>536</ele></trkpt>
    <trkpt lat="49.162779" lon="19.084853"><ele>539</ele></trkpt>
    <trkpt lat="49.163266" lon="19.083861"><ele>547</ele></trkpt>
    <trkpt lat="49.163722" lon="19.083089"><ele>553</ele></trkpt>
    <trkpt lat="49.164311" lon="19.082268"><ele>557</ele></trkpt>
    <trkpt lat="49.165129" lon="19.081299"><ele>557</ele></trkpt>
    <trkpt lat="49.166331" lon="19.080465"><ele>567</ele></trkpt>
    <trkpt lat="49.166426" lon="19.080437"><ele>568</ele></trkpt>
    <trkpt lat="49.166563" lon="19.080472"><ele>570</ele></trkpt>
    <trkpt lat="49.166866" lon="19.080733"><ele>575</ele></trkpt>
    <trkpt lat="49.167088" lon="19.080696"><ele>575</ele></trkpt>
    <trkpt lat="49.167328" lon="19.080497"><ele>576</ele></trkpt>
    <trkpt lat="49.167965" lon="19.079815"><ele>585</ele></trkpt>
    <trkpt lat="49.168243" lon="19.079266"><ele>583</ele></trkpt>
    <trkpt lat="49.168295" lon="19.079098"><ele>584</ele></trkpt>
    <trkpt lat="49.168418" lon="19.078921"><ele>587</ele></trkpt>
    <trkpt lat="49.168686" lon="19.078727"><ele>592</ele></trkpt>
    <trkpt lat="49.170180" lon="19.078131"><ele>606</ele></trkpt>
    <trkpt lat="49.170686" lon="19.078078"><ele>611</ele></trkpt>
    <trkpt lat="49.171154" lon="19.078174"><ele>612</ele></trkpt>
    <trkpt lat="49.171648" lon="19.078118"><ele>625</ele></trkpt>
    <trkpt lat="49.172117" lon="19.078216"><ele>627</ele></trkpt>
    <trkpt lat="49.172247" lon="19.078374"><ele>624</ele></trkpt>
    <trkpt lat="49.172317" lon="19.078534"><ele>625</ele></trkpt>
    <trkpt lat="49.172388" lon="19.078981"><ele>626</ele></trkpt>
    <trkpt lat="49.172439" lon="19.079119"><ele>627</ele></trkpt>
    <trkpt lat="49.172570" lon="19.079325"><ele>631</ele></trkpt>
    <trkpt lat="49.172739" lon="19.079466"><ele>632</ele></trkpt>
    <trkpt lat="49.173405" lon="19.079716"><ele>642</ele></trkpt>
    <trkpt lat="49.173657" lon="19.079851"><ele>645</ele></trkpt>
    <trkpt lat="49.174462" lon="19.080519"><ele>662</ele></trkpt>
    <trkpt lat="49.175220" lon="19.081049"><ele>663</ele></trkpt>
    <trkpt lat="49.175684" lon="19.081255"><ele>673</ele></trkpt>
    <trkpt lat="49.176037" lon="19.081514"><ele>678</ele></trkpt>
    <trkpt lat="49.176402" lon="19.081640"><ele>681</ele></trkpt>
    <trkpt lat="49.176899" lon="19.082158"><ele>691</ele></trkpt>
    <trkpt lat="49.177132" lon="19.082314"><ele>693</ele></trkpt>
    <trkpt lat="49.177378" lon="19.082402"><ele>700</ele></trkpt>
    <trkpt lat="49.177878" lon="19.082469"><ele>706</ele></trkpt>
    <trkpt lat="49.178340" lon="19.082796"><ele>705</ele></trkpt>
    <trkpt lat="49.178719" lon="19.083289"><ele>706</ele></trkpt>
    <trkpt lat="49.178917" lon="19.083609"><ele>709</ele></trkpt>
    <trkpt lat="49.179131" lon="19.083839"><ele>717</ele></trkpt>
    <trkpt lat="49.179708" lon="19.084358"><ele>717</ele></trkpt>
    <trkpt lat="49.179834" lon="19.084365"><ele>716</ele></trkpt>
    <trkpt lat="49.180087" lon="19.084561"><ele>718</ele></trkpt>
    <trkpt lat="49.180501" lon="19.085301"><ele>727</ele></trkpt>
    <trkpt lat="49.180831" lon="19.085553"><ele>730</ele></trkpt>
    <trkpt lat="49.181382" lon="19.085729"><ele>737</ele></trkpt>
    <trkpt lat="49.182096" lon="19.085607"><ele>749</ele></trkpt>
    <trkpt lat="49.182478" lon="19.085615"><ele>751</ele></trkpt>
    <trkpt lat="49.183665" lon="19.085406"><ele>750</ele></trkpt>
    <trkpt lat="49.183807" lon="19.085312"><ele>750</ele></trkpt>
    <trkpt lat="49.184046" lon="19.085054"><ele>752</ele></trkpt>
    <trkpt lat="49.184162" lon="19.085060"><ele>754</ele></trkpt>
    <trkpt lat="49.184516" lon="19.084797"><ele>757</ele></trkpt>
    <trkpt lat="49.185018" lon="19.084560"><ele>761</ele></trkpt>
    <trkpt lat="49.185106" lon="19.084446"><ele>763</ele></trkpt>
    <trkpt lat="49.185469" lon="19.084169"><ele>769</ele></trkpt>
    <trkpt lat="49.185704" lon="19.083928"><ele>775</ele></trkpt>
    <trkpt lat="49.185802" lon="19.083869"><ele>776</ele></trkpt>
    <trkpt lat="49.186029" lon="19.083862"><ele>778</ele></trkpt>
    <trkpt lat="49.186289" lon="19.083723"><ele>785</ele></trkpt>
    <trkpt lat="49.186437" lon="19.083340"><ele>799</ele></trkpt>
    <trkpt lat="49.186547" lon="19.083212"><ele>808</ele></trkpt>
    <trkpt lat="49.186484" lon="19.082984"><ele>815</ele></trkpt>
    <trkpt lat="49.186532" lon="19.082909"><ele>820</ele></trkpt>
    <trkpt lat="49.186591" lon="19.082839"><ele>825</ele></trkpt>
    <trkpt lat="49.186695" lon="19.082801"><ele>829</ele></trkpt>
    <trkpt lat="49.186772" lon="19.082699"><ele>835</ele></trkpt>
    <trkpt lat="49.186947" lon="19.082664"><ele>840</ele></trkpt>
    <trkpt lat="49.187042" lon="19.082549"><ele>846</ele></trkpt>
    <trkpt lat="49.187142" lon="19.082514"><ele>849</ele></trkpt>
    <trkpt lat="49.187042" lon="19.082549"><ele>846</ele></trkpt>
    <trkpt lat="49.186947" lon="19.082664"><ele>840</ele></trkpt>
    <trkpt lat="49.186772" lon="19.082699"><ele>835</ele></trkpt>
    <trkpt lat="49.186695" lon="19.082801"><ele>829</ele></trkpt>
    <trkpt lat="49.186591" lon="19.082839"><ele>825</ele></trkpt>
    <trkpt lat="49.186532" lon="19.082909"><ele>820</ele></trkpt>
    <trkpt lat="49.186484" lon="19.082984"><ele>815</ele></trkpt>
    <trkpt lat="49.186547" lon="19.083212"><ele>808</ele></trkpt>
    <trkpt lat="49.186437" lon="19.083340"><ele>799</ele></trkpt>
    <trkpt lat="49.186289" lon="19.083723"><ele>785</ele></trkpt>
    <trkpt lat="49.186029" lon="19.083862"><ele>778</ele></trkpt>
    <trkpt lat="49.185802" lon="19.083869"><ele>776</ele></trkpt>
    <trkpt lat="49.185704" lon="19.083928"><ele>775</ele></trkpt>
    <trkpt lat="49.185469" lon="19.084169"><ele>769</ele></trkpt>
    <trkpt lat="49.185106" lon="19.084446"><ele>763</ele></trkpt>
    <trkpt lat="49.185018" lon="19.084560"><ele>761</ele></trkpt>
    <trkpt lat="49.184516" lon="19.084797"><ele>757</ele></trkpt>
    <trkpt lat="49.184162" lon="19.085060"><ele>754</ele></trkpt>
    <trkpt lat="49.184046" lon="19.085054"><ele>752</ele></trkpt>
    <trkpt lat="49.183807" lon="19.085312"><ele>750</ele></trkpt>
    <trkpt lat="49.183665" lon="19.085406"><ele>750</ele></trkpt>
    <trkpt lat="49.182478" lon="19.085615"><ele>751</ele></trkpt>
    <trkpt lat="49.182096" lon="19.085607"><ele>749</ele></trkpt>
    <trkpt lat="49.181382" lon="19.085729"><ele>737</ele></trkpt>
    <trkpt lat="49.180831" lon="19.085553"><ele>730</ele></trkpt>
    <trkpt lat="49.180501" lon="19.085301"><ele>727</ele></trkpt>
    <trkpt lat="49.180087" lon="19.084561"><ele>718</ele></trkpt>
    <trkpt lat="49.179834" lon="19.084365"><ele>716</ele></trkpt>
    <trkpt lat="49.179708" lon="19.084358"><ele>717</ele></trkpt>
    <trkpt lat="49.179131" lon="19.083839"><ele>717</ele></trkpt>
    <trkpt lat="49.178917" lon="19.083609"><ele>709</ele></trkpt>
    <trkpt lat="49.178719" lon="19.083289"><ele>706</ele></trkpt>
    <trkpt lat="49.178340" lon="19.082796"><ele>705</ele></trkpt>
    <trkpt lat="49.177878" lon="19.082469"><ele>706</ele></trkpt>
    <trkpt lat="49.177378" lon="19.082402"><ele>700</ele></trkpt>
    <trkpt lat="49.177132" lon="19.082314"><ele>693</ele></trkpt>
    <trkpt lat="49.176899" lon="19.082158"><ele>691</ele></trkpt>
    <trkpt lat="49.176402" lon="19.081640"><ele>681</ele></trkpt>
    <trkpt lat="49.176037" lon="19.081514"><ele>678</ele></trkpt>
    <trkpt lat="49.175684" lon="19.081255"><ele>673</ele></trkpt>
    <trkpt lat="49.175220" lon="19.081049"><ele>663</ele></trkpt>
    <trkpt lat="49.174462" lon="19.080519"><ele>662</ele></trkpt>
    <trkpt lat="49.173657" lon="19.079851"><ele>645</ele></trkpt>
    <trkpt lat="49.173405" lon="19.079716"><ele>642</ele></trkpt>
    <trkpt lat="49.172739" lon="19.079466"><ele>632</ele></trkpt>
    <trkpt lat="49.172570" lon="19.079325"><ele>631</ele></trkpt>
    <trkpt lat="49.172439" lon="19.079119"><ele>627</ele></trkpt>
    <trkpt lat="49.172388" lon="19.078981"><ele>626</ele></trkpt>
    <trkpt lat="49.172317" lon="19.078534"><ele>625</ele></trkpt>
    <trkpt lat="49.172247" lon="19.078374"><ele>624</ele></trkpt>
    <trkpt lat="49.172117" lon="19.078216"><ele>627</ele></trkpt>
    <trkpt lat="49.171648" lon="19.078118"><ele>625</ele></trkpt>
    <trkpt lat="49.171154" lon="19.078174"><ele>612</ele></trkpt>
    <trkpt lat="49.170686" lon="19.078078"><ele>611</ele></trkpt>
    <trkpt lat="49.170180" lon="19.078131"><ele>606</ele></trkpt>
    <trkpt lat="49.168686" lon="19.078727"><ele>592</ele></trkpt>
    <trkpt lat="49.168418" lon="19.078921"><ele>587</ele></trkpt>
    <trkpt lat="49.168295" lon="19.079098"><ele>584</ele></trkpt>
    <trkpt lat="49.168243" lon="19.079266"><ele>583</ele></trkpt>
    <trkpt lat="49.167965" lon="19.079815"><ele>585</ele></trkpt>
    <trkpt lat="49.167328" lon="19.080497"><ele>576</ele></trkpt>
    <trkpt lat="49.167088" lon="19.080696"><ele>575</ele></trkpt>
    <trkpt lat="49.166866" lon="19.080733"><ele>575</ele></trkpt>
    <trkpt lat="49.166563" lon="19.080472"><ele>570</ele></trkpt>
    <trkpt lat="49.166426" lon="19.080437"><ele>568</ele></trkpt>
    <trkpt lat="49.166331" lon="19.080465"><ele>567</ele></trkpt>
    <trkpt lat="49.165129" lon="19.081299"><ele>557</ele></trkpt>
    <trkpt lat="49.164311" lon="19.082268"><ele>557</ele></trkpt>
    <trkpt lat="49.163722" lon="19.083089"><ele>553</ele></trkpt>
    <trkpt lat="49.163266" lon="19.083861"><ele>547</ele></trkpt>
    <trkpt lat="49.162779" lon="19.084853"><ele>539</ele></trkpt>
    <trkpt lat="49.162573" lon="19.085183"><ele>536</ele></trkpt>
    <trkpt lat="49.161453" lon="19.086157"><ele>517</ele></trkpt>
    <trkpt lat="49.161157" lon="19.086306"><ele>514</ele></trkpt>
    <trkpt lat="49.161065" lon="19.086305"><ele>513</ele></trkpt>
    <trkpt lat="49.160664" lon="19.086121"><ele>513</ele></trkpt>
    <trkpt lat="49.160283" lon="19.086206"><ele>516</ele></trkpt>
    <trkpt lat="49.158783" lon="19.086845"><ele>506</ele></trkpt>
    <trkpt lat="49.157680" lon="19.087478"><ele>483</ele></trkpt>
    <trkpt lat="49.157069" lon="19.087712"><ele>478</ele></trkpt>
    <trkpt lat="49.156148" lon="19.088659"><ele>470</ele></trkpt>
    <trkpt lat="49.155727" lon="19.089268"><ele>466</ele></trkpt>
    <trkpt lat="49.154968" lon="19.089917"><ele>462</ele></trkpt>
    <trkpt lat="49.154567" lon="19.090323"><ele>463</ele></trkpt>
    <trkpt lat="49.154255" lon="19.090794"><ele>457</ele></trkpt>
    <trkpt lat="49.153869" lon="19.091231"><ele>453</ele></trkpt>
  </trkseg></trk>
</gpx>
