<?xml version="1.0" encoding="UTF-8"?>
<gpx version="1.1" creator="MounTour (OpenStreetMap)" xmlns="http://www.topografix.com/GPX/1/1">
  <metadata><name>Tomášovský výhľad</name><copyright author="OpenStreetMap contributors"><license>https://opendatacommons.org/licenses/odbl/</license></copyright></metadata>
  <trk><name>Tomášovský výhľad</name><trkseg>
    <trkpt lat="48.946219" lon="20.476456"><ele>560</ele></trkpt>
    <trkpt lat="48.946180" lon="20.475309"><ele>573</ele></trkpt>
    <trkpt lat="48.945737" lon="20.475371"><ele>579</ele></trkpt>
    <trkpt lat="48.945252" lon="20.475272"><ele>590</ele></trkpt>
    <trkpt lat="48.944812" lon="20.474932"><ele>600</ele></trkpt>
    <trkpt lat="48.944361" lon="20.474876"><ele>598</ele></trkpt>
    <trkpt lat="48.944126" lon="20.474609"><ele>602</ele></trkpt>
    <trkpt lat="48.943679" lon="20.474346"><ele>603</ele></trkpt>
    <trkpt lat="48.943302" lon="20.474169"><ele>606</ele></trkpt>
    <trkpt lat="48.942586" lon="20.473924"><ele>611</ele></trkpt>
    <trkpt lat="48.942329" lon="20.473765"><ele>616</ele></trkpt>
    <trkpt lat="48.942096" lon="20.473535"><ele>616</ele></trkpt>
    <trkpt lat="48.941991" lon="20.473291"><ele>615</ele></trkpt>
    <trkpt lat="48.941969" lon="20.473087"><ele>615</ele></trkpt>
    <trkpt lat="48.941974" lon="20.472867"><ele>617</ele></trkpt>
    <trkpt lat="48.942063" lon="20.472230"><ele>626</ele></trkpt>
    <trkpt lat="48.941961" lon="20.471974"><ele>623</ele></trkpt>
    <trkpt lat="48.941739" lon="20.471782"><ele>616</ele></trkpt>
    <trkpt lat="48.941692" lon="20.471637"><ele>614</ele></trkpt>
    <trkpt lat="48.941614" lon="20.471113"><ele>613</ele></trkpt>
    <trkpt lat="48.941507" lon="20.470890"><ele>608</ele></trkpt>
    <trkpt lat="48.941485" lon="20.470592"><ele>610</ele></trkpt>
    <trkpt lat="48.941339" lon="20.470163"><ele>598</ele></trkpt>
    <trkpt lat="48.941410" lon="20.470004"><ele>604</ele></trkpt>
    <trkpt lat="48.941534" lon="20.469472"><ele>602</ele></trkpt>
    <trkpt lat="48.941646" lon="20.469184"><ele>607</ele></trkpt>
    <trkpt lat="48.941613" lon="20.468827"><ele>603</ele></trkpt>
    <trkpt lat="48.941569" lon="20.468703"><ele>598</ele></trkpt>
    <trkpt lat="48.941820" lon="20.468371"><ele>611</ele></trkpt>
    <trkpt lat="48.941867" lon="20.468161"><ele>608</ele></trkpt>
    <trkpt lat="48.942087" lon="20.467738"><ele>608</ele></trkpt>
    <trkpt lat="48.942113" lon="20.467627"><ele>607</ele></trkpt>
    <trkpt lat="48.942444" lon="20.467246"><ele>613</ele></trkpt>
    <trkpt lat="48.942662" lon="20.466912"><ele>614</ele></trkpt>
    <trkpt lat="48.942822" lon="20.466612"><ele>614</ele></trkpt>
    <trkpt lat="48.943187" lon="20.465758"><ele>621</ele></trkpt>
    <trkpt lat="48.943301" lon="20.465308"><ele>632</ele></trkpt>
    <trkpt lat="48.943367" lon="20.464574"><ele>641</ele></trkpt>
    <trkpt lat="48.943461" lon="20.464026"><ele>647</ele></trkpt>
    <trkpt lat="48.943479" lon="20.463584"><ele>648</ele></trkpt>
    <trkpt lat="48.943552" lon="20.463411"><ele>652</ele></trkpt>
    <trkpt lat="48.943788" lon="20.463120"><ele>657</ele></trkpt>
    <trkpt lat="48.943870" lon="20.463068"><ele>657</ele></trkpt>
    <trkpt lat="48.944409" lon="20.462904"><ele>665</ele></trkpt>
    <trkpt lat="48.944606" lon="20.462620"><ele>669</ele></trkpt>
    <trkpt lat="48.944633" lon="20.462295"><ele>670</ele></trkpt>
    <trkpt lat="48.944533" lon="20.461467"><ele>671</ele></trkpt>
    <trkpt lat="48.944580" lon="20.461296"><ele>672</ele></trkpt>
    <trkpt lat="48.944589" lon="20.461059"><ele>671</ele></trkpt>
    <trkpt lat="48.944637" lon="20.460820"><ele>670</ele></trkpt>
    <trkpt lat="48.944621" lon="20.460481"><ele>665</ele></trkpt>
    <trkpt lat="48.944717" lon="20.460116"><ele>655</ele></trkpt>
    <trkpt lat="48.944776" lon="20.460021"><ele>654</ele></trkpt>
    <trkpt lat="48.944916" lon="20.460005"><ele>660</ele></trkpt>
    <trkpt lat="48.945069" lon="20.459705"><ele>660</ele></trkpt>
    <trkpt lat="48.944916" lon="20.460005"><ele>660</ele></trkpt>
    <trkpt lat="48.944776" lon="20.460021"><ele>654</ele></trkpt>
    <trkpt lat="48.944717" lon="20.460116"><ele>655</ele></trkpt>
    <trkpt lat="48.944621" lon="20.460481"><ele>665</ele></trkpt>
    <trkpt lat="48.944637" lon="20.460820"><ele>670</ele></trkpt>
    <trkpt lat="48.944589" lon="20.461059"><ele>671</ele></trkpt>
    <trkpt lat="48.944580" lon="20.461296"><ele>672</ele></trkpt>
    <trkpt lat="48.944533" lon="20.461467"><ele>671</ele></trkpt>
    <trkpt lat="48.944633" lon="20.462295"><ele>670</ele></trkpt>
    <trkpt lat="48.944606" lon="20.462620"><ele>669</ele></trkpt>
    <trkpt lat="48.944409" lon="20.462904"><ele>665</ele></trkpt>
    <trkpt lat="48.943870" lon="20.463068"><ele>657</ele></trkpt>
    <trkpt lat="48.943788" lon="20.463120"><ele>657</ele></trkpt>
    <trkpt lat="48.943552" lon="20.463411"><ele>652</ele></trkpt>
    <trkpt lat="48.943479" lon="20.463584"><ele>648</ele></trkpt>
    <trkpt lat="48.943461" lon="20.464026"><ele>647</ele></trkpt>
    <trkpt lat="48.943367" lon="20.464574"><ele>641</ele></trkpt>
    <trkpt lat="48.943301" lon="20.465308"><ele>632</ele></trkpt>
    <trkpt lat="48.943187" lon="20.465758"><ele>621</ele></trkpt>
    <trkpt lat="48.942822" lon="20.466612"><ele>614</ele></trkpt>
    <trkpt lat="48.942662" lon="20.466912"><ele>614</ele></trkpt>
    <trkpt lat="48.942444" lon="20.467246"><ele>613</ele></trkpt>
    <trkpt lat="48.942113" lon="20.467627"><ele>607</ele></trkpt>
    <trkpt lat="48.942087" lon="20.467738"><ele>608</ele></trkpt>
    <trkpt lat="48.941867" lon="20.468161"><ele>608</ele></trkpt>
    <trkpt lat="48.941820" lon="20.468371"><ele>611</ele></trkpt>
    <trkpt lat="48.941569" lon="20.468703"><ele>598</ele></trkpt>
    <trkpt lat="48.941613" lon="20.468827"><ele>603</ele></trkpt>
    <trkpt lat="48.941646" lon="20.469184"><ele>607</ele></trkpt>
    <trkpt lat="48.941534" lon="20.469472"><ele>602</ele></trkpt>
    <trkpt lat="48.941410" lon="20.470004"><ele>604</ele></trkpt>
    <trkpt lat="48.941339" lon="20.470163"><ele>598</ele></trkpt>
    <trkpt lat="48.941485" lon="20.470592"><ele>610</ele></trkpt>
    <trkpt lat="48.941507" lon="20.470890"><ele>608</ele></trkpt>
    <trkpt lat="48.941614" lon="20.471113"><ele>613</ele></trkpt>
    <trkpt lat="48.941692" lon="20.471637"><ele>614</ele></trkpt>
    <trkpt lat="48.941739" lon="20.471782"><ele>616</ele></trkpt>
    <trkpt lat="48.941961" lon="20.471974"><ele>623</ele></trkpt>
    <trkpt lat="48.942063" lon="20.472230"><ele>626</ele></trkpt>
    <trkpt lat="48.941974" lon="20.472867"><ele>617</ele></trkpt>
    <trkpt lat="48.941969" lon="20.473087"><ele>615</ele></trkpt>
    <trkpt lat="48.941991" lon="20.473291"><ele>615</ele></trkpt>
    <trkpt lat="48.942096" lon="20.473535"><ele>616</ele></trkpt>
    <trkpt lat="48.942329" lon="20.473765"><ele>616</ele></trkpt>
    <trkpt lat="48.942586" lon="20.473924"><ele>611</ele></trkpt>
    <trkpt lat="48.943302" lon="20.474169"><ele>606</ele></trkpt>
    <trkpt lat="48.943679" lon="20.474346"><ele>603</ele></trkpt>
    <trkpt lat="48.944126" lon="20.474609"><ele>602</ele></trkpt>
    <trkpt lat="48.944361" lon="20.474876"><ele>598</ele></trkpt>
    <trkpt lat="48.944812" lon="20.474932"><ele>600</ele></trkpt>
    <trkpt lat="48.945252" lon="20.475272"><ele>590</ele></trkpt>
    <trkpt lat="48.945737" lon="20.475371"><ele>579</ele></trkpt>
    <trkpt lat="48.946180" lon="20.475309"><ele>573</ele></trkpt>
    <trkpt lat="48.946219" lon="20.476456"><ele>560</ele></trkpt>
  </trkseg></trk>
</gpx>
