<?xml version="1.0" encoding="UTF-8"?>
<gpx version="1.1" creator="MounTour (OpenStreetMap)" xmlns="http://www.topografix.com/GPX/1/1">
  <metadata><name>Tri kopy</name><copyright author="OpenStreetMap contributors"><license>https://opendatacommons.org/licenses/odbl/</license></copyright></metadata>
  <trk><name>Tri kopy</name><trkseg>
    <trkpt lat="49.236618" lon="19.718023"><ele>1065</ele></trkpt>
    <trkpt lat="49.236699" lon="19.718219"><ele>1068</ele></trkpt>
    <trkpt lat="49.234960" lon="19.719392"><ele>1094</ele></trkpt>
    <trkpt lat="49.232220" lon="19.720886"><ele>1111</ele></trkpt>
    <trkpt lat="49.231288" lon="19.721503"><ele>1119</ele></trkpt>
    <trkpt lat="49.230315" lon="19.722034"><ele>1124</ele></trkpt>
    <trkpt lat="49.228733" lon="19.722580"><ele>1136</ele></trkpt>
    <trkpt lat="49.228200" lon="19.722834"><ele>1139</ele></trkpt>
    <trkpt lat="49.227533" lon="19.723291"><ele>1147</ele></trkpt>
    <trkpt lat="49.226406" lon="19.724328"><ele>1159</ele></trkpt>
    <trkpt lat="49.226126" lon="19.724468"><ele>1161</ele></trkpt>
    <trkpt lat="49.225385" lon="19.724673"><ele>1165</ele></trkpt>
    <trkpt lat="49.225114" lon="19.724804"><ele>1168</ele></trkpt>
    <trkpt lat="49.224909" lon="19.724987"><ele>1172</ele></trkpt>
    <trkpt lat="49.224655" lon="19.725348"><ele>1176</ele></trkpt>
    <trkpt lat="49.224009" lon="19.726923"><ele>1187</ele></trkpt>
    <trkpt lat="49.223654" lon="19.727550"><ele>1190</ele></trkpt>
    <trkpt lat="49.222589" lon="19.728289"><ele>1190</ele></trkpt>
    <trkpt lat="49.222389" lon="19.728286"><ele>1189</ele></trkpt>
    <trkpt lat="49.222235" lon="19.728195"><ele>1190</ele></trkpt>
    <trkpt lat="49.222012" lon="19.727963"><ele>1190</ele></trkpt>
    <trkpt lat="49.221939" lon="19.727825"><ele>1189</ele></trkpt>
    <trkpt lat="49.221830" lon="19.727490"><ele>1187</ele></trkpt>
    <trkpt lat="49.221688" lon="19.726669"><ele>1187</ele></trkpt>
    <trkpt lat="49.221531" lon="19.726274"><ele>1189</ele></trkpt>
    <trkpt lat="49.221254" lon="19.725944"><ele>1188</ele></trkpt>
    <trkpt lat="49.221103" lon="19.725850"><ele>1187</ele></trkpt>
    <trkpt lat="49.220783" lon="19.725766"><ele>1189</ele></trkpt>
    <trkpt lat="49.220356" lon="19.726069"><ele>1198</ele></trkpt>
    <trkpt lat="49.219814" lon="19.726906"><ele>1207</ele></trkpt>
    <trkpt lat="49.219707" lon="19.727115"><ele>1208</ele></trkpt>
    <trkpt lat="49.219558" lon="19.727622"><ele>1209</ele></trkpt>
    <trkpt lat="49.219295" lon="19.727771"><ele>1212</ele></trkpt>
    <trkpt lat="49.219173" lon="19.727754"><ele>1214</ele></trkpt>
    <trkpt lat="49.218843" lon="19.727854"><ele>1218</ele></trkpt>
    <trkpt lat="49.218563" lon="19.728144"><ele>1218</ele></trkpt>
    <trkpt lat="49.218350" lon="19.728501"><ele>1223</ele></trkpt>
    <trkpt lat="49.218057" lon="19.728647"><ele>1229</ele></trkpt>
    <trkpt lat="49.217996" lon="19.728722"><ele>1230</ele></trkpt>
    <trkpt lat="49.217625" lon="19.728793"><ele>1239</ele></trkpt>
    <trkpt lat="49.217320" lon="19.728737"><ele>1246</ele></trkpt>
    <trkpt lat="49.217131" lon="19.729083"><ele>1251</ele></trkpt>
    <trkpt lat="49.216821" lon="19.729234"><ele>1259</ele></trkpt>
    <trkpt lat="49.216732" lon="19.729408"><ele>1261</ele></trkpt>
    <trkpt lat="49.216498" lon="19.729215"><ele>1272</ele></trkpt>
    <trkpt lat="49.216288" lon="19.729138"><ele>1285</ele></trkpt>
    <trkpt lat="49.216262" lon="19.729065"><ele>1288</ele></trkpt>
    <trkpt lat="49.216239" lon="19.729113"><ele>1288</ele></trkpt>
    <trkpt lat="49.216196" lon="19.729044"><ele>1292</ele></trkpt>
    <trkpt lat="49.216154" lon="19.729106"><ele>1293</ele></trkpt>
    <trkpt lat="49.216079" lon="19.728937"><ele>1301</ele></trkpt>
    <trkpt lat="49.216004" lon="19.729048"><ele>1302</ele></trkpt>
    <trkpt lat="49.215986" lon="19.728892"><ele>1305</ele></trkpt>
    <trkpt lat="49.215925" lon="19.728943"><ele>1307</ele></trkpt>
    <trkpt lat="49.215885" lon="19.728732"><ele>1311</ele></trkpt>
    <trkpt lat="49.215824" lon="19.728763"><ele>1313</ele></trkpt>
    <trkpt lat="49.215801" lon="19.728594"><ele>1315</ele></trkpt>
    <trkpt lat="49.215604" lon="19.728693"><ele>1322</ele></trkpt>
    <trkpt lat="49.215578" lon="19.728502"><ele>1325</ele></trkpt>
    <trkpt lat="49.215536" lon="19.728448"><ele>1328</ele></trkpt>
    <trkpt lat="49.215338" lon="19.728436"><ele>1335</ele></trkpt>
    <trkpt lat="49.215170" lon="19.728213"><ele>1341</ele></trkpt>
    <trkpt lat="49.214904" lon="19.728081"><ele>1347</ele></trkpt>
    <trkpt lat="49.214735" lon="19.727935"><ele>1352</ele></trkpt>
    <trkpt lat="49.214515" lon="19.728210"><ele>1355</ele></trkpt>
    <trkpt lat="49.214065" lon="19.728038"><ele>1363</ele></trkpt>
    <trkpt lat="49.213628" lon="19.727971"><ele>1372</ele></trkpt>
    <trkpt lat="49.213405" lon="19.727750"><ele>1379</ele></trkpt>
    <trkpt lat="49.213259" lon="19.727710"><ele>1381</ele></trkpt>
    <trkpt lat="49.213193" lon="19.727643"><ele>1382</ele></trkpt>
    <trkpt lat="49.213073" lon="19.727286"><ele>1394</ele></trkpt>
    <trkpt lat="49.213086" lon="19.727166"><ele>1398</ele></trkpt>
    <trkpt lat="49.212956" lon="19.727099"><ele>1399</ele></trkpt>
    <trkpt lat="49.212944" lon="19.726871"><ele>1407</ele></trkpt>
    <trkpt lat="49.212897" lon="19.726785"><ele>1409</ele></trkpt>
    <trkpt lat="49.212764" lon="19.726707"><ele>1409</ele></trkpt>
    <trkpt lat="49.212500" lon="19.726655"><ele>1406</ele></trkpt>
    <trkpt lat="49.212380" lon="19.726493"><ele>1416</ele></trkpt>
    <trkpt lat="49.211827" lon="19.726487"><ele>1434</ele></trkpt>
    <trkpt lat="49.211819" lon="19.726326"><ele>1437</ele></trkpt>
    <trkpt lat="49.211706" lon="19.726392"><ele>1438</ele></trkpt>
    <trkpt lat="49.211660" lon="19.726178"><ele>1443</ele></trkpt>
    <trkpt lat="49.211611" lon="19.726172"><ele>1446</ele></trkpt>
    <trkpt lat="49.211557" lon="19.726244"><ele>1448</ele></trkpt>
    <trkpt lat="49.211489" lon="19.726019"><ele>1454</ele></trkpt>
    <trkpt lat="49.211418" lon="19.726175"><ele>1455</ele></trkpt>
    <trkpt lat="49.211336" lon="19.726021"><ele>1460</ele></trkpt>
    <trkpt lat="49.211260" lon="19.726061"><ele>1462</ele></trkpt>
    <trkpt lat="49.211124" lon="19.726015"><ele>1468</ele></trkpt>
    <trkpt lat="49.210966" lon="19.726300"><ele>1469</ele></trkpt>
    <trkpt lat="49.210646" lon="19.726718"><ele>1468</ele></trkpt>
    <trkpt lat="49.210395" lon="19.726788"><ele>1471</ele></trkpt>
    <trkpt lat="49.210006" lon="19.727050"><ele>1473</ele></trkpt>
    <trkpt lat="49.210009" lon="19.727157"><ele>1472</ele></trkpt>
    <trkpt lat="49.209954" lon="19.727250"><ele>1473</ele></trkpt>
    <trkpt lat="49.209936" lon="19.727492"><ele>1472</ele></trkpt>
    <trkpt lat="49.209885" lon="19.727683"><ele>1472</ele></trkpt>
    <trkpt lat="49.209781" lon="19.727910"><ele>1473</ele></trkpt>
    <trkpt lat="49.209553" lon="19.728089"><ele>1477</ele></trkpt>
    <trkpt lat="49.209494" lon="19.728176"><ele>1477</ele></trkpt>
    <trkpt lat="49.209388" lon="19.728583"><ele>1471</ele></trkpt>
    <trkpt lat="49.209084" lon="19.728968"><ele>1478</ele></trkpt>
    <trkpt lat="49.208892" lon="19.729030"><ele>1484</ele></trkpt>
    <trkpt lat="49.208613" lon="19.728937"><ele>1491</ele></trkpt>
    <trkpt lat="49.208388" lon="19.728928"><ele>1499</ele></trkpt>
    <trkpt lat="49.208211" lon="19.729019"><ele>1505</ele></trkpt>
    <trkpt lat="49.208075" lon="19.728772"><ele>1511</ele></trkpt>
    <trkpt lat="49.208031" lon="19.728743"><ele>1513</ele></trkpt>
    <trkpt lat="49.207838" lon="19.728892"><ele>1522</ele></trkpt>
    <trkpt lat="49.207739" lon="19.728921"><ele>1527</ele></trkpt>
    <trkpt lat="49.207653" lon="19.728725"><ele>1532</ele></trkpt>
    <trkpt lat="49.207408" lon="19.728406"><ele>1539</ele></trkpt>
    <trkpt lat="49.207382" lon="19.728444"><ele>1541</ele></trkpt>
    <trkpt lat="49.207373" lon="19.728806"><ele>1547</ele></trkpt>
    <trkpt lat="49.207333" lon="19.729058"><ele>1554</ele></trkpt>
    <trkpt lat="49.207257" lon="19.729023"><ele>1558</ele></trkpt>
    <trkpt lat="49.206969" lon="19.728694"><ele>1568</ele></trkpt>
    <trkpt lat="49.206955" lon="19.729033"><ele>1577</ele></trkpt>
    <trkpt lat="49.206826" lon="19.728985"><ele>1583</ele></trkpt>
    <trkpt lat="49.207025" lon="19.729731"><ele>1595</ele></trkpt>
    <trkpt lat="49.206937" lon="19.729733"><ele>1600</ele></trkpt>
    <trkpt lat="49.207063" lon="19.730017"><ele>1603</ele></trkpt>
    <trkpt lat="49.207081" lon="19.730133"><ele>1605</ele></trkpt>
    <trkpt lat="49.206997" lon="19.730137"><ele>1609</ele></trkpt>
    <trkpt lat="49.206813" lon="19.730040"><ele>1616</ele></trkpt>
    <trkpt lat="49.206766" lon="19.730410"><ele>1625</ele></trkpt>
    <trkpt lat="49.206612" lon="19.730725"><ele>1634</ele></trkpt>
    <trkpt lat="49.206463" lon="19.730618"><ele>1639</ele></trkpt>
    <trkpt lat="49.206169" lon="19.730667"><ele>1651</ele></trkpt>
    <trkpt lat="49.206270" lon="19.730948"><ele>1655</ele></trkpt>
    <trkpt lat="49.206264" lon="19.731268"><ele>1663</ele></trkpt>
    <trkpt lat="49.206108" lon="19.731037"><ele>1666</ele></trkpt>
    <trkpt lat="49.205855" lon="19.731052"><ele>1676</ele></trkpt>
    <trkpt lat="49.205922" lon="19.731141"><ele>1677</ele></trkpt>
    <trkpt lat="49.205987" lon="19.731352"><ele>1682</ele></trkpt>
    <trkpt lat="49.205984" lon="19.731730"><ele>1692</ele></trkpt>
    <trkpt lat="49.206162" lon="19.732462"><ele>1701</ele></trkpt>
    <trkpt lat="49.206185" lon="19.733140"><ele>1701</ele></trkpt>
    <trkpt lat="49.206153" lon="19.733323"><ele>1701</ele></trkpt>
    <trkpt lat="49.206025" lon="19.733613"><ele>1708</ele></trkpt>
    <trkpt lat="49.205850" lon="19.733771"><ele>1712</ele></trkpt>
    <trkpt lat="49.205734" lon="19.733817"><ele>1716</ele></trkpt>
    <trkpt lat="49.205775" lon="19.734153"><ele>1721</ele></trkpt>
    <trkpt lat="49.205767" lon="19.734375"><ele>1723</ele></trkpt>
    <trkpt lat="49.205612" lon="19.734403"><ele>1726</ele></trkpt>
    <trkpt lat="49.205600" lon="19.734238"><ele>1726</ele></trkpt>
    <trkpt lat="49.205544" lon="19.734236"><ele>1728</ele></trkpt>
    <trkpt lat="49.205497" lon="19.734153"><ele>1730</ele></trkpt>
    <trkpt lat="49.205369" lon="19.734097"><ele>1737</ele></trkpt>
    <trkpt lat="49.205322" lon="19.734028"><ele>1739</ele></trkpt>
    <trkpt lat="49.205235" lon="19.734083"><ele>1746</ele></trkpt>
    <trkpt lat="49.205184" lon="19.734072"><ele>1750</ele></trkpt>
    <trkpt lat="49.205185" lon="19.734011"><ele>1748</ele></trkpt>
    <trkpt lat="49.205068" lon="19.733939"><ele>1755</ele></trkpt>
    <trkpt lat="49.204985" lon="19.733984"><ele>1763</ele></trkpt>
    <trkpt lat="49.204888" lon="19.733957"><ele>1773</ele></trkpt>
    <trkpt lat="49.204939" lon="19.733908"><ele>1766</ele></trkpt>
    <trkpt lat="49.204873" lon="19.733844"><ele>1770</ele></trkpt>
    <trkpt lat="49.204907" lon="19.733817"><ele>1766</ele></trkpt>
    <trkpt lat="49.204864" lon="19.733776"><ele>1768</ele></trkpt>
    <trkpt lat="49.204859" lon="19.733641"><ele>1763</ele></trkpt>
    <trkpt lat="49.204788" lon="19.733590"><ele>1768</ele></trkpt>
    <trkpt lat="49.204750" lon="19.733628"><ele>1774</ele></trkpt>
    <trkpt lat="49.204675" lon="19.733583"><ele>1779</ele></trkpt>
    <trkpt lat="49.204661" lon="19.733517"><ele>1777</ele></trkpt>
    <trkpt lat="49.204698" lon="19.733479"><ele>1772</ele></trkpt>
    <trkpt lat="49.204552" lon="19.733432"><ele>1782</ele></trkpt>
    <trkpt lat="49.204587" lon="19.733353"><ele>1776</ele></trkpt>
    <trkpt lat="49.204510" lon="19.733236"><ele>1777</ele></trkpt>
    <trkpt lat="49.204414" lon="19.733275"><ele>1786</ele></trkpt>
    <trkpt lat="49.204497" lon="19.733425"><ele>1787</ele></trkpt>
    <trkpt lat="49.204449" lon="19.733483"><ele>1793</ele></trkpt>
    <trkpt lat="49.204512" lon="19.733644"><ele>1794</ele></trkpt>
    <trkpt lat="49.204570" lon="19.733684"><ele>1791</ele></trkpt>
    <trkpt lat="49.204582" lon="19.733731"><ele>1792</ele></trkpt>
    <trkpt lat="49.204549" lon="19.733738"><ele>1795</ele></trkpt>
    <trkpt lat="49.204643" lon="19.733781"><ele>1790</ele></trkpt>
    <trkpt lat="49.204589" lon="19.733822"><ele>1795</ele></trkpt>
    <trkpt lat="49.204538" lon="19.733738"><ele>1796</ele></trkpt>
    <trkpt lat="49.204514" lon="19.733748"><ele>1798</ele></trkpt>
    <trkpt lat="49.204503" lon="19.734036"><ele>1805</ele></trkpt>
    <trkpt lat="49.204399" lon="19.734133"><ele>1812</ele></trkpt>
    <trkpt lat="49.204106" lon="19.734192"><ele>1831</ele></trkpt>
    <trkpt lat="49.204079" lon="19.734301"><ele>1835</ele></trkpt>
    <trkpt lat="49.203993" lon="19.734320"><ele>1841</ele></trkpt>
    <trkpt lat="49.203980" lon="19.734399"><ele>1843</ele></trkpt>
    <trkpt lat="49.203940" lon="19.734434"><ele>1847</ele></trkpt>
    <trkpt lat="49.203805" lon="19.734419"><ele>1855</ele></trkpt>
    <trkpt lat="49.203657" lon="19.734487"><ele>1867</ele></trkpt>
    <trkpt lat="49.203633" lon="19.734538"><ele>1870</ele></trkpt>
    <trkpt lat="49.203680" lon="19.734576"><ele>1868</ele></trkpt>
    <trkpt lat="49.203622" lon="19.734731"><ele>1876</ele></trkpt>
    <trkpt lat="49.203545" lon="19.734751"><ele>1883</ele></trkpt>
    <trkpt lat="49.203451" lon="19.734893"><ele>1895</ele></trkpt>
    <trkpt lat="49.203424" lon="19.734840"><ele>1895</ele></trkpt>
    <trkpt lat="49.203390" lon="19.734933"><ele>1901</ele></trkpt>
    <trkpt lat="49.203345" lon="19.734949"><ele>1905</ele></trkpt>
    <trkpt lat="49.203387" lon="19.735056"><ele>1905</ele></trkpt>
    <trkpt lat="49.203325" lon="19.735174"><ele>1914</ele></trkpt>
    <trkpt lat="49.203364" lon="19.735216"><ele>1912</ele></trkpt>
    <trkpt lat="49.203312" lon="19.735332"><ele>1921</ele></trkpt>
    <trkpt lat="49.203349" lon="19.735385"><ele>1919</ele></trkpt>
    <trkpt lat="49.203272" lon="19.735424"><ele>1927</ele></trkpt>
    <trkpt lat="49.203302" lon="19.735620"><ele>1930</ele></trkpt>
    <trkpt lat="49.203088" lon="19.736056"><ele>1958</ele></trkpt>
    <trkpt lat="49.202997" lon="19.735975"><ele>1962</ele></trkpt>
    <trkpt lat="49.202955" lon="19.736034"><ele>1965</ele></trkpt>
    <trkpt lat="49.202892" lon="19.735964"><ele>1968</ele></trkpt>
    <trkpt lat="49.202802" lon="19.735955"><ele>1972</ele></trkpt>
    <trkpt lat="49.202745" lon="19.735868"><ele>1975</ele></trkpt>
    <trkpt lat="49.202745" lon="19.735724"><ele>1976</ele></trkpt>
    <trkpt lat="49.202597" lon="19.735443"><ele>1984</ele></trkpt>
    <trkpt lat="49.202600" lon="19.735359"><ele>1984</ele></trkpt>
    <trkpt lat="49.202315" lon="19.735089"><ele>1999</ele></trkpt>
    <trkpt lat="49.202190" lon="19.735043"><ele>2004</ele></trkpt>
    <trkpt lat="49.202117" lon="19.734899"><ele>2009</ele></trkpt>
    <trkpt lat="49.202087" lon="19.734806"><ele>2011</ele></trkpt>
    <trkpt lat="49.202084" lon="19.734617"><ele>2014</ele></trkpt>
    <trkpt lat="49.201984" lon="19.734406"><ele>2022</ele></trkpt>
    <trkpt lat="49.201978" lon="19.734291"><ele>2024</ele></trkpt>
    <trkpt lat="49.201918" lon="19.734131"><ele>2028</ele></trkpt>
    <trkpt lat="49.201929" lon="19.733896"><ele>2030</ele></trkpt>
    <trkpt lat="49.201900" lon="19.733789"><ele>2027</ele></trkpt>
    <trkpt lat="49.201808" lon="19.733510"><ele>2019</ele></trkpt>
    <trkpt lat="49.201709" lon="19.733490"><ele>2020</ele></trkpt>
    <trkpt lat="49.201611" lon="19.733268"><ele>2017</ele></trkpt>
    <trkpt lat="49.201489" lon="19.733090"><ele>2012</ele></trkpt>
    <trkpt lat="49.201352" lon="19.732680"><ele>2014</ele></trkpt>
    <trkpt lat="49.201296" lon="19.732385"><ele>2012</ele></trkpt>
    <trkpt lat="49.201121" lon="19.731966"><ele>2023</ele></trkpt>
    <trkpt lat="49.201127" lon="19.731824"><ele>2023</ele></trkpt>
    <trkpt lat="49.200942" lon="19.731703"><ele>2034</ele></trkpt>
    <trkpt lat="49.200876" lon="19.731489"><ele>2040</ele></trkpt>
    <trkpt lat="49.200588" lon="19.731267"><ele>2054</ele></trkpt>
    <trkpt lat="49.200173" lon="19.730760"><ele>2086</ele></trkpt>
    <trkpt lat="49.200084" lon="19.730722"><ele>2092</ele></trkpt>
    <trkpt lat="49.200102" lon="19.730688"><ele>2092</ele></trkpt>
    <trkpt lat="49.200008" lon="19.730571"><ele>2102</ele></trkpt>
    <trkpt lat="49.200016" lon="19.730497"><ele>2104</ele></trkpt>
    <trkpt lat="49.199915" lon="19.730261"><ele>2110</ele></trkpt>
    <trkpt lat="49.199937" lon="19.730193"><ele>2111</ele></trkpt>
    <trkpt lat="49.199918" lon="19.730088"><ele>2113</ele></trkpt>
    <trkpt lat="49.199971" lon="19.729873"><ele>2116</ele></trkpt>
    <trkpt lat="49.199942" lon="19.729698"><ele>2116</ele></trkpt>
    <trkpt lat="49.199974" lon="19.729534"><ele>2118</ele></trkpt>
    <trkpt lat="49.199906" lon="19.729314"><ele>2115</ele></trkpt>
    <trkpt lat="49.199887" lon="19.728983"><ele>2108</ele></trkpt>
    <trkpt lat="49.199906" lon="19.729314"><ele>2115</ele></trkpt>
    <trkpt lat="49.199974" lon="19.729534"><ele>2118</ele></trkpt>
    <trkpt lat="49.199942" lon="19.729698"><ele>2116</ele></trkpt>
    <trkpt lat="49.199971" lon="19.729873"><ele>2116</ele></trkpt>
    <trkpt lat="49.199918" lon="19.730088"><ele>2113</ele></trkpt>
    <trkpt lat="49.199937" lon="19.730193"><ele>2111</ele></trkpt>
    <trkpt lat="49.199915" lon="19.730261"><ele>2110</ele></trkpt>
    <trkpt lat="49.200016" lon="19.730497"><ele>2104</ele></trkpt>
    <trkpt lat="49.200008" lon="19.730571"><ele>2102</ele></trkpt>
    <trkpt lat="49.200102" lon="19.730688"><ele>2092</ele></trkpt>
    <trkpt lat="49.200084" lon="19.730722"><ele>2092</ele></trkpt>
    <trkpt lat="49.200173" lon="19.730760"><ele>2086</ele></trkpt>
    <trkpt lat="49.200588" lon="19.731267"><ele>2054</ele></trkpt>
    <trkpt lat="49.200876" lon="19.731489"><ele>2040</ele></trkpt>
    <trkpt lat="49.200942" lon="19.731703"><ele>2034</ele></trkpt>
    <trkpt lat="49.201127" lon="19.731824"><ele>2023</ele></trkpt>
    <trkpt lat="49.201121" lon="19.731966"><ele>2023</ele></trkpt>
    <trkpt lat="49.201296" lon="19.732385"><ele>2012</ele></trkpt>
    <trkpt lat="49.201352" lon="19.732680"><ele>2014</ele></trkpt>
    <trkpt lat="49.201489" lon="19.733090"><ele>2012</ele></trkpt>
    <trkpt lat="49.201611" lon="19.733268"><ele>2017</ele></trkpt>
    <trkpt lat="49.201709" lon="19.733490"><ele>2020</ele></trkpt>
    <trkpt lat="49.201808" lon="19.733510"><ele>2019</ele></trkpt>
    <trkpt lat="49.201900" lon="19.733789"><ele>2027</ele></trkpt>
    <trkpt lat="49.201929" lon="19.733896"><ele>2030</ele></trkpt>
    <trkpt lat="49.201918" lon="19.734131"><ele>2028</ele></trkpt>
    <trkpt lat="49.201978" lon="19.734291"><ele>2024</ele></trkpt>
    <trkpt lat="49.201984" lon="19.734406"><ele>2022</ele></trkpt>
    <trkpt lat="49.202084" lon="19.734617"><ele>2014</ele></trkpt>
    <trkpt lat="49.202087" lon="19.734806"><ele>2011</ele></trkpt>
    <trkpt lat="49.202117" lon="19.734899"><ele>2009</ele></trkpt>
    <trkpt lat="49.202190" lon="19.735043"><ele>2004</ele></trkpt>
    <trkpt lat="49.202315" lon="19.735089"><ele>1999</ele></trkpt>
    <trkpt lat="49.202600" lon="19.735359"><ele>1984</ele></trkpt>
    <trkpt lat="49.202597" lon="19.735443"><ele>1984</ele></trkpt>
    <trkpt lat="49.202745" lon="19.735724"><ele>1976</ele></trkpt>
    <trkpt lat="49.202745" lon="19.735868"><ele>1975</ele></trkpt>
    <trkpt lat="49.202802" lon="19.735955"><ele>1972</ele></trkpt>
    <trkpt lat="49.202892" lon="19.735964"><ele>1968</ele></trkpt>
    <trkpt lat="49.202955" lon="19.736034"><ele>1965</ele></trkpt>
    <trkpt lat="49.202997" lon="19.735975"><ele>1962</ele></trkpt>
    <trkpt lat="49.203088" lon="19.736056"><ele>1958</ele></trkpt>
    <trkpt lat="49.203302" lon="19.735620"><ele>1930</ele></trkpt>
    <trkpt lat="49.203272" lon="19.735424"><ele>1927</ele></trkpt>
    <trkpt lat="49.203349" lon="19.735385"><ele>1919</ele></trkpt>
    <trkpt lat="49.203312" lon="19.735332"><ele>1921</ele></trkpt>
    <trkpt lat="49.203364" lon="19.735216"><ele>1912</ele></trkpt>
    <trkpt lat="49.203325" lon="19.735174"><ele>1914</ele></trkpt>
    <trkpt lat="49.203387" lon="19.735056"><ele>1905</ele></trkpt>
    <trkpt lat="49.203345" lon="19.734949"><ele>1905</ele></trkpt>
    <trkpt lat="49.203390" lon="19.734933"><ele>1901</ele></trkpt>
    <trkpt lat="49.203424" lon="19.734840"><ele>1895</ele></trkpt>
    <trkpt lat="49.203451" lon="19.734893"><ele>1895</ele></trkpt>
    <trkpt lat="49.203545" lon="19.734751"><ele>1883</ele></trkpt>
    <trkpt lat="49.203622" lon="19.734731"><ele>1876</ele></trkpt>
    <trkpt lat="49.203680" lon="19.734576"><ele>1868</ele></trkpt>
    <trkpt lat="49.203633" lon="19.734538"><ele>1870</ele></trkpt>
    <trkpt lat="49.203657" lon="19.734487"><ele>1867</ele></trkpt>
    <trkpt lat="49.203805" lon="19.734419"><ele>1855</ele></trkpt>
    <trkpt lat="49.203940" lon="19.734434"><ele>1847</ele></trkpt>
    <trkpt lat="49.203980" lon="19.734399"><ele>1843</ele></trkpt>
    <trkpt lat="49.203993" lon="19.734320"><ele>1841</ele></trkpt>
    <trkpt lat="49.204079" lon="19.734301"><ele>1835</ele></trkpt>
    <trkpt lat="49.204106" lon="19.734192"><ele>1831</ele></trkpt>
    <trkpt lat="49.204399" lon="19.734133"><ele>1812</ele></trkpt>
    <trkpt lat="49.204503" lon="19.734036"><ele>1805</ele></trkpt>
    <trkpt lat="49.204514" lon="19.733748"><ele>1798</ele></trkpt>
    <trkpt lat="49.204538" lon="19.733738"><ele>1796</ele></trkpt>
    <trkpt lat="49.204589" lon="19.733822"><ele>1795</ele></trkpt>
    <trkpt lat="49.204643" lon="19.733781"><ele>1790</ele></trkpt>
    <trkpt lat="49.204549" lon="19.733738"><ele>1795</ele></trkpt>
    <trkpt lat="49.204582" lon="19.733731"><ele>1792</ele></trkpt>
    <trkpt lat="49.204570" lon="19.733684"><ele>1791</ele></trkpt>
    <trkpt lat="49.204512" lon="19.733644"><ele>1794</ele></trkpt>
    <trkpt lat="49.204449" lon="19.733483"><ele>1793</ele></trkpt>
    <trkpt lat="49.204497" lon="19.733425"><ele>1787</ele></trkpt>
    <trkpt lat="49.204414" lon="19.733275"><ele>1786</ele></trkpt>
    <trkpt lat="49.204510" lon="19.733236"><ele>1777</ele></trkpt>
    <trkpt lat="49.204587" lon="19.733353"><ele>1776</ele></trkpt>
    <trkpt lat="49.204552" lon="19.733432"><ele>1782</ele></trkpt>
    <trkpt lat="49.204698" lon="19.733479"><ele>1772</ele></trkpt>
    <trkpt lat="49.204661" lon="19.733517"><ele>1777</ele></trkpt>
    <trkpt lat="49.204675" lon="19.733583"><ele>1779</ele></trkpt>
    <trkpt lat="49.204750" lon="19.733628"><ele>1774</ele></trkpt>
    <trkpt lat="49.204788" lon="19.733590"><ele>1768</ele></trkpt>
    <trkpt lat="49.204859" lon="19.733641"><ele>1763</ele></trkpt>
    <trkpt lat="49.204864" lon="19.733776"><ele>1768</ele></trkpt>
    <trkpt lat="49.204907" lon="19.733817"><ele>1766</ele></trkpt>
    <trkpt lat="49.204873" lon="19.733844"><ele>1770</ele></trkpt>
    <trkpt lat="49.204939" lon="19.733908"><ele>1766</ele></trkpt>
    <trkpt lat="49.204888" lon="19.733957"><ele>1773</ele></trkpt>
    <trkpt lat="49.204985" lon="19.733984"><ele>1763</ele></trkpt>
    <trkpt lat="49.205068" lon="19.733939"><ele>1755</ele></trkpt>
    <trkpt lat="49.205185" lon="19.734011"><ele>1748</ele></trkpt>
    <trkpt lat="49.205184" lon="19.734072"><ele>1750</ele></trkpt>
    <trkpt lat="49.205235" lon="19.734083"><ele>1746</ele></trkpt>
    <trkpt lat="49.205322" lon="19.734028"><ele>1739</ele></trkpt>
    <trkpt lat="49.205369" lon="19.734097"><ele>1737</ele></trkpt>
    <trkpt lat="49.205497" lon="19.734153"><ele>1730</ele></trkpt>
    <trkpt lat="49.205544" lon="19.734236"><ele>1728</ele></trkpt>
    <trkpt lat="49.205600" lon="19.734238"><ele>1726</ele></trkpt>
    <trkpt lat="49.205612" lon="19.734403"><ele>1726</ele></trkpt>
    <trkpt lat="49.205767" lon="19.734375"><ele>1723</ele></trkpt>
    <trkpt lat="49.205775" lon="19.734153"><ele>1721</ele></trkpt>
    <trkpt lat="49.205734" lon="19.733817"><ele>1716</ele></trkpt>
    <trkpt lat="49.205850" lon="19.733771"><ele>1712</ele></trkpt>
    <trkpt lat="49.206025" lon="19.733613"><ele>1708</ele></trkpt>
    <trkpt lat="49.206153" lon="19.733323"><ele>1701</ele></trkpt>
    <trkpt lat="49.206185" lon="19.733140"><ele>1701</ele></trkpt>
    <trkpt lat="49.206162" lon="19.732462"><ele>1701</ele></trkpt>
    <trkpt lat="49.205984" lon="19.731730"><ele>1692</ele></trkpt>
    <trkpt lat="49.205987" lon="19.731352"><ele>1682</ele></trkpt>
    <trkpt lat="49.205922" lon="19.731141"><ele>1677</ele></trkpt>
    <trkpt lat="49.205855" lon="19.731052"><ele>1676</ele></trkpt>
    <trkpt lat="49.206108" lon="19.731037"><ele>1666</ele></trkpt>
    <trkpt lat="49.206264" lon="19.731268"><ele>1663</ele></trkpt>
    <trkpt lat="49.206270" lon="19.730948"><ele>1655</ele></trkpt>
    <trkpt lat="49.206169" lon="19.730667"><ele>1651</ele></trkpt>
    <trkpt lat="49.206463" lon="19.730618"><ele>1639</ele></trkpt>
    <trkpt lat="49.206612" lon="19.730725"><ele>1634</ele></trkpt>
    <trkpt lat="49.206766" lon="19.730410"><ele>1625</ele></trkpt>
    <trkpt lat="49.206813" lon="19.730040"><ele>1616</ele></trkpt>
    <trkpt lat="49.206997" lon="19.730137"><ele>1609</ele></trkpt>
    <trkpt lat="49.207081" lon="19.730133"><ele>1605</ele></trkpt>
    <trkpt lat="49.207063" lon="19.730017"><ele>1603</ele></trkpt>
    <trkpt lat="49.206937" lon="19.729733"><ele>1600</ele></trkpt>
    <trkpt lat="49.207025" lon="19.729731"><ele>1595</ele></trkpt>
    <trkpt lat="49.206826" lon="19.728985"><ele>1583</ele></trkpt>
    <trkpt lat="49.206955" lon="19.729033"><ele>1577</ele></trkpt>
    <trkpt lat="49.206969" lon="19.728694"><ele>1568</ele></trkpt>
    <trkpt lat="49.207257" lon="19.729023"><ele>1558</ele></trkpt>
    <trkpt lat="49.207333" lon="19.729058"><ele>1554</ele></trkpt>
    <trkpt lat="49.207373" lon="19.728806"><ele>1547</ele></trkpt>
    <trkpt lat="49.207382" lon="19.728444"><ele>1541</ele></trkpt>
    <trkpt lat="49.207408" lon="19.728406"><ele>1539</ele></trkpt>
    <trkpt lat="49.207653" lon="19.728725"><ele>1532</ele></trkpt>
    <trkpt lat="49.207739" lon="19.728921"><ele>1527</ele></trkpt>
    <trkpt lat="49.207838" lon="19.728892"><ele>1522</ele></trkpt>
    <trkpt lat="49.208031" lon="19.728743"><ele>1513</ele></trkpt>
    <trkpt lat="49.208075" lon="19.728772"><ele>1511</ele></trkpt>
    <trkpt lat="49.208211" lon="19.729019"><ele>1505</ele></trkpt>
    <trkpt lat="49.208388" lon="19.728928"><ele>1499</ele></trkpt>
    <trkpt lat="49.208613" lon="19.728937"><ele>1491</ele></trkpt>
    <trkpt lat="49.208892" lon="19.729030"><ele>1484</ele></trkpt>
    <trkpt lat="49.209084" lon="19.728968"><ele>1478</ele></trkpt>
    <trkpt lat="49.209388" lon="19.728583"><ele>1471</ele></trkpt>
    <trkpt lat="49.209494" lon="19.728176"><ele>1477</ele></trkpt>
    <trkpt lat="49.209553" lon="19.728089"><ele>1477</ele></trkpt>
    <trkpt lat="49.209781" lon="19.727910"><ele>1473</ele></trkpt>
    <trkpt lat="49.209885" lon="19.727683"><ele>1472</ele></trkpt>
    <trkpt lat="49.209936" lon="19.727492"><ele>1472</ele></trkpt>
    <trkpt lat="49.209954" lon="19.727250"><ele>1473</ele></trkpt>
    <trkpt lat="49.210009" lon="19.727157"><ele>1472</ele></trkpt>
    <trkpt lat="49.210006" lon="19.727050"><ele>1473</ele></trkpt>
    <trkpt lat="49.210395" lon="19.726788"><ele>1471</ele></trkpt>
    <trkpt lat="49.210646" lon="19.726718"><ele>1468</ele></trkpt>
    <trkpt lat="49.210966" lon="19.726300"><ele>1469</ele></trkpt>
    <trkpt lat="49.211124" lon="19.726015"><ele>1468</ele></trkpt>
    <trkpt lat="49.211260" lon="19.726061"><ele>1462</ele></trkpt>
    <trkpt lat="49.211336" lon="19.726021"><ele>1460</ele></trkpt>
    <trkpt lat="49.211418" lon="19.726175"><ele>1455</ele></trkpt>
    <trkpt lat="49.211489" lon="19.726019"><ele>1454</ele></trkpt>
    <trkpt lat="49.211557" lon="19.726244"><ele>1448</ele></trkpt>
    <trkpt lat="49.211611" lon="19.726172"><ele>1446</ele></trkpt>
    <trkpt lat="49.211660" lon="19.726178"><ele>1443</ele></trkpt>
    <trkpt lat="49.211706" lon="19.726392"><ele>1438</ele></trkpt>
    <trkpt lat="49.211819" lon="19.726326"><ele>1437</ele></trkpt>
    <trkpt lat="49.211827" lon="19.726487"><ele>1434</ele></trkpt>
    <trkpt lat="49.212380" lon="19.726493"><ele>1416</ele></trkpt>
    <trkpt lat="49.212500" lon="19.726655"><ele>1406</ele></trkpt>
    <trkpt lat="49.212764" lon="19.726707"><ele>1409</ele></trkpt>
    <trkpt lat="49.212897" lon="19.726785"><ele>1409</ele></trkpt>
    <trkpt lat="49.212944" lon="19.726871"><ele>1407</ele></trkpt>
    <trkpt lat="49.212956" lon="19.727099"><ele>1399</ele></trkpt>
    <trkpt lat="49.213086" lon="19.727166"><ele>1398</ele></trkpt>
    <trkpt lat="49.213073" lon="19.727286"><ele>1394</ele></trkpt>
    <trkpt lat="49.213193" lon="19.727643"><ele>1382</ele></trkpt>
    <trkpt lat="49.213259" lon="19.727710"><ele>1381</ele></trkpt>
    <trkpt lat="49.213405" lon="19.727750"><ele>1379</ele></trkpt>
    <trkpt lat="49.213628" lon="19.727971"><ele>1372</ele></trkpt>
    <trkpt lat="49.214065" lon="19.728038"><ele>1363</ele></trkpt>
    <trkpt lat="49.214515" lon="19.728210"><ele>1355</ele></trkpt>
    <trkpt lat="49.214735" lon="19.727935"><ele>1352</ele></trkpt>
    <trkpt lat="49.214904" lon="19.728081"><ele>1347</ele></trkpt>
    <trkpt lat="49.215170" lon="19.728213"><ele>1341</ele></trkpt>
    <trkpt lat="49.215338" lon="19.728436"><ele>1335</ele></trkpt>
    <trkpt lat="49.215536" lon="19.728448"><ele>1328</ele></trkpt>
    <trkpt lat="49.215578" lon="19.728502"><ele>1325</ele></trkpt>
    <trkpt lat="49.215604" lon="19.728693"><ele>1322</ele></trkpt>
    <trkpt lat="49.215801" lon="19.728594"><ele>1315</ele></trkpt>
    <trkpt lat="49.215824" lon="19.728763"><ele>1313</ele></trkpt>
    <trkpt lat="49.215885" lon="19.728732"><ele>1311</ele></trkpt>
    <trkpt lat="49.215925" lon="19.728943"><ele>1307</ele></trkpt>
    <trkpt lat="49.215986" lon="19.728892"><ele>1305</ele></trkpt>
    <trkpt lat="49.216004" lon="19.729048"><ele>1302</ele></trkpt>
    <trkpt lat="49.216079" lon="19.728937"><ele>1301</ele></trkpt>
    <trkpt lat="49.216154" lon="19.729106"><ele>1293</ele></trkpt>
    <trkpt lat="49.216196" lon="19.729044"><ele>1292</ele></trkpt>
    <trkpt lat="49.216239" lon="19.729113"><ele>1288</ele></trkpt>
    <trkpt lat="49.216262" lon="19.729065"><ele>1288</ele></trkpt>
    <trkpt lat="49.216288" lon="19.729138"><ele>1285</ele></trkpt>
    <trkpt lat="49.216498" lon="19.729215"><ele>1272</ele></trkpt>
    <trkpt lat="49.216732" lon="19.729408"><ele>1261</ele></trkpt>
    <trkpt lat="49.216821" lon="19.729234"><ele>1259</ele></trkpt>
    <trkpt lat="49.217131" lon="19.729083"><ele>1251</ele></trkpt>
    <trkpt lat="49.217320" lon="19.728737"><ele>1246</ele></trkpt>
    <trkpt lat="49.217625" lon="19.728793"><ele>1239</ele></trkpt>
    <trkpt lat="49.217996" lon="19.728722"><ele>1230</ele></trkpt>
    <trkpt lat="49.218057" lon="19.728647"><ele>1229</ele></trkpt>
    <trkpt lat="49.218350" lon="19.728501"><ele>1223</ele></trkpt>
    <trkpt lat="49.218563" lon="19.728144"><ele>1218</ele></trkpt>
    <trkpt lat="49.218843" lon="19.727854"><ele>1218</ele></trkpt>
    <trkpt lat="49.219173" lon="19.727754"><ele>1214</ele></trkpt>
    <trkpt lat="49.219295" lon="19.727771"><ele>1212</ele></trkpt>
    <trkpt lat="49.219558" lon="19.727622"><ele>1209</ele></trkpt>
    <trkpt lat="49.219707" lon="19.727115"><ele>1208</ele></trkpt>
    <trkpt lat="49.219814" lon="19.726906"><ele>1207</ele></trkpt>
    <trkpt lat="49.220356" lon="19.726069"><ele>1198</ele></trkpt>
    <trkpt lat="49.220783" lon="19.725766"><ele>1189</ele></trkpt>
    <trkpt lat="49.221103" lon="19.725850"><ele>1187</ele></trkpt>
    <trkpt lat="49.221254" lon="19.725944"><ele>1188</ele></trkpt>
    <trkpt lat="49.221531" lon="19.726274"><ele>1189</ele></trkpt>
    <trkpt lat="49.221688" lon="19.726669"><ele>1187</ele></trkpt>
    <trkpt lat="49.221830" lon="19.727490"><ele>1187</ele></trkpt>
    <trkpt lat="49.221939" lon="19.727825"><ele>1189</ele></trkpt>
    <trkpt lat="49.222012" lon="19.727963"><ele>1190</ele></trkpt>
    <trkpt lat="49.222235" lon="19.728195"><ele>1190</ele></trkpt>
    <trkpt lat="49.222389" lon="19.728286"><ele>1189</ele></trkpt>
    <trkpt lat="49.222589" lon="19.728289"><ele>1190</ele></trkpt>
    <trkpt lat="49.223654" lon="19.727550"><ele>1190</ele></trkpt>
    <trkpt lat="49.224009" lon="19.726923"><ele>1187</ele></trkpt>
    <trkpt lat="49.224655" lon="19.725348"><ele>1176</ele></trkpt>
    <trkpt lat="49.224909" lon="19.724987"><ele>1172</ele></trkpt>
    <trkpt lat="49.225114" lon="19.724804"><ele>1168</ele></trkpt>
    <trkpt lat="49.225385" lon="19.724673"><ele>1165</ele></trkpt>
    <trkpt lat="49.226126" lon="19.724468"><ele>1161</ele></trkpt>
    <trkpt lat="49.226406" lon="19.724328"><ele>1159</ele></trkpt>
    <trkpt lat="49.227533" lon="19.723291"><ele>1147</ele></trkpt>
    <trkpt lat="49.228200" lon="19.722834"><ele>1139</ele></trkpt>
    <trkpt lat="49.228733" lon="19.722580"><ele>1136</ele></trkpt>
    <trkpt lat="49.230315" lon="19.722034"><ele>1124</ele></trkpt>
    <trkpt lat="49.231288" lon="19.721503"><ele>1119</ele></trkpt>
    <trkpt lat="49.232220" lon="19.720886"><ele>1111</ele></trkpt>
    <trkpt lat="49.234960" lon="19.719392"><ele>1094</ele></trkpt>
    <trkpt lat="49.236699" lon="19.718219"><ele>1068</ele></trkpt>
    <trkpt lat="49.236618" lon="19.718023"><ele>1065</ele></trkpt>
  </trkseg></trk>
</gpx>
