<?xml version="1.0" encoding="UTF-8"?>
<gpx version="1.1" creator="MounTour (OpenStreetMap)" xmlns="http://www.topografix.com/GPX/1/1">
  <metadata><name>Valčianska Javorina</name><copyright author="OpenStreetMap contributors"><license>https://opendatacommons.org/licenses/odbl/</license></copyright></metadata>
  <trk><name>Valčianska Javorina</name><trkseg>
    <trkpt lat="49.015448" lon="18.809190"><ele>509</ele></trkpt>
    <trkpt lat="49.015351" lon="18.809271"><ele>506</ele></trkpt>
    <trkpt lat="49.015210" lon="18.809128"><ele>505</ele></trkpt>
    <trkpt lat="49.015109" lon="18.809109"><ele>505</ele></trkpt>
    <trkpt lat="49.014787" lon="18.808919"><ele>505</ele></trkpt>
    <trkpt lat="49.014328" lon="18.808836"><ele>505</ele></trkpt>
    <trkpt lat="49.014071" lon="18.808700"><ele>505</ele></trkpt>
    <trkpt lat="49.014013" lon="18.808717"><ele>505</ele></trkpt>
    <trkpt lat="49.013934" lon="18.808877"><ele>506</ele></trkpt>
    <trkpt lat="49.013689" lon="18.808638"><ele>508</ele></trkpt>
    <trkpt lat="49.013568" lon="18.808432"><ele>509</ele></trkpt>
    <trkpt lat="49.013508" lon="18.808389"><ele>510</ele></trkpt>
    <trkpt lat="49.013298" lon="18.808511"><ele>512</ele></trkpt>
    <trkpt lat="49.013097" lon="18.808277"><ele>514</ele></trkpt>
    <trkpt lat="49.013036" lon="18.808334"><ele>514</ele></trkpt>
    <trkpt lat="49.012994" lon="18.808460"><ele>517</ele></trkpt>
    <trkpt lat="49.012688" lon="18.808141"><ele>522</ele></trkpt>
    <trkpt lat="49.012541" lon="18.807653"><ele>520</ele></trkpt>
    <trkpt lat="49.011940" lon="18.806952"><ele>527</ele></trkpt>
    <trkpt lat="49.011786" lon="18.806843"><ele>531</ele></trkpt>
    <trkpt lat="49.011336" lon="18.806666"><ele>535</ele></trkpt>
    <trkpt lat="49.010568" lon="18.806504"><ele>549</ele></trkpt>
    <trkpt lat="49.010473" lon="18.806435"><ele>550</ele></trkpt>
    <trkpt lat="49.010332" lon="18.806269"><ele>550</ele></trkpt>
    <trkpt lat="49.010175" lon="18.805788"><ele>550</ele></trkpt>
    <trkpt lat="49.010089" lon="18.805359"><ele>559</ele></trkpt>
    <trkpt lat="49.010112" lon="18.805050"><ele>567</ele></trkpt>
    <trkpt lat="49.010076" lon="18.804700"><ele>572</ele></trkpt>
    <trkpt lat="49.009897" lon="18.804151"><ele>584</ele></trkpt>
    <trkpt lat="49.009756" lon="18.803503"><ele>601</ele></trkpt>
    <trkpt lat="49.009558" lon="18.802918"><ele>608</ele></trkpt>
    <trkpt lat="49.009430" lon="18.802707"><ele>610</ele></trkpt>
    <trkpt lat="49.008396" lon="18.801966"><ele>625</ele></trkpt>
    <trkpt lat="49.007917" lon="18.801130"><ele>656</ele></trkpt>
    <trkpt lat="49.007895" lon="18.800821"><ele>662</ele></trkpt>
    <trkpt lat="49.008041" lon="18.800241"><ele>668</ele></trkpt>
    <trkpt lat="49.008556" lon="18.798890"><ele>705</ele></trkpt>
    <trkpt lat="49.008856" lon="18.798361"><ele>713</ele></trkpt>
    <trkpt lat="49.008882" lon="18.798222"><ele>716</ele></trkpt>
    <trkpt lat="49.008856" lon="18.797935"><ele>725</ele></trkpt>
    <trkpt lat="49.008952" lon="18.797505"><ele>738</ele></trkpt>
    <trkpt lat="49.008998" lon="18.797114"><ele>747</ele></trkpt>
    <trkpt lat="49.009093" lon="18.796803"><ele>752</ele></trkpt>
    <trkpt lat="49.009950" lon="18.795150"><ele>762</ele></trkpt>
    <trkpt lat="49.010180" lon="18.794579"><ele>775</ele></trkpt>
    <trkpt lat="49.010237" lon="18.794354"><ele>774</ele></trkpt>
    <trkpt lat="49.010311" lon="18.793834"><ele>774</ele></trkpt>
    <trkpt lat="49.010450" lon="18.791910"><ele>801</ele></trkpt>
    <trkpt lat="49.010638" lon="18.790580"><ele>821</ele></trkpt>
    <trkpt lat="49.010861" lon="18.789641"><ele>826</ele></trkpt>
    <trkpt lat="49.010870" lon="18.789191"><ele>830</ele></trkpt>
    <trkpt lat="49.010861" lon="18.789641"><ele>826</ele></trkpt>
    <trkpt lat="49.010638" lon="18.790580"><ele>821</ele></trkpt>
    <trkpt lat="49.010450" lon="18.791910"><ele>801</ele></trkpt>
    <trkpt lat="49.010311" lon="18.793834"><ele>774</ele></trkpt>
    <trkpt lat="49.010237" lon="18.794354"><ele>774</ele></trkpt>
    <trkpt lat="49.010180" lon="18.794579"><ele>775</ele></trkpt>
    <trkpt lat="49.009950" lon="18.795150"><ele>762</ele></trkpt>
    <trkpt lat="49.009093" lon="18.796803"><ele>752</ele></trkpt>
    <trkpt lat="49.008998" lon="18.797114"><ele>747</ele></trkpt>
    <trkpt lat="49.008952" lon="18.797505"><ele>738</ele></trkpt>
    <trkpt lat="49.008856" lon="18.797935"><ele>725</ele></trkpt>
    <trkpt lat="49.008882" lon="18.798222"><ele>716</ele></trkpt>
    <trkpt lat="49.008856" lon="18.798361"><ele>713</ele></trkpt>
    <trkpt lat="49.008556" lon="18.798890"><ele>705</ele></trkpt>
    <trkpt lat="49.008041" lon="18.800241"><ele>668</ele></trkpt>
    <trkpt lat="49.007895" lon="18.800821"><ele>662</ele></trkpt>
    <trkpt lat="49.007917" lon="18.801130"><ele>656</ele></trkpt>
    <trkpt lat="49.008396" lon="18.801966"><ele>625</ele></trkpt>
    <trkpt lat="49.009430" lon="18.802707"><ele>610</ele></trkpt>
    <trkpt lat="49.009558" lon="18.802918"><ele>608</ele></trkpt>
    <trkpt lat="49.009756" lon="18.803503"><ele>601</ele></trkpt>
    <trkpt lat="49.009897" lon="18.804151"><ele>584</ele></trkpt>
    <trkpt lat="49.010076" lon="18.804700"><ele>572</ele></trkpt>
    <trkpt lat="49.010112" lon="18.805050"><ele>567</ele></trkpt>
    <trkpt lat="49.010089" lon="18.805359"><ele>559</ele></trkpt>
    <trkpt lat="49.010175" lon="18.805788"><ele>550</ele></trkpt>
    <trkpt lat="49.010332" lon="18.806269"><ele>550</ele></trkpt>
    <trkpt lat="49.010473" lon="18.806435"><ele>550</ele></trkpt>
    <trkpt lat="49.010568" lon="18.806504"><ele>549</ele></trkpt>
    <trkpt lat="49.011336" lon="18.806666"><ele>535</ele></trkpt>
    <trkpt lat="49.011786" lon="18.806843"><ele>531</ele></trkpt>
    <trkpt lat="49.011940" lon="18.806952"><ele>527</ele></trkpt>
    <trkpt lat="49.012541" lon="18.807653"><ele>520</ele></trkpt>
    <trkpt lat="49.012688" lon="18.808141"><ele>522</ele></trkpt>
    <trkpt lat="49.012994" lon="18.808460"><ele>517</ele></trkpt>
    <trkpt lat="49.013036" lon="18.808334"><ele>514</ele></trkpt>
    <trkpt lat="49.013097" lon="18.808277"><ele>514</ele></trkpt>
    <trkpt lat="49.013298" lon="18.808511"><ele>512</ele></trkpt>
    <trkpt lat="49.013508" lon="18.808389"><ele>510</ele></trkpt>
    <trkpt lat="49.013568" lon="18.808432"><ele>509</ele></trkpt>
    <trkpt lat="49.013689" lon="18.808638"><ele>508</ele></trkpt>
    <trkpt lat="49.013934" lon="18.808877"><ele>506</ele></trkpt>
    <trkpt lat="49.014013" lon="18.808717"><ele>505</ele></trkpt>
    <trkpt lat="49.014071" lon="18.808700"><ele>505</ele></trkpt>
    <trkpt lat="49.014328" lon="18.808836"><ele>505</ele></trkpt>
    <trkpt lat="49.014787" lon="18.808919"><ele>505</ele></trkpt>
    <trkpt lat="49.015109" lon="18.809109"><ele>505</ele></trkpt>
    <trkpt lat="49.015210" lon="18.809128"><ele>505</ele></trkpt>
    <trkpt lat="49.015351" lon="18.809271"><ele>506</ele></trkpt>
    <trkpt lat="49.015448" lon="18.809190"><ele>509</ele></trkpt>
  </trkseg></trk>
</gpx>
