<?xml version="1.0" encoding="UTF-8"?>
<gpx version="1.1" creator="MounTour (OpenStreetMap)" xmlns="http://www.topografix.com/GPX/1/1">
  <metadata><name>Vápenná</name><copyright author="OpenStreetMap contributors"><license>https://opendatacommons.org/licenses/odbl/</license></copyright></metadata>
  <trk><name>Vápenná</name><trkseg>
    <trkpt lat="48.457115" lon="17.249121"><ele>380</ele></trkpt>
    <trkpt lat="48.457078" lon="17.250317"><ele>400</ele></trkpt>
    <trkpt lat="48.457251" lon="17.250941"><ele>416</ele></trkpt>
    <trkpt lat="48.457459" lon="17.251376"><ele>425</ele></trkpt>
    <trkpt lat="48.457485" lon="17.251489"><ele>428</ele></trkpt>
    <trkpt lat="48.457445" lon="17.251575"><ele>430</ele></trkpt>
    <trkpt lat="48.457229" lon="17.251692"><ele>434</ele></trkpt>
    <trkpt lat="48.457204" lon="17.251748"><ele>436</ele></trkpt>
    <trkpt lat="48.457209" lon="17.251878"><ele>440</ele></trkpt>
    <trkpt lat="48.457145" lon="17.252208"><ele>450</ele></trkpt>
    <trkpt lat="48.457264" lon="17.253010"><ele>466</ele></trkpt>
    <trkpt lat="48.457455" lon="17.253127"><ele>465</ele></trkpt>
    <trkpt lat="48.457745" lon="17.253554"><ele>473</ele></trkpt>
    <trkpt lat="48.457847" lon="17.253801"><ele>479</ele></trkpt>
    <trkpt lat="48.457909" lon="17.254309"><ele>491</ele></trkpt>
    <trkpt lat="48.458118" lon="17.255096"><ele>501</ele></trkpt>
    <trkpt lat="48.458137" lon="17.255298"><ele>505</ele></trkpt>
    <trkpt lat="48.458113" lon="17.255657"><ele>511</ele></trkpt>
    <trkpt lat="48.458183" lon="17.256140"><ele>516</ele></trkpt>
    <trkpt lat="48.458213" lon="17.257391"><ele>539</ele></trkpt>
    <trkpt lat="48.458361" lon="17.257879"><ele>546</ele></trkpt>
    <trkpt lat="48.458450" lon="17.258071"><ele>548</ele></trkpt>
    <trkpt lat="48.458643" lon="17.258340"><ele>549</ele></trkpt>
    <trkpt lat="48.458802" lon="17.258838"><ele>556</ele></trkpt>
    <trkpt lat="48.458750" lon="17.259457"><ele>570</ele></trkpt>
    <trkpt lat="48.458634" lon="17.260039"><ele>585</ele></trkpt>
    <trkpt lat="48.458630" lon="17.260179"><ele>587</ele></trkpt>
    <trkpt lat="48.458745" lon="17.260836"><ele>597</ele></trkpt>
    <trkpt lat="48.458785" lon="17.260933"><ele>599</ele></trkpt>
    <trkpt lat="48.459003" lon="17.261171"><ele>603</ele></trkpt>
    <trkpt lat="48.459075" lon="17.261401"><ele>607</ele></trkpt>
    <trkpt lat="48.458947" lon="17.262226"><ele>620</ele></trkpt>
    <trkpt lat="48.458932" lon="17.263462"><ele>640</ele></trkpt>
    <trkpt lat="48.459023" lon="17.263865"><ele>645</ele></trkpt>
    <trkpt lat="48.459206" lon="17.264256"><ele>649</ele></trkpt>
    <trkpt lat="48.459423" lon="17.265507"><ele>661</ele></trkpt>
    <trkpt lat="48.459734" lon="17.266410"><ele>665</ele></trkpt>
    <trkpt lat="48.459822" lon="17.266914"><ele>668</ele></trkpt>
    <trkpt lat="48.460014" lon="17.267339"><ele>668</ele></trkpt>
    <trkpt lat="48.460120" lon="17.267715"><ele>671</ele></trkpt>
    <trkpt lat="48.460122" lon="17.267934"><ele>672</ele></trkpt>
    <trkpt lat="48.459984" lon="17.268378"><ele>676</ele></trkpt>
    <trkpt lat="48.459889" lon="17.269022"><ele>685</ele></trkpt>
    <trkpt lat="48.459942" lon="17.269693"><ele>693</ele></trkpt>
    <trkpt lat="48.460058" lon="17.270211"><ele>698</ele></trkpt>
    <trkpt lat="48.460029" lon="17.270449"><ele>703</ele></trkpt>
    <trkpt lat="48.460065" lon="17.270718"><ele>706</ele></trkpt>
    <trkpt lat="48.459980" lon="17.271171"><ele>714</ele></trkpt>
    <trkpt lat="48.459997" lon="17.271405"><ele>716</ele></trkpt>
    <trkpt lat="48.460048" lon="17.271736"><ele>721</ele></trkpt>
    <trkpt lat="48.460151" lon="17.271941"><ele>723</ele></trkpt>
    <trkpt lat="48.460180" lon="17.272090"><ele>724</ele></trkpt>
    <trkpt lat="48.460139" lon="17.272376"><ele>729</ele></trkpt>
    <trkpt lat="48.460175" lon="17.272512"><ele>730</ele></trkpt>
    <trkpt lat="48.460173" lon="17.272775"><ele>734</ele></trkpt>
    <trkpt lat="48.460229" lon="17.273001"><ele>735</ele></trkpt>
    <trkpt lat="48.460181" lon="17.273160"><ele>736</ele></trkpt>
    <trkpt lat="48.460194" lon="17.273388"><ele>738</ele></trkpt>
    <trkpt lat="48.460101" lon="17.273758"><ele>738</ele></trkpt>
    <trkpt lat="48.460073" lon="17.274121"><ele>738</ele></trkpt>
    <trkpt lat="48.460122" lon="17.274251"><ele>739</ele></trkpt>
    <trkpt lat="48.460073" lon="17.274121"><ele>738</ele></trkpt>
    <trkpt lat="48.460101" lon="17.273758"><ele>738</ele></trkpt>
    <trkpt lat="48.460194" lon="17.273388"><ele>738</ele></trkpt>
    <trkpt lat="48.460181" lon="17.273160"><ele>736</ele></trkpt>
    <trkpt lat="48.460229" lon="17.273001"><ele>735</ele></trkpt>
    <trkpt lat="48.460173" lon="17.272775"><ele>734</ele></trkpt>
    <trkpt lat="48.460175" lon="17.272512"><ele>730</ele></trkpt>
    <trkpt lat="48.460139" lon="17.272376"><ele>729</ele></trkpt>
    <trkpt lat="48.460180" lon="17.272090"><ele>724</ele></trkpt>
    <trkpt lat="48.460151" lon="17.271941"><ele>723</ele></trkpt>
    <trkpt lat="48.460048" lon="17.271736"><ele>721</ele></trkpt>
    <trkpt lat="48.459997" lon="17.271405"><ele>716</ele></trkpt>
    <trkpt lat="48.459980" lon="17.271171"><ele>714</ele></trkpt>
    <trkpt lat="48.460065" lon="17.270718"><ele>706</ele></trkpt>
    <trkpt lat="48.460029" lon="17.270449"><ele>703</ele></trkpt>
    <trkpt lat="48.460058" lon="17.270211"><ele>698</ele></trkpt>
    <trkpt lat="48.459942" lon="17.269693"><ele>693</ele></trkpt>
    <trkpt lat="48.459889" lon="17.269022"><ele>685</ele></trkpt>
    <trkpt lat="48.459984" lon="17.268378"><ele>676</ele></trkpt>
    <trkpt lat="48.460122" lon="17.267934"><ele>672</ele></trkpt>
    <trkpt lat="48.460120" lon="17.267715"><ele>671</ele></trkpt>
    <trkpt lat="48.460014" lon="17.267339"><ele>668</ele></trkpt>
    <trkpt lat="48.459822" lon="17.266914"><ele>668</ele></trkpt>
    <trkpt lat="48.459734" lon="17.266410"><ele>665</ele></trkpt>
    <trkpt lat="48.459423" lon="17.265507"><ele>661</ele></trkpt>
    <trkpt lat="48.459206" lon="17.264256"><ele>649</ele></trkpt>
    <trkpt lat="48.459023" lon="17.263865"><ele>645</ele></trkpt>
    <trkpt lat="48.458932" lon="17.263462"><ele>640</ele></trkpt>
    <trkpt lat="48.458947" lon="17.262226"><ele>620</ele></trkpt>
    <trkpt lat="48.459075" lon="17.261401"><ele>607</ele></trkpt>
    <trkpt lat="48.459003" lon="17.261171"><ele>603</ele></trkpt>
    <trkpt lat="48.458785" lon="17.260933"><ele>599</ele></trkpt>
    <trkpt lat="48.458745" lon="17.260836"><ele>597</ele></trkpt>
    <trkpt lat="48.458630" lon="17.260179"><ele>587</ele></trkpt>
    <trkpt lat="48.458634" lon="17.260039"><ele>585</ele></trkpt>
    <trkpt lat="48.458750" lon="17.259457"><ele>570</ele></trkpt>
    <trkpt lat="48.458802" lon="17.258838"><ele>556</ele></trkpt>
    <trkpt lat="48.458643" lon="17.258340"><ele>549</ele></trkpt>
    <trkpt lat="48.458450" lon="17.258071"><ele>548</ele></trkpt>
    <trkpt lat="48.458361" lon="17.257879"><ele>546</ele></trkpt>
    <trkpt lat="48.458213" lon="17.257391"><ele>539</ele></trkpt>
    <trkpt lat="48.458183" lon="17.256140"><ele>516</ele></trkpt>
    <trkpt lat="48.458113" lon="17.255657"><ele>511</ele></trkpt>
    <trkpt lat="48.458137" lon="17.255298"><ele>505</ele></trkpt>
    <trkpt lat="48.458118" lon="17.255096"><ele>501</ele></trkpt>
    <trkpt lat="48.457909" lon="17.254309"><ele>491</ele></trkpt>
    <trkpt lat="48.457847" lon="17.253801"><ele>479</ele></trkpt>
    <trkpt lat="48.457745" lon="17.253554"><ele>473</ele></trkpt>
    <trkpt lat="48.457455" lon="17.253127"><ele>465</ele></trkpt>
    <trkpt lat="48.457264" lon="17.253010"><ele>466</ele></trkpt>
    <trkpt lat="48.457145" lon="17.252208"><ele>450</ele></trkpt>
    <trkpt lat="48.457209" lon="17.251878"><ele>440</ele></trkpt>
    <trkpt lat="48.457204" lon="17.251748"><ele>436</ele></trkpt>
    <trkpt lat="48.457229" lon="17.251692"><ele>434</ele></trkpt>
    <trkpt lat="48.457445" lon="17.251575"><ele>430</ele></trkpt>
    <trkpt lat="48.457485" lon="17.251489"><ele>428</ele></trkpt>
    <trkpt lat="48.457459" lon="17.251376"><ele>425</ele></trkpt>
    <trkpt lat="48.457251" lon="17.250941"><ele>416</ele></trkpt>
    <trkpt lat="48.457078" lon="17.250317"><ele>400</ele></trkpt>
    <trkpt lat="48.457115" lon="17.249121"><ele>380</ele></trkpt>
  </trkseg></trk>
</gpx>
