<?xml version="1.0" encoding="UTF-8"?>
<gpx version="1.1" creator="MounTour (OpenStreetMap)" xmlns="http://www.topografix.com/GPX/1/1">
  <metadata><name>Veľký Rozsutec</name><copyright author="OpenStreetMap contributors"><license>https://opendatacommons.org/licenses/odbl/</license></copyright></metadata>
  <trk><name>Veľký Rozsutec</name><trkseg>
    <trkpt lat="49.232978" lon="19.064033"><ele>636</ele></trkpt>
    <trkpt lat="49.233048" lon="19.064146"><ele>638</ele></trkpt>
    <trkpt lat="49.233827" lon="19.064924"><ele>641</ele></trkpt>
    <trkpt lat="49.234276" lon="19.065249"><ele>644</ele></trkpt>
    <trkpt lat="49.234393" lon="19.065454"><ele>644</ele></trkpt>
    <trkpt lat="49.234454" lon="19.065664"><ele>645</ele></trkpt>
    <trkpt lat="49.234543" lon="19.065675"><ele>646</ele></trkpt>
    <trkpt lat="49.234801" lon="19.065839"><ele>649</ele></trkpt>
    <trkpt lat="49.235150" lon="19.066240"><ele>649</ele></trkpt>
    <trkpt lat="49.235497" lon="19.066788"><ele>652</ele></trkpt>
    <trkpt lat="49.235646" lon="19.067127"><ele>653</ele></trkpt>
    <trkpt lat="49.235795" lon="19.067599"><ele>655</ele></trkpt>
    <trkpt lat="49.236063" lon="19.068167"><ele>659</ele></trkpt>
    <trkpt lat="49.236220" lon="19.068413"><ele>662</ele></trkpt>
    <trkpt lat="49.236461" lon="19.068613"><ele>666</ele></trkpt>
    <trkpt lat="49.236785" lon="19.069157"><ele>671</ele></trkpt>
    <trkpt lat="49.237098" lon="19.069380"><ele>676</ele></trkpt>
    <trkpt lat="49.237472" lon="19.069768"><ele>686</ele></trkpt>
    <trkpt lat="49.237499" lon="19.069947"><ele>687</ele></trkpt>
    <trkpt lat="49.237613" lon="19.070085"><ele>689</ele></trkpt>
    <trkpt lat="49.237783" lon="19.070262"><ele>687</ele></trkpt>
    <trkpt lat="49.238086" lon="19.070455"><ele>696</ele></trkpt>
    <trkpt lat="49.238224" lon="19.070600"><ele>698</ele></trkpt>
    <trkpt lat="49.238428" lon="19.071019"><ele>700</ele></trkpt>
    <trkpt lat="49.238655" lon="19.071885"><ele>719</ele></trkpt>
    <trkpt lat="49.238697" lon="19.071917"><ele>722</ele></trkpt>
    <trkpt lat="49.238885" lon="19.071834"><ele>728</ele></trkpt>
    <trkpt lat="49.239030" lon="19.071842"><ele>730</ele></trkpt>
    <trkpt lat="49.239249" lon="19.072000"><ele>734</ele></trkpt>
    <trkpt lat="49.239372" lon="19.072156"><ele>737</ele></trkpt>
    <trkpt lat="49.239469" lon="19.072394"><ele>741</ele></trkpt>
    <trkpt lat="49.239436" lon="19.072424"><ele>742</ele></trkpt>
    <trkpt lat="49.239229" lon="19.072292"><ele>740</ele></trkpt>
    <trkpt lat="49.239082" lon="19.072295"><ele>740</ele></trkpt>
    <trkpt lat="49.239056" lon="19.072330"><ele>741</ele></trkpt>
    <trkpt lat="49.239033" lon="19.072400"><ele>741</ele></trkpt>
    <trkpt lat="49.239040" lon="19.072582"><ele>742</ele></trkpt>
    <trkpt lat="49.239112" lon="19.072889"><ele>742</ele></trkpt>
    <trkpt lat="49.239296" lon="19.073056"><ele>743</ele></trkpt>
    <trkpt lat="49.239481" lon="19.073105"><ele>744</ele></trkpt>
    <trkpt lat="49.239767" lon="19.073042"><ele>745</ele></trkpt>
    <trkpt lat="49.240114" lon="19.072879"><ele>745</ele></trkpt>
    <trkpt lat="49.240209" lon="19.072887"><ele>746</ele></trkpt>
    <trkpt lat="49.240529" lon="19.072960"><ele>748</ele></trkpt>
    <trkpt lat="49.240917" lon="19.073226"><ele>744</ele></trkpt>
    <trkpt lat="49.241031" lon="19.073474"><ele>741</ele></trkpt>
    <trkpt lat="49.241094" lon="19.073911"><ele>738</ele></trkpt>
    <trkpt lat="49.241257" lon="19.074600"><ele>732</ele></trkpt>
    <trkpt lat="49.241346" lon="19.074772"><ele>724</ele></trkpt>
    <trkpt lat="49.241601" lon="19.074824"><ele>719</ele></trkpt>
    <trkpt lat="49.241626" lon="19.074867"><ele>719</ele></trkpt>
    <trkpt lat="49.241670" lon="19.075034"><ele>720</ele></trkpt>
    <trkpt lat="49.241703" lon="19.075302"><ele>721</ele></trkpt>
    <trkpt lat="49.241686" lon="19.075430"><ele>722</ele></trkpt>
    <trkpt lat="49.241720" lon="19.075488"><ele>722</ele></trkpt>
    <trkpt lat="49.241731" lon="19.075697"><ele>723</ele></trkpt>
    <trkpt lat="49.241806" lon="19.075672"><ele>722</ele></trkpt>
    <trkpt lat="49.241923" lon="19.075893"><ele>722</ele></trkpt>
    <trkpt lat="49.241815" lon="19.076085"><ele>723</ele></trkpt>
    <trkpt lat="49.241592" lon="19.076746"><ele>729</ele></trkpt>
    <trkpt lat="49.241355" lon="19.077190"><ele>734</ele></trkpt>
    <trkpt lat="49.241284" lon="19.077724"><ele>746</ele></trkpt>
    <trkpt lat="49.241243" lon="19.077772"><ele>748</ele></trkpt>
    <trkpt lat="49.241113" lon="19.078156"><ele>758</ele></trkpt>
    <trkpt lat="49.241118" lon="19.078246"><ele>760</ele></trkpt>
    <trkpt lat="49.241024" lon="19.078392"><ele>766</ele></trkpt>
    <trkpt lat="49.240925" lon="19.078826"><ele>774</ele></trkpt>
    <trkpt lat="49.241059" lon="19.079345"><ele>785</ele></trkpt>
    <trkpt lat="49.241107" lon="19.079430"><ele>784</ele></trkpt>
    <trkpt lat="49.241068" lon="19.079524"><ele>790</ele></trkpt>
    <trkpt lat="49.241125" lon="19.079669"><ele>792</ele></trkpt>
    <trkpt lat="49.241141" lon="19.079835"><ele>797</ele></trkpt>
    <trkpt lat="49.241020" lon="19.080042"><ele>803</ele></trkpt>
    <trkpt lat="49.240952" lon="19.080257"><ele>808</ele></trkpt>
    <trkpt lat="49.240941" lon="19.080387"><ele>810</ele></trkpt>
    <trkpt lat="49.240985" lon="19.080740"><ele>818</ele></trkpt>
    <trkpt lat="49.240971" lon="19.080973"><ele>831</ele></trkpt>
    <trkpt lat="49.240946" lon="19.081119"><ele>841</ele></trkpt>
    <trkpt lat="49.240848" lon="19.081364"><ele>853</ele></trkpt>
    <trkpt lat="49.240900" lon="19.081584"><ele>863</ele></trkpt>
    <trkpt lat="49.240920" lon="19.081880"><ele>872</ele></trkpt>
    <trkpt lat="49.240900" lon="19.082077"><ele>872</ele></trkpt>
    <trkpt lat="49.240960" lon="19.082281"><ele>871</ele></trkpt>
    <trkpt lat="49.240908" lon="19.082455"><ele>865</ele></trkpt>
    <trkpt lat="49.240978" lon="19.082686"><ele>868</ele></trkpt>
    <trkpt lat="49.240982" lon="19.082809"><ele>869</ele></trkpt>
    <trkpt lat="49.240931" lon="19.083001"><ele>870</ele></trkpt>
    <trkpt lat="49.240820" lon="19.083136"><ele>867</ele></trkpt>
    <trkpt lat="49.240743" lon="19.083546"><ele>878</ele></trkpt>
    <trkpt lat="49.240890" lon="19.083716"><ele>883</ele></trkpt>
    <trkpt lat="49.241143" lon="19.084132"><ele>892</ele></trkpt>
    <trkpt lat="49.241349" lon="19.084304"><ele>899</ele></trkpt>
    <trkpt lat="49.241900" lon="19.084551"><ele>913</ele></trkpt>
    <trkpt lat="49.242073" lon="19.084809"><ele>918</ele></trkpt>
    <trkpt lat="49.242494" lon="19.085177"><ele>924</ele></trkpt>
    <trkpt lat="49.242510" lon="19.085339"><ele>925</ele></trkpt>
    <trkpt lat="49.242576" lon="19.085480"><ele>929</ele></trkpt>
    <trkpt lat="49.242654" lon="19.085551"><ele>930</ele></trkpt>
    <trkpt lat="49.243095" lon="19.086572"><ele>938</ele></trkpt>
    <trkpt lat="49.243579" lon="19.086890"><ele>938</ele></trkpt>
    <trkpt lat="49.243676" lon="19.087029"><ele>939</ele></trkpt>
    <trkpt lat="49.243783" lon="19.087004"><ele>941</ele></trkpt>
    <trkpt lat="49.243901" lon="19.087205"><ele>941</ele></trkpt>
    <trkpt lat="49.244194" lon="19.088056"><ele>942</ele></trkpt>
    <trkpt lat="49.244390" lon="19.088740"><ele>954</ele></trkpt>
    <trkpt lat="49.244435" lon="19.089167"><ele>957</ele></trkpt>
    <trkpt lat="49.244371" lon="19.089293"><ele>958</ele></trkpt>
    <trkpt lat="49.244187" lon="19.089480"><ele>957</ele></trkpt>
    <trkpt lat="49.244103" lon="19.089731"><ele>962</ele></trkpt>
    <trkpt lat="49.244043" lon="19.089791"><ele>964</ele></trkpt>
    <trkpt lat="49.244026" lon="19.090071"><ele>968</ele></trkpt>
    <trkpt lat="49.243580" lon="19.090881"><ele>991</ele></trkpt>
    <trkpt lat="49.243171" lon="19.091167"><ele>1004</ele></trkpt>
    <trkpt lat="49.242860" lon="19.091242"><ele>1011</ele></trkpt>
    <trkpt lat="49.242599" lon="19.091575"><ele>1018</ele></trkpt>
    <trkpt lat="49.242459" lon="19.092012"><ele>1028</ele></trkpt>
    <trkpt lat="49.242407" lon="19.092504"><ele>1041</ele></trkpt>
    <trkpt lat="49.242322" lon="19.092771"><ele>1046</ele></trkpt>
    <trkpt lat="49.242217" lon="19.092821"><ele>1043</ele></trkpt>
    <trkpt lat="49.242162" lon="19.092760"><ele>1047</ele></trkpt>
    <trkpt lat="49.241969" lon="19.092696"><ele>1062</ele></trkpt>
    <trkpt lat="49.241875" lon="19.092561"><ele>1068</ele></trkpt>
    <trkpt lat="49.241670" lon="19.092660"><ele>1077</ele></trkpt>
    <trkpt lat="49.241514" lon="19.092557"><ele>1079</ele></trkpt>
    <trkpt lat="49.241100" lon="19.092706"><ele>1089</ele></trkpt>
    <trkpt lat="49.241058" lon="19.092776"><ele>1089</ele></trkpt>
    <trkpt lat="49.240769" lon="19.092997"><ele>1097</ele></trkpt>
    <trkpt lat="49.240584" lon="19.093395"><ele>1098</ele></trkpt>
    <trkpt lat="49.240496" lon="19.094120"><ele>1105</ele></trkpt>
    <trkpt lat="49.240443" lon="19.094313"><ele>1108</ele></trkpt>
    <trkpt lat="49.240468" lon="19.094791"><ele>1113</ele></trkpt>
    <trkpt lat="49.240373" lon="19.095845"><ele>1127</ele></trkpt>
    <trkpt lat="49.240448" lon="19.096451"><ele>1133</ele></trkpt>
    <trkpt lat="49.240559" lon="19.096751"><ele>1132</ele></trkpt>
    <trkpt lat="49.240559" lon="19.097071"><ele>1136</ele></trkpt>
    <trkpt lat="49.240617" lon="19.097298"><ele>1141</ele></trkpt>
    <trkpt lat="49.241003" lon="19.097953"><ele>1152</ele></trkpt>
    <trkpt lat="49.241079" lon="19.098310"><ele>1152</ele></trkpt>
    <trkpt lat="49.241099" lon="19.098676"><ele>1156</ele></trkpt>
    <trkpt lat="49.241172" lon="19.098978"><ele>1160</ele></trkpt>
    <trkpt lat="49.241266" lon="19.099155"><ele>1162</ele></trkpt>
    <trkpt lat="49.241501" lon="19.100071"><ele>1171</ele></trkpt>
    <trkpt lat="49.241590" lon="19.100324"><ele>1174</ele></trkpt>
    <trkpt lat="49.241938" lon="19.100877"><ele>1180</ele></trkpt>
    <trkpt lat="49.242067" lon="19.101159"><ele>1179</ele></trkpt>
    <trkpt lat="49.242191" lon="19.101735"><ele>1177</ele></trkpt>
    <trkpt lat="49.242315" lon="19.102593"><ele>1179</ele></trkpt>
    <trkpt lat="49.242531" lon="19.103236"><ele>1177</ele></trkpt>
    <trkpt lat="49.242737" lon="19.104219"><ele>1170</ele></trkpt>
    <trkpt lat="49.242813" lon="19.104791"><ele>1176</ele></trkpt>
    <trkpt lat="49.242796" lon="19.105516"><ele>1185</ele></trkpt>
    <trkpt lat="49.242826" lon="19.105715"><ele>1188</ele></trkpt>
    <trkpt lat="49.242752" lon="19.106417"><ele>1201</ele></trkpt>
    <trkpt lat="49.242780" lon="19.106541"><ele>1201</ele></trkpt>
    <trkpt lat="49.242944" lon="19.106869"><ele>1203</ele></trkpt>
    <trkpt lat="49.243019" lon="19.107128"><ele>1203</ele></trkpt>
    <trkpt lat="49.242558" lon="19.107161"><ele>1214</ele></trkpt>
    <trkpt lat="49.242502" lon="19.107118"><ele>1217</ele></trkpt>
    <trkpt lat="49.242402" lon="19.106898"><ele>1224</ele></trkpt>
    <trkpt lat="49.242313" lon="19.106812"><ele>1229</ele></trkpt>
    <trkpt lat="49.242119" lon="19.106727"><ele>1237</ele></trkpt>
    <trkpt lat="49.241944" lon="19.106787"><ele>1244</ele></trkpt>
    <trkpt lat="49.241733" lon="19.106684"><ele>1253</ele></trkpt>
    <trkpt lat="49.241415" lon="19.106751"><ele>1264</ele></trkpt>
    <trkpt lat="49.241173" lon="19.106703"><ele>1271</ele></trkpt>
    <trkpt lat="49.240790" lon="19.106416"><ele>1286</ele></trkpt>
    <trkpt lat="49.240532" lon="19.106362"><ele>1297</ele></trkpt>
    <trkpt lat="49.240164" lon="19.106127"><ele>1314</ele></trkpt>
    <trkpt lat="49.239855" lon="19.106079"><ele>1327</ele></trkpt>
    <trkpt lat="49.239590" lon="19.105867"><ele>1339</ele></trkpt>
    <trkpt lat="49.239434" lon="19.105868"><ele>1345</ele></trkpt>
    <trkpt lat="49.239079" lon="19.105643"><ele>1358</ele></trkpt>
    <trkpt lat="49.238770" lon="19.105556"><ele>1368</ele></trkpt>
    <trkpt lat="49.238553" lon="19.105413"><ele>1374</ele></trkpt>
    <trkpt lat="49.238339" lon="19.105343"><ele>1382</ele></trkpt>
    <trkpt lat="49.238128" lon="19.105238"><ele>1385</ele></trkpt>
    <trkpt lat="49.237879" lon="19.104734"><ele>1385</ele></trkpt>
    <trkpt lat="49.237766" lon="19.104618"><ele>1386</ele></trkpt>
    <trkpt lat="49.237632" lon="19.104521"><ele>1388</ele></trkpt>
    <trkpt lat="49.237386" lon="19.104458"><ele>1393</ele></trkpt>
    <trkpt lat="49.237269" lon="19.104359"><ele>1397</ele></trkpt>
    <trkpt lat="49.237122" lon="19.104322"><ele>1400</ele></trkpt>
    <trkpt lat="49.236927" lon="19.104109"><ele>1408</ele></trkpt>
    <trkpt lat="49.236819" lon="19.104053"><ele>1406</ele></trkpt>
    <trkpt lat="49.236328" lon="19.103993"><ele>1402</ele></trkpt>
    <trkpt lat="49.236081" lon="19.104134"><ele>1403</ele></trkpt>
    <trkpt lat="49.235450" lon="19.104248"><ele>1427</ele></trkpt>
    <trkpt lat="49.235066" lon="19.104124"><ele>1442</ele></trkpt>
    <trkpt lat="49.234755" lon="19.103909"><ele>1457</ele></trkpt>
    <trkpt lat="49.234581" lon="19.103695"><ele>1467</ele></trkpt>
    <trkpt lat="49.234480" lon="19.103465"><ele>1475</ele></trkpt>
    <trkpt lat="49.234315" lon="19.103370"><ele>1485</ele></trkpt>
    <trkpt lat="49.234169" lon="19.103372"><ele>1493</ele></trkpt>
    <trkpt lat="49.234137" lon="19.103036"><ele>1503</ele></trkpt>
    <trkpt lat="49.234043" lon="19.102849"><ele>1511</ele></trkpt>
    <trkpt lat="49.234008" lon="19.102693"><ele>1513</ele></trkpt>
    <trkpt lat="49.233824" lon="19.102458"><ele>1525</ele></trkpt>
    <trkpt lat="49.233511" lon="19.102308"><ele>1538</ele></trkpt>
    <trkpt lat="49.233550" lon="19.102107"><ele>1545</ele></trkpt>
    <trkpt lat="49.233461" lon="19.102056"><ele>1547</ele></trkpt>
    <trkpt lat="49.233463" lon="19.101966"><ele>1551</ele></trkpt>
    <trkpt lat="49.233167" lon="19.101716"><ele>1565</ele></trkpt>
    <trkpt lat="49.232935" lon="19.101455"><ele>1568</ele></trkpt>
    <trkpt lat="49.232873" lon="19.101309"><ele>1566</ele></trkpt>
    <trkpt lat="49.232689" lon="19.101242"><ele>1564</ele></trkpt>
    <trkpt lat="49.232446" lon="19.101054"><ele>1566</ele></trkpt>
    <trkpt lat="49.232242" lon="19.100802"><ele>1571</ele></trkpt>
    <trkpt lat="49.232232" lon="19.100667"><ele>1572</ele></trkpt>
    <trkpt lat="49.232128" lon="19.100501"><ele>1575</ele></trkpt>
    <trkpt lat="49.231891" lon="19.100373"><ele>1584</ele></trkpt>
    <trkpt lat="49.231860" lon="19.100254"><ele>1587</ele></trkpt>
    <trkpt lat="49.231839" lon="19.099847"><ele>1589</ele></trkpt>
    <trkpt lat="49.231820" lon="19.099774"><ele>1589</ele></trkpt>
    <trkpt lat="49.231748" lon="19.099695"><ele>1591</ele></trkpt>
    <trkpt lat="49.231748" lon="19.099440"><ele>1590</ele></trkpt>
    <trkpt lat="49.231719" lon="19.099345"><ele>1591</ele></trkpt>
    <trkpt lat="49.231575" lon="19.099259"><ele>1590</ele></trkpt>
    <trkpt lat="49.231508" lon="19.099045"><ele>1587</ele></trkpt>
    <trkpt lat="49.231532" lon="19.098768"><ele>1582</ele></trkpt>
    <trkpt lat="49.231593" lon="19.098709"><ele>1581</ele></trkpt>
    <trkpt lat="49.231532" lon="19.098768"><ele>1582</ele></trkpt>
    <trkpt lat="49.231508" lon="19.099045"><ele>1587</ele></trkpt>
    <trkpt lat="49.231575" lon="19.099259"><ele>1590</ele></trkpt>
    <trkpt lat="49.231719" lon="19.099345"><ele>1591</ele></trkpt>
    <trkpt lat="49.231748" lon="19.099440"><ele>1590</ele></trkpt>
    <trkpt lat="49.231748" lon="19.099695"><ele>1591</ele></trkpt>
    <trkpt lat="49.231820" lon="19.099774"><ele>1589</ele></trkpt>
    <trkpt lat="49.231839" lon="19.099847"><ele>1589</ele></trkpt>
    <trkpt lat="49.231860" lon="19.100254"><ele>1587</ele></trkpt>
    <trkpt lat="49.231891" lon="19.100373"><ele>1584</ele></trkpt>
    <trkpt lat="49.232128" lon="19.100501"><ele>1575</ele></trkpt>
    <trkpt lat="49.232232" lon="19.100667"><ele>1572</ele></trkpt>
    <trkpt lat="49.232242" lon="19.100802"><ele>1571</ele></trkpt>
    <trkpt lat="49.232446" lon="19.101054"><ele>1566</ele></trkpt>
    <trkpt lat="49.232689" lon="19.101242"><ele>1564</ele></trkpt>
    <trkpt lat="49.232873" lon="19.101309"><ele>1566</ele></trkpt>
    <trkpt lat="49.232935" lon="19.101455"><ele>1568</ele></trkpt>
    <trkpt lat="49.233167" lon="19.101716"><ele>1565</ele></trkpt>
    <trkpt lat="49.233463" lon="19.101966"><ele>1551</ele></trkpt>
    <trkpt lat="49.233461" lon="19.102056"><ele>1547</ele></trkpt>
    <trkpt lat="49.233550" lon="19.102107"><ele>1545</ele></trkpt>
    <trkpt lat="49.233511" lon="19.102308"><ele>1538</ele></trkpt>
    <trkpt lat="49.233824" lon="19.102458"><ele>1525</ele></trkpt>
    <trkpt lat="49.234008" lon="19.102693"><ele>1513</ele></trkpt>
    <trkpt lat="49.234043" lon="19.102849"><ele>1511</ele></trkpt>
    <trkpt lat="49.234137" lon="19.103036"><ele>1503</ele></trkpt>
    <trkpt lat="49.234169" lon="19.103372"><ele>1493</ele></trkpt>
    <trkpt lat="49.234315" lon="19.103370"><ele>1485</ele></trkpt>
    <trkpt lat="49.234480" lon="19.103465"><ele>1475</ele></trkpt>
    <trkpt lat="49.234581" lon="19.103695"><ele>1467</ele></trkpt>
    <trkpt lat="49.234755" lon="19.103909"><ele>1457</ele></trkpt>
    <trkpt lat="49.235066" lon="19.104124"><ele>1442</ele></trkpt>
    <trkpt lat="49.235450" lon="19.104248"><ele>1427</ele></trkpt>
    <trkpt lat="49.236081" lon="19.104134"><ele>1403</ele></trkpt>
    <trkpt lat="49.236328" lon="19.103993"><ele>1402</ele></trkpt>
    <trkpt lat="49.236819" lon="19.104053"><ele>1406</ele></trkpt>
    <trkpt lat="49.236927" lon="19.104109"><ele>1408</ele></trkpt>
    <trkpt lat="49.237122" lon="19.104322"><ele>1400</ele></trkpt>
    <trkpt lat="49.237269" lon="19.104359"><ele>1397</ele></trkpt>
    <trkpt lat="49.237386" lon="19.104458"><ele>1393</ele></trkpt>
    <trkpt lat="49.237632" lon="19.104521"><ele>1388</ele></trkpt>
    <trkpt lat="49.237766" lon="19.104618"><ele>1386</ele></trkpt>
    <trkpt lat="49.237879" lon="19.104734"><ele>1385</ele></trkpt>
    <trkpt lat="49.238128" lon="19.105238"><ele>1385</ele></trkpt>
    <trkpt lat="49.238339" lon="19.105343"><ele>1382</ele></trkpt>
    <trkpt lat="49.238553" lon="19.105413"><ele>1374</ele></trkpt>
    <trkpt lat="49.238770" lon="19.105556"><ele>1368</ele></trkpt>
    <trkpt lat="49.239079" lon="19.105643"><ele>1358</ele></trkpt>
    <trkpt lat="49.239434" lon="19.105868"><ele>1345</ele></trkpt>
    <trkpt lat="49.239590" lon="19.105867"><ele>1339</ele></trkpt>
    <trkpt lat="49.239855" lon="19.106079"><ele>1327</ele></trkpt>
    <trkpt lat="49.240164" lon="19.106127"><ele>1314</ele></trkpt>
    <trkpt lat="49.240532" lon="19.106362"><ele>1297</ele></trkpt>
    <trkpt lat="49.240790" lon="19.106416"><ele>1286</ele></trkpt>
    <trkpt lat="49.241173" lon="19.106703"><ele>1271</ele></trkpt>
    <trkpt lat="49.241415" lon="19.106751"><ele>1264</ele></trkpt>
    <trkpt lat="49.241733" lon="19.106684"><ele>1253</ele></trkpt>
    <trkpt lat="49.241944" lon="19.106787"><ele>1244</ele></trkpt>
    <trkpt lat="49.242119" lon="19.106727"><ele>1237</ele></trkpt>
    <trkpt lat="49.242313" lon="19.106812"><ele>1229</ele></trkpt>
    <trkpt lat="49.242402" lon="19.106898"><ele>1224</ele></trkpt>
    <trkpt lat="49.242502" lon="19.107118"><ele>1217</ele></trkpt>
    <trkpt lat="49.242558" lon="19.107161"><ele>1214</ele></trkpt>
    <trkpt lat="49.243019" lon="19.107128"><ele>1203</ele></trkpt>
    <trkpt lat="49.242944" lon="19.106869"><ele>1203</ele></trkpt>
    <trkpt lat="49.242780" lon="19.106541"><ele>1201</ele></trkpt>
    <trkpt lat="49.242752" lon="19.106417"><ele>1201</ele></trkpt>
    <trkpt lat="49.242826" lon="19.105715"><ele>1188</ele></trkpt>
    <trkpt lat="49.242796" lon="19.105516"><ele>1185</ele></trkpt>
    <trkpt lat="49.242813" lon="19.104791"><ele>1176</ele></trkpt>
    <trkpt lat="49.242737" lon="19.104219"><ele>1170</ele></trkpt>
    <trkpt lat="49.242531" lon="19.103236"><ele>1177</ele></trkpt>
    <trkpt lat="49.242315" lon="19.102593"><ele>1179</ele></trkpt>
    <trkpt lat="49.242191" lon="19.101735"><ele>1177</ele></trkpt>
    <trkpt lat="49.242067" lon="19.101159"><ele>1179</ele></trkpt>
    <trkpt lat="49.241938" lon="19.100877"><ele>1180</ele></trkpt>
    <trkpt lat="49.241590" lon="19.100324"><ele>1174</ele></trkpt>
    <trkpt lat="49.241366" lon="19.099595"><ele>1165</ele></trkpt>
    <trkpt lat="49.241266" lon="19.099155"><ele>1162</ele></trkpt>
    <trkpt lat="49.241172" lon="19.098978"><ele>1160</ele></trkpt>
    <trkpt lat="49.241099" lon="19.098676"><ele>1156</ele></trkpt>
    <trkpt lat="49.241079" lon="19.098310"><ele>1152</ele></trkpt>
    <trkpt lat="49.241003" lon="19.097953"><ele>1152</ele></trkpt>
    <trkpt lat="49.240617" lon="19.097298"><ele>1141</ele></trkpt>
    <trkpt lat="49.240559" lon="19.097071"><ele>1136</ele></trkpt>
    <trkpt lat="49.240559" lon="19.096751"><ele>1132</ele></trkpt>
    <trkpt lat="49.240448" lon="19.096451"><ele>1133</ele></trkpt>
    <trkpt lat="49.240373" lon="19.095845"><ele>1127</ele></trkpt>
    <trkpt lat="49.240468" lon="19.094791"><ele>1113</ele></trkpt>
    <trkpt lat="49.240443" lon="19.094313"><ele>1108</ele></trkpt>
    <trkpt lat="49.240496" lon="19.094120"><ele>1105</ele></trkpt>
    <trkpt lat="49.240584" lon="19.093395"><ele>1098</ele></trkpt>
    <trkpt lat="49.240769" lon="19.092997"><ele>1097</ele></trkpt>
    <trkpt lat="49.241058" lon="19.092776"><ele>1089</ele></trkpt>
    <trkpt lat="49.241100" lon="19.092706"><ele>1089</ele></trkpt>
    <trkpt lat="49.241514" lon="19.092557"><ele>1079</ele></trkpt>
    <trkpt lat="49.241670" lon="19.092660"><ele>1077</ele></trkpt>
    <trkpt lat="49.241875" lon="19.092561"><ele>1068</ele></trkpt>
    <trkpt lat="49.241969" lon="19.092696"><ele>1062</ele></trkpt>
    <trkpt lat="49.242162" lon="19.092760"><ele>1047</ele></trkpt>
    <trkpt lat="49.242217" lon="19.092821"><ele>1043</ele></trkpt>
    <trkpt lat="49.242322" lon="19.092771"><ele>1046</ele></trkpt>
    <trkpt lat="49.242407" lon="19.092504"><ele>1041</ele></trkpt>
    <trkpt lat="49.242459" lon="19.092012"><ele>1028</ele></trkpt>
    <trkpt lat="49.242599" lon="19.091575"><ele>1018</ele></trkpt>
    <trkpt lat="49.242860" lon="19.091242"><ele>1011</ele></trkpt>
    <trkpt lat="49.243171" lon="19.091167"><ele>1004</ele></trkpt>
    <trkpt lat="49.243580" lon="19.090881"><ele>991</ele></trkpt>
    <trkpt lat="49.244026" lon="19.090071"><ele>968</ele></trkpt>
    <trkpt lat="49.244043" lon="19.089791"><ele>964</ele></trkpt>
    <trkpt lat="49.244103" lon="19.089731"><ele>962</ele></trkpt>
    <trkpt lat="49.244187" lon="19.089480"><ele>957</ele></trkpt>
    <trkpt lat="49.244371" lon="19.089293"><ele>958</ele></trkpt>
    <trkpt lat="49.244435" lon="19.089167"><ele>957</ele></trkpt>
    <trkpt lat="49.244390" lon="19.088740"><ele>954</ele></trkpt>
    <trkpt lat="49.244194" lon="19.088056"><ele>942</ele></trkpt>
    <trkpt lat="49.243901" lon="19.087205"><ele>941</ele></trkpt>
    <trkpt lat="49.243783" lon="19.087004"><ele>941</ele></trkpt>
    <trkpt lat="49.243676" lon="19.087029"><ele>939</ele></trkpt>
    <trkpt lat="49.243579" lon="19.086890"><ele>938</ele></trkpt>
    <trkpt lat="49.243095" lon="19.086572"><ele>938</ele></trkpt>
    <trkpt lat="49.242654" lon="19.085551"><ele>930</ele></trkpt>
    <trkpt lat="49.242576" lon="19.085480"><ele>929</ele></trkpt>
    <trkpt lat="49.242510" lon="19.085339"><ele>925</ele></trkpt>
    <trkpt lat="49.242494" lon="19.085177"><ele>924</ele></trkpt>
    <trkpt lat="49.242073" lon="19.084809"><ele>918</ele></trkpt>
    <trkpt lat="49.241900" lon="19.084551"><ele>913</ele></trkpt>
    <trkpt lat="49.241349" lon="19.084304"><ele>899</ele></trkpt>
    <trkpt lat="49.241143" lon="19.084132"><ele>892</ele></trkpt>
    <trkpt lat="49.240890" lon="19.083716"><ele>883</ele></trkpt>
    <trkpt lat="49.240743" lon="19.083546"><ele>878</ele></trkpt>
    <trkpt lat="49.240820" lon="19.083136"><ele>867</ele></trkpt>
    <trkpt lat="49.240931" lon="19.083001"><ele>870</ele></trkpt>
    <trkpt lat="49.240982" lon="19.082809"><ele>869</ele></trkpt>
    <trkpt lat="49.240978" lon="19.082686"><ele>868</ele></trkpt>
    <trkpt lat="49.240908" lon="19.082455"><ele>865</ele></trkpt>
    <trkpt lat="49.240960" lon="19.082281"><ele>871</ele></trkpt>
    <trkpt lat="49.240900" lon="19.082077"><ele>872</ele></trkpt>
    <trkpt lat="49.240920" lon="19.081880"><ele>872</ele></trkpt>
    <trkpt lat="49.240900" lon="19.081584"><ele>863</ele></trkpt>
    <trkpt lat="49.240848" lon="19.081364"><ele>853</ele></trkpt>
    <trkpt lat="49.240946" lon="19.081119"><ele>841</ele></trkpt>
    <trkpt lat="49.240971" lon="19.080973"><ele>831</ele></trkpt>
    <trkpt lat="49.240985" lon="19.080740"><ele>818</ele></trkpt>
    <trkpt lat="49.240941" lon="19.080387"><ele>810</ele></trkpt>
    <trkpt lat="49.240952" lon="19.080257"><ele>808</ele></trkpt>
    <trkpt lat="49.241020" lon="19.080042"><ele>803</ele></trkpt>
    <trkpt lat="49.241141" lon="19.079835"><ele>797</ele></trkpt>
    <trkpt lat="49.241125" lon="19.079669"><ele>792</ele></trkpt>
    <trkpt lat="49.241068" lon="19.079524"><ele>790</ele></trkpt>
    <trkpt lat="49.241107" lon="19.079430"><ele>784</ele></trkpt>
    <trkpt lat="49.241059" lon="19.079345"><ele>785</ele></trkpt>
    <trkpt lat="49.240925" lon="19.078826"><ele>774</ele></trkpt>
    <trkpt lat="49.241024" lon="19.078392"><ele>766</ele></trkpt>
    <trkpt lat="49.241118" lon="19.078246"><ele>760</ele></trkpt>
    <trkpt lat="49.241113" lon="19.078156"><ele>758</ele></trkpt>
    <trkpt lat="49.241243" lon="19.077772"><ele>748</ele></trkpt>
    <trkpt lat="49.241284" lon="19.077724"><ele>746</ele></trkpt>
    <trkpt lat="49.241355" lon="19.077190"><ele>734</ele></trkpt>
    <trkpt lat="49.241592" lon="19.076746"><ele>729</ele></trkpt>
    <trkpt lat="49.241815" lon="19.076085"><ele>723</ele></trkpt>
    <trkpt lat="49.241923" lon="19.075893"><ele>722</ele></trkpt>
    <trkpt lat="49.241806" lon="19.075672"><ele>722</ele></trkpt>
    <trkpt lat="49.241731" lon="19.075697"><ele>723</ele></trkpt>
    <trkpt lat="49.241720" lon="19.075488"><ele>722</ele></trkpt>
    <trkpt lat="49.241686" lon="19.075430"><ele>722</ele></trkpt>
    <trkpt lat="49.241703" lon="19.075302"><ele>721</ele></trkpt>
    <trkpt lat="49.241670" lon="19.075034"><ele>720</ele></trkpt>
    <trkpt lat="49.241626" lon="19.074867"><ele>719</ele></trkpt>
    <trkpt lat="49.241601" lon="19.074824"><ele>719</ele></trkpt>
    <trkpt lat="49.241346" lon="19.074772"><ele>724</ele></trkpt>
    <trkpt lat="49.241257" lon="19.074600"><ele>732</ele></trkpt>
    <trkpt lat="49.240988" lon="19.073347"><ele>742</ele></trkpt>
    <trkpt lat="49.240917" lon="19.073226"><ele>744</ele></trkpt>
    <trkpt lat="49.240639" lon="19.073013"><ele>748</ele></trkpt>
    <trkpt lat="49.240431" lon="19.072933"><ele>747</ele></trkpt>
    <trkpt lat="49.240114" lon="19.072879"><ele>745</ele></trkpt>
    <trkpt lat="49.239767" lon="19.073042"><ele>745</ele></trkpt>
    <trkpt lat="49.239481" lon="19.073105"><ele>744</ele></trkpt>
    <trkpt lat="49.239296" lon="19.073056"><ele>743</ele></trkpt>
    <trkpt lat="49.239112" lon="19.072889"><ele>742</ele></trkpt>
    <trkpt lat="49.239040" lon="19.072582"><ele>742</ele></trkpt>
    <trkpt lat="49.239033" lon="19.072400"><ele>741</ele></trkpt>
    <trkpt lat="49.239056" lon="19.072330"><ele>741</ele></trkpt>
    <trkpt lat="49.239082" lon="19.072295"><ele>740</ele></trkpt>
    <trkpt lat="49.239229" lon="19.072292"><ele>740</ele></trkpt>
    <trkpt lat="49.239436" lon="19.072424"><ele>742</ele></trkpt>
    <trkpt lat="49.239469" lon="19.072394"><ele>741</ele></trkpt>
    <trkpt lat="49.239372" lon="19.072156"><ele>737</ele></trkpt>
    <trkpt lat="49.239249" lon="19.072000"><ele>734</ele></trkpt>
    <trkpt lat="49.239030" lon="19.071842"><ele>730</ele></trkpt>
    <trkpt lat="49.238885" lon="19.071834"><ele>728</ele></trkpt>
    <trkpt lat="49.238697" lon="19.071917"><ele>722</ele></trkpt>
    <trkpt lat="49.238655" lon="19.071885"><ele>719</ele></trkpt>
    <trkpt lat="49.238428" lon="19.071019"><ele>700</ele></trkpt>
    <trkpt lat="49.238224" lon="19.070600"><ele>698</ele></trkpt>
    <trkpt lat="49.238086" lon="19.070455"><ele>696</ele></trkpt>
    <trkpt lat="49.237783" lon="19.070262"><ele>687</ele></trkpt>
    <trkpt lat="49.237613" lon="19.070085"><ele>689</ele></trkpt>
    <trkpt lat="49.237499" lon="19.069947"><ele>687</ele></trkpt>
    <trkpt lat="49.237472" lon="19.069768"><ele>686</ele></trkpt>
    <trkpt lat="49.237098" lon="19.069380"><ele>676</ele></trkpt>
    <trkpt lat="49.236785" lon="19.069157"><ele>671</ele></trkpt>
    <trkpt lat="49.236461" lon="19.068613"><ele>666</ele></trkpt>
    <trkpt lat="49.236220" lon="19.068413"><ele>662</ele></trkpt>
    <trkpt lat="49.236063" lon="19.068167"><ele>659</ele></trkpt>
    <trkpt lat="49.235795" lon="19.067599"><ele>655</ele></trkpt>
    <trkpt lat="49.235646" lon="19.067127"><ele>653</ele></trkpt>
    <trkpt lat="49.235497" lon="19.066788"><ele>652</ele></trkpt>
    <trkpt lat="49.235150" lon="19.066240"><ele>649</ele></trkpt>
    <trkpt lat="49.234801" lon="19.065839"><ele>649</ele></trkpt>
    <trkpt lat="49.234543" lon="19.065675"><ele>646</ele></trkpt>
    <trkpt lat="49.234454" lon="19.065664"><ele>645</ele></trkpt>
    <trkpt lat="49.234393" lon="19.065454"><ele>644</ele></trkpt>
    <trkpt lat="49.234276" lon="19.065249"><ele>644</ele></trkpt>
    <trkpt lat="49.233827" lon="19.064924"><ele>641</ele></trkpt>
    <trkpt lat="49.233048" lon="19.064146"><ele>638</ele></trkpt>
    <trkpt lat="49.232978" lon="19.064033"><ele>636</ele></trkpt>
  </trkseg></trk>
</gpx>
