<?xml version="1.0" encoding="UTF-8"?>
<gpx version="1.1" creator="MounTour (OpenStreetMap)" xmlns="http://www.topografix.com/GPX/1/1">
  <metadata><name>Veľká Homoľa od Zochovej chaty</name><copyright author="OpenStreetMap contributors"><license>https://opendatacommons.org/licenses/odbl/</license></copyright></metadata>
  <trk><name>Veľká Homoľa od Zochovej chaty</name><trkseg>
    <trkpt lat="48.380881" lon="17.279383"><ele>453</ele></trkpt>
    <trkpt lat="48.380775" lon="17.279290"><ele>455</ele></trkpt>
    <trkpt lat="48.381106" lon="17.278153"><ele>458</ele></trkpt>
    <trkpt lat="48.381016" lon="17.278003"><ele>460</ele></trkpt>
    <trkpt lat="48.380968" lon="17.277775"><ele>463</ele></trkpt>
    <trkpt lat="48.381015" lon="17.277488"><ele>463</ele></trkpt>
    <trkpt lat="48.380854" lon="17.277270"><ele>466</ele></trkpt>
    <trkpt lat="48.380740" lon="17.277170"><ele>461</ele></trkpt>
    <trkpt lat="48.380194" lon="17.277038"><ele>441</ele></trkpt>
    <trkpt lat="48.380132" lon="17.277065"><ele>441</ele></trkpt>
    <trkpt lat="48.379961" lon="17.276973"><ele>441</ele></trkpt>
    <trkpt lat="48.379487" lon="17.276915"><ele>444</ele></trkpt>
    <trkpt lat="48.378440" lon="17.276616"><ele>454</ele></trkpt>
    <trkpt lat="48.377122" lon="17.276041"><ele>480</ele></trkpt>
    <trkpt lat="48.376854" lon="17.275874"><ele>487</ele></trkpt>
    <trkpt lat="48.376346" lon="17.275333"><ele>497</ele></trkpt>
    <trkpt lat="48.376116" lon="17.275206"><ele>500</ele></trkpt>
    <trkpt lat="48.375258" lon="17.274551"><ele>505</ele></trkpt>
    <trkpt lat="48.374764" lon="17.274360"><ele>511</ele></trkpt>
    <trkpt lat="48.374632" lon="17.274100"><ele>509</ele></trkpt>
    <trkpt lat="48.374577" lon="17.273829"><ele>507</ele></trkpt>
    <trkpt lat="48.374358" lon="17.273547"><ele>511</ele></trkpt>
    <trkpt lat="48.374133" lon="17.273071"><ele>524</ele></trkpt>
    <trkpt lat="48.373872" lon="17.273484"><ele>519</ele></trkpt>
    <trkpt lat="48.373623" lon="17.273180"><ele>528</ele></trkpt>
    <trkpt lat="48.373319" lon="17.273212"><ele>538</ele></trkpt>
    <trkpt lat="48.372999" lon="17.273153"><ele>540</ele></trkpt>
    <trkpt lat="48.372052" lon="17.272751"><ele>546</ele></trkpt>
    <trkpt lat="48.371896" lon="17.272726"><ele>546</ele></trkpt>
    <trkpt lat="48.371117" lon="17.272843"><ele>563</ele></trkpt>
    <trkpt lat="48.369536" lon="17.272950"><ele>588</ele></trkpt>
    <trkpt lat="48.369386" lon="17.272539"><ele>594</ele></trkpt>
    <trkpt lat="48.369231" lon="17.271981"><ele>598</ele></trkpt>
    <trkpt lat="48.369039" lon="17.271519"><ele>596</ele></trkpt>
    <trkpt lat="48.368940" lon="17.271357"><ele>596</ele></trkpt>
    <trkpt lat="48.368420" lon="17.270854"><ele>601</ele></trkpt>
    <trkpt lat="48.368175" lon="17.270555"><ele>610</ele></trkpt>
    <trkpt lat="48.368083" lon="17.270322"><ele>614</ele></trkpt>
    <trkpt lat="48.367848" lon="17.269403"><ele>627</ele></trkpt>
    <trkpt lat="48.367697" lon="17.268514"><ele>637</ele></trkpt>
    <trkpt lat="48.367565" lon="17.268078"><ele>640</ele></trkpt>
    <trkpt lat="48.367137" lon="17.267255"><ele>643</ele></trkpt>
    <trkpt lat="48.366655" lon="17.266675"><ele>649</ele></trkpt>
    <trkpt lat="48.366138" lon="17.265708"><ele>653</ele></trkpt>
    <trkpt lat="48.365668" lon="17.264948"><ele>657</ele></trkpt>
    <trkpt lat="48.365106" lon="17.263269"><ele>664</ele></trkpt>
    <trkpt lat="48.364705" lon="17.262782"><ele>672</ele></trkpt>
    <trkpt lat="48.363721" lon="17.261729"><ele>705</ele></trkpt>
    <trkpt lat="48.363463" lon="17.261335"><ele>714</ele></trkpt>
    <trkpt lat="48.363272" lon="17.261128"><ele>716</ele></trkpt>
    <trkpt lat="48.363463" lon="17.261335"><ele>714</ele></trkpt>
    <trkpt lat="48.363721" lon="17.261729"><ele>705</ele></trkpt>
    <trkpt lat="48.364705" lon="17.262782"><ele>672</ele></trkpt>
    <trkpt lat="48.365106" lon="17.263269"><ele>664</ele></trkpt>
    <trkpt lat="48.365668" lon="17.264948"><ele>657</ele></trkpt>
    <trkpt lat="48.366138" lon="17.265708"><ele>653</ele></trkpt>
    <trkpt lat="48.366655" lon="17.266675"><ele>649</ele></trkpt>
    <trkpt lat="48.367137" lon="17.267255"><ele>643</ele></trkpt>
    <trkpt lat="48.367565" lon="17.268078"><ele>640</ele></trkpt>
    <trkpt lat="48.367697" lon="17.268514"><ele>637</ele></trkpt>
    <trkpt lat="48.367848" lon="17.269403"><ele>627</ele></trkpt>
    <trkpt lat="48.368083" lon="17.270322"><ele>614</ele></trkpt>
    <trkpt lat="48.368175" lon="17.270555"><ele>610</ele></trkpt>
    <trkpt lat="48.368420" lon="17.270854"><ele>601</ele></trkpt>
    <trkpt lat="48.368940" lon="17.271357"><ele>596</ele></trkpt>
    <trkpt lat="48.369039" lon="17.271519"><ele>596</ele></trkpt>
    <trkpt lat="48.369231" lon="17.271981"><ele>598</ele></trkpt>
    <trkpt lat="48.369386" lon="17.272539"><ele>594</ele></trkpt>
    <trkpt lat="48.369536" lon="17.272950"><ele>588</ele></trkpt>
    <trkpt lat="48.371117" lon="17.272843"><ele>563</ele></trkpt>
    <trkpt lat="48.371896" lon="17.272726"><ele>546</ele></trkpt>
    <trkpt lat="48.372052" lon="17.272751"><ele>546</ele></trkpt>
    <trkpt lat="48.372999" lon="17.273153"><ele>540</ele></trkpt>
    <trkpt lat="48.373319" lon="17.273212"><ele>538</ele></trkpt>
    <trkpt lat="48.373623" lon="17.273180"><ele>528</ele></trkpt>
    <trkpt lat="48.373872" lon="17.273484"><ele>519</ele></trkpt>
    <trkpt lat="48.374133" lon="17.273071"><ele>524</ele></trkpt>
    <trkpt lat="48.374358" lon="17.273547"><ele>511</ele></trkpt>
    <trkpt lat="48.374577" lon="17.273829"><ele>507</ele></trkpt>
    <trkpt lat="48.374632" lon="17.274100"><ele>509</ele></trkpt>
    <trkpt lat="48.374764" lon="17.274360"><ele>511</ele></trkpt>
    <trkpt lat="48.375258" lon="17.274551"><ele>505</ele></trkpt>
    <trkpt lat="48.376116" lon="17.275206"><ele>500</ele></trkpt>
    <trkpt lat="48.376346" lon="17.275333"><ele>497</ele></trkpt>
    <trkpt lat="48.376854" lon="17.275874"><ele>487</ele></trkpt>
    <trkpt lat="48.377122" lon="17.276041"><ele>480</ele></trkpt>
    <trkpt lat="48.378440" lon="17.276616"><ele>454</ele></trkpt>
    <trkpt lat="48.379487" lon="17.276915"><ele>444</ele></trkpt>
    <trkpt lat="48.379961" lon="17.276973"><ele>441</ele></trkpt>
    <trkpt lat="48.380132" lon="17.277065"><ele>441</ele></trkpt>
    <trkpt lat="48.380194" lon="17.277038"><ele>441</ele></trkpt>
    <trkpt lat="48.380740" lon="17.277170"><ele>461</ele></trkpt>
    <trkpt lat="48.380854" lon="17.277270"><ele>466</ele></trkpt>
    <trkpt lat="48.381015" lon="17.277488"><ele>463</ele></trkpt>
    <trkpt lat="48.380968" lon="17.277775"><ele>463</ele></trkpt>
    <trkpt lat="48.381016" lon="17.278003"><ele>460</ele></trkpt>
    <trkpt lat="48.381106" lon="17.278153"><ele>458</ele></trkpt>
    <trkpt lat="48.380775" lon="17.279290"><ele>455</ele></trkpt>
    <trkpt lat="48.380881" lon="17.279383"><ele>453</ele></trkpt>
  </trkseg></trk>
</gpx>
