<?xml version="1.0" encoding="UTF-8"?>
<gpx version="1.1" creator="MounTour (OpenStreetMap)" xmlns="http://www.topografix.com/GPX/1/1">
  <metadata><name>Veľká Knola</name><copyright author="OpenStreetMap contributors"><license>https://opendatacommons.org/licenses/odbl/</license></copyright></metadata>
  <trk><name>Veľká Knola</name><trkseg>
    <trkpt lat="48.857655" lon="20.514965"><ele>1025</ele></trkpt>
    <trkpt lat="48.857662" lon="20.514586"><ele>1028</ele></trkpt>
    <trkpt lat="48.857716" lon="20.514240"><ele>1031</ele></trkpt>
    <trkpt lat="48.858271" lon="20.512958"><ele>1034</ele></trkpt>
    <trkpt lat="48.858486" lon="20.512215"><ele>1036</ele></trkpt>
    <trkpt lat="48.858493" lon="20.511383"><ele>1038</ele></trkpt>
    <trkpt lat="48.858532" lon="20.510927"><ele>1039</ele></trkpt>
    <trkpt lat="48.858648" lon="20.509970"><ele>1042</ele></trkpt>
    <trkpt lat="48.858701" lon="20.509763"><ele>1044</ele></trkpt>
    <trkpt lat="48.858900" lon="20.509390"><ele>1049</ele></trkpt>
    <trkpt lat="48.859299" lon="20.508841"><ele>1054</ele></trkpt>
    <trkpt lat="48.859544" lon="20.508604"><ele>1056</ele></trkpt>
    <trkpt lat="48.859850" lon="20.508192"><ele>1058</ele></trkpt>
    <trkpt lat="48.860122" lon="20.507899"><ele>1061</ele></trkpt>
    <trkpt lat="48.860176" lon="20.507778"><ele>1061</ele></trkpt>
    <trkpt lat="48.860464" lon="20.506531"><ele>1058</ele></trkpt>
    <trkpt lat="48.860762" lon="20.505957"><ele>1059</ele></trkpt>
    <trkpt lat="48.860838" lon="20.505692"><ele>1060</ele></trkpt>
    <trkpt lat="48.860986" lon="20.504778"><ele>1063</ele></trkpt>
    <trkpt lat="48.861094" lon="20.504512"><ele>1065</ele></trkpt>
    <trkpt lat="48.861288" lon="20.504235"><ele>1070</ele></trkpt>
    <trkpt lat="48.861795" lon="20.503728"><ele>1070</ele></trkpt>
    <trkpt lat="48.862158" lon="20.503211"><ele>1068</ele></trkpt>
    <trkpt lat="48.862567" lon="20.502787"><ele>1065</ele></trkpt>
    <trkpt lat="48.862671" lon="20.502626"><ele>1065</ele></trkpt>
    <trkpt lat="48.863142" lon="20.501660"><ele>1068</ele></trkpt>
    <trkpt lat="48.863259" lon="20.501323"><ele>1070</ele></trkpt>
    <trkpt lat="48.863331" lon="20.500727"><ele>1073</ele></trkpt>
    <trkpt lat="48.863437" lon="20.500327"><ele>1074</ele></trkpt>
    <trkpt lat="48.863460" lon="20.500134"><ele>1074</ele></trkpt>
    <trkpt lat="48.863451" lon="20.499394"><ele>1075</ele></trkpt>
    <trkpt lat="48.863347" lon="20.498810"><ele>1077</ele></trkpt>
    <trkpt lat="48.863169" lon="20.498288"><ele>1080</ele></trkpt>
    <trkpt lat="48.863115" lon="20.498028"><ele>1083</ele></trkpt>
    <trkpt lat="48.863127" lon="20.497794"><ele>1086</ele></trkpt>
    <trkpt lat="48.863296" lon="20.496779"><ele>1099</ele></trkpt>
    <trkpt lat="48.863466" lon="20.496161"><ele>1110</ele></trkpt>
    <trkpt lat="48.863761" lon="20.495668"><ele>1119</ele></trkpt>
    <trkpt lat="48.863796" lon="20.495556"><ele>1121</ele></trkpt>
    <trkpt lat="48.863780" lon="20.495449"><ele>1123</ele></trkpt>
    <trkpt lat="48.863721" lon="20.495385"><ele>1124</ele></trkpt>
    <trkpt lat="48.863547" lon="20.495308"><ele>1126</ele></trkpt>
    <trkpt lat="48.863483" lon="20.495226"><ele>1127</ele></trkpt>
    <trkpt lat="48.863220" lon="20.494605"><ele>1136</ele></trkpt>
    <trkpt lat="48.863137" lon="20.494263"><ele>1139</ele></trkpt>
    <trkpt lat="48.863056" lon="20.493205"><ele>1144</ele></trkpt>
    <trkpt lat="48.863088" lon="20.492678"><ele>1144</ele></trkpt>
    <trkpt lat="48.863187" lon="20.491979"><ele>1145</ele></trkpt>
    <trkpt lat="48.863230" lon="20.491044"><ele>1151</ele></trkpt>
    <trkpt lat="48.862424" lon="20.485578"><ele>1164</ele></trkpt>
    <trkpt lat="48.862475" lon="20.485218"><ele>1167</ele></trkpt>
    <trkpt lat="48.862762" lon="20.484774"><ele>1185</ele></trkpt>
    <trkpt lat="48.863233" lon="20.483895"><ele>1191</ele></trkpt>
    <trkpt lat="48.863258" lon="20.483718"><ele>1194</ele></trkpt>
    <trkpt lat="48.863229" lon="20.483388"><ele>1199</ele></trkpt>
    <trkpt lat="48.863248" lon="20.483290"><ele>1200</ele></trkpt>
    <trkpt lat="48.863321" lon="20.483049"><ele>1204</ele></trkpt>
    <trkpt lat="48.863383" lon="20.482679"><ele>1207</ele></trkpt>
    <trkpt lat="48.863560" lon="20.482263"><ele>1213</ele></trkpt>
    <trkpt lat="48.863569" lon="20.482140"><ele>1215</ele></trkpt>
    <trkpt lat="48.863482" lon="20.481627"><ele>1220</ele></trkpt>
    <trkpt lat="48.863517" lon="20.481516"><ele>1222</ele></trkpt>
    <trkpt lat="48.863799" lon="20.481150"><ele>1228</ele></trkpt>
    <trkpt lat="48.863870" lon="20.480970"><ele>1230</ele></trkpt>
    <trkpt lat="48.863908" lon="20.480522"><ele>1234</ele></trkpt>
    <trkpt lat="48.864023" lon="20.480248"><ele>1239</ele></trkpt>
    <trkpt lat="48.864249" lon="20.479412"><ele>1244</ele></trkpt>
    <trkpt lat="48.864346" lon="20.478650"><ele>1242</ele></trkpt>
    <trkpt lat="48.864491" lon="20.478229"><ele>1240</ele></trkpt>
    <trkpt lat="48.864741" lon="20.477266"><ele>1240</ele></trkpt>
    <trkpt lat="48.864748" lon="20.476563"><ele>1245</ele></trkpt>
    <trkpt lat="48.864646" lon="20.476095"><ele>1246</ele></trkpt>
    <trkpt lat="48.864719" lon="20.475742"><ele>1250</ele></trkpt>
    <trkpt lat="48.864664" lon="20.475281"><ele>1255</ele></trkpt>
    <trkpt lat="48.864930" lon="20.474817"><ele>1260</ele></trkpt>
    <trkpt lat="48.865034" lon="20.474483"><ele>1261</ele></trkpt>
    <trkpt lat="48.864910" lon="20.474313"><ele>1262</ele></trkpt>
    <trkpt lat="48.864658" lon="20.474074"><ele>1265</ele></trkpt>
    <trkpt lat="48.864592" lon="20.473893"><ele>1266</ele></trkpt>
    <trkpt lat="48.864447" lon="20.473871"><ele>1267</ele></trkpt>
    <trkpt lat="48.864328" lon="20.473691"><ele>1267</ele></trkpt>
    <trkpt lat="48.864169" lon="20.473619"><ele>1268</ele></trkpt>
    <trkpt lat="48.864113" lon="20.473489"><ele>1267</ele></trkpt>
    <trkpt lat="48.863864" lon="20.473195"><ele>1267</ele></trkpt>
    <trkpt lat="48.864113" lon="20.473489"><ele>1267</ele></trkpt>
    <trkpt lat="48.864169" lon="20.473619"><ele>1268</ele></trkpt>
    <trkpt lat="48.864328" lon="20.473691"><ele>1267</ele></trkpt>
    <trkpt lat="48.864447" lon="20.473871"><ele>1267</ele></trkpt>
    <trkpt lat="48.864592" lon="20.473893"><ele>1266</ele></trkpt>
    <trkpt lat="48.864658" lon="20.474074"><ele>1265</ele></trkpt>
    <trkpt lat="48.864910" lon="20.474313"><ele>1262</ele></trkpt>
    <trkpt lat="48.865034" lon="20.474483"><ele>1261</ele></trkpt>
    <trkpt lat="48.864930" lon="20.474817"><ele>1260</ele></trkpt>
    <trkpt lat="48.864664" lon="20.475281"><ele>1255</ele></trkpt>
    <trkpt lat="48.864719" lon="20.475742"><ele>1250</ele></trkpt>
    <trkpt lat="48.864646" lon="20.476095"><ele>1246</ele></trkpt>
    <trkpt lat="48.864748" lon="20.476563"><ele>1245</ele></trkpt>
    <trkpt lat="48.864741" lon="20.477266"><ele>1240</ele></trkpt>
    <trkpt lat="48.864491" lon="20.478229"><ele>1240</ele></trkpt>
    <trkpt lat="48.864346" lon="20.478650"><ele>1242</ele></trkpt>
    <trkpt lat="48.864249" lon="20.479412"><ele>1244</ele></trkpt>
    <trkpt lat="48.864023" lon="20.480248"><ele>1239</ele></trkpt>
    <trkpt lat="48.863908" lon="20.480522"><ele>1234</ele></trkpt>
    <trkpt lat="48.863870" lon="20.480970"><ele>1230</ele></trkpt>
    <trkpt lat="48.863799" lon="20.481150"><ele>1228</ele></trkpt>
    <trkpt lat="48.863517" lon="20.481516"><ele>1222</ele></trkpt>
    <trkpt lat="48.863482" lon="20.481627"><ele>1220</ele></trkpt>
    <trkpt lat="48.863569" lon="20.482140"><ele>1215</ele></trkpt>
    <trkpt lat="48.863560" lon="20.482263"><ele>1213</ele></trkpt>
    <trkpt lat="48.863383" lon="20.482679"><ele>1207</ele></trkpt>
    <trkpt lat="48.863321" lon="20.483049"><ele>1204</ele></trkpt>
    <trkpt lat="48.863248" lon="20.483290"><ele>1200</ele></trkpt>
    <trkpt lat="48.863229" lon="20.483388"><ele>1199</ele></trkpt>
    <trkpt lat="48.863258" lon="20.483718"><ele>1194</ele></trkpt>
    <trkpt lat="48.863233" lon="20.483895"><ele>1191</ele></trkpt>
    <trkpt lat="48.862762" lon="20.484774"><ele>1185</ele></trkpt>
    <trkpt lat="48.862475" lon="20.485218"><ele>1167</ele></trkpt>
    <trkpt lat="48.862424" lon="20.485578"><ele>1164</ele></trkpt>
    <trkpt lat="48.863230" lon="20.491044"><ele>1151</ele></trkpt>
    <trkpt lat="48.863187" lon="20.491979"><ele>1145</ele></trkpt>
    <trkpt lat="48.863088" lon="20.492678"><ele>1144</ele></trkpt>
    <trkpt lat="48.863056" lon="20.493205"><ele>1144</ele></trkpt>
    <trkpt lat="48.863137" lon="20.494263"><ele>1139</ele></trkpt>
    <trkpt lat="48.863220" lon="20.494605"><ele>1136</ele></trkpt>
    <trkpt lat="48.863483" lon="20.495226"><ele>1127</ele></trkpt>
    <trkpt lat="48.863547" lon="20.495308"><ele>1126</ele></trkpt>
    <trkpt lat="48.863721" lon="20.495385"><ele>1124</ele></trkpt>
    <trkpt lat="48.863780" lon="20.495449"><ele>1123</ele></trkpt>
    <trkpt lat="48.863796" lon="20.495556"><ele>1121</ele></trkpt>
    <trkpt lat="48.863761" lon="20.495668"><ele>1119</ele></trkpt>
    <trkpt lat="48.863466" lon="20.496161"><ele>1110</ele></trkpt>
    <trkpt lat="48.863296" lon="20.496779"><ele>1099</ele></trkpt>
    <trkpt lat="48.863127" lon="20.497794"><ele>1086</ele></trkpt>
    <trkpt lat="48.863115" lon="20.498028"><ele>1083</ele></trkpt>
    <trkpt lat="48.863169" lon="20.498288"><ele>1080</ele></trkpt>
    <trkpt lat="48.863347" lon="20.498810"><ele>1077</ele></trkpt>
    <trkpt lat="48.863451" lon="20.499394"><ele>1075</ele></trkpt>
    <trkpt lat="48.863460" lon="20.500134"><ele>1074</ele></trkpt>
    <trkpt lat="48.863437" lon="20.500327"><ele>1074</ele></trkpt>
    <trkpt lat="48.863331" lon="20.500727"><ele>1073</ele></trkpt>
    <trkpt lat="48.863259" lon="20.501323"><ele>1070</ele></trkpt>
    <trkpt lat="48.863142" lon="20.501660"><ele>1068</ele></trkpt>
    <trkpt lat="48.862671" lon="20.502626"><ele>1065</ele></trkpt>
    <trkpt lat="48.862567" lon="20.502787"><ele>1065</ele></trkpt>
    <trkpt lat="48.862158" lon="20.503211"><ele>1068</ele></trkpt>
    <trkpt lat="48.861795" lon="20.503728"><ele>1070</ele></trkpt>
    <trkpt lat="48.861288" lon="20.504235"><ele>1070</ele></trkpt>
    <trkpt lat="48.861094" lon="20.504512"><ele>1065</ele></trkpt>
    <trkpt lat="48.860986" lon="20.504778"><ele>1063</ele></trkpt>
    <trkpt lat="48.860838" lon="20.505692"><ele>1060</ele></trkpt>
    <trkpt lat="48.860762" lon="20.505957"><ele>1059</ele></trkpt>
    <trkpt lat="48.860464" lon="20.506531"><ele>1058</ele></trkpt>
    <trkpt lat="48.860176" lon="20.507778"><ele>1061</ele></trkpt>
    <trkpt lat="48.860122" lon="20.507899"><ele>1061</ele></trkpt>
    <trkpt lat="48.859850" lon="20.508192"><ele>1058</ele></trkpt>
    <trkpt lat="48.859544" lon="20.508604"><ele>1056</ele></trkpt>
    <trkpt lat="48.859299" lon="20.508841"><ele>1054</ele></trkpt>
    <trkpt lat="48.858900" lon="20.509390"><ele>1049</ele></trkpt>
    <trkpt lat="48.858701" lon="20.509763"><ele>1044</ele></trkpt>
    <trkpt lat="48.858648" lon="20.509970"><ele>1042</ele></trkpt>
    <trkpt lat="48.858532" lon="20.510927"><ele>1039</ele></trkpt>
    <trkpt lat="48.858493" lon="20.511383"><ele>1038</ele></trkpt>
    <trkpt lat="48.858486" lon="20.512215"><ele>1036</ele></trkpt>
    <trkpt lat="48.858271" lon="20.512958"><ele>1034</ele></trkpt>
    <trkpt lat="48.857716" lon="20.514240"><ele>1031</ele></trkpt>
    <trkpt lat="48.857662" lon="20.514586"><ele>1028</ele></trkpt>
    <trkpt lat="48.857655" lon="20.514965"><ele>1025</ele></trkpt>
  </trkseg></trk>
</gpx>
