<?xml version="1.0" encoding="UTF-8"?>
<gpx version="1.1" creator="MounTour (OpenStreetMap)" xmlns="http://www.topografix.com/GPX/1/1">
  <metadata><name>Veľký vodopád Studeného potoka</name><copyright author="OpenStreetMap contributors"><license>https://opendatacommons.org/licenses/odbl/</license></copyright></metadata>
  <trk><name>Veľký vodopád Studeného potoka</name><trkseg>
    <trkpt lat="49.141015" lon="20.220360"><ele>1022</ele></trkpt>
    <trkpt lat="49.141157" lon="20.220402"><ele>1023</ele></trkpt>
    <trkpt lat="49.141357" lon="20.220557"><ele>1024</ele></trkpt>
    <trkpt lat="49.141453" lon="20.220722"><ele>1026</ele></trkpt>
    <trkpt lat="49.141500" lon="20.220913"><ele>1027</ele></trkpt>
    <trkpt lat="49.141593" lon="20.221036"><ele>1028</ele></trkpt>
    <trkpt lat="49.141949" lon="20.220729"><ele>1034</ele></trkpt>
    <trkpt lat="49.142199" lon="20.220259"><ele>1037</ele></trkpt>
    <trkpt lat="49.142459" lon="20.220019"><ele>1039</ele></trkpt>
    <trkpt lat="49.142768" lon="20.219828"><ele>1043</ele></trkpt>
    <trkpt lat="49.142915" lon="20.219801"><ele>1044</ele></trkpt>
    <trkpt lat="49.143096" lon="20.219662"><ele>1046</ele></trkpt>
    <trkpt lat="49.143579" lon="20.219553"><ele>1053</ele></trkpt>
    <trkpt lat="49.143854" lon="20.219702"><ele>1058</ele></trkpt>
    <trkpt lat="49.144242" lon="20.219781"><ele>1064</ele></trkpt>
    <trkpt lat="49.144424" lon="20.219904"><ele>1066</ele></trkpt>
    <trkpt lat="49.144757" lon="20.219984"><ele>1071</ele></trkpt>
    <trkpt lat="49.145361" lon="20.220574"><ele>1079</ele></trkpt>
    <trkpt lat="49.145430" lon="20.220707"><ele>1080</ele></trkpt>
    <trkpt lat="49.145781" lon="20.221027"><ele>1085</ele></trkpt>
    <trkpt lat="49.146181" lon="20.221533"><ele>1090</ele></trkpt>
    <trkpt lat="49.146557" lon="20.221804"><ele>1097</ele></trkpt>
    <trkpt lat="49.146942" lon="20.222260"><ele>1104</ele></trkpt>
    <trkpt lat="49.147185" lon="20.222481"><ele>1108</ele></trkpt>
    <trkpt lat="49.147386" lon="20.222628"><ele>1111</ele></trkpt>
    <trkpt lat="49.148135" lon="20.222985"><ele>1121</ele></trkpt>
    <trkpt lat="49.149194" lon="20.222999"><ele>1136</ele></trkpt>
    <trkpt lat="49.149475" lon="20.222886"><ele>1140</ele></trkpt>
    <trkpt lat="49.149641" lon="20.222963"><ele>1142</ele></trkpt>
    <trkpt lat="49.149732" lon="20.223080"><ele>1143</ele></trkpt>
    <trkpt lat="49.149807" lon="20.223038"><ele>1144</ele></trkpt>
    <trkpt lat="49.150006" lon="20.223099"><ele>1147</ele></trkpt>
    <trkpt lat="49.150164" lon="20.223087"><ele>1149</ele></trkpt>
    <trkpt lat="49.150427" lon="20.223330"><ele>1153</ele></trkpt>
    <trkpt lat="49.150488" lon="20.223344"><ele>1154</ele></trkpt>
    <trkpt lat="49.151063" lon="20.223227"><ele>1162</ele></trkpt>
    <trkpt lat="49.151144" lon="20.223180"><ele>1163</ele></trkpt>
    <trkpt lat="49.151425" lon="20.222809"><ele>1167</ele></trkpt>
    <trkpt lat="49.151636" lon="20.222692"><ele>1171</ele></trkpt>
    <trkpt lat="49.151841" lon="20.222690"><ele>1174</ele></trkpt>
    <trkpt lat="49.152059" lon="20.222558"><ele>1177</ele></trkpt>
    <trkpt lat="49.152650" lon="20.222701"><ele>1186</ele></trkpt>
    <trkpt lat="49.153406" lon="20.223174"><ele>1197</ele></trkpt>
    <trkpt lat="49.153570" lon="20.223340"><ele>1199</ele></trkpt>
    <trkpt lat="49.154011" lon="20.223588"><ele>1204</ele></trkpt>
    <trkpt lat="49.154402" lon="20.223608"><ele>1210</ele></trkpt>
    <trkpt lat="49.154963" lon="20.223720"><ele>1219</ele></trkpt>
    <trkpt lat="49.155226" lon="20.223851"><ele>1223</ele></trkpt>
    <trkpt lat="49.155407" lon="20.224013"><ele>1225</ele></trkpt>
    <trkpt lat="49.155742" lon="20.224175"><ele>1230</ele></trkpt>
    <trkpt lat="49.155908" lon="20.224171"><ele>1234</ele></trkpt>
    <trkpt lat="49.156236" lon="20.224344"><ele>1240</ele></trkpt>
    <trkpt lat="49.156604" lon="20.224364"><ele>1249</ele></trkpt>
    <trkpt lat="49.156769" lon="20.224538"><ele>1250</ele></trkpt>
    <trkpt lat="49.157189" lon="20.224621"><ele>1256</ele></trkpt>
    <trkpt lat="49.157337" lon="20.224729"><ele>1259</ele></trkpt>
    <trkpt lat="49.157608" lon="20.224746"><ele>1265</ele></trkpt>
    <trkpt lat="49.158025" lon="20.224964"><ele>1266</ele></trkpt>
    <trkpt lat="49.158359" lon="20.225029"><ele>1270</ele></trkpt>
    <trkpt lat="49.158399" lon="20.224911"><ele>1272</ele></trkpt>
    <trkpt lat="49.158440" lon="20.224912"><ele>1272</ele></trkpt>
    <trkpt lat="49.158712" lon="20.225060"><ele>1275</ele></trkpt>
    <trkpt lat="49.158794" lon="20.225006"><ele>1276</ele></trkpt>
    <trkpt lat="49.158827" lon="20.225031"><ele>1276</ele></trkpt>
    <trkpt lat="49.158927" lon="20.224921"><ele>1277</ele></trkpt>
    <trkpt lat="49.158929" lon="20.225016"><ele>1275</ele></trkpt>
    <trkpt lat="49.158738" lon="20.225779"><ele>1267</ele></trkpt>
    <trkpt lat="49.159010" lon="20.225259"><ele>1265</ele></trkpt>
    <trkpt lat="49.159459" lon="20.224609"><ele>1262</ele></trkpt>
    <trkpt lat="49.159596" lon="20.224478"><ele>1261</ele></trkpt>
    <trkpt lat="49.160288" lon="20.224068"><ele>1262</ele></trkpt>
    <trkpt lat="49.160621" lon="20.223652"><ele>1269</ele></trkpt>
    <trkpt lat="49.160788" lon="20.223513"><ele>1272</ele></trkpt>
    <trkpt lat="49.160965" lon="20.223440"><ele>1270</ele></trkpt>
    <trkpt lat="49.161249" lon="20.223376"><ele>1265</ele></trkpt>
    <trkpt lat="49.161572" lon="20.223483"><ele>1255</ele></trkpt>
    <trkpt lat="49.162014" lon="20.223515"><ele>1252</ele></trkpt>
    <trkpt lat="49.162038" lon="20.223545"><ele>1250</ele></trkpt>
    <trkpt lat="49.161961" lon="20.223633"><ele>1248</ele></trkpt>
    <trkpt lat="49.161965" lon="20.223698"><ele>1245</ele></trkpt>
    <trkpt lat="49.162038" lon="20.223724"><ele>1243</ele></trkpt>
    <trkpt lat="49.162218" lon="20.223698"><ele>1243</ele></trkpt>
    <trkpt lat="49.162353" lon="20.223602"><ele>1242</ele></trkpt>
    <trkpt lat="49.162496" lon="20.223563"><ele>1239</ele></trkpt>
    <trkpt lat="49.162539" lon="20.223618"><ele>1237</ele></trkpt>
    <trkpt lat="49.162528" lon="20.223674"><ele>1235</ele></trkpt>
    <trkpt lat="49.162355" lon="20.223821"><ele>1235</ele></trkpt>
    <trkpt lat="49.162337" lon="20.223880"><ele>1233</ele></trkpt>
    <trkpt lat="49.162355" lon="20.223921"><ele>1231</ele></trkpt>
    <trkpt lat="49.162436" lon="20.223950"><ele>1229</ele></trkpt>
    <trkpt lat="49.162585" lon="20.223888"><ele>1229</ele></trkpt>
    <trkpt lat="49.162691" lon="20.223899"><ele>1228</ele></trkpt>
    <trkpt lat="49.162758" lon="20.223978"><ele>1226</ele></trkpt>
    <trkpt lat="49.162839" lon="20.224267"><ele>1221</ele></trkpt>
    <trkpt lat="49.162934" lon="20.224392"><ele>1220</ele></trkpt>
    <trkpt lat="49.163043" lon="20.224500"><ele>1220</ele></trkpt>
    <trkpt lat="49.163156" lon="20.224545"><ele>1219</ele></trkpt>
    <trkpt lat="49.163319" lon="20.224542"><ele>1220</ele></trkpt>
    <trkpt lat="49.163791" lon="20.224175"><ele>1225</ele></trkpt>
    <trkpt lat="49.164029" lon="20.223522"><ele>1230</ele></trkpt>
    <trkpt lat="49.164128" lon="20.223344"><ele>1232</ele></trkpt>
    <trkpt lat="49.164387" lon="20.223164"><ele>1235</ele></trkpt>
    <trkpt lat="49.164587" lon="20.222941"><ele>1235</ele></trkpt>
    <trkpt lat="49.164752" lon="20.222716"><ele>1235</ele></trkpt>
    <trkpt lat="49.164873" lon="20.222433"><ele>1234</ele></trkpt>
    <trkpt lat="49.164944" lon="20.222422"><ele>1232</ele></trkpt>
    <trkpt lat="49.165002" lon="20.222465"><ele>1230</ele></trkpt>
    <trkpt lat="49.165048" lon="20.222225"><ele>1233</ele></trkpt>
    <trkpt lat="49.165002" lon="20.222465"><ele>1230</ele></trkpt>
    <trkpt lat="49.164944" lon="20.222422"><ele>1232</ele></trkpt>
    <trkpt lat="49.164873" lon="20.222433"><ele>1234</ele></trkpt>
    <trkpt lat="49.164752" lon="20.222716"><ele>1235</ele></trkpt>
    <trkpt lat="49.164587" lon="20.222941"><ele>1235</ele></trkpt>
    <trkpt lat="49.164387" lon="20.223164"><ele>1235</ele></trkpt>
    <trkpt lat="49.164128" lon="20.223344"><ele>1232</ele></trkpt>
    <trkpt lat="49.164029" lon="20.223522"><ele>1230</ele></trkpt>
    <trkpt lat="49.163791" lon="20.224175"><ele>1225</ele></trkpt>
    <trkpt lat="49.163319" lon="20.224542"><ele>1220</ele></trkpt>
    <trkpt lat="49.163156" lon="20.224545"><ele>1219</ele></trkpt>
    <trkpt lat="49.163043" lon="20.224500"><ele>1220</ele></trkpt>
    <trkpt lat="49.162934" lon="20.224392"><ele>1220</ele></trkpt>
    <trkpt lat="49.162839" lon="20.224267"><ele>1221</ele></trkpt>
    <trkpt lat="49.162758" lon="20.223978"><ele>1226</ele></trkpt>
    <trkpt lat="49.162691" lon="20.223899"><ele>1228</ele></trkpt>
    <trkpt lat="49.162585" lon="20.223888"><ele>1229</ele></trkpt>
    <trkpt lat="49.162436" lon="20.223950"><ele>1229</ele></trkpt>
    <trkpt lat="49.162355" lon="20.223921"><ele>1231</ele></trkpt>
    <trkpt lat="49.162337" lon="20.223880"><ele>1233</ele></trkpt>
    <trkpt lat="49.162355" lon="20.223821"><ele>1235</ele></trkpt>
    <trkpt lat="49.162528" lon="20.223674"><ele>1235</ele></trkpt>
    <trkpt lat="49.162539" lon="20.223618"><ele>1237</ele></trkpt>
    <trkpt lat="49.162496" lon="20.223563"><ele>1239</ele></trkpt>
    <trkpt lat="49.162353" lon="20.223602"><ele>1242</ele></trkpt>
    <trkpt lat="49.162218" lon="20.223698"><ele>1243</ele></trkpt>
    <trkpt lat="49.162038" lon="20.223724"><ele>1243</ele></trkpt>
    <trkpt lat="49.161965" lon="20.223698"><ele>1245</ele></trkpt>
    <trkpt lat="49.161961" lon="20.223633"><ele>1248</ele></trkpt>
    <trkpt lat="49.162038" lon="20.223545"><ele>1250</ele></trkpt>
    <trkpt lat="49.162014" lon="20.223515"><ele>1252</ele></trkpt>
    <trkpt lat="49.161572" lon="20.223483"><ele>1255</ele></trkpt>
    <trkpt lat="49.161249" lon="20.223376"><ele>1265</ele></trkpt>
    <trkpt lat="49.160965" lon="20.223440"><ele>1270</ele></trkpt>
    <trkpt lat="49.160788" lon="20.223513"><ele>1272</ele></trkpt>
    <trkpt lat="49.160621" lon="20.223652"><ele>1269</ele></trkpt>
    <trkpt lat="49.160288" lon="20.224068"><ele>1262</ele></trkpt>
    <trkpt lat="49.159596" lon="20.224478"><ele>1261</ele></trkpt>
    <trkpt lat="49.159459" lon="20.224609"><ele>1262</ele></trkpt>
    <trkpt lat="49.159010" lon="20.225259"><ele>1265</ele></trkpt>
    <trkpt lat="49.158738" lon="20.225779"><ele>1267</ele></trkpt>
    <trkpt lat="49.158929" lon="20.225016"><ele>1275</ele></trkpt>
    <trkpt lat="49.158927" lon="20.224921"><ele>1277</ele></trkpt>
    <trkpt lat="49.158827" lon="20.225031"><ele>1276</ele></trkpt>
    <trkpt lat="49.158794" lon="20.225006"><ele>1276</ele></trkpt>
    <trkpt lat="49.158712" lon="20.225060"><ele>1275</ele></trkpt>
    <trkpt lat="49.158440" lon="20.224912"><ele>1272</ele></trkpt>
    <trkpt lat="49.158399" lon="20.224911"><ele>1272</ele></trkpt>
    <trkpt lat="49.158359" lon="20.225029"><ele>1270</ele></trkpt>
    <trkpt lat="49.158025" lon="20.224964"><ele>1266</ele></trkpt>
    <trkpt lat="49.157608" lon="20.224746"><ele>1265</ele></trkpt>
    <trkpt lat="49.157337" lon="20.224729"><ele>1259</ele></trkpt>
    <trkpt lat="49.157189" lon="20.224621"><ele>1256</ele></trkpt>
    <trkpt lat="49.156769" lon="20.224538"><ele>1250</ele></trkpt>
    <trkpt lat="49.156604" lon="20.224364"><ele>1249</ele></trkpt>
    <trkpt lat="49.156236" lon="20.224344"><ele>1240</ele></trkpt>
    <trkpt lat="49.155908" lon="20.224171"><ele>1234</ele></trkpt>
    <trkpt lat="49.155742" lon="20.224175"><ele>1230</ele></trkpt>
    <trkpt lat="49.155407" lon="20.224013"><ele>1225</ele></trkpt>
    <trkpt lat="49.155226" lon="20.223851"><ele>1223</ele></trkpt>
    <trkpt lat="49.154963" lon="20.223720"><ele>1219</ele></trkpt>
    <trkpt lat="49.154402" lon="20.223608"><ele>1210</ele></trkpt>
    <trkpt lat="49.154011" lon="20.223588"><ele>1204</ele></trkpt>
    <trkpt lat="49.153570" lon="20.223340"><ele>1199</ele></trkpt>
    <trkpt lat="49.153406" lon="20.223174"><ele>1197</ele></trkpt>
    <trkpt lat="49.152650" lon="20.222701"><ele>1186</ele></trkpt>
    <trkpt lat="49.152059" lon="20.222558"><ele>1177</ele></trkpt>
    <trkpt lat="49.151841" lon="20.222690"><ele>1174</ele></trkpt>
    <trkpt lat="49.151636" lon="20.222692"><ele>1171</ele></trkpt>
    <trkpt lat="49.151425" lon="20.222809"><ele>1167</ele></trkpt>
    <trkpt lat="49.151144" lon="20.223180"><ele>1163</ele></trkpt>
    <trkpt lat="49.151063" lon="20.223227"><ele>1162</ele></trkpt>
    <trkpt lat="49.150488" lon="20.223344"><ele>1154</ele></trkpt>
    <trkpt lat="49.150427" lon="20.223330"><ele>1153</ele></trkpt>
    <trkpt lat="49.150164" lon="20.223087"><ele>1149</ele></trkpt>
    <trkpt lat="49.150006" lon="20.223099"><ele>1147</ele></trkpt>
    <trkpt lat="49.149807" lon="20.223038"><ele>1144</ele></trkpt>
    <trkpt lat="49.149732" lon="20.223080"><ele>1143</ele></trkpt>
    <trkpt lat="49.149641" lon="20.222963"><ele>1142</ele></trkpt>
    <trkpt lat="49.149475" lon="20.222886"><ele>1140</ele></trkpt>
    <trkpt lat="49.149194" lon="20.222999"><ele>1136</ele></trkpt>
    <trkpt lat="49.148135" lon="20.222985"><ele>1121</ele></trkpt>
    <trkpt lat="49.147386" lon="20.222628"><ele>1111</ele></trkpt>
    <trkpt lat="49.147185" lon="20.222481"><ele>1108</ele></trkpt>
    <trkpt lat="49.146942" lon="20.222260"><ele>1104</ele></trkpt>
    <trkpt lat="49.146557" lon="20.221804"><ele>1097</ele></trkpt>
    <trkpt lat="49.146181" lon="20.221533"><ele>1090</ele></trkpt>
    <trkpt lat="49.145781" lon="20.221027"><ele>1085</ele></trkpt>
    <trkpt lat="49.145430" lon="20.220707"><ele>1080</ele></trkpt>
    <trkpt lat="49.145361" lon="20.220574"><ele>1079</ele></trkpt>
    <trkpt lat="49.144757" lon="20.219984"><ele>1071</ele></trkpt>
    <trkpt lat="49.144424" lon="20.219904"><ele>1066</ele></trkpt>
    <trkpt lat="49.144242" lon="20.219781"><ele>1064</ele></trkpt>
    <trkpt lat="49.143854" lon="20.219702"><ele>1058</ele></trkpt>
    <trkpt lat="49.143579" lon="20.219553"><ele>1053</ele></trkpt>
    <trkpt lat="49.143096" lon="20.219662"><ele>1046</ele></trkpt>
    <trkpt lat="49.142915" lon="20.219801"><ele>1044</ele></trkpt>
    <trkpt lat="49.142768" lon="20.219828"><ele>1043</ele></trkpt>
    <trkpt lat="49.142459" lon="20.220019"><ele>1039</ele></trkpt>
    <trkpt lat="49.142199" lon="20.220259"><ele>1037</ele></trkpt>
    <trkpt lat="49.141949" lon="20.220729"><ele>1034</ele></trkpt>
    <trkpt lat="49.141593" lon="20.221036"><ele>1028</ele></trkpt>
    <trkpt lat="49.141500" lon="20.220913"><ele>1027</ele></trkpt>
    <trkpt lat="49.141453" lon="20.220722"><ele>1026</ele></trkpt>
    <trkpt lat="49.141357" lon="20.220557"><ele>1024</ele></trkpt>
    <trkpt lat="49.141157" lon="20.220402"><ele>1023</ele></trkpt>
    <trkpt lat="49.141015" lon="20.220360"><ele>1022</ele></trkpt>
  </trkseg></trk>
</gpx>
