<?xml version="1.0" encoding="UTF-8"?>
<gpx version="1.1" creator="MounTour (OpenStreetMap)" xmlns="http://www.topografix.com/GPX/1/1">
  <metadata><name>Veterné</name><copyright author="OpenStreetMap contributors"><license>https://opendatacommons.org/licenses/odbl/</license></copyright></metadata>
  <trk><name>Veterné</name><trkseg>
    <trkpt lat="49.090192" lon="18.829249"><ele>1248</ele></trkpt>
    <trkpt lat="49.090315" lon="18.829162"><ele>1249</ele></trkpt>
    <trkpt lat="49.090589" lon="18.829363"><ele>1245</ele></trkpt>
    <trkpt lat="49.090862" lon="18.829320"><ele>1249</ele></trkpt>
    <trkpt lat="49.091062" lon="18.829154"><ele>1256</ele></trkpt>
    <trkpt lat="49.091307" lon="18.828775"><ele>1261</ele></trkpt>
    <trkpt lat="49.091202" lon="18.828743"><ele>1263</ele></trkpt>
    <trkpt lat="49.090998" lon="18.828244"><ele>1276</ele></trkpt>
    <trkpt lat="49.090822" lon="18.828072"><ele>1283</ele></trkpt>
    <trkpt lat="49.090756" lon="18.827932"><ele>1284</ele></trkpt>
    <trkpt lat="49.090766" lon="18.827696"><ele>1288</ele></trkpt>
    <trkpt lat="49.090660" lon="18.827060"><ele>1298</ele></trkpt>
    <trkpt lat="49.090498" lon="18.826738"><ele>1304</ele></trkpt>
    <trkpt lat="49.090410" lon="18.826462"><ele>1308</ele></trkpt>
    <trkpt lat="49.090372" lon="18.826165"><ele>1312</ele></trkpt>
    <trkpt lat="49.090383" lon="18.825645"><ele>1321</ele></trkpt>
    <trkpt lat="49.090472" lon="18.825466"><ele>1324</ele></trkpt>
    <trkpt lat="49.090435" lon="18.825232"><ele>1327</ele></trkpt>
    <trkpt lat="49.090433" lon="18.824915"><ele>1331</ele></trkpt>
    <trkpt lat="49.090532" lon="18.824607"><ele>1334</ele></trkpt>
    <trkpt lat="49.090436" lon="18.824221"><ele>1338</ele></trkpt>
    <trkpt lat="49.090457" lon="18.823336"><ele>1345</ele></trkpt>
    <trkpt lat="49.090538" lon="18.823186"><ele>1346</ele></trkpt>
    <trkpt lat="49.090563" lon="18.822943"><ele>1347</ele></trkpt>
    <trkpt lat="49.090605" lon="18.822835"><ele>1348</ele></trkpt>
    <trkpt lat="49.090689" lon="18.822089"><ele>1353</ele></trkpt>
    <trkpt lat="49.090831" lon="18.821946"><ele>1356</ele></trkpt>
    <trkpt lat="49.090945" lon="18.821752"><ele>1360</ele></trkpt>
    <trkpt lat="49.091217" lon="18.821417"><ele>1369</ele></trkpt>
    <trkpt lat="49.091456" lon="18.820868"><ele>1379</ele></trkpt>
    <trkpt lat="49.091909" lon="18.820019"><ele>1399</ele></trkpt>
    <trkpt lat="49.092209" lon="18.819307"><ele>1411</ele></trkpt>
    <trkpt lat="49.092279" lon="18.819284"><ele>1412</ele></trkpt>
    <trkpt lat="49.092338" lon="18.818588"><ele>1419</ele></trkpt>
    <trkpt lat="49.092247" lon="18.818133"><ele>1420</ele></trkpt>
    <trkpt lat="49.092174" lon="18.817972"><ele>1420</ele></trkpt>
    <trkpt lat="49.092104" lon="18.817510"><ele>1425</ele></trkpt>
    <trkpt lat="49.091900" lon="18.816897"><ele>1432</ele></trkpt>
    <trkpt lat="49.091786" lon="18.816146"><ele>1441</ele></trkpt>
    <trkpt lat="49.091648" lon="18.815616"><ele>1447</ele></trkpt>
    <trkpt lat="49.091611" lon="18.815335"><ele>1452</ele></trkpt>
    <trkpt lat="49.091516" lon="18.815131"><ele>1455</ele></trkpt>
    <trkpt lat="49.091434" lon="18.814791"><ele>1461</ele></trkpt>
    <trkpt lat="49.091236" lon="18.814435"><ele>1467</ele></trkpt>
    <trkpt lat="49.091046" lon="18.813952"><ele>1474</ele></trkpt>
    <trkpt lat="49.090757" lon="18.813818"><ele>1474</ele></trkpt>
    <trkpt lat="49.089798" lon="18.813983"><ele>1469</ele></trkpt>
    <trkpt lat="49.089684" lon="18.814039"><ele>1469</ele></trkpt>
    <trkpt lat="49.089476" lon="18.814046"><ele>1467</ele></trkpt>
    <trkpt lat="49.089221" lon="18.814145"><ele>1467</ele></trkpt>
    <trkpt lat="49.089177" lon="18.814205"><ele>1467</ele></trkpt>
    <trkpt lat="49.088885" lon="18.814170"><ele>1467</ele></trkpt>
    <trkpt lat="49.088659" lon="18.814199"><ele>1468</ele></trkpt>
    <trkpt lat="49.088192" lon="18.814348"><ele>1470</ele></trkpt>
    <trkpt lat="49.087967" lon="18.814476"><ele>1470</ele></trkpt>
    <trkpt lat="49.087609" lon="18.814593"><ele>1471</ele></trkpt>
    <trkpt lat="49.087358" lon="18.814848"><ele>1471</ele></trkpt>
    <trkpt lat="49.086500" lon="18.815404"><ele>1469</ele></trkpt>
    <trkpt lat="49.085944" lon="18.815528"><ele>1465</ele></trkpt>
    <trkpt lat="49.085181" lon="18.815631"><ele>1466</ele></trkpt>
    <trkpt lat="49.084434" lon="18.815585"><ele>1466</ele></trkpt>
    <trkpt lat="49.084272" lon="18.815514"><ele>1465</ele></trkpt>
    <trkpt lat="49.084217" lon="18.815439"><ele>1465</ele></trkpt>
    <trkpt lat="49.084122" lon="18.815043"><ele>1464</ele></trkpt>
    <trkpt lat="49.083917" lon="18.814590"><ele>1462</ele></trkpt>
    <trkpt lat="49.083651" lon="18.814368"><ele>1460</ele></trkpt>
    <trkpt lat="49.083619" lon="18.814249"><ele>1461</ele></trkpt>
    <trkpt lat="49.083612" lon="18.814001"><ele>1460</ele></trkpt>
    <trkpt lat="49.083314" lon="18.813314"><ele>1459</ele></trkpt>
    <trkpt lat="49.083264" lon="18.813078"><ele>1459</ele></trkpt>
    <trkpt lat="49.083116" lon="18.812827"><ele>1459</ele></trkpt>
    <trkpt lat="49.083052" lon="18.812595"><ele>1459</ele></trkpt>
    <trkpt lat="49.081380" lon="18.811221"><ele>1437</ele></trkpt>
    <trkpt lat="49.081008" lon="18.810766"><ele>1434</ele></trkpt>
    <trkpt lat="49.080682" lon="18.810197"><ele>1431</ele></trkpt>
    <trkpt lat="49.080622" lon="18.810054"><ele>1431</ele></trkpt>
    <trkpt lat="49.080544" lon="18.809659"><ele>1433</ele></trkpt>
    <trkpt lat="49.080050" lon="18.806531"><ele>1439</ele></trkpt>
    <trkpt lat="49.080544" lon="18.809659"><ele>1433</ele></trkpt>
    <trkpt lat="49.080622" lon="18.810054"><ele>1431</ele></trkpt>
    <trkpt lat="49.080682" lon="18.810197"><ele>1431</ele></trkpt>
    <trkpt lat="49.081008" lon="18.810766"><ele>1434</ele></trkpt>
    <trkpt lat="49.081380" lon="18.811221"><ele>1437</ele></trkpt>
    <trkpt lat="49.083052" lon="18.812595"><ele>1459</ele></trkpt>
    <trkpt lat="49.083116" lon="18.812827"><ele>1459</ele></trkpt>
    <trkpt lat="49.083264" lon="18.813078"><ele>1459</ele></trkpt>
    <trkpt lat="49.083314" lon="18.813314"><ele>1459</ele></trkpt>
    <trkpt lat="49.083612" lon="18.814001"><ele>1460</ele></trkpt>
    <trkpt lat="49.083619" lon="18.814249"><ele>1461</ele></trkpt>
    <trkpt lat="49.083651" lon="18.814368"><ele>1460</ele></trkpt>
    <trkpt lat="49.083917" lon="18.814590"><ele>1462</ele></trkpt>
    <trkpt lat="49.084122" lon="18.815043"><ele>1464</ele></trkpt>
    <trkpt lat="49.084217" lon="18.815439"><ele>1465</ele></trkpt>
    <trkpt lat="49.084272" lon="18.815514"><ele>1465</ele></trkpt>
    <trkpt lat="49.084434" lon="18.815585"><ele>1466</ele></trkpt>
    <trkpt lat="49.085181" lon="18.815631"><ele>1466</ele></trkpt>
    <trkpt lat="49.085944" lon="18.815528"><ele>1465</ele></trkpt>
    <trkpt lat="49.086500" lon="18.815404"><ele>1469</ele></trkpt>
    <trkpt lat="49.087358" lon="18.814848"><ele>1471</ele></trkpt>
    <trkpt lat="49.087609" lon="18.814593"><ele>1471</ele></trkpt>
    <trkpt lat="49.087967" lon="18.814476"><ele>1470</ele></trkpt>
    <trkpt lat="49.088192" lon="18.814348"><ele>1470</ele></trkpt>
    <trkpt lat="49.088659" lon="18.814199"><ele>1468</ele></trkpt>
    <trkpt lat="49.088885" lon="18.814170"><ele>1467</ele></trkpt>
    <trkpt lat="49.089177" lon="18.814205"><ele>1467</ele></trkpt>
    <trkpt lat="49.089221" lon="18.814145"><ele>1467</ele></trkpt>
    <trkpt lat="49.089476" lon="18.814046"><ele>1467</ele></trkpt>
    <trkpt lat="49.089684" lon="18.814039"><ele>1469</ele></trkpt>
    <trkpt lat="49.089798" lon="18.813983"><ele>1469</ele></trkpt>
    <trkpt lat="49.090757" lon="18.813818"><ele>1474</ele></trkpt>
    <trkpt lat="49.091046" lon="18.813952"><ele>1474</ele></trkpt>
    <trkpt lat="49.091236" lon="18.814435"><ele>1467</ele></trkpt>
    <trkpt lat="49.091434" lon="18.814791"><ele>1461</ele></trkpt>
    <trkpt lat="49.091516" lon="18.815131"><ele>1455</ele></trkpt>
    <trkpt lat="49.091611" lon="18.815335"><ele>1452</ele></trkpt>
    <trkpt lat="49.091648" lon="18.815616"><ele>1447</ele></trkpt>
    <trkpt lat="49.091786" lon="18.816146"><ele>1441</ele></trkpt>
    <trkpt lat="49.091900" lon="18.816897"><ele>1432</ele></trkpt>
    <trkpt lat="49.092104" lon="18.817510"><ele>1425</ele></trkpt>
    <trkpt lat="49.092174" lon="18.817972"><ele>1420</ele></trkpt>
    <trkpt lat="49.092247" lon="18.818133"><ele>1420</ele></trkpt>
    <trkpt lat="49.092338" lon="18.818588"><ele>1419</ele></trkpt>
    <trkpt lat="49.092279" lon="18.819284"><ele>1412</ele></trkpt>
    <trkpt lat="49.092209" lon="18.819307"><ele>1411</ele></trkpt>
    <trkpt lat="49.091909" lon="18.820019"><ele>1399</ele></trkpt>
    <trkpt lat="49.091456" lon="18.820868"><ele>1379</ele></trkpt>
    <trkpt lat="49.091217" lon="18.821417"><ele>1369</ele></trkpt>
    <trkpt lat="49.090945" lon="18.821752"><ele>1360</ele></trkpt>
    <trkpt lat="49.090831" lon="18.821946"><ele>1356</ele></trkpt>
    <trkpt lat="49.090689" lon="18.822089"><ele>1353</ele></trkpt>
    <trkpt lat="49.090605" lon="18.822835"><ele>1348</ele></trkpt>
    <trkpt lat="49.090563" lon="18.822943"><ele>1347</ele></trkpt>
    <trkpt lat="49.090538" lon="18.823186"><ele>1346</ele></trkpt>
    <trkpt lat="49.090457" lon="18.823336"><ele>1345</ele></trkpt>
    <trkpt lat="49.090436" lon="18.824221"><ele>1338</ele></trkpt>
    <trkpt lat="49.090532" lon="18.824607"><ele>1334</ele></trkpt>
    <trkpt lat="49.090433" lon="18.824915"><ele>1331</ele></trkpt>
    <trkpt lat="49.090435" lon="18.825232"><ele>1327</ele></trkpt>
    <trkpt lat="49.090472" lon="18.825466"><ele>1324</ele></trkpt>
    <trkpt lat="49.090383" lon="18.825645"><ele>1321</ele></trkpt>
    <trkpt lat="49.090372" lon="18.826165"><ele>1312</ele></trkpt>
    <trkpt lat="49.090410" lon="18.826462"><ele>1308</ele></trkpt>
    <trkpt lat="49.090498" lon="18.826738"><ele>1304</ele></trkpt>
    <trkpt lat="49.090660" lon="18.827060"><ele>1298</ele></trkpt>
    <trkpt lat="49.090766" lon="18.827696"><ele>1288</ele></trkpt>
    <trkpt lat="49.090756" lon="18.827932"><ele>1284</ele></trkpt>
    <trkpt lat="49.090822" lon="18.828072"><ele>1283</ele></trkpt>
    <trkpt lat="49.090998" lon="18.828244"><ele>1276</ele></trkpt>
    <trkpt lat="49.091202" lon="18.828743"><ele>1263</ele></trkpt>
    <trkpt lat="49.091307" lon="18.828775"><ele>1261</ele></trkpt>
    <trkpt lat="49.091062" lon="18.829154"><ele>1256</ele></trkpt>
    <trkpt lat="49.090862" lon="18.829320"><ele>1249</ele></trkpt>
    <trkpt lat="49.090589" lon="18.829363"><ele>1245</ele></trkpt>
    <trkpt lat="49.090315" lon="18.829162"><ele>1249</ele></trkpt>
    <trkpt lat="49.090192" lon="18.829249"><ele>1248</ele></trkpt>
  </trkseg></trk>
</gpx>
