<?xml version="1.0" encoding="UTF-8"?>
<gpx version="1.1" creator="MounTour (OpenStreetMap)" xmlns="http://www.topografix.com/GPX/1/1">
  <metadata><name>Vodopád Skok</name><copyright author="OpenStreetMap contributors"><license>https://opendatacommons.org/licenses/odbl/</license></copyright></metadata>
  <trk><name>Vodopád Skok</name><trkseg>
    <trkpt lat="49.123187" lon="20.064155"><ele>1353</ele></trkpt>
    <trkpt lat="49.123655" lon="20.063886"><ele>1354</ele></trkpt>
    <trkpt lat="49.123816" lon="20.063738"><ele>1357</ele></trkpt>
    <trkpt lat="49.124414" lon="20.062953"><ele>1357</ele></trkpt>
    <trkpt lat="49.124545" lon="20.062839"><ele>1356</ele></trkpt>
    <trkpt lat="49.124528" lon="20.062760"><ele>1356</ele></trkpt>
    <trkpt lat="49.125326" lon="20.062301"><ele>1352</ele></trkpt>
    <trkpt lat="49.127389" lon="20.061316"><ele>1366</ele></trkpt>
    <trkpt lat="49.127513" lon="20.061260"><ele>1366</ele></trkpt>
    <trkpt lat="49.127532" lon="20.061334"><ele>1366</ele></trkpt>
    <trkpt lat="49.129272" lon="20.060398"><ele>1379</ele></trkpt>
    <trkpt lat="49.131056" lon="20.059511"><ele>1400</ele></trkpt>
    <trkpt lat="49.131223" lon="20.059376"><ele>1401</ele></trkpt>
    <trkpt lat="49.132510" lon="20.057838"><ele>1420</ele></trkpt>
    <trkpt lat="49.132745" lon="20.056968"><ele>1427</ele></trkpt>
    <trkpt lat="49.133381" lon="20.055947"><ele>1432</ele></trkpt>
    <trkpt lat="49.133750" lon="20.055510"><ele>1427</ele></trkpt>
    <trkpt lat="49.134181" lon="20.055319"><ele>1431</ele></trkpt>
    <trkpt lat="49.134383" lon="20.055035"><ele>1445</ele></trkpt>
    <trkpt lat="49.134551" lon="20.055048"><ele>1450</ele></trkpt>
    <trkpt lat="49.134637" lon="20.054793"><ele>1455</ele></trkpt>
    <trkpt lat="49.135002" lon="20.054267"><ele>1461</ele></trkpt>
    <trkpt lat="49.135236" lon="20.053756"><ele>1466</ele></trkpt>
    <trkpt lat="49.135418" lon="20.053488"><ele>1469</ele></trkpt>
    <trkpt lat="49.135615" lon="20.053330"><ele>1472</ele></trkpt>
    <trkpt lat="49.135774" lon="20.053304"><ele>1473</ele></trkpt>
    <trkpt lat="49.136125" lon="20.053450"><ele>1475</ele></trkpt>
    <trkpt lat="49.136344" lon="20.053416"><ele>1477</ele></trkpt>
    <trkpt lat="49.136576" lon="20.053293"><ele>1479</ele></trkpt>
    <trkpt lat="49.136831" lon="20.053079"><ele>1480</ele></trkpt>
    <trkpt lat="49.136969" lon="20.052888"><ele>1481</ele></trkpt>
    <trkpt lat="49.137112" lon="20.052802"><ele>1481</ele></trkpt>
    <trkpt lat="49.137243" lon="20.052780"><ele>1480</ele></trkpt>
    <trkpt lat="49.137777" lon="20.052402"><ele>1485</ele></trkpt>
    <trkpt lat="49.138149" lon="20.052361"><ele>1488</ele></trkpt>
    <trkpt lat="49.138691" lon="20.052046"><ele>1493</ele></trkpt>
    <trkpt lat="49.138775" lon="20.051954"><ele>1493</ele></trkpt>
    <trkpt lat="49.138809" lon="20.051810"><ele>1494</ele></trkpt>
    <trkpt lat="49.138849" lon="20.051130"><ele>1503</ele></trkpt>
    <trkpt lat="49.139212" lon="20.050816"><ele>1506</ele></trkpt>
    <trkpt lat="49.139511" lon="20.050428"><ele>1515</ele></trkpt>
    <trkpt lat="49.139800" lon="20.050195"><ele>1521</ele></trkpt>
    <trkpt lat="49.140121" lon="20.050179"><ele>1525</ele></trkpt>
    <trkpt lat="49.140298" lon="20.050255"><ele>1527</ele></trkpt>
    <trkpt lat="49.140400" lon="20.050339"><ele>1530</ele></trkpt>
    <trkpt lat="49.140669" lon="20.050710"><ele>1535</ele></trkpt>
    <trkpt lat="49.140892" lon="20.050727"><ele>1538</ele></trkpt>
    <trkpt lat="49.140941" lon="20.050682"><ele>1539</ele></trkpt>
    <trkpt lat="49.140918" lon="20.050351"><ele>1539</ele></trkpt>
    <trkpt lat="49.141018" lon="20.049875"><ele>1542</ele></trkpt>
    <trkpt lat="49.141094" lon="20.049837"><ele>1543</ele></trkpt>
    <trkpt lat="49.141288" lon="20.050080"><ele>1542</ele></trkpt>
    <trkpt lat="49.141402" lon="20.050141"><ele>1543</ele></trkpt>
    <trkpt lat="49.141598" lon="20.050163"><ele>1544</ele></trkpt>
    <trkpt lat="49.141994" lon="20.050307"><ele>1548</ele></trkpt>
    <trkpt lat="49.142213" lon="20.050501"><ele>1549</ele></trkpt>
    <trkpt lat="49.142471" lon="20.050829"><ele>1548</ele></trkpt>
    <trkpt lat="49.142659" lon="20.050922"><ele>1551</ele></trkpt>
    <trkpt lat="49.142776" lon="20.050929"><ele>1552</ele></trkpt>
    <trkpt lat="49.143448" lon="20.050617"><ele>1559</ele></trkpt>
    <trkpt lat="49.143559" lon="20.050617"><ele>1561</ele></trkpt>
    <trkpt lat="49.143703" lon="20.050772"><ele>1561</ele></trkpt>
    <trkpt lat="49.144018" lon="20.050694"><ele>1565</ele></trkpt>
    <trkpt lat="49.144232" lon="20.050731"><ele>1565</ele></trkpt>
    <trkpt lat="49.144345" lon="20.050657"><ele>1566</ele></trkpt>
    <trkpt lat="49.144448" lon="20.050469"><ele>1569</ele></trkpt>
    <trkpt lat="49.144582" lon="20.050284"><ele>1572</ele></trkpt>
    <trkpt lat="49.144733" lon="20.050154"><ele>1576</ele></trkpt>
    <trkpt lat="49.144744" lon="20.050105"><ele>1577</ele></trkpt>
    <trkpt lat="49.144557" lon="20.049984"><ele>1581</ele></trkpt>
    <trkpt lat="49.144125" lon="20.049961"><ele>1590</ele></trkpt>
    <trkpt lat="49.143971" lon="20.049910"><ele>1590</ele></trkpt>
    <trkpt lat="49.143778" lon="20.049725"><ele>1590</ele></trkpt>
    <trkpt lat="49.143818" lon="20.049458"><ele>1590</ele></trkpt>
    <trkpt lat="49.143921" lon="20.049338"><ele>1592</ele></trkpt>
    <trkpt lat="49.144106" lon="20.049326"><ele>1596</ele></trkpt>
    <trkpt lat="49.144442" lon="20.049075"><ele>1600</ele></trkpt>
    <trkpt lat="49.144713" lon="20.048987"><ele>1601</ele></trkpt>
    <trkpt lat="49.144973" lon="20.048607"><ele>1603</ele></trkpt>
    <trkpt lat="49.145438" lon="20.048145"><ele>1606</ele></trkpt>
    <trkpt lat="49.145515" lon="20.048157"><ele>1605</ele></trkpt>
    <trkpt lat="49.145727" lon="20.048040"><ele>1606</ele></trkpt>
    <trkpt lat="49.145995" lon="20.047807"><ele>1609</ele></trkpt>
    <trkpt lat="49.146256" lon="20.047714"><ele>1611</ele></trkpt>
    <trkpt lat="49.146455" lon="20.047560"><ele>1612</ele></trkpt>
    <trkpt lat="49.146828" lon="20.047592"><ele>1617</ele></trkpt>
    <trkpt lat="49.147128" lon="20.047474"><ele>1622</ele></trkpt>
    <trkpt lat="49.147205" lon="20.047404"><ele>1623</ele></trkpt>
    <trkpt lat="49.147590" lon="20.047271"><ele>1629</ele></trkpt>
    <trkpt lat="49.147828" lon="20.047282"><ele>1632</ele></trkpt>
    <trkpt lat="49.147941" lon="20.047412"><ele>1634</ele></trkpt>
    <trkpt lat="49.148023" lon="20.047445"><ele>1636</ele></trkpt>
    <trkpt lat="49.148173" lon="20.047179"><ele>1639</ele></trkpt>
    <trkpt lat="49.148293" lon="20.047242"><ele>1642</ele></trkpt>
    <trkpt lat="49.148572" lon="20.047268"><ele>1647</ele></trkpt>
    <trkpt lat="49.148872" lon="20.047145"><ele>1653</ele></trkpt>
    <trkpt lat="49.149134" lon="20.047112"><ele>1658</ele></trkpt>
    <trkpt lat="49.149324" lon="20.046923"><ele>1662</ele></trkpt>
    <trkpt lat="49.149904" lon="20.046908"><ele>1675</ele></trkpt>
    <trkpt lat="49.150121" lon="20.047034"><ele>1679</ele></trkpt>
    <trkpt lat="49.150396" lon="20.047045"><ele>1683</ele></trkpt>
    <trkpt lat="49.150674" lon="20.047112"><ele>1686</ele></trkpt>
    <trkpt lat="49.150831" lon="20.046967"><ele>1690</ele></trkpt>
    <trkpt lat="49.151165" lon="20.046912"><ele>1693</ele></trkpt>
    <trkpt lat="49.151496" lon="20.046758"><ele>1697</ele></trkpt>
    <trkpt lat="49.151583" lon="20.046674"><ele>1697</ele></trkpt>
    <trkpt lat="49.151855" lon="20.046254"><ele>1703</ele></trkpt>
    <trkpt lat="49.152053" lon="20.046065"><ele>1706</ele></trkpt>
    <trkpt lat="49.152094" lon="20.045963"><ele>1708</ele></trkpt>
    <trkpt lat="49.152460" lon="20.045768"><ele>1712</ele></trkpt>
    <trkpt lat="49.152557" lon="20.045401"><ele>1718</ele></trkpt>
    <trkpt lat="49.152573" lon="20.045187"><ele>1724</ele></trkpt>
    <trkpt lat="49.152518" lon="20.044939"><ele>1733</ele></trkpt>
    <trkpt lat="49.152544" lon="20.044719"><ele>1741</ele></trkpt>
    <trkpt lat="49.152626" lon="20.044530"><ele>1750</ele></trkpt>
    <trkpt lat="49.152784" lon="20.044460"><ele>1757</ele></trkpt>
    <trkpt lat="49.152856" lon="20.044481"><ele>1760</ele></trkpt>
    <trkpt lat="49.153045" lon="20.044789"><ele>1755</ele></trkpt>
    <trkpt lat="49.153169" lon="20.045093"><ele>1758</ele></trkpt>
    <trkpt lat="49.153045" lon="20.044789"><ele>1755</ele></trkpt>
    <trkpt lat="49.152856" lon="20.044481"><ele>1760</ele></trkpt>
    <trkpt lat="49.152784" lon="20.044460"><ele>1757</ele></trkpt>
    <trkpt lat="49.152626" lon="20.044530"><ele>1750</ele></trkpt>
    <trkpt lat="49.152544" lon="20.044719"><ele>1741</ele></trkpt>
    <trkpt lat="49.152518" lon="20.044939"><ele>1733</ele></trkpt>
    <trkpt lat="49.152573" lon="20.045187"><ele>1724</ele></trkpt>
    <trkpt lat="49.152557" lon="20.045401"><ele>1718</ele></trkpt>
    <trkpt lat="49.152460" lon="20.045768"><ele>1712</ele></trkpt>
    <trkpt lat="49.152094" lon="20.045963"><ele>1708</ele></trkpt>
    <trkpt lat="49.152053" lon="20.046065"><ele>1706</ele></trkpt>
    <trkpt lat="49.151855" lon="20.046254"><ele>1703</ele></trkpt>
    <trkpt lat="49.151583" lon="20.046674"><ele>1697</ele></trkpt>
    <trkpt lat="49.151496" lon="20.046758"><ele>1697</ele></trkpt>
    <trkpt lat="49.151165" lon="20.046912"><ele>1693</ele></trkpt>
    <trkpt lat="49.150831" lon="20.046967"><ele>1690</ele></trkpt>
    <trkpt lat="49.150674" lon="20.047112"><ele>1686</ele></trkpt>
    <trkpt lat="49.150396" lon="20.047045"><ele>1683</ele></trkpt>
    <trkpt lat="49.150121" lon="20.047034"><ele>1679</ele></trkpt>
    <trkpt lat="49.149904" lon="20.046908"><ele>1675</ele></trkpt>
    <trkpt lat="49.149324" lon="20.046923"><ele>1662</ele></trkpt>
    <trkpt lat="49.149134" lon="20.047112"><ele>1658</ele></trkpt>
    <trkpt lat="49.148872" lon="20.047145"><ele>1653</ele></trkpt>
    <trkpt lat="49.148572" lon="20.047268"><ele>1647</ele></trkpt>
    <trkpt lat="49.148293" lon="20.047242"><ele>1642</ele></trkpt>
    <trkpt lat="49.148173" lon="20.047179"><ele>1639</ele></trkpt>
    <trkpt lat="49.148023" lon="20.047445"><ele>1636</ele></trkpt>
    <trkpt lat="49.147941" lon="20.047412"><ele>1634</ele></trkpt>
    <trkpt lat="49.147828" lon="20.047282"><ele>1632</ele></trkpt>
    <trkpt lat="49.147590" lon="20.047271"><ele>1629</ele></trkpt>
    <trkpt lat="49.147205" lon="20.047404"><ele>1623</ele></trkpt>
    <trkpt lat="49.147128" lon="20.047474"><ele>1622</ele></trkpt>
    <trkpt lat="49.146828" lon="20.047592"><ele>1617</ele></trkpt>
    <trkpt lat="49.146455" lon="20.047560"><ele>1612</ele></trkpt>
    <trkpt lat="49.146256" lon="20.047714"><ele>1611</ele></trkpt>
    <trkpt lat="49.145995" lon="20.047807"><ele>1609</ele></trkpt>
    <trkpt lat="49.145727" lon="20.048040"><ele>1606</ele></trkpt>
    <trkpt lat="49.145515" lon="20.048157"><ele>1605</ele></trkpt>
    <trkpt lat="49.145438" lon="20.048145"><ele>1606</ele></trkpt>
    <trkpt lat="49.144973" lon="20.048607"><ele>1603</ele></trkpt>
    <trkpt lat="49.144713" lon="20.048987"><ele>1601</ele></trkpt>
    <trkpt lat="49.144442" lon="20.049075"><ele>1600</ele></trkpt>
    <trkpt lat="49.144106" lon="20.049326"><ele>1596</ele></trkpt>
    <trkpt lat="49.143921" lon="20.049338"><ele>1592</ele></trkpt>
    <trkpt lat="49.143818" lon="20.049458"><ele>1590</ele></trkpt>
    <trkpt lat="49.143778" lon="20.049725"><ele>1590</ele></trkpt>
    <trkpt lat="49.143971" lon="20.049910"><ele>1590</ele></trkpt>
    <trkpt lat="49.144125" lon="20.049961"><ele>1590</ele></trkpt>
    <trkpt lat="49.144557" lon="20.049984"><ele>1581</ele></trkpt>
    <trkpt lat="49.144744" lon="20.050105"><ele>1577</ele></trkpt>
    <trkpt lat="49.144733" lon="20.050154"><ele>1576</ele></trkpt>
    <trkpt lat="49.144582" lon="20.050284"><ele>1572</ele></trkpt>
    <trkpt lat="49.144448" lon="20.050469"><ele>1569</ele></trkpt>
    <trkpt lat="49.144345" lon="20.050657"><ele>1566</ele></trkpt>
    <trkpt lat="49.144232" lon="20.050731"><ele>1565</ele></trkpt>
    <trkpt lat="49.144018" lon="20.050694"><ele>1565</ele></trkpt>
    <trkpt lat="49.143703" lon="20.050772"><ele>1561</ele></trkpt>
    <trkpt lat="49.143559" lon="20.050617"><ele>1561</ele></trkpt>
    <trkpt lat="49.143448" lon="20.050617"><ele>1559</ele></trkpt>
    <trkpt lat="49.142776" lon="20.050929"><ele>1552</ele></trkpt>
    <trkpt lat="49.142659" lon="20.050922"><ele>1551</ele></trkpt>
    <trkpt lat="49.142471" lon="20.050829"><ele>1548</ele></trkpt>
    <trkpt lat="49.142213" lon="20.050501"><ele>1549</ele></trkpt>
    <trkpt lat="49.141994" lon="20.050307"><ele>1548</ele></trkpt>
    <trkpt lat="49.141598" lon="20.050163"><ele>1544</ele></trkpt>
    <trkpt lat="49.141402" lon="20.050141"><ele>1543</ele></trkpt>
    <trkpt lat="49.141288" lon="20.050080"><ele>1542</ele></trkpt>
    <trkpt lat="49.141094" lon="20.049837"><ele>1543</ele></trkpt>
    <trkpt lat="49.141018" lon="20.049875"><ele>1542</ele></trkpt>
    <trkpt lat="49.140918" lon="20.050351"><ele>1539</ele></trkpt>
    <trkpt lat="49.140941" lon="20.050682"><ele>1539</ele></trkpt>
    <trkpt lat="49.140892" lon="20.050727"><ele>1538</ele></trkpt>
    <trkpt lat="49.140669" lon="20.050710"><ele>1535</ele></trkpt>
    <trkpt lat="49.140400" lon="20.050339"><ele>1530</ele></trkpt>
    <trkpt lat="49.140298" lon="20.050255"><ele>1527</ele></trkpt>
    <trkpt lat="49.140121" lon="20.050179"><ele>1525</ele></trkpt>
    <trkpt lat="49.139800" lon="20.050195"><ele>1521</ele></trkpt>
    <trkpt lat="49.139511" lon="20.050428"><ele>1515</ele></trkpt>
    <trkpt lat="49.139212" lon="20.050816"><ele>1506</ele></trkpt>
    <trkpt lat="49.138849" lon="20.051130"><ele>1503</ele></trkpt>
    <trkpt lat="49.138809" lon="20.051810"><ele>1494</ele></trkpt>
    <trkpt lat="49.138775" lon="20.051954"><ele>1493</ele></trkpt>
    <trkpt lat="49.138691" lon="20.052046"><ele>1493</ele></trkpt>
    <trkpt lat="49.138149" lon="20.052361"><ele>1488</ele></trkpt>
    <trkpt lat="49.137777" lon="20.052402"><ele>1485</ele></trkpt>
    <trkpt lat="49.137243" lon="20.052780"><ele>1480</ele></trkpt>
    <trkpt lat="49.137112" lon="20.052802"><ele>1481</ele></trkpt>
    <trkpt lat="49.136969" lon="20.052888"><ele>1481</ele></trkpt>
    <trkpt lat="49.136831" lon="20.053079"><ele>1480</ele></trkpt>
    <trkpt lat="49.136576" lon="20.053293"><ele>1479</ele></trkpt>
    <trkpt lat="49.136344" lon="20.053416"><ele>1477</ele></trkpt>
    <trkpt lat="49.136125" lon="20.053450"><ele>1475</ele></trkpt>
    <trkpt lat="49.135774" lon="20.053304"><ele>1473</ele></trkpt>
    <trkpt lat="49.135615" lon="20.053330"><ele>1472</ele></trkpt>
    <trkpt lat="49.135418" lon="20.053488"><ele>1469</ele></trkpt>
    <trkpt lat="49.135236" lon="20.053756"><ele>1466</ele></trkpt>
    <trkpt lat="49.135002" lon="20.054267"><ele>1461</ele></trkpt>
    <trkpt lat="49.134637" lon="20.054793"><ele>1455</ele></trkpt>
    <trkpt lat="49.134551" lon="20.055048"><ele>1450</ele></trkpt>
    <trkpt lat="49.134383" lon="20.055035"><ele>1445</ele></trkpt>
    <trkpt lat="49.134181" lon="20.055319"><ele>1431</ele></trkpt>
    <trkpt lat="49.133750" lon="20.055510"><ele>1427</ele></trkpt>
    <trkpt lat="49.133381" lon="20.055947"><ele>1432</ele></trkpt>
    <trkpt lat="49.132745" lon="20.056968"><ele>1427</ele></trkpt>
    <trkpt lat="49.132510" lon="20.057838"><ele>1420</ele></trkpt>
    <trkpt lat="49.131223" lon="20.059376"><ele>1401</ele></trkpt>
    <trkpt lat="49.131056" lon="20.059511"><ele>1400</ele></trkpt>
    <trkpt lat="49.129272" lon="20.060398"><ele>1379</ele></trkpt>
    <trkpt lat="49.127532" lon="20.061334"><ele>1366</ele></trkpt>
    <trkpt lat="49.127513" lon="20.061260"><ele>1366</ele></trkpt>
    <trkpt lat="49.127389" lon="20.061316"><ele>1366</ele></trkpt>
    <trkpt lat="49.125326" lon="20.062301"><ele>1352</ele></trkpt>
    <trkpt lat="49.124528" lon="20.062760"><ele>1356</ele></trkpt>
    <trkpt lat="49.124545" lon="20.062839"><ele>1356</ele></trkpt>
    <trkpt lat="49.124414" lon="20.062953"><ele>1357</ele></trkpt>
    <trkpt lat="49.123816" lon="20.063738"><ele>1357</ele></trkpt>
    <trkpt lat="49.123655" lon="20.063886"><ele>1354</ele></trkpt>
    <trkpt lat="49.123187" lon="20.064155"><ele>1353</ele></trkpt>
  </trkseg></trk>
</gpx>
