<?xml version="1.0" encoding="UTF-8"?>
<gpx version="1.1" creator="MounTour (OpenStreetMap)" xmlns="http://www.topografix.com/GPX/1/1">
  <metadata><name>Vodopád ochrancov prírody</name><copyright author="OpenStreetMap contributors"><license>https://opendatacommons.org/licenses/odbl/</license></copyright></metadata>
  <trk><name>Vodopád ochrancov prírody</name><trkseg>
    <trkpt lat="48.962206" lon="20.402943"><ele>537</ele></trkpt>
    <trkpt lat="48.962303" lon="20.402565"><ele>532</ele></trkpt>
    <trkpt lat="48.962391" lon="20.402411"><ele>533</ele></trkpt>
    <trkpt lat="48.962335" lon="20.402285"><ele>535</ele></trkpt>
    <trkpt lat="48.962370" lon="20.402069"><ele>540</ele></trkpt>
    <trkpt lat="48.962309" lon="20.401975"><ele>543</ele></trkpt>
    <trkpt lat="48.962239" lon="20.401951"><ele>545</ele></trkpt>
    <trkpt lat="48.962230" lon="20.401820"><ele>548</ele></trkpt>
    <trkpt lat="48.961902" lon="20.400966"><ele>561</ele></trkpt>
    <trkpt lat="48.961641" lon="20.400372"><ele>564</ele></trkpt>
    <trkpt lat="48.961523" lon="20.400249"><ele>563</ele></trkpt>
    <trkpt lat="48.960956" lon="20.399940"><ele>559</ele></trkpt>
    <trkpt lat="48.960754" lon="20.399758"><ele>560</ele></trkpt>
    <trkpt lat="48.960393" lon="20.399565"><ele>564</ele></trkpt>
    <trkpt lat="48.960178" lon="20.399283"><ele>571</ele></trkpt>
    <trkpt lat="48.959981" lon="20.399297"><ele>575</ele></trkpt>
    <trkpt lat="48.959932" lon="20.399263"><ele>577</ele></trkpt>
    <trkpt lat="48.959704" lon="20.398923"><ele>586</ele></trkpt>
    <trkpt lat="48.959464" lon="20.398732"><ele>597</ele></trkpt>
    <trkpt lat="48.959282" lon="20.398642"><ele>604</ele></trkpt>
    <trkpt lat="48.959205" lon="20.398653"><ele>606</ele></trkpt>
    <trkpt lat="48.959010" lon="20.398812"><ele>610</ele></trkpt>
    <trkpt lat="48.958845" lon="20.398891"><ele>610</ele></trkpt>
    <trkpt lat="48.958394" lon="20.399002"><ele>608</ele></trkpt>
    <trkpt lat="48.958150" lon="20.398840"><ele>610</ele></trkpt>
    <trkpt lat="48.957824" lon="20.398729"><ele>609</ele></trkpt>
    <trkpt lat="48.957506" lon="20.398807"><ele>605</ele></trkpt>
    <trkpt lat="48.957321" lon="20.398945"><ele>605</ele></trkpt>
    <trkpt lat="48.957293" lon="20.399028"><ele>606</ele></trkpt>
    <trkpt lat="48.957321" lon="20.399145"><ele>606</ele></trkpt>
    <trkpt lat="48.957592" lon="20.399503"><ele>611</ele></trkpt>
    <trkpt lat="48.957726" lon="20.399751"><ele>615</ele></trkpt>
    <trkpt lat="48.957904" lon="20.400171"><ele>619</ele></trkpt>
    <trkpt lat="48.957909" lon="20.400328"><ele>622</ele></trkpt>
    <trkpt lat="48.957825" lon="20.400367"><ele>627</ele></trkpt>
    <trkpt lat="48.957696" lon="20.400342"><ele>633</ele></trkpt>
    <trkpt lat="48.957431" lon="20.400226"><ele>641</ele></trkpt>
    <trkpt lat="48.957301" lon="20.400281"><ele>646</ele></trkpt>
    <trkpt lat="48.957248" lon="20.400561"><ele>652</ele></trkpt>
    <trkpt lat="48.957281" lon="20.400988"><ele>657</ele></trkpt>
    <trkpt lat="48.957199" lon="20.401187"><ele>661</ele></trkpt>
    <trkpt lat="48.956751" lon="20.401177"><ele>670</ele></trkpt>
    <trkpt lat="48.956530" lon="20.401213"><ele>673</ele></trkpt>
    <trkpt lat="48.955698" lon="20.401646"><ele>694</ele></trkpt>
    <trkpt lat="48.955111" lon="20.402510"><ele>702</ele></trkpt>
    <trkpt lat="48.954125" lon="20.403492"><ele>716</ele></trkpt>
    <trkpt lat="48.953975" lon="20.403599"><ele>716</ele></trkpt>
    <trkpt lat="48.953845" lon="20.403778"><ele>717</ele></trkpt>
    <trkpt lat="48.953572" lon="20.404210"><ele>720</ele></trkpt>
    <trkpt lat="48.953378" lon="20.404644"><ele>719</ele></trkpt>
    <trkpt lat="48.953112" lon="20.405037"><ele>721</ele></trkpt>
    <trkpt lat="48.953024" lon="20.405232"><ele>717</ele></trkpt>
    <trkpt lat="48.952975" lon="20.405538"><ele>707</ele></trkpt>
    <trkpt lat="48.952906" lon="20.405615"><ele>706</ele></trkpt>
    <trkpt lat="48.952781" lon="20.405676"><ele>709</ele></trkpt>
    <trkpt lat="48.952310" lon="20.405618"><ele>712</ele></trkpt>
    <trkpt lat="48.952084" lon="20.405658"><ele>710</ele></trkpt>
    <trkpt lat="48.951640" lon="20.405390"><ele>716</ele></trkpt>
    <trkpt lat="48.951449" lon="20.405329"><ele>717</ele></trkpt>
    <trkpt lat="48.951359" lon="20.405365"><ele>718</ele></trkpt>
    <trkpt lat="48.951436" lon="20.405464"><ele>717</ele></trkpt>
    <trkpt lat="48.951510" lon="20.405688"><ele>715</ele></trkpt>
    <trkpt lat="48.951758" lon="20.406092"><ele>713</ele></trkpt>
    <trkpt lat="48.951966" lon="20.406707"><ele>719</ele></trkpt>
    <trkpt lat="48.951973" lon="20.406958"><ele>721</ele></trkpt>
    <trkpt lat="48.951736" lon="20.407608"><ele>731</ele></trkpt>
    <trkpt lat="48.951423" lon="20.407994"><ele>737</ele></trkpt>
    <trkpt lat="48.950716" lon="20.408667"><ele>749</ele></trkpt>
    <trkpt lat="48.950586" lon="20.409030"><ele>750</ele></trkpt>
    <trkpt lat="48.950512" lon="20.409344"><ele>750</ele></trkpt>
    <trkpt lat="48.950374" lon="20.409568"><ele>751</ele></trkpt>
    <trkpt lat="48.950157" lon="20.409730"><ele>756</ele></trkpt>
    <trkpt lat="48.949750" lon="20.409916"><ele>766</ele></trkpt>
    <trkpt lat="48.949309" lon="20.410001"><ele>771</ele></trkpt>
    <trkpt lat="48.949093" lon="20.409876"><ele>773</ele></trkpt>
    <trkpt lat="48.948441" lon="20.410128"><ele>779</ele></trkpt>
    <trkpt lat="48.948099" lon="20.410416"><ele>779</ele></trkpt>
    <trkpt lat="48.947049" lon="20.411903"><ele>787</ele></trkpt>
    <trkpt lat="48.946832" lon="20.412281"><ele>789</ele></trkpt>
    <trkpt lat="48.946831" lon="20.412423"><ele>789</ele></trkpt>
    <trkpt lat="48.946875" lon="20.412590"><ele>789</ele></trkpt>
    <trkpt lat="48.946860" lon="20.412917"><ele>790</ele></trkpt>
    <trkpt lat="48.946816" lon="20.413131"><ele>789</ele></trkpt>
    <trkpt lat="48.946754" lon="20.413261"><ele>787</ele></trkpt>
    <trkpt lat="48.946710" lon="20.413642"><ele>782</ele></trkpt>
    <trkpt lat="48.946540" lon="20.414199"><ele>790</ele></trkpt>
    <trkpt lat="48.946466" lon="20.414704"><ele>789</ele></trkpt>
    <trkpt lat="48.946230" lon="20.415531"><ele>784</ele></trkpt>
    <trkpt lat="48.945985" lon="20.416233"><ele>787</ele></trkpt>
    <trkpt lat="48.945757" lon="20.417168"><ele>786</ele></trkpt>
    <trkpt lat="48.945568" lon="20.417540"><ele>782</ele></trkpt>
    <trkpt lat="48.945196" lon="20.417838"><ele>785</ele></trkpt>
    <trkpt lat="48.944919" lon="20.418285"><ele>780</ele></trkpt>
    <trkpt lat="48.944680" lon="20.418587"><ele>776</ele></trkpt>
    <trkpt lat="48.944631" lon="20.418770"><ele>775</ele></trkpt>
    <trkpt lat="48.944612" lon="20.419290"><ele>774</ele></trkpt>
    <trkpt lat="48.944524" lon="20.419955"><ele>772</ele></trkpt>
    <trkpt lat="48.944378" lon="20.420350"><ele>769</ele></trkpt>
    <trkpt lat="48.943913" lon="20.420913"><ele>768</ele></trkpt>
    <trkpt lat="48.943729" lon="20.420928"><ele>770</ele></trkpt>
    <trkpt lat="48.943237" lon="20.420747"><ele>777</ele></trkpt>
    <trkpt lat="48.942790" lon="20.420516"><ele>791</ele></trkpt>
    <trkpt lat="48.942707" lon="20.420451"><ele>791</ele></trkpt>
    <trkpt lat="48.942614" lon="20.420291"><ele>791</ele></trkpt>
    <trkpt lat="48.942561" lon="20.419889"><ele>795</ele></trkpt>
    <trkpt lat="48.942433" lon="20.419430"><ele>795</ele></trkpt>
    <trkpt lat="48.942446" lon="20.418724"><ele>804</ele></trkpt>
    <trkpt lat="48.942194" lon="20.417823"><ele>821</ele></trkpt>
    <trkpt lat="48.941969" lon="20.417349"><ele>828</ele></trkpt>
    <trkpt lat="48.941731" lon="20.417184"><ele>832</ele></trkpt>
    <trkpt lat="48.941411" lon="20.417043"><ele>835</ele></trkpt>
    <trkpt lat="48.941219" lon="20.416775"><ele>839</ele></trkpt>
    <trkpt lat="48.940917" lon="20.415861"><ele>845</ele></trkpt>
    <trkpt lat="48.940813" lon="20.415454"><ele>846</ele></trkpt>
    <trkpt lat="48.940679" lon="20.414387"><ele>847</ele></trkpt>
    <trkpt lat="48.940504" lon="20.413913"><ele>845</ele></trkpt>
    <trkpt lat="48.940262" lon="20.413535"><ele>843</ele></trkpt>
    <trkpt lat="48.940159" lon="20.413129"><ele>842</ele></trkpt>
    <trkpt lat="48.940038" lon="20.413046"><ele>838</ele></trkpt>
    <trkpt lat="48.939845" lon="20.413028"><ele>828</ele></trkpt>
    <trkpt lat="48.939742" lon="20.412920"><ele>823</ele></trkpt>
    <trkpt lat="48.939735" lon="20.412862"><ele>823</ele></trkpt>
    <trkpt lat="48.939912" lon="20.412257"><ele>826</ele></trkpt>
    <trkpt lat="48.940221" lon="20.411640"><ele>816</ele></trkpt>
    <trkpt lat="48.940436" lon="20.411337"><ele>811</ele></trkpt>
    <trkpt lat="48.940486" lon="20.411160"><ele>809</ele></trkpt>
    <trkpt lat="48.940674" lon="20.409950"><ele>801</ele></trkpt>
    <trkpt lat="48.940652" lon="20.409784"><ele>805</ele></trkpt>
    <trkpt lat="48.940415" lon="20.409629"><ele>808</ele></trkpt>
    <trkpt lat="48.940229" lon="20.409606"><ele>808</ele></trkpt>
    <trkpt lat="48.939777" lon="20.409741"><ele>792</ele></trkpt>
    <trkpt lat="48.939649" lon="20.409875"><ele>785</ele></trkpt>
    <trkpt lat="48.939514" lon="20.409893"><ele>779</ele></trkpt>
    <trkpt lat="48.939380" lon="20.409847"><ele>771</ele></trkpt>
    <trkpt lat="48.939316" lon="20.409650"><ele>769</ele></trkpt>
    <trkpt lat="48.939372" lon="20.409175"><ele>777</ele></trkpt>
    <trkpt lat="48.939323" lon="20.408886"><ele>776</ele></trkpt>
    <trkpt lat="48.939102" lon="20.408578"><ele>768</ele></trkpt>
    <trkpt lat="48.938840" lon="20.408596"><ele>754</ele></trkpt>
    <trkpt lat="48.938810" lon="20.408552"><ele>755</ele></trkpt>
    <trkpt lat="48.938784" lon="20.408104"><ele>757</ele></trkpt>
    <trkpt lat="48.938678" lon="20.407809"><ele>756</ele></trkpt>
    <trkpt lat="48.938563" lon="20.407743"><ele>756</ele></trkpt>
    <trkpt lat="48.938446" lon="20.407734"><ele>762</ele></trkpt>
    <trkpt lat="48.938316" lon="20.407645"><ele>768</ele></trkpt>
    <trkpt lat="48.938036" lon="20.407233"><ele>774</ele></trkpt>
    <trkpt lat="48.937842" lon="20.407072"><ele>774</ele></trkpt>
    <trkpt lat="48.937655" lon="20.406953"><ele>774</ele></trkpt>
    <trkpt lat="48.937215" lon="20.406775"><ele>777</ele></trkpt>
    <trkpt lat="48.937058" lon="20.406450"><ele>778</ele></trkpt>
    <trkpt lat="48.936972" lon="20.406377"><ele>779</ele></trkpt>
    <trkpt lat="48.936808" lon="20.406354"><ele>780</ele></trkpt>
    <trkpt lat="48.936665" lon="20.406394"><ele>779</ele></trkpt>
    <trkpt lat="48.936501" lon="20.406363"><ele>781</ele></trkpt>
    <trkpt lat="48.936394" lon="20.406286"><ele>781</ele></trkpt>
    <trkpt lat="48.935055" lon="20.404870"><ele>798</ele></trkpt>
    <trkpt lat="48.934858" lon="20.404484"><ele>798</ele></trkpt>
    <trkpt lat="48.934689" lon="20.404015"><ele>800</ele></trkpt>
    <trkpt lat="48.934477" lon="20.403672"><ele>805</ele></trkpt>
    <trkpt lat="48.933859" lon="20.402936"><ele>812</ele></trkpt>
    <trkpt lat="48.933763" lon="20.402655"><ele>815</ele></trkpt>
    <trkpt lat="48.933672" lon="20.402132"><ele>817</ele></trkpt>
    <trkpt lat="48.933490" lon="20.401884"><ele>819</ele></trkpt>
    <trkpt lat="48.933315" lon="20.400735"><ele>822</ele></trkpt>
    <trkpt lat="48.933222" lon="20.400613"><ele>827</ele></trkpt>
    <trkpt lat="48.932972" lon="20.400471"><ele>833</ele></trkpt>
    <trkpt lat="48.932727" lon="20.399953"><ele>846</ele></trkpt>
    <trkpt lat="48.932238" lon="20.399818"><ele>858</ele></trkpt>
    <trkpt lat="48.932123" lon="20.399687"><ele>860</ele></trkpt>
    <trkpt lat="48.931840" lon="20.399478"><ele>867</ele></trkpt>
    <trkpt lat="48.931723" lon="20.399470"><ele>869</ele></trkpt>
    <trkpt lat="48.931565" lon="20.399640"><ele>867</ele></trkpt>
    <trkpt lat="48.931467" lon="20.399640"><ele>867</ele></trkpt>
    <trkpt lat="48.931152" lon="20.399428"><ele>868</ele></trkpt>
    <trkpt lat="48.930902" lon="20.399171"><ele>870</ele></trkpt>
    <trkpt lat="48.930679" lon="20.398794"><ele>873</ele></trkpt>
    <trkpt lat="48.930568" lon="20.398726"><ele>872</ele></trkpt>
    <trkpt lat="48.930515" lon="20.398562"><ele>874</ele></trkpt>
    <trkpt lat="48.930442" lon="20.398488"><ele>876</ele></trkpt>
    <trkpt lat="48.930410" lon="20.398397"><ele>877</ele></trkpt>
    <trkpt lat="48.930289" lon="20.398314"><ele>875</ele></trkpt>
    <trkpt lat="48.930073" lon="20.398005"><ele>886</ele></trkpt>
    <trkpt lat="48.929983" lon="20.397354"><ele>889</ele></trkpt>
    <trkpt lat="48.930013" lon="20.397230"><ele>890</ele></trkpt>
    <trkpt lat="48.929929" lon="20.396871"><ele>894</ele></trkpt>
    <trkpt lat="48.929713" lon="20.396454"><ele>898</ele></trkpt>
    <trkpt lat="48.929523" lon="20.396202"><ele>901</ele></trkpt>
    <trkpt lat="48.929318" lon="20.396137"><ele>903</ele></trkpt>
    <trkpt lat="48.929185" lon="20.396001"><ele>907</ele></trkpt>
    <trkpt lat="48.929113" lon="20.396022"><ele>906</ele></trkpt>
    <trkpt lat="48.928523" lon="20.395917"><ele>906</ele></trkpt>
    <trkpt lat="48.927374" lon="20.395904"><ele>918</ele></trkpt>
    <trkpt lat="48.927171" lon="20.395874"><ele>919</ele></trkpt>
    <trkpt lat="48.926965" lon="20.395729"><ele>916</ele></trkpt>
    <trkpt lat="48.926789" lon="20.395702"><ele>921</ele></trkpt>
    <trkpt lat="48.925978" lon="20.396016"><ele>938</ele></trkpt>
    <trkpt lat="48.925795" lon="20.395989"><ele>943</ele></trkpt>
    <trkpt lat="48.925371" lon="20.395797"><ele>947</ele></trkpt>
    <trkpt lat="48.925341" lon="20.395889"><ele>951</ele></trkpt>
    <trkpt lat="48.925267" lon="20.395857"><ele>952</ele></trkpt>
    <trkpt lat="48.925257" lon="20.395939"><ele>954</ele></trkpt>
    <trkpt lat="48.925120" lon="20.395861"><ele>955</ele></trkpt>
    <trkpt lat="48.925118" lon="20.395928"><ele>957</ele></trkpt>
    <trkpt lat="48.925046" lon="20.395906"><ele>958</ele></trkpt>
    <trkpt lat="48.925029" lon="20.395972"><ele>960</ele></trkpt>
    <trkpt lat="48.924961" lon="20.395995"><ele>963</ele></trkpt>
    <trkpt lat="48.924939" lon="20.395918"><ele>962</ele></trkpt>
    <trkpt lat="48.924696" lon="20.395840"><ele>968</ele></trkpt>
    <trkpt lat="48.924624" lon="20.395707"><ele>969</ele></trkpt>
    <trkpt lat="48.924568" lon="20.395673"><ele>970</ele></trkpt>
    <trkpt lat="48.924395" lon="20.395853"><ele>976</ele></trkpt>
    <trkpt lat="48.924286" lon="20.396204"><ele>978</ele></trkpt>
    <trkpt lat="48.924241" lon="20.396534"><ele>980</ele></trkpt>
    <trkpt lat="48.924158" lon="20.396834"><ele>981</ele></trkpt>
    <trkpt lat="48.924103" lon="20.396406"><ele>982</ele></trkpt>
    <trkpt lat="48.924068" lon="20.395128"><ele>986</ele></trkpt>
    <trkpt lat="48.924108" lon="20.394740"><ele>990</ele></trkpt>
    <trkpt lat="48.924197" lon="20.394402"><ele>992</ele></trkpt>
    <trkpt lat="48.924685" lon="20.393495"><ele>990</ele></trkpt>
    <trkpt lat="48.924994" lon="20.393145"><ele>990</ele></trkpt>
    <trkpt lat="48.925293" lon="20.393144"><ele>991</ele></trkpt>
    <trkpt lat="48.925354" lon="20.393060"><ele>993</ele></trkpt>
    <trkpt lat="48.925643" lon="20.392398"><ele>1000</ele></trkpt>
    <trkpt lat="48.925814" lon="20.392208"><ele>1001</ele></trkpt>
    <trkpt lat="48.926403" lon="20.391913"><ele>1006</ele></trkpt>
    <trkpt lat="48.926739" lon="20.391639"><ele>1015</ele></trkpt>
    <trkpt lat="48.926967" lon="20.391550"><ele>1016</ele></trkpt>
    <trkpt lat="48.927127" lon="20.391381"><ele>1018</ele></trkpt>
    <trkpt lat="48.927173" lon="20.391046"><ele>1019</ele></trkpt>
    <trkpt lat="48.927155" lon="20.390770"><ele>1020</ele></trkpt>
    <trkpt lat="48.927045" lon="20.389739"><ele>1018</ele></trkpt>
    <trkpt lat="48.926881" lon="20.388723"><ele>1010</ele></trkpt>
    <trkpt lat="48.926865" lon="20.388042"><ele>1005</ele></trkpt>
    <trkpt lat="48.926912" lon="20.387659"><ele>999</ele></trkpt>
    <trkpt lat="48.927104" lon="20.387124"><ele>994</ele></trkpt>
    <trkpt lat="48.927248" lon="20.386547"><ele>990</ele></trkpt>
    <trkpt lat="48.927474" lon="20.386758"><ele>994</ele></trkpt>
    <trkpt lat="48.927642" lon="20.386819"><ele>998</ele></trkpt>
    <trkpt lat="48.927783" lon="20.386779"><ele>1001</ele></trkpt>
    <trkpt lat="48.927969" lon="20.386656"><ele>1003</ele></trkpt>
    <trkpt lat="48.928286" lon="20.386607"><ele>1003</ele></trkpt>
    <trkpt lat="48.928735" lon="20.386364"><ele>1001</ele></trkpt>
    <trkpt lat="48.928987" lon="20.386293"><ele>998</ele></trkpt>
    <trkpt lat="48.929111" lon="20.386345"><ele>997</ele></trkpt>
    <trkpt lat="48.929203" lon="20.386444"><ele>996</ele></trkpt>
    <trkpt lat="48.929381" lon="20.386792"><ele>992</ele></trkpt>
    <trkpt lat="48.929472" lon="20.386855"><ele>992</ele></trkpt>
    <trkpt lat="48.929590" lon="20.386834"><ele>991</ele></trkpt>
    <trkpt lat="48.929962" lon="20.386315"><ele>990</ele></trkpt>
    <trkpt lat="48.930474" lon="20.385785"><ele>985</ele></trkpt>
    <trkpt lat="48.931258" lon="20.384318"><ele>975</ele></trkpt>
    <trkpt lat="48.931615" lon="20.383781"><ele>972</ele></trkpt>
    <trkpt lat="48.932598" lon="20.383128"><ele>962</ele></trkpt>
    <trkpt lat="48.932891" lon="20.383025"><ele>965</ele></trkpt>
    <trkpt lat="48.933200" lon="20.383008"><ele>966</ele></trkpt>
    <trkpt lat="48.934012" lon="20.383249"><ele>955</ele></trkpt>
    <trkpt lat="48.934455" lon="20.383542"><ele>953</ele></trkpt>
    <trkpt lat="48.934608" lon="20.383722"><ele>959</ele></trkpt>
    <trkpt lat="48.934920" lon="20.384584"><ele>964</ele></trkpt>
    <trkpt lat="48.935474" lon="20.385800"><ele>961</ele></trkpt>
    <trkpt lat="48.935779" lon="20.386435"><ele>958</ele></trkpt>
    <trkpt lat="48.936067" lon="20.386835"><ele>956</ele></trkpt>
    <trkpt lat="48.936285" lon="20.387244"><ele>954</ele></trkpt>
    <trkpt lat="48.936493" lon="20.388334"><ele>955</ele></trkpt>
    <trkpt lat="48.936727" lon="20.388973"><ele>955</ele></trkpt>
    <trkpt lat="48.937290" lon="20.389959"><ele>950</ele></trkpt>
    <trkpt lat="48.937381" lon="20.390217"><ele>953</ele></trkpt>
    <trkpt lat="48.937564" lon="20.390454"><ele>955</ele></trkpt>
    <trkpt lat="48.937880" lon="20.390621"><ele>952</ele></trkpt>
    <trkpt lat="48.938143" lon="20.390675"><ele>950</ele></trkpt>
    <trkpt lat="48.938502" lon="20.390851"><ele>949</ele></trkpt>
    <trkpt lat="48.938928" lon="20.391229"><ele>947</ele></trkpt>
    <trkpt lat="48.939276" lon="20.391711"><ele>936</ele></trkpt>
    <trkpt lat="48.939867" lon="20.392410"><ele>927</ele></trkpt>
    <trkpt lat="48.940098" lon="20.392570"><ele>926</ele></trkpt>
    <trkpt lat="48.940348" lon="20.392511"><ele>931</ele></trkpt>
    <trkpt lat="48.940681" lon="20.392197"><ele>935</ele></trkpt>
    <trkpt lat="48.941011" lon="20.392032"><ele>934</ele></trkpt>
    <trkpt lat="48.941337" lon="20.392014"><ele>932</ele></trkpt>
    <trkpt lat="48.941702" lon="20.392158"><ele>931</ele></trkpt>
    <trkpt lat="48.942324" lon="20.392909"><ele>935</ele></trkpt>
    <trkpt lat="48.942835" lon="20.393198"><ele>940</ele></trkpt>
    <trkpt lat="48.942996" lon="20.393397"><ele>941</ele></trkpt>
    <trkpt lat="48.943230" lon="20.393779"><ele>933</ele></trkpt>
    <trkpt lat="48.943387" lon="20.394258"><ele>927</ele></trkpt>
    <trkpt lat="48.943576" lon="20.394658"><ele>922</ele></trkpt>
    <trkpt lat="48.943672" lon="20.394807"><ele>922</ele></trkpt>
    <trkpt lat="48.943787" lon="20.394904"><ele>922</ele></trkpt>
    <trkpt lat="48.943949" lon="20.394985"><ele>922</ele></trkpt>
    <trkpt lat="48.944399" lon="20.395086"><ele>926</ele></trkpt>
    <trkpt lat="48.944574" lon="20.395080"><ele>923</ele></trkpt>
    <trkpt lat="48.944831" lon="20.394931"><ele>920</ele></trkpt>
    <trkpt lat="48.945085" lon="20.394944"><ele>923</ele></trkpt>
    <trkpt lat="48.945313" lon="20.395018"><ele>922</ele></trkpt>
    <trkpt lat="48.945818" lon="20.395288"><ele>905</ele></trkpt>
    <trkpt lat="48.946051" lon="20.395351"><ele>901</ele></trkpt>
    <trkpt lat="48.946251" lon="20.395339"><ele>900</ele></trkpt>
    <trkpt lat="48.946472" lon="20.395245"><ele>903</ele></trkpt>
    <trkpt lat="48.946629" lon="20.395062"><ele>909</ele></trkpt>
    <trkpt lat="48.946728" lon="20.394849"><ele>912</ele></trkpt>
    <trkpt lat="48.946772" lon="20.394676"><ele>914</ele></trkpt>
    <trkpt lat="48.946766" lon="20.394298"><ele>915</ele></trkpt>
    <trkpt lat="48.946852" lon="20.393700"><ele>920</ele></trkpt>
    <trkpt lat="48.946883" lon="20.393588"><ele>921</ele></trkpt>
    <trkpt lat="48.947162" lon="20.393051"><ele>929</ele></trkpt>
    <trkpt lat="48.947284" lon="20.392726"><ele>931</ele></trkpt>
    <trkpt lat="48.947409" lon="20.392115"><ele>928</ele></trkpt>
    <trkpt lat="48.947441" lon="20.391553"><ele>924</ele></trkpt>
    <trkpt lat="48.947662" lon="20.390717"><ele>921</ele></trkpt>
    <trkpt lat="48.947744" lon="20.390497"><ele>920</ele></trkpt>
    <trkpt lat="48.947818" lon="20.390398"><ele>920</ele></trkpt>
    <trkpt lat="48.947950" lon="20.390244"><ele>918</ele></trkpt>
    <trkpt lat="48.948144" lon="20.390103"><ele>915</ele></trkpt>
    <trkpt lat="48.948314" lon="20.390020"><ele>914</ele></trkpt>
    <trkpt lat="48.948450" lon="20.390004"><ele>913</ele></trkpt>
    <trkpt lat="48.948588" lon="20.390052"><ele>911</ele></trkpt>
    <trkpt lat="48.948673" lon="20.390140"><ele>910</ele></trkpt>
    <trkpt lat="48.948701" lon="20.390415"><ele>909</ele></trkpt>
    <trkpt lat="48.948648" lon="20.391030"><ele>902</ele></trkpt>
    <trkpt lat="48.948659" lon="20.391444"><ele>899</ele></trkpt>
    <trkpt lat="48.948755" lon="20.392012"><ele>899</ele></trkpt>
    <trkpt lat="48.948805" lon="20.392180"><ele>899</ele></trkpt>
    <trkpt lat="48.948978" lon="20.392515"><ele>898</ele></trkpt>
    <trkpt lat="48.949440" lon="20.393047"><ele>895</ele></trkpt>
    <trkpt lat="48.949757" lon="20.393255"><ele>889</ele></trkpt>
    <trkpt lat="48.949832" lon="20.393274"><ele>888</ele></trkpt>
    <trkpt lat="48.950198" lon="20.393000"><ele>885</ele></trkpt>
    <trkpt lat="48.950339" lon="20.392969"><ele>883</ele></trkpt>
    <trkpt lat="48.950424" lon="20.393018"><ele>882</ele></trkpt>
    <trkpt lat="48.950476" lon="20.393128"><ele>882</ele></trkpt>
    <trkpt lat="48.950483" lon="20.393295"><ele>883</ele></trkpt>
    <trkpt lat="48.950410" lon="20.393616"><ele>884</ele></trkpt>
    <trkpt lat="48.950573" lon="20.393876"><ele>881</ele></trkpt>
    <trkpt lat="48.950747" lon="20.394275"><ele>873</ele></trkpt>
    <trkpt lat="48.950975" lon="20.394493"><ele>865</ele></trkpt>
    <trkpt lat="48.951081" lon="20.394726"><ele>861</ele></trkpt>
    <trkpt lat="48.951445" lon="20.394540"><ele>857</ele></trkpt>
    <trkpt lat="48.951989" lon="20.394170"><ele>849</ele></trkpt>
    <trkpt lat="48.952389" lon="20.393836"><ele>837</ele></trkpt>
    <trkpt lat="48.952976" lon="20.393549"><ele>837</ele></trkpt>
    <trkpt lat="48.953258" lon="20.393252"><ele>831</ele></trkpt>
    <trkpt lat="48.953421" lon="20.392990"><ele>826</ele></trkpt>
    <trkpt lat="48.953500" lon="20.392673"><ele>824</ele></trkpt>
    <trkpt lat="48.953469" lon="20.392301"><ele>822</ele></trkpt>
    <trkpt lat="48.953431" lon="20.392113"><ele>818</ele></trkpt>
    <trkpt lat="48.953205" lon="20.391550"><ele>811</ele></trkpt>
    <trkpt lat="48.953145" lon="20.391481"><ele>810</ele></trkpt>
    <trkpt lat="48.952990" lon="20.391427"><ele>811</ele></trkpt>
    <trkpt lat="48.952228" lon="20.391251"><ele>816</ele></trkpt>
    <trkpt lat="48.952168" lon="20.391200"><ele>815</ele></trkpt>
    <trkpt lat="48.952127" lon="20.391047"><ele>813</ele></trkpt>
    <trkpt lat="48.952196" lon="20.390873"><ele>811</ele></trkpt>
    <trkpt lat="48.952354" lon="20.390695"><ele>808</ele></trkpt>
    <trkpt lat="48.952899" lon="20.389815"><ele>798</ele></trkpt>
    <trkpt lat="48.953020" lon="20.389689"><ele>795</ele></trkpt>
    <trkpt lat="48.953584" lon="20.389515"><ele>781</ele></trkpt>
    <trkpt lat="48.953818" lon="20.389375"><ele>779</ele></trkpt>
    <trkpt lat="48.954294" lon="20.389316"><ele>768</ele></trkpt>
    <trkpt lat="48.954435" lon="20.389257"><ele>766</ele></trkpt>
    <trkpt lat="48.954597" lon="20.389251"><ele>763</ele></trkpt>
    <trkpt lat="48.955144" lon="20.389356"><ele>751</ele></trkpt>
    <trkpt lat="48.955514" lon="20.389210"><ele>746</ele></trkpt>
    <trkpt lat="48.955627" lon="20.389209"><ele>744</ele></trkpt>
    <trkpt lat="48.955761" lon="20.389273"><ele>739</ele></trkpt>
    <trkpt lat="48.956016" lon="20.389181"><ele>740</ele></trkpt>
    <trkpt lat="48.956153" lon="20.389262"><ele>736</ele></trkpt>
    <trkpt lat="48.956290" lon="20.389266"><ele>736</ele></trkpt>
    <trkpt lat="48.956445" lon="20.389336"><ele>734</ele></trkpt>
    <trkpt lat="48.956498" lon="20.389635"><ele>725</ele></trkpt>
    <trkpt lat="48.956638" lon="20.389821"><ele>719</ele></trkpt>
    <trkpt lat="48.957047" lon="20.389896"><ele>715</ele></trkpt>
    <trkpt lat="48.957354" lon="20.389836"><ele>712</ele></trkpt>
    <trkpt lat="48.957667" lon="20.389641"><ele>710</ele></trkpt>
    <trkpt lat="48.958105" lon="20.389001"><ele>699</ele></trkpt>
    <trkpt lat="48.958257" lon="20.388867"><ele>691</ele></trkpt>
    <trkpt lat="48.958325" lon="20.388737"><ele>686</ele></trkpt>
    <trkpt lat="48.958669" lon="20.388627"><ele>670</ele></trkpt>
    <trkpt lat="48.958766" lon="20.388520"><ele>664</ele></trkpt>
    <trkpt lat="48.959019" lon="20.388490"><ele>661</ele></trkpt>
    <trkpt lat="48.959352" lon="20.388351"><ele>655</ele></trkpt>
    <trkpt lat="48.959590" lon="20.388337"><ele>649</ele></trkpt>
    <trkpt lat="48.960416" lon="20.387996"><ele>625</ele></trkpt>
    <trkpt lat="48.961135" lon="20.387940"><ele>608</ele></trkpt>
    <trkpt lat="48.961321" lon="20.387731"><ele>601</ele></trkpt>
    <trkpt lat="48.961433" lon="20.387317"><ele>596</ele></trkpt>
    <trkpt lat="48.961492" lon="20.387197"><ele>593</ele></trkpt>
    <trkpt lat="48.961668" lon="20.387021"><ele>583</ele></trkpt>
    <trkpt lat="48.961976" lon="20.386584"><ele>590</ele></trkpt>
    <trkpt lat="48.962170" lon="20.386435"><ele>590</ele></trkpt>
    <trkpt lat="48.962231" lon="20.386338"><ele>590</ele></trkpt>
    <trkpt lat="48.962357" lon="20.386263"><ele>589</ele></trkpt>
    <trkpt lat="48.962927" lon="20.386089"><ele>579</ele></trkpt>
    <trkpt lat="48.963208" lon="20.385877"><ele>565</ele></trkpt>
    <trkpt lat="48.963535" lon="20.386022"><ele>554</ele></trkpt>
    <trkpt lat="48.963997" lon="20.386111"><ele>547</ele></trkpt>
    <trkpt lat="48.963732" lon="20.386890"><ele>549</ele></trkpt>
    <trkpt lat="48.963967" lon="20.387017"><ele>546</ele></trkpt>
    <trkpt lat="48.963303" lon="20.388779"><ele>553</ele></trkpt>
    <trkpt lat="48.963130" lon="20.389346"><ele>555</ele></trkpt>
    <trkpt lat="48.963003" lon="20.390056"><ele>553</ele></trkpt>
    <trkpt lat="48.962990" lon="20.390550"><ele>554</ele></trkpt>
    <trkpt lat="48.963104" lon="20.392163"><ele>547</ele></trkpt>
    <trkpt lat="48.963221" lon="20.393204"><ele>545</ele></trkpt>
    <trkpt lat="48.963361" lon="20.393875"><ele>548</ele></trkpt>
    <trkpt lat="48.963376" lon="20.394093"><ele>546</ele></trkpt>
    <trkpt lat="48.963284" lon="20.394530"><ele>543</ele></trkpt>
    <trkpt lat="48.963216" lon="20.395277"><ele>546</ele></trkpt>
    <trkpt lat="48.963133" lon="20.395679"><ele>547</ele></trkpt>
    <trkpt lat="48.963205" lon="20.395814"><ele>542</ele></trkpt>
    <trkpt lat="48.963252" lon="20.396034"><ele>538</ele></trkpt>
    <trkpt lat="48.963112" lon="20.396922"><ele>535</ele></trkpt>
    <trkpt lat="48.962847" lon="20.397639"><ele>539</ele></trkpt>
    <trkpt lat="48.962767" lon="20.398060"><ele>539</ele></trkpt>
    <trkpt lat="48.962565" lon="20.398578"><ele>547</ele></trkpt>
    <trkpt lat="48.962507" lon="20.398642"><ele>550</ele></trkpt>
    <trkpt lat="48.962463" lon="20.398898"><ele>549</ele></trkpt>
    <trkpt lat="48.962440" lon="20.399629"><ele>542</ele></trkpt>
    <trkpt lat="48.962517" lon="20.400052"><ele>539</ele></trkpt>
    <trkpt lat="48.962591" lon="20.401073"><ele>541</ele></trkpt>
    <trkpt lat="48.962573" lon="20.401689"><ele>541</ele></trkpt>
    <trkpt lat="48.962464" lon="20.402318"><ele>535</ele></trkpt>
    <trkpt lat="48.962316" lon="20.402532"><ele>532</ele></trkpt>
    <trkpt lat="48.962206" lon="20.402943"><ele>537</ele></trkpt>
  </trkseg></trk>
</gpx>
