<?xml version="1.0" encoding="UTF-8"?>
<gpx version="1.1" creator="MounTour (OpenStreetMap)" xmlns="http://www.topografix.com/GPX/1/1">
  <metadata><name>Východná Vysoká</name><copyright author="OpenStreetMap contributors"><license>https://opendatacommons.org/licenses/odbl/</license></copyright></metadata>
  <trk><name>Východná Vysoká</name><trkseg>
    <trkpt lat="49.151871" lon="20.162444"><ele>1565</ele></trkpt>
    <trkpt lat="49.152205" lon="20.162119"><ele>1570</ele></trkpt>
    <trkpt lat="49.152638" lon="20.161379"><ele>1580</ele></trkpt>
    <trkpt lat="49.152756" lon="20.161256"><ele>1583</ele></trkpt>
    <trkpt lat="49.153142" lon="20.160637"><ele>1595</ele></trkpt>
    <trkpt lat="49.153893" lon="20.159576"><ele>1616</ele></trkpt>
    <trkpt lat="49.154123" lon="20.159162"><ele>1624</ele></trkpt>
    <trkpt lat="49.154353" lon="20.158831"><ele>1632</ele></trkpt>
    <trkpt lat="49.154852" lon="20.158335"><ele>1641</ele></trkpt>
    <trkpt lat="49.155350" lon="20.158059"><ele>1651</ele></trkpt>
    <trkpt lat="49.155985" lon="20.157547"><ele>1665</ele></trkpt>
    <trkpt lat="49.156036" lon="20.157386"><ele>1667</ele></trkpt>
    <trkpt lat="49.156029" lon="20.157255"><ele>1667</ele></trkpt>
    <trkpt lat="49.156154" lon="20.157140"><ele>1668</ele></trkpt>
    <trkpt lat="49.156524" lon="20.156975"><ele>1669</ele></trkpt>
    <trkpt lat="49.156831" lon="20.156763"><ele>1670</ele></trkpt>
    <trkpt lat="49.157065" lon="20.156727"><ele>1670</ele></trkpt>
    <trkpt lat="49.157724" lon="20.156446"><ele>1669</ele></trkpt>
    <trkpt lat="49.158317" lon="20.156292"><ele>1668</ele></trkpt>
    <trkpt lat="49.158399" lon="20.156360"><ele>1669</ele></trkpt>
    <trkpt lat="49.158585" lon="20.156395"><ele>1669</ele></trkpt>
    <trkpt lat="49.158797" lon="20.156332"><ele>1668</ele></trkpt>
    <trkpt lat="49.159071" lon="20.156445"><ele>1672</ele></trkpt>
    <trkpt lat="49.159577" lon="20.156499"><ele>1683</ele></trkpt>
    <trkpt lat="49.159833" lon="20.156686"><ele>1691</ele></trkpt>
    <trkpt lat="49.159962" lon="20.156669"><ele>1694</ele></trkpt>
    <trkpt lat="49.159994" lon="20.156713"><ele>1696</ele></trkpt>
    <trkpt lat="49.159982" lon="20.156817"><ele>1697</ele></trkpt>
    <trkpt lat="49.159913" lon="20.157030"><ele>1700</ele></trkpt>
    <trkpt lat="49.159749" lon="20.157187"><ele>1699</ele></trkpt>
    <trkpt lat="49.159695" lon="20.157308"><ele>1700</ele></trkpt>
    <trkpt lat="49.159669" lon="20.157521"><ele>1704</ele></trkpt>
    <trkpt lat="49.159784" lon="20.157525"><ele>1707</ele></trkpt>
    <trkpt lat="49.160272" lon="20.157338"><ele>1719</ele></trkpt>
    <trkpt lat="49.160454" lon="20.157339"><ele>1727</ele></trkpt>
    <trkpt lat="49.160541" lon="20.157267"><ele>1729</ele></trkpt>
    <trkpt lat="49.160688" lon="20.157013"><ele>1736</ele></trkpt>
    <trkpt lat="49.160848" lon="20.156377"><ele>1754</ele></trkpt>
    <trkpt lat="49.160900" lon="20.156234"><ele>1760</ele></trkpt>
    <trkpt lat="49.160939" lon="20.156228"><ele>1765</ele></trkpt>
    <trkpt lat="49.160925" lon="20.155939"><ele>1766</ele></trkpt>
    <trkpt lat="49.160825" lon="20.155838"><ele>1758</ele></trkpt>
    <trkpt lat="49.160785" lon="20.155704"><ele>1755</ele></trkpt>
    <trkpt lat="49.160846" lon="20.155439"><ele>1762</ele></trkpt>
    <trkpt lat="49.160854" lon="20.155235"><ele>1763</ele></trkpt>
    <trkpt lat="49.160913" lon="20.155148"><ele>1768</ele></trkpt>
    <trkpt lat="49.160959" lon="20.155205"><ele>1771</ele></trkpt>
    <trkpt lat="49.161055" lon="20.155096"><ele>1778</ele></trkpt>
    <trkpt lat="49.161098" lon="20.155399"><ele>1782</ele></trkpt>
    <trkpt lat="49.161131" lon="20.155497"><ele>1784</ele></trkpt>
    <trkpt lat="49.161183" lon="20.155520"><ele>1788</ele></trkpt>
    <trkpt lat="49.161305" lon="20.155246"><ele>1793</ele></trkpt>
    <trkpt lat="49.161394" lon="20.154795"><ele>1795</ele></trkpt>
    <trkpt lat="49.161525" lon="20.154933"><ele>1801</ele></trkpt>
    <trkpt lat="49.161621" lon="20.154714"><ele>1803</ele></trkpt>
    <trkpt lat="49.161735" lon="20.154646"><ele>1807</ele></trkpt>
    <trkpt lat="49.161796" lon="20.154464"><ele>1808</ele></trkpt>
    <trkpt lat="49.162133" lon="20.154229"><ele>1814</ele></trkpt>
    <trkpt lat="49.162185" lon="20.154117"><ele>1814</ele></trkpt>
    <trkpt lat="49.162591" lon="20.153833"><ele>1815</ele></trkpt>
    <trkpt lat="49.162891" lon="20.153566"><ele>1816</ele></trkpt>
    <trkpt lat="49.163037" lon="20.153498"><ele>1817</ele></trkpt>
    <trkpt lat="49.163367" lon="20.153243"><ele>1823</ele></trkpt>
    <trkpt lat="49.163457" lon="20.153116"><ele>1826</ele></trkpt>
    <trkpt lat="49.163561" lon="20.152675"><ele>1829</ele></trkpt>
    <trkpt lat="49.163704" lon="20.152375"><ele>1829</ele></trkpt>
    <trkpt lat="49.163835" lon="20.152244"><ele>1829</ele></trkpt>
    <trkpt lat="49.164057" lon="20.151617"><ele>1838</ele></trkpt>
    <trkpt lat="49.164055" lon="20.151395"><ele>1840</ele></trkpt>
    <trkpt lat="49.164116" lon="20.151248"><ele>1843</ele></trkpt>
    <trkpt lat="49.164159" lon="20.150997"><ele>1847</ele></trkpt>
    <trkpt lat="49.164076" lon="20.150856"><ele>1849</ele></trkpt>
    <trkpt lat="49.164142" lon="20.150482"><ele>1857</ele></trkpt>
    <trkpt lat="49.164181" lon="20.150431"><ele>1859</ele></trkpt>
    <trkpt lat="49.164186" lon="20.150216"><ele>1863</ele></trkpt>
    <trkpt lat="49.164253" lon="20.150133"><ele>1865</ele></trkpt>
    <trkpt lat="49.164322" lon="20.149908"><ele>1870</ele></trkpt>
    <trkpt lat="49.164455" lon="20.149785"><ele>1874</ele></trkpt>
    <trkpt lat="49.164579" lon="20.149850"><ele>1875</ele></trkpt>
    <trkpt lat="49.164860" lon="20.149600"><ele>1884</ele></trkpt>
    <trkpt lat="49.165077" lon="20.149622"><ele>1887</ele></trkpt>
    <trkpt lat="49.165276" lon="20.149485"><ele>1890</ele></trkpt>
    <trkpt lat="49.165419" lon="20.149240"><ele>1893</ele></trkpt>
    <trkpt lat="49.165397" lon="20.149078"><ele>1894</ele></trkpt>
    <trkpt lat="49.165416" lon="20.148729"><ele>1896</ele></trkpt>
    <trkpt lat="49.165455" lon="20.148611"><ele>1897</ele></trkpt>
    <trkpt lat="49.165495" lon="20.148267"><ele>1899</ele></trkpt>
    <trkpt lat="49.165473" lon="20.147992"><ele>1901</ele></trkpt>
    <trkpt lat="49.165414" lon="20.147872"><ele>1902</ele></trkpt>
    <trkpt lat="49.165421" lon="20.147765"><ele>1903</ele></trkpt>
    <trkpt lat="49.165331" lon="20.147487"><ele>1907</ele></trkpt>
    <trkpt lat="49.165150" lon="20.147068"><ele>1916</ele></trkpt>
    <trkpt lat="49.165157" lon="20.146783"><ele>1924</ele></trkpt>
    <trkpt lat="49.164884" lon="20.146238"><ele>1938</ele></trkpt>
    <trkpt lat="49.164893" lon="20.146069"><ele>1939</ele></trkpt>
    <trkpt lat="49.165163" lon="20.145488"><ele>1944</ele></trkpt>
    <trkpt lat="49.165162" lon="20.145219"><ele>1943</ele></trkpt>
    <trkpt lat="49.165290" lon="20.144903"><ele>1943</ele></trkpt>
    <trkpt lat="49.165348" lon="20.144835"><ele>1944</ele></trkpt>
    <trkpt lat="49.165500" lon="20.144771"><ele>1946</ele></trkpt>
    <trkpt lat="49.165644" lon="20.144578"><ele>1945</ele></trkpt>
    <trkpt lat="49.165754" lon="20.144511"><ele>1945</ele></trkpt>
    <trkpt lat="49.166006" lon="20.144457"><ele>1949</ele></trkpt>
    <trkpt lat="49.166143" lon="20.144497"><ele>1954</ele></trkpt>
    <trkpt lat="49.166570" lon="20.144184"><ele>1959</ele></trkpt>
    <trkpt lat="49.166766" lon="20.144111"><ele>1966</ele></trkpt>
    <trkpt lat="49.167532" lon="20.143361"><ele>1967</ele></trkpt>
    <trkpt lat="49.167797" lon="20.143214"><ele>1977</ele></trkpt>
    <trkpt lat="49.168113" lon="20.142895"><ele>1981</ele></trkpt>
    <trkpt lat="49.168565" lon="20.142669"><ele>1994</ele></trkpt>
    <trkpt lat="49.168759" lon="20.142648"><ele>2003</ele></trkpt>
    <trkpt lat="49.169284" lon="20.142425"><ele>2021</ele></trkpt>
    <trkpt lat="49.169484" lon="20.142413"><ele>2030</ele></trkpt>
    <trkpt lat="49.169615" lon="20.142254"><ele>2029</ele></trkpt>
    <trkpt lat="49.169921" lon="20.142298"><ele>2043</ele></trkpt>
    <trkpt lat="49.170042" lon="20.142250"><ele>2046</ele></trkpt>
    <trkpt lat="49.170222" lon="20.142248"><ele>2052</ele></trkpt>
    <trkpt lat="49.170309" lon="20.142273"><ele>2055</ele></trkpt>
    <trkpt lat="49.170375" lon="20.142363"><ele>2058</ele></trkpt>
    <trkpt lat="49.170639" lon="20.142456"><ele>2065</ele></trkpt>
    <trkpt lat="49.170813" lon="20.142372"><ele>2067</ele></trkpt>
    <trkpt lat="49.171008" lon="20.142405"><ele>2074</ele></trkpt>
    <trkpt lat="49.171131" lon="20.142361"><ele>2077</ele></trkpt>
    <trkpt lat="49.171163" lon="20.142389"><ele>2079</ele></trkpt>
    <trkpt lat="49.171122" lon="20.142487"><ele>2080</ele></trkpt>
    <trkpt lat="49.171299" lon="20.142381"><ele>2084</ele></trkpt>
    <trkpt lat="49.171329" lon="20.142308"><ele>2084</ele></trkpt>
    <trkpt lat="49.171399" lon="20.142302"><ele>2087</ele></trkpt>
    <trkpt lat="49.171512" lon="20.142372"><ele>2094</ele></trkpt>
    <trkpt lat="49.171559" lon="20.142352"><ele>2095</ele></trkpt>
    <trkpt lat="49.171714" lon="20.142070"><ele>2099</ele></trkpt>
    <trkpt lat="49.171967" lon="20.141774"><ele>2106</ele></trkpt>
    <trkpt lat="49.172550" lon="20.141253"><ele>2131</ele></trkpt>
    <trkpt lat="49.172603" lon="20.141274"><ele>2135</ele></trkpt>
    <trkpt lat="49.172641" lon="20.141459"><ele>2139</ele></trkpt>
    <trkpt lat="49.172680" lon="20.141476"><ele>2142</ele></trkpt>
    <trkpt lat="49.172771" lon="20.141372"><ele>2147</ele></trkpt>
    <trkpt lat="49.172836" lon="20.141224"><ele>2152</ele></trkpt>
    <trkpt lat="49.172927" lon="20.141144"><ele>2158</ele></trkpt>
    <trkpt lat="49.172994" lon="20.141208"><ele>2164</ele></trkpt>
    <trkpt lat="49.173082" lon="20.141216"><ele>2172</ele></trkpt>
    <trkpt lat="49.173229" lon="20.140515"><ele>2183</ele></trkpt>
    <trkpt lat="49.173421" lon="20.140391"><ele>2195</ele></trkpt>
    <trkpt lat="49.173486" lon="20.140294"><ele>2195</ele></trkpt>
    <trkpt lat="49.173477" lon="20.140380"><ele>2197</ele></trkpt>
    <trkpt lat="49.173411" lon="20.140505"><ele>2197</ele></trkpt>
    <trkpt lat="49.173453" lon="20.140662"><ele>2201</ele></trkpt>
    <trkpt lat="49.173455" lon="20.140867"><ele>2204</ele></trkpt>
    <trkpt lat="49.173496" lon="20.141061"><ele>2210</ele></trkpt>
    <trkpt lat="49.173762" lon="20.141659"><ele>2237</ele></trkpt>
    <trkpt lat="49.173717" lon="20.141721"><ele>2238</ele></trkpt>
    <trkpt lat="49.173763" lon="20.141805"><ele>2242</ele></trkpt>
    <trkpt lat="49.173742" lon="20.141868"><ele>2244</ele></trkpt>
    <trkpt lat="49.173786" lon="20.141905"><ele>2247</ele></trkpt>
    <trkpt lat="49.173728" lon="20.142059"><ele>2248</ele></trkpt>
    <trkpt lat="49.173831" lon="20.142271"><ele>2259</ele></trkpt>
    <trkpt lat="49.173854" lon="20.142476"><ele>2265</ele></trkpt>
    <trkpt lat="49.173883" lon="20.142554"><ele>2270</ele></trkpt>
    <trkpt lat="49.173969" lon="20.142554"><ele>2275</ele></trkpt>
    <trkpt lat="49.173993" lon="20.142606"><ele>2278</ele></trkpt>
    <trkpt lat="49.174010" lon="20.142811"><ele>2284</ele></trkpt>
    <trkpt lat="49.174086" lon="20.142978"><ele>2288</ele></trkpt>
    <trkpt lat="49.174313" lon="20.143108"><ele>2297</ele></trkpt>
    <trkpt lat="49.174363" lon="20.143322"><ele>2302</ele></trkpt>
    <trkpt lat="49.174416" lon="20.143344"><ele>2305</ele></trkpt>
    <trkpt lat="49.174473" lon="20.143668"><ele>2317</ele></trkpt>
    <trkpt lat="49.174461" lon="20.143888"><ele>2324</ele></trkpt>
    <trkpt lat="49.174410" lon="20.144091"><ele>2326</ele></trkpt>
    <trkpt lat="49.174413" lon="20.144243"><ele>2329</ele></trkpt>
    <trkpt lat="49.174571" lon="20.144688"><ele>2346</ele></trkpt>
    <trkpt lat="49.174693" lon="20.144914"><ele>2356</ele></trkpt>
    <trkpt lat="49.174888" lon="20.145011"><ele>2357</ele></trkpt>
    <trkpt lat="49.174996" lon="20.145176"><ele>2356</ele></trkpt>
    <trkpt lat="49.175093" lon="20.145208"><ele>2355</ele></trkpt>
    <trkpt lat="49.175277" lon="20.145457"><ele>2343</ele></trkpt>
    <trkpt lat="49.175093" lon="20.145208"><ele>2355</ele></trkpt>
    <trkpt lat="49.174996" lon="20.145176"><ele>2356</ele></trkpt>
    <trkpt lat="49.174888" lon="20.145011"><ele>2357</ele></trkpt>
    <trkpt lat="49.174693" lon="20.144914"><ele>2356</ele></trkpt>
    <trkpt lat="49.174571" lon="20.144688"><ele>2346</ele></trkpt>
    <trkpt lat="49.174413" lon="20.144243"><ele>2329</ele></trkpt>
    <trkpt lat="49.174410" lon="20.144091"><ele>2326</ele></trkpt>
    <trkpt lat="49.174461" lon="20.143888"><ele>2324</ele></trkpt>
    <trkpt lat="49.174473" lon="20.143668"><ele>2317</ele></trkpt>
    <trkpt lat="49.174416" lon="20.143344"><ele>2305</ele></trkpt>
    <trkpt lat="49.174363" lon="20.143322"><ele>2302</ele></trkpt>
    <trkpt lat="49.174313" lon="20.143108"><ele>2297</ele></trkpt>
    <trkpt lat="49.174086" lon="20.142978"><ele>2288</ele></trkpt>
    <trkpt lat="49.174010" lon="20.142811"><ele>2284</ele></trkpt>
    <trkpt lat="49.173993" lon="20.142606"><ele>2278</ele></trkpt>
    <trkpt lat="49.173969" lon="20.142554"><ele>2275</ele></trkpt>
    <trkpt lat="49.173883" lon="20.142554"><ele>2270</ele></trkpt>
    <trkpt lat="49.173854" lon="20.142476"><ele>2265</ele></trkpt>
    <trkpt lat="49.173831" lon="20.142271"><ele>2259</ele></trkpt>
    <trkpt lat="49.173728" lon="20.142059"><ele>2248</ele></trkpt>
    <trkpt lat="49.173786" lon="20.141905"><ele>2247</ele></trkpt>
    <trkpt lat="49.173742" lon="20.141868"><ele>2244</ele></trkpt>
    <trkpt lat="49.173763" lon="20.141805"><ele>2242</ele></trkpt>
    <trkpt lat="49.173717" lon="20.141721"><ele>2238</ele></trkpt>
    <trkpt lat="49.173762" lon="20.141659"><ele>2237</ele></trkpt>
    <trkpt lat="49.173496" lon="20.141061"><ele>2210</ele></trkpt>
    <trkpt lat="49.173455" lon="20.140867"><ele>2204</ele></trkpt>
    <trkpt lat="49.173453" lon="20.140662"><ele>2201</ele></trkpt>
    <trkpt lat="49.173411" lon="20.140505"><ele>2197</ele></trkpt>
    <trkpt lat="49.173477" lon="20.140380"><ele>2197</ele></trkpt>
    <trkpt lat="49.173486" lon="20.140294"><ele>2195</ele></trkpt>
    <trkpt lat="49.173421" lon="20.140391"><ele>2195</ele></trkpt>
    <trkpt lat="49.173229" lon="20.140515"><ele>2183</ele></trkpt>
    <trkpt lat="49.173082" lon="20.141216"><ele>2172</ele></trkpt>
    <trkpt lat="49.172994" lon="20.141208"><ele>2164</ele></trkpt>
    <trkpt lat="49.172927" lon="20.141144"><ele>2158</ele></trkpt>
    <trkpt lat="49.172836" lon="20.141224"><ele>2152</ele></trkpt>
    <trkpt lat="49.172771" lon="20.141372"><ele>2147</ele></trkpt>
    <trkpt lat="49.172680" lon="20.141476"><ele>2142</ele></trkpt>
    <trkpt lat="49.172641" lon="20.141459"><ele>2139</ele></trkpt>
    <trkpt lat="49.172603" lon="20.141274"><ele>2135</ele></trkpt>
    <trkpt lat="49.172550" lon="20.141253"><ele>2131</ele></trkpt>
    <trkpt lat="49.171967" lon="20.141774"><ele>2106</ele></trkpt>
    <trkpt lat="49.171714" lon="20.142070"><ele>2099</ele></trkpt>
    <trkpt lat="49.171559" lon="20.142352"><ele>2095</ele></trkpt>
    <trkpt lat="49.171512" lon="20.142372"><ele>2094</ele></trkpt>
    <trkpt lat="49.171399" lon="20.142302"><ele>2087</ele></trkpt>
    <trkpt lat="49.171329" lon="20.142308"><ele>2084</ele></trkpt>
    <trkpt lat="49.171299" lon="20.142381"><ele>2084</ele></trkpt>
    <trkpt lat="49.171122" lon="20.142487"><ele>2080</ele></trkpt>
    <trkpt lat="49.171163" lon="20.142389"><ele>2079</ele></trkpt>
    <trkpt lat="49.171131" lon="20.142361"><ele>2077</ele></trkpt>
    <trkpt lat="49.171008" lon="20.142405"><ele>2074</ele></trkpt>
    <trkpt lat="49.170813" lon="20.142372"><ele>2067</ele></trkpt>
    <trkpt lat="49.170639" lon="20.142456"><ele>2065</ele></trkpt>
    <trkpt lat="49.170375" lon="20.142363"><ele>2058</ele></trkpt>
    <trkpt lat="49.170309" lon="20.142273"><ele>2055</ele></trkpt>
    <trkpt lat="49.170222" lon="20.142248"><ele>2052</ele></trkpt>
    <trkpt lat="49.170042" lon="20.142250"><ele>2046</ele></trkpt>
    <trkpt lat="49.169921" lon="20.142298"><ele>2043</ele></trkpt>
    <trkpt lat="49.169615" lon="20.142254"><ele>2029</ele></trkpt>
    <trkpt lat="49.169484" lon="20.142413"><ele>2030</ele></trkpt>
    <trkpt lat="49.169284" lon="20.142425"><ele>2021</ele></trkpt>
    <trkpt lat="49.168759" lon="20.142648"><ele>2003</ele></trkpt>
    <trkpt lat="49.168565" lon="20.142669"><ele>1994</ele></trkpt>
    <trkpt lat="49.168113" lon="20.142895"><ele>1981</ele></trkpt>
    <trkpt lat="49.167797" lon="20.143214"><ele>1977</ele></trkpt>
    <trkpt lat="49.167532" lon="20.143361"><ele>1967</ele></trkpt>
    <trkpt lat="49.166766" lon="20.144111"><ele>1966</ele></trkpt>
    <trkpt lat="49.166570" lon="20.144184"><ele>1959</ele></trkpt>
    <trkpt lat="49.166143" lon="20.144497"><ele>1954</ele></trkpt>
    <trkpt lat="49.166006" lon="20.144457"><ele>1949</ele></trkpt>
    <trkpt lat="49.165754" lon="20.144511"><ele>1945</ele></trkpt>
    <trkpt lat="49.165644" lon="20.144578"><ele>1945</ele></trkpt>
    <trkpt lat="49.165500" lon="20.144771"><ele>1946</ele></trkpt>
    <trkpt lat="49.165348" lon="20.144835"><ele>1944</ele></trkpt>
    <trkpt lat="49.165290" lon="20.144903"><ele>1943</ele></trkpt>
    <trkpt lat="49.165162" lon="20.145219"><ele>1943</ele></trkpt>
    <trkpt lat="49.165163" lon="20.145488"><ele>1944</ele></trkpt>
    <trkpt lat="49.164893" lon="20.146069"><ele>1939</ele></trkpt>
    <trkpt lat="49.164884" lon="20.146238"><ele>1938</ele></trkpt>
    <trkpt lat="49.165157" lon="20.146783"><ele>1924</ele></trkpt>
    <trkpt lat="49.165150" lon="20.147068"><ele>1916</ele></trkpt>
    <trkpt lat="49.165331" lon="20.147487"><ele>1907</ele></trkpt>
    <trkpt lat="49.165421" lon="20.147765"><ele>1903</ele></trkpt>
    <trkpt lat="49.165414" lon="20.147872"><ele>1902</ele></trkpt>
    <trkpt lat="49.165473" lon="20.147992"><ele>1901</ele></trkpt>
    <trkpt lat="49.165495" lon="20.148267"><ele>1899</ele></trkpt>
    <trkpt lat="49.165455" lon="20.148611"><ele>1897</ele></trkpt>
    <trkpt lat="49.165416" lon="20.148729"><ele>1896</ele></trkpt>
    <trkpt lat="49.165397" lon="20.149078"><ele>1894</ele></trkpt>
    <trkpt lat="49.165419" lon="20.149240"><ele>1893</ele></trkpt>
    <trkpt lat="49.165276" lon="20.149485"><ele>1890</ele></trkpt>
    <trkpt lat="49.165077" lon="20.149622"><ele>1887</ele></trkpt>
    <trkpt lat="49.164860" lon="20.149600"><ele>1884</ele></trkpt>
    <trkpt lat="49.164579" lon="20.149850"><ele>1875</ele></trkpt>
    <trkpt lat="49.164455" lon="20.149785"><ele>1874</ele></trkpt>
    <trkpt lat="49.164322" lon="20.149908"><ele>1870</ele></trkpt>
    <trkpt lat="49.164253" lon="20.150133"><ele>1865</ele></trkpt>
    <trkpt lat="49.164186" lon="20.150216"><ele>1863</ele></trkpt>
    <trkpt lat="49.164181" lon="20.150431"><ele>1859</ele></trkpt>
    <trkpt lat="49.164142" lon="20.150482"><ele>1857</ele></trkpt>
    <trkpt lat="49.164076" lon="20.150856"><ele>1849</ele></trkpt>
    <trkpt lat="49.164159" lon="20.150997"><ele>1847</ele></trkpt>
    <trkpt lat="49.164116" lon="20.151248"><ele>1843</ele></trkpt>
    <trkpt lat="49.164055" lon="20.151395"><ele>1840</ele></trkpt>
    <trkpt lat="49.164057" lon="20.151617"><ele>1838</ele></trkpt>
    <trkpt lat="49.163835" lon="20.152244"><ele>1829</ele></trkpt>
    <trkpt lat="49.163704" lon="20.152375"><ele>1829</ele></trkpt>
    <trkpt lat="49.163561" lon="20.152675"><ele>1829</ele></trkpt>
    <trkpt lat="49.163457" lon="20.153116"><ele>1826</ele></trkpt>
    <trkpt lat="49.163367" lon="20.153243"><ele>1823</ele></trkpt>
    <trkpt lat="49.163037" lon="20.153498"><ele>1817</ele></trkpt>
    <trkpt lat="49.162891" lon="20.153566"><ele>1816</ele></trkpt>
    <trkpt lat="49.162591" lon="20.153833"><ele>1815</ele></trkpt>
    <trkpt lat="49.162185" lon="20.154117"><ele>1814</ele></trkpt>
    <trkpt lat="49.162133" lon="20.154229"><ele>1814</ele></trkpt>
    <trkpt lat="49.161796" lon="20.154464"><ele>1808</ele></trkpt>
    <trkpt lat="49.161735" lon="20.154646"><ele>1807</ele></trkpt>
    <trkpt lat="49.161621" lon="20.154714"><ele>1803</ele></trkpt>
    <trkpt lat="49.161525" lon="20.154933"><ele>1801</ele></trkpt>
    <trkpt lat="49.161394" lon="20.154795"><ele>1795</ele></trkpt>
    <trkpt lat="49.161305" lon="20.155246"><ele>1793</ele></trkpt>
    <trkpt lat="49.161183" lon="20.155520"><ele>1788</ele></trkpt>
    <trkpt lat="49.161131" lon="20.155497"><ele>1784</ele></trkpt>
    <trkpt lat="49.161098" lon="20.155399"><ele>1782</ele></trkpt>
    <trkpt lat="49.161055" lon="20.155096"><ele>1778</ele></trkpt>
    <trkpt lat="49.160959" lon="20.155205"><ele>1771</ele></trkpt>
    <trkpt lat="49.160913" lon="20.155148"><ele>1768</ele></trkpt>
    <trkpt lat="49.160854" lon="20.155235"><ele>1763</ele></trkpt>
    <trkpt lat="49.160846" lon="20.155439"><ele>1762</ele></trkpt>
    <trkpt lat="49.160785" lon="20.155704"><ele>1755</ele></trkpt>
    <trkpt lat="49.160825" lon="20.155838"><ele>1758</ele></trkpt>
    <trkpt lat="49.160925" lon="20.155939"><ele>1766</ele></trkpt>
    <trkpt lat="49.160939" lon="20.156228"><ele>1765</ele></trkpt>
    <trkpt lat="49.160900" lon="20.156234"><ele>1760</ele></trkpt>
    <trkpt lat="49.160848" lon="20.156377"><ele>1754</ele></trkpt>
    <trkpt lat="49.160688" lon="20.157013"><ele>1736</ele></trkpt>
    <trkpt lat="49.160541" lon="20.157267"><ele>1729</ele></trkpt>
    <trkpt lat="49.160454" lon="20.157339"><ele>1727</ele></trkpt>
    <trkpt lat="49.160272" lon="20.157338"><ele>1719</ele></trkpt>
    <trkpt lat="49.159784" lon="20.157525"><ele>1707</ele></trkpt>
    <trkpt lat="49.159669" lon="20.157521"><ele>1704</ele></trkpt>
    <trkpt lat="49.159695" lon="20.157308"><ele>1700</ele></trkpt>
    <trkpt lat="49.159749" lon="20.157187"><ele>1699</ele></trkpt>
    <trkpt lat="49.159913" lon="20.157030"><ele>1700</ele></trkpt>
    <trkpt lat="49.159982" lon="20.156817"><ele>1697</ele></trkpt>
    <trkpt lat="49.159994" lon="20.156713"><ele>1696</ele></trkpt>
    <trkpt lat="49.159962" lon="20.156669"><ele>1694</ele></trkpt>
    <trkpt lat="49.159833" lon="20.156686"><ele>1691</ele></trkpt>
    <trkpt lat="49.159577" lon="20.156499"><ele>1683</ele></trkpt>
    <trkpt lat="49.159071" lon="20.156445"><ele>1672</ele></trkpt>
    <trkpt lat="49.158797" lon="20.156332"><ele>1668</ele></trkpt>
    <trkpt lat="49.158585" lon="20.156395"><ele>1669</ele></trkpt>
    <trkpt lat="49.158399" lon="20.156360"><ele>1669</ele></trkpt>
    <trkpt lat="49.158317" lon="20.156292"><ele>1668</ele></trkpt>
    <trkpt lat="49.157724" lon="20.156446"><ele>1669</ele></trkpt>
    <trkpt lat="49.157065" lon="20.156727"><ele>1670</ele></trkpt>
    <trkpt lat="49.156831" lon="20.156763"><ele>1670</ele></trkpt>
    <trkpt lat="49.156524" lon="20.156975"><ele>1669</ele></trkpt>
    <trkpt lat="49.156154" lon="20.157140"><ele>1668</ele></trkpt>
    <trkpt lat="49.156029" lon="20.157255"><ele>1667</ele></trkpt>
    <trkpt lat="49.156036" lon="20.157386"><ele>1667</ele></trkpt>
    <trkpt lat="49.155985" lon="20.157547"><ele>1665</ele></trkpt>
    <trkpt lat="49.155350" lon="20.158059"><ele>1651</ele></trkpt>
    <trkpt lat="49.154852" lon="20.158335"><ele>1641</ele></trkpt>
    <trkpt lat="49.154353" lon="20.158831"><ele>1632</ele></trkpt>
    <trkpt lat="49.154123" lon="20.159162"><ele>1624</ele></trkpt>
    <trkpt lat="49.153893" lon="20.159576"><ele>1616</ele></trkpt>
    <trkpt lat="49.153142" lon="20.160637"><ele>1595</ele></trkpt>
    <trkpt lat="49.152756" lon="20.161256"><ele>1583</ele></trkpt>
    <trkpt lat="49.152638" lon="20.161379"><ele>1580</ele></trkpt>
    <trkpt lat="49.152205" lon="20.162119"><ele>1570</ele></trkpt>
    <trkpt lat="49.151871" lon="20.162444"><ele>1565</ele></trkpt>
  </trkseg></trk>
</gpx>
