<?xml version="1.0" encoding="UTF-8"?>
<gpx version="1.1" creator="MounTour (OpenStreetMap)" xmlns="http://www.topografix.com/GPX/1/1">
  <metadata><name>Vyšná Magura</name><copyright author="OpenStreetMap contributors"><license>https://opendatacommons.org/licenses/odbl/</license></copyright></metadata>
  <trk><name>Vyšná Magura</name><trkseg>
    <trkpt lat="49.134668" lon="19.791609"><ele>907</ele></trkpt>
    <trkpt lat="49.135651" lon="19.791200"><ele>911</ele></trkpt>
    <trkpt lat="49.135916" lon="19.791179"><ele>913</ele></trkpt>
    <trkpt lat="49.136240" lon="19.791248"><ele>914</ele></trkpt>
    <trkpt lat="49.136408" lon="19.791344"><ele>913</ele></trkpt>
    <trkpt lat="49.136606" lon="19.791540"><ele>914</ele></trkpt>
    <trkpt lat="49.137462" lon="19.792758"><ele>912</ele></trkpt>
    <trkpt lat="49.137897" lon="19.793771"><ele>918</ele></trkpt>
    <trkpt lat="49.138060" lon="19.793945"><ele>919</ele></trkpt>
    <trkpt lat="49.138561" lon="19.794268"><ele>923</ele></trkpt>
    <trkpt lat="49.139548" lon="19.795287"><ele>940</ele></trkpt>
    <trkpt lat="49.140152" lon="19.795793"><ele>937</ele></trkpt>
    <trkpt lat="49.140392" lon="19.795924"><ele>939</ele></trkpt>
    <trkpt lat="49.140638" lon="19.795989"><ele>943</ele></trkpt>
    <trkpt lat="49.141405" lon="19.796009"><ele>955</ele></trkpt>
    <trkpt lat="49.141975" lon="19.796196"><ele>951</ele></trkpt>
    <trkpt lat="49.143237" lon="19.796324"><ele>950</ele></trkpt>
    <trkpt lat="49.143628" lon="19.796490"><ele>946</ele></trkpt>
    <trkpt lat="49.143997" lon="19.796781"><ele>945</ele></trkpt>
    <trkpt lat="49.144183" lon="19.796823"><ele>949</ele></trkpt>
    <trkpt lat="49.144377" lon="19.796825"><ele>952</ele></trkpt>
    <trkpt lat="49.144593" lon="19.796719"><ele>954</ele></trkpt>
    <trkpt lat="49.144779" lon="19.796544"><ele>955</ele></trkpt>
    <trkpt lat="49.144972" lon="19.796197"><ele>959</ele></trkpt>
    <trkpt lat="49.145176" lon="19.796000"><ele>958</ele></trkpt>
    <trkpt lat="49.145408" lon="19.795841"><ele>956</ele></trkpt>
    <trkpt lat="49.146025" lon="19.795605"><ele>953</ele></trkpt>
    <trkpt lat="49.146679" lon="19.795228"><ele>956</ele></trkpt>
    <trkpt lat="49.146787" lon="19.795200"><ele>957</ele></trkpt>
    <trkpt lat="49.147124" lon="19.795248"><ele>961</ele></trkpt>
    <trkpt lat="49.147175" lon="19.795193"><ele>960</ele></trkpt>
    <trkpt lat="49.147554" lon="19.794383"><ele>957</ele></trkpt>
    <trkpt lat="49.147764" lon="19.794104"><ele>957</ele></trkpt>
    <trkpt lat="49.148042" lon="19.793919"><ele>962</ele></trkpt>
    <trkpt lat="49.148516" lon="19.793805"><ele>962</ele></trkpt>
    <trkpt lat="49.148926" lon="19.794157"><ele>969</ele></trkpt>
    <trkpt lat="49.149578" lon="19.794836"><ele>972</ele></trkpt>
    <trkpt lat="49.150000" lon="19.795608"><ele>975</ele></trkpt>
    <trkpt lat="49.150145" lon="19.795625"><ele>981</ele></trkpt>
    <trkpt lat="49.150526" lon="19.795285"><ele>994</ele></trkpt>
    <trkpt lat="49.150598" lon="19.795301"><ele>996</ele></trkpt>
    <trkpt lat="49.150712" lon="19.795432"><ele>1000</ele></trkpt>
    <trkpt lat="49.150806" lon="19.795460"><ele>1004</ele></trkpt>
    <trkpt lat="49.150919" lon="19.795606"><ele>1010</ele></trkpt>
    <trkpt lat="49.151222" lon="19.795606"><ele>1025</ele></trkpt>
    <trkpt lat="49.151363" lon="19.795808"><ele>1037</ele></trkpt>
    <trkpt lat="49.151510" lon="19.795665"><ele>1043</ele></trkpt>
    <trkpt lat="49.151598" lon="19.795631"><ele>1048</ele></trkpt>
    <trkpt lat="49.151661" lon="19.795673"><ele>1054</ele></trkpt>
    <trkpt lat="49.151726" lon="19.795990"><ele>1067</ele></trkpt>
    <trkpt lat="49.151785" lon="19.796072"><ele>1072</ele></trkpt>
    <trkpt lat="49.151938" lon="19.795711"><ele>1071</ele></trkpt>
    <trkpt lat="49.152045" lon="19.795531"><ele>1071</ele></trkpt>
    <trkpt lat="49.152096" lon="19.795521"><ele>1074</ele></trkpt>
    <trkpt lat="49.152159" lon="19.796095"><ele>1098</ele></trkpt>
    <trkpt lat="49.152245" lon="19.796331"><ele>1102</ele></trkpt>
    <trkpt lat="49.152301" lon="19.796403"><ele>1105</ele></trkpt>
    <trkpt lat="49.152349" lon="19.796387"><ele>1108</ele></trkpt>
    <trkpt lat="49.152513" lon="19.795867"><ele>1110</ele></trkpt>
    <trkpt lat="49.152605" lon="19.795684"><ele>1112</ele></trkpt>
    <trkpt lat="49.152708" lon="19.795813"><ele>1122</ele></trkpt>
    <trkpt lat="49.152829" lon="19.795875"><ele>1132</ele></trkpt>
    <trkpt lat="49.152859" lon="19.796068"><ele>1138</ele></trkpt>
    <trkpt lat="49.152970" lon="19.796092"><ele>1148</ele></trkpt>
    <trkpt lat="49.153261" lon="19.796891"><ele>1164</ele></trkpt>
    <trkpt lat="49.153331" lon="19.796929"><ele>1168</ele></trkpt>
    <trkpt lat="49.153417" lon="19.796907"><ele>1174</ele></trkpt>
    <trkpt lat="49.154152" lon="19.796430"><ele>1229</ele></trkpt>
    <trkpt lat="49.154238" lon="19.796330"><ele>1235</ele></trkpt>
    <trkpt lat="49.154300" lon="19.796321"><ele>1237</ele></trkpt>
    <trkpt lat="49.154373" lon="19.796406"><ele>1239</ele></trkpt>
    <trkpt lat="49.154612" lon="19.796929"><ele>1244</ele></trkpt>
    <trkpt lat="49.154779" lon="19.797214"><ele>1251</ele></trkpt>
    <trkpt lat="49.154842" lon="19.797243"><ele>1255</ele></trkpt>
    <trkpt lat="49.154991" lon="19.797147"><ele>1265</ele></trkpt>
    <trkpt lat="49.155024" lon="19.796970"><ele>1271</ele></trkpt>
    <trkpt lat="49.155119" lon="19.796907"><ele>1278</ele></trkpt>
    <trkpt lat="49.155097" lon="19.796800"><ele>1277</ele></trkpt>
    <trkpt lat="49.155148" lon="19.796776"><ele>1280</ele></trkpt>
    <trkpt lat="49.155292" lon="19.796823"><ele>1288</ele></trkpt>
    <trkpt lat="49.155183" lon="19.796644"><ele>1283</ele></trkpt>
    <trkpt lat="49.155161" lon="19.796504"><ele>1281</ele></trkpt>
    <trkpt lat="49.155333" lon="19.795995"><ele>1293</ele></trkpt>
    <trkpt lat="49.155524" lon="19.795705"><ele>1302</ele></trkpt>
    <trkpt lat="49.155666" lon="19.795888"><ele>1313</ele></trkpt>
    <trkpt lat="49.155703" lon="19.795888"><ele>1316</ele></trkpt>
    <trkpt lat="49.155738" lon="19.795711"><ele>1318</ele></trkpt>
    <trkpt lat="49.155797" lon="19.795706"><ele>1323</ele></trkpt>
    <trkpt lat="49.156187" lon="19.796188"><ele>1337</ele></trkpt>
    <trkpt lat="49.156378" lon="19.796202"><ele>1342</ele></trkpt>
    <trkpt lat="49.156485" lon="19.796011"><ele>1350</ele></trkpt>
    <trkpt lat="49.156596" lon="19.795942"><ele>1355</ele></trkpt>
    <trkpt lat="49.157089" lon="19.795907"><ele>1370</ele></trkpt>
    <trkpt lat="49.157148" lon="19.795856"><ele>1373</ele></trkpt>
    <trkpt lat="49.157180" lon="19.795757"><ele>1376</ele></trkpt>
    <trkpt lat="49.157138" lon="19.795419"><ele>1377</ele></trkpt>
    <trkpt lat="49.157215" lon="19.795150"><ele>1381</ele></trkpt>
    <trkpt lat="49.157303" lon="19.795105"><ele>1384</ele></trkpt>
    <trkpt lat="49.157418" lon="19.795156"><ele>1386</ele></trkpt>
    <trkpt lat="49.157574" lon="19.794979"><ele>1393</ele></trkpt>
    <trkpt lat="49.157673" lon="19.794947"><ele>1396</ele></trkpt>
    <trkpt lat="49.158352" lon="19.794855"><ele>1415</ele></trkpt>
    <trkpt lat="49.158450" lon="19.794721"><ele>1418</ele></trkpt>
    <trkpt lat="49.158734" lon="19.794633"><ele>1426</ele></trkpt>
    <trkpt lat="49.159332" lon="19.794590"><ele>1450</ele></trkpt>
    <trkpt lat="49.159704" lon="19.794788"><ele>1467</ele></trkpt>
    <trkpt lat="49.159846" lon="19.794657"><ele>1471</ele></trkpt>
    <trkpt lat="49.159964" lon="19.794652"><ele>1475</ele></trkpt>
    <trkpt lat="49.160086" lon="19.794745"><ele>1482</ele></trkpt>
    <trkpt lat="49.160309" lon="19.794665"><ele>1495</ele></trkpt>
    <trkpt lat="49.160334" lon="19.794684"><ele>1497</ele></trkpt>
    <trkpt lat="49.160342" lon="19.794837"><ele>1497</ele></trkpt>
    <trkpt lat="49.160390" lon="19.794920"><ele>1500</ele></trkpt>
    <trkpt lat="49.160455" lon="19.794930"><ele>1503</ele></trkpt>
    <trkpt lat="49.160727" lon="19.794826"><ele>1515</ele></trkpt>
    <trkpt lat="49.160854" lon="19.794872"><ele>1520</ele></trkpt>
    <trkpt lat="49.161012" lon="19.795049"><ele>1525</ele></trkpt>
    <trkpt lat="49.161233" lon="19.795081"><ele>1531</ele></trkpt>
    <trkpt lat="49.161537" lon="19.795230"><ele>1539</ele></trkpt>
    <trkpt lat="49.161726" lon="19.795225"><ele>1542</ele></trkpt>
    <trkpt lat="49.161977" lon="19.795072"><ele>1549</ele></trkpt>
    <trkpt lat="49.162058" lon="19.795115"><ele>1551</ele></trkpt>
    <trkpt lat="49.162264" lon="19.795434"><ele>1557</ele></trkpt>
    <trkpt lat="49.162365" lon="19.795400"><ele>1560</ele></trkpt>
    <trkpt lat="49.162657" lon="19.795174"><ele>1571</ele></trkpt>
    <trkpt lat="49.162714" lon="19.795081"><ele>1573</ele></trkpt>
    <trkpt lat="49.162767" lon="19.794857"><ele>1577</ele></trkpt>
    <trkpt lat="49.162866" lon="19.794833"><ele>1581</ele></trkpt>
    <trkpt lat="49.162957" lon="19.794882"><ele>1584</ele></trkpt>
    <trkpt lat="49.163543" lon="19.794633"><ele>1611</ele></trkpt>
    <trkpt lat="49.163978" lon="19.794666"><ele>1631</ele></trkpt>
    <trkpt lat="49.164189" lon="19.794814"><ele>1639</ele></trkpt>
    <trkpt lat="49.164485" lon="19.794863"><ele>1649</ele></trkpt>
    <trkpt lat="49.164914" lon="19.795021"><ele>1666</ele></trkpt>
    <trkpt lat="49.165076" lon="19.794951"><ele>1671</ele></trkpt>
    <trkpt lat="49.165377" lon="19.794988"><ele>1678</ele></trkpt>
    <trkpt lat="49.166129" lon="19.795873"><ele>1688</ele></trkpt>
    <trkpt lat="49.166549" lon="19.795950"><ele>1691</ele></trkpt>
    <trkpt lat="49.166820" lon="19.795792"><ele>1690</ele></trkpt>
    <trkpt lat="49.167673" lon="19.795842"><ele>1686</ele></trkpt>
    <trkpt lat="49.168149" lon="19.795694"><ele>1695</ele></trkpt>
    <trkpt lat="49.168523" lon="19.795441"><ele>1705</ele></trkpt>
    <trkpt lat="49.168716" lon="19.795467"><ele>1713</ele></trkpt>
    <trkpt lat="49.168937" lon="19.795588"><ele>1722</ele></trkpt>
    <trkpt lat="49.169055" lon="19.795535"><ele>1728</ele></trkpt>
    <trkpt lat="49.169235" lon="19.795542"><ele>1737</ele></trkpt>
    <trkpt lat="49.169280" lon="19.795439"><ele>1742</ele></trkpt>
    <trkpt lat="49.169275" lon="19.795002"><ele>1750</ele></trkpt>
    <trkpt lat="49.169377" lon="19.794691"><ele>1754</ele></trkpt>
    <trkpt lat="49.169581" lon="19.795059"><ele>1769</ele></trkpt>
    <trkpt lat="49.170068" lon="19.795053"><ele>1789</ele></trkpt>
    <trkpt lat="49.170249" lon="19.794902"><ele>1796</ele></trkpt>
    <trkpt lat="49.170451" lon="19.794940"><ele>1807</ele></trkpt>
    <trkpt lat="49.170574" lon="19.795116"><ele>1816</ele></trkpt>
    <trkpt lat="49.170701" lon="19.795146"><ele>1824</ele></trkpt>
    <trkpt lat="49.170880" lon="19.795299"><ele>1838</ele></trkpt>
    <trkpt lat="49.170944" lon="19.795301"><ele>1842</ele></trkpt>
    <trkpt lat="49.171326" lon="19.795105"><ele>1858</ele></trkpt>
    <trkpt lat="49.171480" lon="19.795074"><ele>1863</ele></trkpt>
    <trkpt lat="49.171563" lon="19.794928"><ele>1860</ele></trkpt>
    <trkpt lat="49.171640" lon="19.794981"><ele>1865</ele></trkpt>
    <trkpt lat="49.171677" lon="19.795199"><ele>1870</ele></trkpt>
    <trkpt lat="49.171768" lon="19.795220"><ele>1874</ele></trkpt>
    <trkpt lat="49.171931" lon="19.795349"><ele>1879</ele></trkpt>
    <trkpt lat="49.172443" lon="19.795364"><ele>1883</ele></trkpt>
    <trkpt lat="49.172637" lon="19.795150"><ele>1879</ele></trkpt>
    <trkpt lat="49.172759" lon="19.795124"><ele>1877</ele></trkpt>
    <trkpt lat="49.172872" lon="19.794984"><ele>1876</ele></trkpt>
    <trkpt lat="49.173626" lon="19.794606"><ele>1877</ele></trkpt>
    <trkpt lat="49.173981" lon="19.794231"><ele>1890</ele></trkpt>
    <trkpt lat="49.174081" lon="19.794043"><ele>1896</ele></trkpt>
    <trkpt lat="49.174239" lon="19.793959"><ele>1904</ele></trkpt>
    <trkpt lat="49.174324" lon="19.793706"><ele>1911</ele></trkpt>
    <trkpt lat="49.174436" lon="19.793634"><ele>1919</ele></trkpt>
    <trkpt lat="49.174521" lon="19.793498"><ele>1924</ele></trkpt>
    <trkpt lat="49.174899" lon="19.793376"><ele>1943</ele></trkpt>
    <trkpt lat="49.175285" lon="19.793013"><ele>1956</ele></trkpt>
    <trkpt lat="49.175385" lon="19.792978"><ele>1958</ele></trkpt>
    <trkpt lat="49.176181" lon="19.793097"><ele>1971</ele></trkpt>
    <trkpt lat="49.176578" lon="19.793028"><ele>1975</ele></trkpt>
    <trkpt lat="49.177302" lon="19.793083"><ele>1994</ele></trkpt>
    <trkpt lat="49.177587" lon="19.793231"><ele>2007</ele></trkpt>
    <trkpt lat="49.178108" lon="19.793282"><ele>2023</ele></trkpt>
    <trkpt lat="49.178177" lon="19.793321"><ele>2024</ele></trkpt>
    <trkpt lat="49.178250" lon="19.793470"><ele>2029</ele></trkpt>
    <trkpt lat="49.178423" lon="19.793661"><ele>2030</ele></trkpt>
    <trkpt lat="49.178561" lon="19.793716"><ele>2028</ele></trkpt>
    <trkpt lat="49.178623" lon="19.793850"><ele>2027</ele></trkpt>
    <trkpt lat="49.178747" lon="19.793913"><ele>2026</ele></trkpt>
    <trkpt lat="49.178995" lon="19.793787"><ele>2024</ele></trkpt>
    <trkpt lat="49.179841" lon="19.793827"><ele>1997</ele></trkpt>
    <trkpt lat="49.180016" lon="19.793970"><ele>1990</ele></trkpt>
    <trkpt lat="49.180542" lon="19.793945"><ele>1983</ele></trkpt>
    <trkpt lat="49.180691" lon="19.793919"><ele>1983</ele></trkpt>
    <trkpt lat="49.181028" lon="19.793631"><ele>1983</ele></trkpt>
    <trkpt lat="49.181150" lon="19.793552"><ele>1981</ele></trkpt>
    <trkpt lat="49.181239" lon="19.793547"><ele>1981</ele></trkpt>
    <trkpt lat="49.182096" lon="19.793761"><ele>1977</ele></trkpt>
    <trkpt lat="49.183165" lon="19.793815"><ele>2002</ele></trkpt>
    <trkpt lat="49.183695" lon="19.794123"><ele>2022</ele></trkpt>
    <trkpt lat="49.184078" lon="19.794629"><ele>2025</ele></trkpt>
    <trkpt lat="49.184375" lon="19.794915"><ele>2031</ele></trkpt>
    <trkpt lat="49.184794" lon="19.795222"><ele>2039</ele></trkpt>
    <trkpt lat="49.185010" lon="19.795234"><ele>2042</ele></trkpt>
    <trkpt lat="49.185200" lon="19.795424"><ele>2047</ele></trkpt>
    <trkpt lat="49.185317" lon="19.795424"><ele>2051</ele></trkpt>
    <trkpt lat="49.185537" lon="19.795629"><ele>2062</ele></trkpt>
    <trkpt lat="49.185982" lon="19.795892"><ele>2081</ele></trkpt>
    <trkpt lat="49.186093" lon="19.796037"><ele>2085</ele></trkpt>
    <trkpt lat="49.186295" lon="19.796060"><ele>2086</ele></trkpt>
    <trkpt lat="49.186093" lon="19.796037"><ele>2085</ele></trkpt>
    <trkpt lat="49.185982" lon="19.795892"><ele>2081</ele></trkpt>
    <trkpt lat="49.185537" lon="19.795629"><ele>2062</ele></trkpt>
    <trkpt lat="49.185317" lon="19.795424"><ele>2051</ele></trkpt>
    <trkpt lat="49.185200" lon="19.795424"><ele>2047</ele></trkpt>
    <trkpt lat="49.185010" lon="19.795234"><ele>2042</ele></trkpt>
    <trkpt lat="49.184794" lon="19.795222"><ele>2039</ele></trkpt>
    <trkpt lat="49.184375" lon="19.794915"><ele>2031</ele></trkpt>
    <trkpt lat="49.184078" lon="19.794629"><ele>2025</ele></trkpt>
    <trkpt lat="49.183695" lon="19.794123"><ele>2022</ele></trkpt>
    <trkpt lat="49.183165" lon="19.793815"><ele>2002</ele></trkpt>
    <trkpt lat="49.182096" lon="19.793761"><ele>1977</ele></trkpt>
    <trkpt lat="49.181239" lon="19.793547"><ele>1981</ele></trkpt>
    <trkpt lat="49.181150" lon="19.793552"><ele>1981</ele></trkpt>
    <trkpt lat="49.181028" lon="19.793631"><ele>1983</ele></trkpt>
    <trkpt lat="49.180691" lon="19.793919"><ele>1983</ele></trkpt>
    <trkpt lat="49.180542" lon="19.793945"><ele>1983</ele></trkpt>
    <trkpt lat="49.180016" lon="19.793970"><ele>1990</ele></trkpt>
    <trkpt lat="49.179841" lon="19.793827"><ele>1997</ele></trkpt>
    <trkpt lat="49.178995" lon="19.793787"><ele>2024</ele></trkpt>
    <trkpt lat="49.178747" lon="19.793913"><ele>2026</ele></trkpt>
    <trkpt lat="49.178623" lon="19.793850"><ele>2027</ele></trkpt>
    <trkpt lat="49.178561" lon="19.793716"><ele>2028</ele></trkpt>
    <trkpt lat="49.178423" lon="19.793661"><ele>2030</ele></trkpt>
    <trkpt lat="49.178250" lon="19.793470"><ele>2029</ele></trkpt>
    <trkpt lat="49.178177" lon="19.793321"><ele>2024</ele></trkpt>
    <trkpt lat="49.178108" lon="19.793282"><ele>2023</ele></trkpt>
    <trkpt lat="49.177587" lon="19.793231"><ele>2007</ele></trkpt>
    <trkpt lat="49.177302" lon="19.793083"><ele>1994</ele></trkpt>
    <trkpt lat="49.176578" lon="19.793028"><ele>1975</ele></trkpt>
    <trkpt lat="49.176181" lon="19.793097"><ele>1971</ele></trkpt>
    <trkpt lat="49.175385" lon="19.792978"><ele>1958</ele></trkpt>
    <trkpt lat="49.175285" lon="19.793013"><ele>1956</ele></trkpt>
    <trkpt lat="49.174899" lon="19.793376"><ele>1943</ele></trkpt>
    <trkpt lat="49.174521" lon="19.793498"><ele>1924</ele></trkpt>
    <trkpt lat="49.174436" lon="19.793634"><ele>1919</ele></trkpt>
    <trkpt lat="49.174324" lon="19.793706"><ele>1911</ele></trkpt>
    <trkpt lat="49.174239" lon="19.793959"><ele>1904</ele></trkpt>
    <trkpt lat="49.174081" lon="19.794043"><ele>1896</ele></trkpt>
    <trkpt lat="49.173981" lon="19.794231"><ele>1890</ele></trkpt>
    <trkpt lat="49.173626" lon="19.794606"><ele>1877</ele></trkpt>
    <trkpt lat="49.172872" lon="19.794984"><ele>1876</ele></trkpt>
    <trkpt lat="49.172759" lon="19.795124"><ele>1877</ele></trkpt>
    <trkpt lat="49.172637" lon="19.795150"><ele>1879</ele></trkpt>
    <trkpt lat="49.172443" lon="19.795364"><ele>1883</ele></trkpt>
    <trkpt lat="49.171931" lon="19.795349"><ele>1879</ele></trkpt>
    <trkpt lat="49.171768" lon="19.795220"><ele>1874</ele></trkpt>
    <trkpt lat="49.171677" lon="19.795199"><ele>1870</ele></trkpt>
    <trkpt lat="49.171640" lon="19.794981"><ele>1865</ele></trkpt>
    <trkpt lat="49.171563" lon="19.794928"><ele>1860</ele></trkpt>
    <trkpt lat="49.171480" lon="19.795074"><ele>1863</ele></trkpt>
    <trkpt lat="49.171326" lon="19.795105"><ele>1858</ele></trkpt>
    <trkpt lat="49.170944" lon="19.795301"><ele>1842</ele></trkpt>
    <trkpt lat="49.170880" lon="19.795299"><ele>1838</ele></trkpt>
    <trkpt lat="49.170701" lon="19.795146"><ele>1824</ele></trkpt>
    <trkpt lat="49.170574" lon="19.795116"><ele>1816</ele></trkpt>
    <trkpt lat="49.170451" lon="19.794940"><ele>1807</ele></trkpt>
    <trkpt lat="49.170249" lon="19.794902"><ele>1796</ele></trkpt>
    <trkpt lat="49.170068" lon="19.795053"><ele>1789</ele></trkpt>
    <trkpt lat="49.169581" lon="19.795059"><ele>1769</ele></trkpt>
    <trkpt lat="49.169377" lon="19.794691"><ele>1754</ele></trkpt>
    <trkpt lat="49.169275" lon="19.795002"><ele>1750</ele></trkpt>
    <trkpt lat="49.169280" lon="19.795439"><ele>1742</ele></trkpt>
    <trkpt lat="49.169235" lon="19.795542"><ele>1737</ele></trkpt>
    <trkpt lat="49.169055" lon="19.795535"><ele>1728</ele></trkpt>
    <trkpt lat="49.168937" lon="19.795588"><ele>1722</ele></trkpt>
    <trkpt lat="49.168716" lon="19.795467"><ele>1713</ele></trkpt>
    <trkpt lat="49.168523" lon="19.795441"><ele>1705</ele></trkpt>
    <trkpt lat="49.168149" lon="19.795694"><ele>1695</ele></trkpt>
    <trkpt lat="49.167673" lon="19.795842"><ele>1686</ele></trkpt>
    <trkpt lat="49.166820" lon="19.795792"><ele>1690</ele></trkpt>
    <trkpt lat="49.166549" lon="19.795950"><ele>1691</ele></trkpt>
    <trkpt lat="49.166129" lon="19.795873"><ele>1688</ele></trkpt>
    <trkpt lat="49.165377" lon="19.794988"><ele>1678</ele></trkpt>
    <trkpt lat="49.165076" lon="19.794951"><ele>1671</ele></trkpt>
    <trkpt lat="49.164914" lon="19.795021"><ele>1666</ele></trkpt>
    <trkpt lat="49.164485" lon="19.794863"><ele>1649</ele></trkpt>
    <trkpt lat="49.164189" lon="19.794814"><ele>1639</ele></trkpt>
    <trkpt lat="49.163978" lon="19.794666"><ele>1631</ele></trkpt>
    <trkpt lat="49.163543" lon="19.794633"><ele>1611</ele></trkpt>
    <trkpt lat="49.162957" lon="19.794882"><ele>1584</ele></trkpt>
    <trkpt lat="49.162866" lon="19.794833"><ele>1581</ele></trkpt>
    <trkpt lat="49.162767" lon="19.794857"><ele>1577</ele></trkpt>
    <trkpt lat="49.162714" lon="19.795081"><ele>1573</ele></trkpt>
    <trkpt lat="49.162657" lon="19.795174"><ele>1571</ele></trkpt>
    <trkpt lat="49.162365" lon="19.795400"><ele>1560</ele></trkpt>
    <trkpt lat="49.162264" lon="19.795434"><ele>1557</ele></trkpt>
    <trkpt lat="49.162058" lon="19.795115"><ele>1551</ele></trkpt>
    <trkpt lat="49.161977" lon="19.795072"><ele>1549</ele></trkpt>
    <trkpt lat="49.161726" lon="19.795225"><ele>1542</ele></trkpt>
    <trkpt lat="49.161537" lon="19.795230"><ele>1539</ele></trkpt>
    <trkpt lat="49.161233" lon="19.795081"><ele>1531</ele></trkpt>
    <trkpt lat="49.161012" lon="19.795049"><ele>1525</ele></trkpt>
    <trkpt lat="49.160854" lon="19.794872"><ele>1520</ele></trkpt>
    <trkpt lat="49.160727" lon="19.794826"><ele>1515</ele></trkpt>
    <trkpt lat="49.160455" lon="19.794930"><ele>1503</ele></trkpt>
    <trkpt lat="49.160390" lon="19.794920"><ele>1500</ele></trkpt>
    <trkpt lat="49.160342" lon="19.794837"><ele>1497</ele></trkpt>
    <trkpt lat="49.160334" lon="19.794684"><ele>1497</ele></trkpt>
    <trkpt lat="49.160309" lon="19.794665"><ele>1495</ele></trkpt>
    <trkpt lat="49.160086" lon="19.794745"><ele>1482</ele></trkpt>
    <trkpt lat="49.159964" lon="19.794652"><ele>1475</ele></trkpt>
    <trkpt lat="49.159846" lon="19.794657"><ele>1471</ele></trkpt>
    <trkpt lat="49.159704" lon="19.794788"><ele>1467</ele></trkpt>
    <trkpt lat="49.159332" lon="19.794590"><ele>1450</ele></trkpt>
    <trkpt lat="49.158734" lon="19.794633"><ele>1426</ele></trkpt>
    <trkpt lat="49.158450" lon="19.794721"><ele>1418</ele></trkpt>
    <trkpt lat="49.158352" lon="19.794855"><ele>1415</ele></trkpt>
    <trkpt lat="49.157673" lon="19.794947"><ele>1396</ele></trkpt>
    <trkpt lat="49.157574" lon="19.794979"><ele>1393</ele></trkpt>
    <trkpt lat="49.157418" lon="19.795156"><ele>1386</ele></trkpt>
    <trkpt lat="49.157303" lon="19.795105"><ele>1384</ele></trkpt>
    <trkpt lat="49.157215" lon="19.795150"><ele>1381</ele></trkpt>
    <trkpt lat="49.157138" lon="19.795419"><ele>1377</ele></trkpt>
    <trkpt lat="49.157180" lon="19.795757"><ele>1376</ele></trkpt>
    <trkpt lat="49.157148" lon="19.795856"><ele>1373</ele></trkpt>
    <trkpt lat="49.157089" lon="19.795907"><ele>1370</ele></trkpt>
    <trkpt lat="49.156596" lon="19.795942"><ele>1355</ele></trkpt>
    <trkpt lat="49.156485" lon="19.796011"><ele>1350</ele></trkpt>
    <trkpt lat="49.156378" lon="19.796202"><ele>1342</ele></trkpt>
    <trkpt lat="49.156187" lon="19.796188"><ele>1337</ele></trkpt>
    <trkpt lat="49.155797" lon="19.795706"><ele>1323</ele></trkpt>
    <trkpt lat="49.155738" lon="19.795711"><ele>1318</ele></trkpt>
    <trkpt lat="49.155703" lon="19.795888"><ele>1316</ele></trkpt>
    <trkpt lat="49.155666" lon="19.795888"><ele>1313</ele></trkpt>
    <trkpt lat="49.155524" lon="19.795705"><ele>1302</ele></trkpt>
    <trkpt lat="49.155333" lon="19.795995"><ele>1293</ele></trkpt>
    <trkpt lat="49.155161" lon="19.796504"><ele>1281</ele></trkpt>
    <trkpt lat="49.155183" lon="19.796644"><ele>1283</ele></trkpt>
    <trkpt lat="49.155292" lon="19.796823"><ele>1288</ele></trkpt>
    <trkpt lat="49.155148" lon="19.796776"><ele>1280</ele></trkpt>
    <trkpt lat="49.155097" lon="19.796800"><ele>1277</ele></trkpt>
    <trkpt lat="49.155119" lon="19.796907"><ele>1278</ele></trkpt>
    <trkpt lat="49.155024" lon="19.796970"><ele>1271</ele></trkpt>
    <trkpt lat="49.154991" lon="19.797147"><ele>1265</ele></trkpt>
    <trkpt lat="49.154842" lon="19.797243"><ele>1255</ele></trkpt>
    <trkpt lat="49.154779" lon="19.797214"><ele>1251</ele></trkpt>
    <trkpt lat="49.154612" lon="19.796929"><ele>1244</ele></trkpt>
    <trkpt lat="49.154373" lon="19.796406"><ele>1239</ele></trkpt>
    <trkpt lat="49.154300" lon="19.796321"><ele>1237</ele></trkpt>
    <trkpt lat="49.154238" lon="19.796330"><ele>1235</ele></trkpt>
    <trkpt lat="49.154152" lon="19.796430"><ele>1229</ele></trkpt>
    <trkpt lat="49.153417" lon="19.796907"><ele>1174</ele></trkpt>
    <trkpt lat="49.153331" lon="19.796929"><ele>1168</ele></trkpt>
    <trkpt lat="49.153261" lon="19.796891"><ele>1164</ele></trkpt>
    <trkpt lat="49.152970" lon="19.796092"><ele>1148</ele></trkpt>
    <trkpt lat="49.152859" lon="19.796068"><ele>1138</ele></trkpt>
    <trkpt lat="49.152829" lon="19.795875"><ele>1132</ele></trkpt>
    <trkpt lat="49.152708" lon="19.795813"><ele>1122</ele></trkpt>
    <trkpt lat="49.152605" lon="19.795684"><ele>1112</ele></trkpt>
    <trkpt lat="49.152513" lon="19.795867"><ele>1110</ele></trkpt>
    <trkpt lat="49.152349" lon="19.796387"><ele>1108</ele></trkpt>
    <trkpt lat="49.152301" lon="19.796403"><ele>1105</ele></trkpt>
    <trkpt lat="49.152245" lon="19.796331"><ele>1102</ele></trkpt>
    <trkpt lat="49.152159" lon="19.796095"><ele>1098</ele></trkpt>
    <trkpt lat="49.152096" lon="19.795521"><ele>1074</ele></trkpt>
    <trkpt lat="49.152045" lon="19.795531"><ele>1071</ele></trkpt>
    <trkpt lat="49.151938" lon="19.795711"><ele>1071</ele></trkpt>
    <trkpt lat="49.151785" lon="19.796072"><ele>1072</ele></trkpt>
    <trkpt lat="49.151726" lon="19.795990"><ele>1067</ele></trkpt>
    <trkpt lat="49.151661" lon="19.795673"><ele>1054</ele></trkpt>
    <trkpt lat="49.151598" lon="19.795631"><ele>1048</ele></trkpt>
    <trkpt lat="49.151510" lon="19.795665"><ele>1043</ele></trkpt>
    <trkpt lat="49.151363" lon="19.795808"><ele>1037</ele></trkpt>
    <trkpt lat="49.151222" lon="19.795606"><ele>1025</ele></trkpt>
    <trkpt lat="49.150919" lon="19.795606"><ele>1010</ele></trkpt>
    <trkpt lat="49.150806" lon="19.795460"><ele>1004</ele></trkpt>
    <trkpt lat="49.150712" lon="19.795432"><ele>1000</ele></trkpt>
    <trkpt lat="49.150598" lon="19.795301"><ele>996</ele></trkpt>
    <trkpt lat="49.150526" lon="19.795285"><ele>994</ele></trkpt>
    <trkpt lat="49.150145" lon="19.795625"><ele>981</ele></trkpt>
    <trkpt lat="49.150000" lon="19.795608"><ele>975</ele></trkpt>
    <trkpt lat="49.149578" lon="19.794836"><ele>972</ele></trkpt>
    <trkpt lat="49.148926" lon="19.794157"><ele>969</ele></trkpt>
    <trkpt lat="49.148516" lon="19.793805"><ele>962</ele></trkpt>
    <trkpt lat="49.148042" lon="19.793919"><ele>962</ele></trkpt>
    <trkpt lat="49.147764" lon="19.794104"><ele>957</ele></trkpt>
    <trkpt lat="49.147554" lon="19.794383"><ele>957</ele></trkpt>
    <trkpt lat="49.147175" lon="19.795193"><ele>960</ele></trkpt>
    <trkpt lat="49.147124" lon="19.795248"><ele>961</ele></trkpt>
    <trkpt lat="49.146787" lon="19.795200"><ele>957</ele></trkpt>
    <trkpt lat="49.146679" lon="19.795228"><ele>956</ele></trkpt>
    <trkpt lat="49.146025" lon="19.795605"><ele>953</ele></trkpt>
    <trkpt lat="49.145408" lon="19.795841"><ele>956</ele></trkpt>
    <trkpt lat="49.145176" lon="19.796000"><ele>958</ele></trkpt>
    <trkpt lat="49.144972" lon="19.796197"><ele>959</ele></trkpt>
    <trkpt lat="49.144779" lon="19.796544"><ele>955</ele></trkpt>
    <trkpt lat="49.144593" lon="19.796719"><ele>954</ele></trkpt>
    <trkpt lat="49.144377" lon="19.796825"><ele>952</ele></trkpt>
    <trkpt lat="49.144183" lon="19.796823"><ele>949</ele></trkpt>
    <trkpt lat="49.143997" lon="19.796781"><ele>945</ele></trkpt>
    <trkpt lat="49.143628" lon="19.796490"><ele>946</ele></trkpt>
    <trkpt lat="49.143237" lon="19.796324"><ele>950</ele></trkpt>
    <trkpt lat="49.141975" lon="19.796196"><ele>951</ele></trkpt>
    <trkpt lat="49.141405" lon="19.796009"><ele>955</ele></trkpt>
    <trkpt lat="49.140638" lon="19.795989"><ele>943</ele></trkpt>
    <trkpt lat="49.140392" lon="19.795924"><ele>939</ele></trkpt>
    <trkpt lat="49.140152" lon="19.795793"><ele>937</ele></trkpt>
    <trkpt lat="49.139548" lon="19.795287"><ele>940</ele></trkpt>
    <trkpt lat="49.138561" lon="19.794268"><ele>923</ele></trkpt>
    <trkpt lat="49.138060" lon="19.793945"><ele>919</ele></trkpt>
    <trkpt lat="49.137897" lon="19.793771"><ele>918</ele></trkpt>
    <trkpt lat="49.137462" lon="19.792758"><ele>912</ele></trkpt>
    <trkpt lat="49.136606" lon="19.791540"><ele>914</ele></trkpt>
    <trkpt lat="49.136408" lon="19.791344"><ele>913</ele></trkpt>
    <trkpt lat="49.136240" lon="19.791248"><ele>914</ele></trkpt>
    <trkpt lat="49.135916" lon="19.791179"><ele>913</ele></trkpt>
    <trkpt lat="49.135651" lon="19.791200"><ele>911</ele></trkpt>
    <trkpt lat="49.134668" lon="19.791609"><ele>907</ele></trkpt>
  </trkseg></trk>
</gpx>
