<?xml version="1.0" encoding="UTF-8"?>
<gpx version="1.1" creator="MounTour (OpenStreetMap)" xmlns="http://www.topografix.com/GPX/1/1">
  <metadata><name>Vysoká z Kuchyne</name><copyright author="OpenStreetMap contributors"><license>https://opendatacommons.org/licenses/odbl/</license></copyright></metadata>
  <trk><name>Vysoká z Kuchyne</name><trkseg>
    <trkpt lat="48.406579" lon="17.155405"><ele>253</ele></trkpt>
    <trkpt lat="48.406349" lon="17.155545"><ele>254</ele></trkpt>
    <trkpt lat="48.406272" lon="17.155636"><ele>255</ele></trkpt>
    <trkpt lat="48.406096" lon="17.156132"><ele>254</ele></trkpt>
    <trkpt lat="48.405982" lon="17.157304"><ele>253</ele></trkpt>
    <trkpt lat="48.406480" lon="17.159376"><ele>260</ele></trkpt>
    <trkpt lat="48.406507" lon="17.159645"><ele>260</ele></trkpt>
    <trkpt lat="48.407263" lon="17.159924"><ele>259</ele></trkpt>
    <trkpt lat="48.407605" lon="17.160131"><ele>259</ele></trkpt>
    <trkpt lat="48.407764" lon="17.160411"><ele>261</ele></trkpt>
    <trkpt lat="48.407886" lon="17.160859"><ele>262</ele></trkpt>
    <trkpt lat="48.408293" lon="17.162993"><ele>264</ele></trkpt>
    <trkpt lat="48.408338" lon="17.163398"><ele>265</ele></trkpt>
    <trkpt lat="48.408347" lon="17.163965"><ele>266</ele></trkpt>
    <trkpt lat="48.407834" lon="17.167926"><ele>275</ele></trkpt>
    <trkpt lat="48.408957" lon="17.168275"><ele>271</ele></trkpt>
    <trkpt lat="48.409124" lon="17.168429"><ele>270</ele></trkpt>
    <trkpt lat="48.409169" lon="17.168531"><ele>269</ele></trkpt>
    <trkpt lat="48.409162" lon="17.169033"><ele>271</ele></trkpt>
    <trkpt lat="48.409000" lon="17.171884"><ele>288</ele></trkpt>
    <trkpt lat="48.409161" lon="17.172041"><ele>286</ele></trkpt>
    <trkpt lat="48.409241" lon="17.172237"><ele>286</ele></trkpt>
    <trkpt lat="48.409329" lon="17.173151"><ele>290</ele></trkpt>
    <trkpt lat="48.409430" lon="17.173769"><ele>293</ele></trkpt>
    <trkpt lat="48.409497" lon="17.174713"><ele>301</ele></trkpt>
    <trkpt lat="48.409922" lon="17.176084"><ele>313</ele></trkpt>
    <trkpt lat="48.410012" lon="17.176308"><ele>315</ele></trkpt>
    <trkpt lat="48.410790" lon="17.177650"><ele>316</ele></trkpt>
    <trkpt lat="48.411084" lon="17.177785"><ele>317</ele></trkpt>
    <trkpt lat="48.411222" lon="17.177910"><ele>318</ele></trkpt>
    <trkpt lat="48.411330" lon="17.177885"><ele>318</ele></trkpt>
    <trkpt lat="48.411481" lon="17.177951"><ele>319</ele></trkpt>
    <trkpt lat="48.411905" lon="17.178582"><ele>330</ele></trkpt>
    <trkpt lat="48.412275" lon="17.179043"><ele>339</ele></trkpt>
    <trkpt lat="48.412721" lon="17.179519"><ele>350</ele></trkpt>
    <trkpt lat="48.413324" lon="17.180080"><ele>364</ele></trkpt>
    <trkpt lat="48.413506" lon="17.180335"><ele>369</ele></trkpt>
    <trkpt lat="48.413744" lon="17.180819"><ele>379</ele></trkpt>
    <trkpt lat="48.413813" lon="17.180903"><ele>381</ele></trkpt>
    <trkpt lat="48.413905" lon="17.180963"><ele>382</ele></trkpt>
    <trkpt lat="48.414143" lon="17.180949"><ele>382</ele></trkpt>
    <trkpt lat="48.414848" lon="17.181432"><ele>388</ele></trkpt>
    <trkpt lat="48.414953" lon="17.181669"><ele>391</ele></trkpt>
    <trkpt lat="48.415326" lon="17.183291"><ele>383</ele></trkpt>
    <trkpt lat="48.415470" lon="17.183516"><ele>382</ele></trkpt>
    <trkpt lat="48.415685" lon="17.184044"><ele>374</ele></trkpt>
    <trkpt lat="48.415802" lon="17.184229"><ele>370</ele></trkpt>
    <trkpt lat="48.415988" lon="17.184731"><ele>360</ele></trkpt>
    <trkpt lat="48.416171" lon="17.185706"><ele>348</ele></trkpt>
    <trkpt lat="48.416342" lon="17.186273"><ele>343</ele></trkpt>
    <trkpt lat="48.416711" lon="17.186991"><ele>338</ele></trkpt>
    <trkpt lat="48.416848" lon="17.187112"><ele>337</ele></trkpt>
    <trkpt lat="48.417071" lon="17.187563"><ele>333</ele></trkpt>
    <trkpt lat="48.417170" lon="17.187675"><ele>331</ele></trkpt>
    <trkpt lat="48.417387" lon="17.187797"><ele>323</ele></trkpt>
    <trkpt lat="48.417523" lon="17.188033"><ele>314</ele></trkpt>
    <trkpt lat="48.417276" lon="17.188935"><ele>299</ele></trkpt>
    <trkpt lat="48.417356" lon="17.189308"><ele>304</ele></trkpt>
    <trkpt lat="48.417662" lon="17.189909"><ele>313</ele></trkpt>
    <trkpt lat="48.417795" lon="17.190050"><ele>318</ele></trkpt>
    <trkpt lat="48.417820" lon="17.190659"><ele>326</ele></trkpt>
    <trkpt lat="48.417935" lon="17.191452"><ele>334</ele></trkpt>
    <trkpt lat="48.417820" lon="17.191487"><ele>337</ele></trkpt>
    <trkpt lat="48.417693" lon="17.191590"><ele>339</ele></trkpt>
    <trkpt lat="48.417229" lon="17.192049"><ele>348</ele></trkpt>
    <trkpt lat="48.417013" lon="17.192136"><ele>350</ele></trkpt>
    <trkpt lat="48.416802" lon="17.192536"><ele>357</ele></trkpt>
    <trkpt lat="48.416664" lon="17.192673"><ele>360</ele></trkpt>
    <trkpt lat="48.416538" lon="17.192622"><ele>359</ele></trkpt>
    <trkpt lat="48.416210" lon="17.192702"><ele>364</ele></trkpt>
    <trkpt lat="48.416030" lon="17.192622"><ele>362</ele></trkpt>
    <trkpt lat="48.415801" lon="17.192421"><ele>355</ele></trkpt>
    <trkpt lat="48.415710" lon="17.192419"><ele>354</ele></trkpt>
    <trkpt lat="48.415514" lon="17.192608"><ele>360</ele></trkpt>
    <trkpt lat="48.415033" lon="17.192768"><ele>361</ele></trkpt>
    <trkpt lat="48.414893" lon="17.193035"><ele>366</ele></trkpt>
    <trkpt lat="48.414786" lon="17.193164"><ele>367</ele></trkpt>
    <trkpt lat="48.414457" lon="17.193307"><ele>363</ele></trkpt>
    <trkpt lat="48.414105" lon="17.193644"><ele>362</ele></trkpt>
    <trkpt lat="48.413578" lon="17.194510"><ele>368</ele></trkpt>
    <trkpt lat="48.413585" lon="17.194594"><ele>371</ele></trkpt>
    <trkpt lat="48.413394" lon="17.195185"><ele>377</ele></trkpt>
    <trkpt lat="48.413652" lon="17.194885"><ele>380</ele></trkpt>
    <trkpt lat="48.413512" lon="17.195320"><ele>386</ele></trkpt>
    <trkpt lat="48.414324" lon="17.194346"><ele>388</ele></trkpt>
    <trkpt lat="48.414583" lon="17.194564"><ele>404</ele></trkpt>
    <trkpt lat="48.414158" lon="17.196024"><ele>435</ele></trkpt>
    <trkpt lat="48.413981" lon="17.196495"><ele>439</ele></trkpt>
    <trkpt lat="48.413960" lon="17.196645"><ele>442</ele></trkpt>
    <trkpt lat="48.413873" lon="17.196895"><ele>442</ele></trkpt>
    <trkpt lat="48.413817" lon="17.196925"><ele>440</ele></trkpt>
    <trkpt lat="48.413798" lon="17.197081"><ele>443</ele></trkpt>
    <trkpt lat="48.413655" lon="17.197463"><ele>447</ele></trkpt>
    <trkpt lat="48.413661" lon="17.197568"><ele>450</ele></trkpt>
    <trkpt lat="48.413392" lon="17.198422"><ele>458</ele></trkpt>
    <trkpt lat="48.413291" lon="17.198962"><ele>464</ele></trkpt>
    <trkpt lat="48.413266" lon="17.199445"><ele>472</ele></trkpt>
    <trkpt lat="48.413301" lon="17.200575"><ele>486</ele></trkpt>
    <trkpt lat="48.413252" lon="17.201031"><ele>487</ele></trkpt>
    <trkpt lat="48.413282" lon="17.201194"><ele>489</ele></trkpt>
    <trkpt lat="48.413123" lon="17.202990"><ele>510</ele></trkpt>
    <trkpt lat="48.413029" lon="17.203383"><ele>512</ele></trkpt>
    <trkpt lat="48.413015" lon="17.204284"><ele>520</ele></trkpt>
    <trkpt lat="48.413050" lon="17.204633"><ele>522</ele></trkpt>
    <trkpt lat="48.413130" lon="17.204925"><ele>526</ele></trkpt>
    <trkpt lat="48.413340" lon="17.205389"><ele>535</ele></trkpt>
    <trkpt lat="48.413952" lon="17.206488"><ele>557</ele></trkpt>
    <trkpt lat="48.414070" lon="17.207183"><ele>551</ele></trkpt>
    <trkpt lat="48.414170" lon="17.207574"><ele>553</ele></trkpt>
    <trkpt lat="48.414118" lon="17.207741"><ele>555</ele></trkpt>
    <trkpt lat="48.413908" lon="17.208153"><ele>562</ele></trkpt>
    <trkpt lat="48.413740" lon="17.208678"><ele>568</ele></trkpt>
    <trkpt lat="48.413631" lon="17.208916"><ele>572</ele></trkpt>
    <trkpt lat="48.413276" lon="17.209367"><ele>577</ele></trkpt>
    <trkpt lat="48.413108" lon="17.209745"><ele>586</ele></trkpt>
    <trkpt lat="48.412990" lon="17.210141"><ele>588</ele></trkpt>
    <trkpt lat="48.412959" lon="17.210506"><ele>589</ele></trkpt>
    <trkpt lat="48.413114" lon="17.210904"><ele>593</ele></trkpt>
    <trkpt lat="48.413264" lon="17.211125"><ele>598</ele></trkpt>
    <trkpt lat="48.413393" lon="17.211161"><ele>601</ele></trkpt>
    <trkpt lat="48.413778" lon="17.211450"><ele>608</ele></trkpt>
    <trkpt lat="48.414024" lon="17.211952"><ele>622</ele></trkpt>
    <trkpt lat="48.414069" lon="17.212339"><ele>628</ele></trkpt>
    <trkpt lat="48.414309" lon="17.212442"><ele>641</ele></trkpt>
    <trkpt lat="48.414372" lon="17.212687"><ele>648</ele></trkpt>
    <trkpt lat="48.414513" lon="17.212844"><ele>657</ele></trkpt>
    <trkpt lat="48.414859" lon="17.213103"><ele>672</ele></trkpt>
    <trkpt lat="48.414977" lon="17.213308"><ele>682</ele></trkpt>
    <trkpt lat="48.415095" lon="17.213692"><ele>692</ele></trkpt>
    <trkpt lat="48.415180" lon="17.213791"><ele>695</ele></trkpt>
    <trkpt lat="48.415290" lon="17.214108"><ele>702</ele></trkpt>
    <trkpt lat="48.415391" lon="17.214251"><ele>704</ele></trkpt>
    <trkpt lat="48.415401" lon="17.214464"><ele>708</ele></trkpt>
    <trkpt lat="48.415517" lon="17.214793"><ele>714</ele></trkpt>
    <trkpt lat="48.415605" lon="17.214929"><ele>716</ele></trkpt>
    <trkpt lat="48.415731" lon="17.215421"><ele>724</ele></trkpt>
    <trkpt lat="48.416105" lon="17.216298"><ele>740</ele></trkpt>
    <trkpt lat="48.416122" lon="17.216435"><ele>742</ele></trkpt>
    <trkpt lat="48.416206" lon="17.216594"><ele>744</ele></trkpt>
    <trkpt lat="48.416233" lon="17.216782"><ele>745</ele></trkpt>
    <trkpt lat="48.416393" lon="17.217144"><ele>754</ele></trkpt>
    <trkpt lat="48.416233" lon="17.216782"><ele>745</ele></trkpt>
    <trkpt lat="48.416206" lon="17.216594"><ele>744</ele></trkpt>
    <trkpt lat="48.416122" lon="17.216435"><ele>742</ele></trkpt>
    <trkpt lat="48.416105" lon="17.216298"><ele>740</ele></trkpt>
    <trkpt lat="48.415731" lon="17.215421"><ele>724</ele></trkpt>
    <trkpt lat="48.415605" lon="17.214929"><ele>716</ele></trkpt>
    <trkpt lat="48.415517" lon="17.214793"><ele>714</ele></trkpt>
    <trkpt lat="48.415401" lon="17.214464"><ele>708</ele></trkpt>
    <trkpt lat="48.415391" lon="17.214251"><ele>704</ele></trkpt>
    <trkpt lat="48.415290" lon="17.214108"><ele>702</ele></trkpt>
    <trkpt lat="48.415180" lon="17.213791"><ele>695</ele></trkpt>
    <trkpt lat="48.415095" lon="17.213692"><ele>692</ele></trkpt>
    <trkpt lat="48.414977" lon="17.213308"><ele>682</ele></trkpt>
    <trkpt lat="48.414859" lon="17.213103"><ele>672</ele></trkpt>
    <trkpt lat="48.414513" lon="17.212844"><ele>657</ele></trkpt>
    <trkpt lat="48.414372" lon="17.212687"><ele>648</ele></trkpt>
    <trkpt lat="48.414309" lon="17.212442"><ele>641</ele></trkpt>
    <trkpt lat="48.414069" lon="17.212339"><ele>628</ele></trkpt>
    <trkpt lat="48.414024" lon="17.211952"><ele>622</ele></trkpt>
    <trkpt lat="48.413778" lon="17.211450"><ele>608</ele></trkpt>
    <trkpt lat="48.413393" lon="17.211161"><ele>601</ele></trkpt>
    <trkpt lat="48.413264" lon="17.211125"><ele>598</ele></trkpt>
    <trkpt lat="48.413114" lon="17.210904"><ele>593</ele></trkpt>
    <trkpt lat="48.412959" lon="17.210506"><ele>589</ele></trkpt>
    <trkpt lat="48.412990" lon="17.210141"><ele>588</ele></trkpt>
    <trkpt lat="48.413108" lon="17.209745"><ele>586</ele></trkpt>
    <trkpt lat="48.413276" lon="17.209367"><ele>577</ele></trkpt>
    <trkpt lat="48.413631" lon="17.208916"><ele>572</ele></trkpt>
    <trkpt lat="48.413740" lon="17.208678"><ele>568</ele></trkpt>
    <trkpt lat="48.413908" lon="17.208153"><ele>562</ele></trkpt>
    <trkpt lat="48.414118" lon="17.207741"><ele>555</ele></trkpt>
    <trkpt lat="48.414170" lon="17.207574"><ele>553</ele></trkpt>
    <trkpt lat="48.414070" lon="17.207183"><ele>551</ele></trkpt>
    <trkpt lat="48.413952" lon="17.206488"><ele>557</ele></trkpt>
    <trkpt lat="48.413340" lon="17.205389"><ele>535</ele></trkpt>
    <trkpt lat="48.413130" lon="17.204925"><ele>526</ele></trkpt>
    <trkpt lat="48.413050" lon="17.204633"><ele>522</ele></trkpt>
    <trkpt lat="48.413015" lon="17.204284"><ele>520</ele></trkpt>
    <trkpt lat="48.413029" lon="17.203383"><ele>512</ele></trkpt>
    <trkpt lat="48.413123" lon="17.202990"><ele>510</ele></trkpt>
    <trkpt lat="48.413282" lon="17.201194"><ele>489</ele></trkpt>
    <trkpt lat="48.413252" lon="17.201031"><ele>487</ele></trkpt>
    <trkpt lat="48.413301" lon="17.200575"><ele>486</ele></trkpt>
    <trkpt lat="48.413266" lon="17.199445"><ele>472</ele></trkpt>
    <trkpt lat="48.413291" lon="17.198962"><ele>464</ele></trkpt>
    <trkpt lat="48.413392" lon="17.198422"><ele>458</ele></trkpt>
    <trkpt lat="48.413661" lon="17.197568"><ele>450</ele></trkpt>
    <trkpt lat="48.413655" lon="17.197463"><ele>447</ele></trkpt>
    <trkpt lat="48.413798" lon="17.197081"><ele>443</ele></trkpt>
    <trkpt lat="48.413817" lon="17.196925"><ele>440</ele></trkpt>
    <trkpt lat="48.413873" lon="17.196895"><ele>442</ele></trkpt>
    <trkpt lat="48.413960" lon="17.196645"><ele>442</ele></trkpt>
    <trkpt lat="48.413981" lon="17.196495"><ele>439</ele></trkpt>
    <trkpt lat="48.414158" lon="17.196024"><ele>435</ele></trkpt>
    <trkpt lat="48.414583" lon="17.194564"><ele>404</ele></trkpt>
    <trkpt lat="48.414324" lon="17.194346"><ele>388</ele></trkpt>
    <trkpt lat="48.413512" lon="17.195320"><ele>386</ele></trkpt>
    <trkpt lat="48.413652" lon="17.194885"><ele>380</ele></trkpt>
    <trkpt lat="48.413394" lon="17.195185"><ele>377</ele></trkpt>
    <trkpt lat="48.413585" lon="17.194594"><ele>371</ele></trkpt>
    <trkpt lat="48.413578" lon="17.194510"><ele>368</ele></trkpt>
    <trkpt lat="48.414105" lon="17.193644"><ele>362</ele></trkpt>
    <trkpt lat="48.414457" lon="17.193307"><ele>363</ele></trkpt>
    <trkpt lat="48.414786" lon="17.193164"><ele>367</ele></trkpt>
    <trkpt lat="48.414893" lon="17.193035"><ele>366</ele></trkpt>
    <trkpt lat="48.415033" lon="17.192768"><ele>361</ele></trkpt>
    <trkpt lat="48.415514" lon="17.192608"><ele>360</ele></trkpt>
    <trkpt lat="48.415710" lon="17.192419"><ele>354</ele></trkpt>
    <trkpt lat="48.415801" lon="17.192421"><ele>355</ele></trkpt>
    <trkpt lat="48.416030" lon="17.192622"><ele>362</ele></trkpt>
    <trkpt lat="48.416210" lon="17.192702"><ele>364</ele></trkpt>
    <trkpt lat="48.416538" lon="17.192622"><ele>359</ele></trkpt>
    <trkpt lat="48.416664" lon="17.192673"><ele>360</ele></trkpt>
    <trkpt lat="48.416802" lon="17.192536"><ele>357</ele></trkpt>
    <trkpt lat="48.417013" lon="17.192136"><ele>350</ele></trkpt>
    <trkpt lat="48.417229" lon="17.192049"><ele>348</ele></trkpt>
    <trkpt lat="48.417693" lon="17.191590"><ele>339</ele></trkpt>
    <trkpt lat="48.417820" lon="17.191487"><ele>337</ele></trkpt>
    <trkpt lat="48.417935" lon="17.191452"><ele>334</ele></trkpt>
    <trkpt lat="48.417820" lon="17.190659"><ele>326</ele></trkpt>
    <trkpt lat="48.417795" lon="17.190050"><ele>318</ele></trkpt>
    <trkpt lat="48.417662" lon="17.189909"><ele>313</ele></trkpt>
    <trkpt lat="48.417356" lon="17.189308"><ele>304</ele></trkpt>
    <trkpt lat="48.417276" lon="17.188935"><ele>299</ele></trkpt>
    <trkpt lat="48.417523" lon="17.188033"><ele>314</ele></trkpt>
    <trkpt lat="48.417387" lon="17.187797"><ele>323</ele></trkpt>
    <trkpt lat="48.417170" lon="17.187675"><ele>331</ele></trkpt>
    <trkpt lat="48.417071" lon="17.187563"><ele>333</ele></trkpt>
    <trkpt lat="48.416848" lon="17.187112"><ele>337</ele></trkpt>
    <trkpt lat="48.416711" lon="17.186991"><ele>338</ele></trkpt>
    <trkpt lat="48.416342" lon="17.186273"><ele>343</ele></trkpt>
    <trkpt lat="48.416171" lon="17.185706"><ele>348</ele></trkpt>
    <trkpt lat="48.415988" lon="17.184731"><ele>360</ele></trkpt>
    <trkpt lat="48.415802" lon="17.184229"><ele>370</ele></trkpt>
    <trkpt lat="48.415685" lon="17.184044"><ele>374</ele></trkpt>
    <trkpt lat="48.415470" lon="17.183516"><ele>382</ele></trkpt>
    <trkpt lat="48.415326" lon="17.183291"><ele>383</ele></trkpt>
    <trkpt lat="48.414953" lon="17.181669"><ele>391</ele></trkpt>
    <trkpt lat="48.414848" lon="17.181432"><ele>388</ele></trkpt>
    <trkpt lat="48.414143" lon="17.180949"><ele>382</ele></trkpt>
    <trkpt lat="48.413905" lon="17.180963"><ele>382</ele></trkpt>
    <trkpt lat="48.413813" lon="17.180903"><ele>381</ele></trkpt>
    <trkpt lat="48.413744" lon="17.180819"><ele>379</ele></trkpt>
    <trkpt lat="48.413506" lon="17.180335"><ele>369</ele></trkpt>
    <trkpt lat="48.413324" lon="17.180080"><ele>364</ele></trkpt>
    <trkpt lat="48.412721" lon="17.179519"><ele>350</ele></trkpt>
    <trkpt lat="48.412275" lon="17.179043"><ele>339</ele></trkpt>
    <trkpt lat="48.411905" lon="17.178582"><ele>330</ele></trkpt>
    <trkpt lat="48.411481" lon="17.177951"><ele>319</ele></trkpt>
    <trkpt lat="48.411330" lon="17.177885"><ele>318</ele></trkpt>
    <trkpt lat="48.411222" lon="17.177910"><ele>318</ele></trkpt>
    <trkpt lat="48.411084" lon="17.177785"><ele>317</ele></trkpt>
    <trkpt lat="48.410790" lon="17.177650"><ele>316</ele></trkpt>
    <trkpt lat="48.410012" lon="17.176308"><ele>315</ele></trkpt>
    <trkpt lat="48.409922" lon="17.176084"><ele>313</ele></trkpt>
    <trkpt lat="48.409497" lon="17.174713"><ele>301</ele></trkpt>
    <trkpt lat="48.409430" lon="17.173769"><ele>293</ele></trkpt>
    <trkpt lat="48.409329" lon="17.173151"><ele>290</ele></trkpt>
    <trkpt lat="48.409241" lon="17.172237"><ele>286</ele></trkpt>
    <trkpt lat="48.409161" lon="17.172041"><ele>286</ele></trkpt>
    <trkpt lat="48.409000" lon="17.171884"><ele>288</ele></trkpt>
    <trkpt lat="48.409162" lon="17.169033"><ele>271</ele></trkpt>
    <trkpt lat="48.409169" lon="17.168531"><ele>269</ele></trkpt>
    <trkpt lat="48.409124" lon="17.168429"><ele>270</ele></trkpt>
    <trkpt lat="48.408957" lon="17.168275"><ele>271</ele></trkpt>
    <trkpt lat="48.407834" lon="17.167926"><ele>275</ele></trkpt>
    <trkpt lat="48.408347" lon="17.163965"><ele>266</ele></trkpt>
    <trkpt lat="48.408338" lon="17.163398"><ele>265</ele></trkpt>
    <trkpt lat="48.408293" lon="17.162993"><ele>264</ele></trkpt>
    <trkpt lat="48.407886" lon="17.160859"><ele>262</ele></trkpt>
    <trkpt lat="48.407764" lon="17.160411"><ele>261</ele></trkpt>
    <trkpt lat="48.407605" lon="17.160131"><ele>259</ele></trkpt>
    <trkpt lat="48.407263" lon="17.159924"><ele>259</ele></trkpt>
    <trkpt lat="48.406507" lon="17.159645"><ele>260</ele></trkpt>
    <trkpt lat="48.406480" lon="17.159376"><ele>260</ele></trkpt>
    <trkpt lat="48.405982" lon="17.157304"><ele>253</ele></trkpt>
    <trkpt lat="48.406096" lon="17.156132"><ele>254</ele></trkpt>
    <trkpt lat="48.406272" lon="17.155636"><ele>255</ele></trkpt>
    <trkpt lat="48.406349" lon="17.155545"><ele>254</ele></trkpt>
    <trkpt lat="48.406579" lon="17.155405"><ele>253</ele></trkpt>
  </trkseg></trk>
</gpx>
