<?xml version="1.0" encoding="UTF-8"?>
<gpx version="1.1" creator="MounTour (OpenStreetMap)" xmlns="http://www.topografix.com/GPX/1/1">
  <metadata><name>Záruby zo Smoleníc</name><copyright author="OpenStreetMap contributors"><license>https://opendatacommons.org/licenses/odbl/</license></copyright></metadata>
  <trk><name>Záruby zo Smoleníc</name><trkseg>
    <trkpt lat="48.509161" lon="17.433577"><ele>228</ele></trkpt>
    <trkpt lat="48.509210" lon="17.433671"><ele>229</ele></trkpt>
    <trkpt lat="48.509706" lon="17.432767"><ele>238</ele></trkpt>
    <trkpt lat="48.509653" lon="17.432416"><ele>242</ele></trkpt>
    <trkpt lat="48.509567" lon="17.432320"><ele>242</ele></trkpt>
    <trkpt lat="48.509575" lon="17.432217"><ele>242</ele></trkpt>
    <trkpt lat="48.509676" lon="17.431782"><ele>245</ele></trkpt>
    <trkpt lat="48.509672" lon="17.431605"><ele>244</ele></trkpt>
    <trkpt lat="48.510001" lon="17.431178"><ele>248</ele></trkpt>
    <trkpt lat="48.510017" lon="17.430918"><ele>250</ele></trkpt>
    <trkpt lat="48.509931" lon="17.430430"><ele>255</ele></trkpt>
    <trkpt lat="48.510081" lon="17.430326"><ele>256</ele></trkpt>
    <trkpt lat="48.510152" lon="17.430215"><ele>258</ele></trkpt>
    <trkpt lat="48.510297" lon="17.429735"><ele>264</ele></trkpt>
    <trkpt lat="48.510348" lon="17.429334"><ele>270</ele></trkpt>
    <trkpt lat="48.510636" lon="17.428791"><ele>277</ele></trkpt>
    <trkpt lat="48.510757" lon="17.428368"><ele>286</ele></trkpt>
    <trkpt lat="48.511054" lon="17.427996"><ele>290</ele></trkpt>
    <trkpt lat="48.511404" lon="17.427128"><ele>302</ele></trkpt>
    <trkpt lat="48.511559" lon="17.426596"><ele>311</ele></trkpt>
    <trkpt lat="48.511637" lon="17.425960"><ele>322</ele></trkpt>
    <trkpt lat="48.511636" lon="17.424625"><ele>346</ele></trkpt>
    <trkpt lat="48.511726" lon="17.424131"><ele>354</ele></trkpt>
    <trkpt lat="48.511722" lon="17.423769"><ele>360</ele></trkpt>
    <trkpt lat="48.511827" lon="17.423302"><ele>360</ele></trkpt>
    <trkpt lat="48.511764" lon="17.422637"><ele>367</ele></trkpt>
    <trkpt lat="48.511845" lon="17.422159"><ele>366</ele></trkpt>
    <trkpt lat="48.511809" lon="17.422051"><ele>367</ele></trkpt>
    <trkpt lat="48.511664" lon="17.421878"><ele>371</ele></trkpt>
    <trkpt lat="48.511560" lon="17.421831"><ele>368</ele></trkpt>
    <trkpt lat="48.511299" lon="17.421830"><ele>358</ele></trkpt>
    <trkpt lat="48.511429" lon="17.421218"><ele>355</ele></trkpt>
    <trkpt lat="48.511515" lon="17.421135"><ele>357</ele></trkpt>
    <trkpt lat="48.511542" lon="17.421026"><ele>357</ele></trkpt>
    <trkpt lat="48.511844" lon="17.420408"><ele>348</ele></trkpt>
    <trkpt lat="48.511847" lon="17.420260"><ele>343</ele></trkpt>
    <trkpt lat="48.511907" lon="17.420295"><ele>345</ele></trkpt>
    <trkpt lat="48.512003" lon="17.420160"><ele>345</ele></trkpt>
    <trkpt lat="48.512186" lon="17.420018"><ele>349</ele></trkpt>
    <trkpt lat="48.512324" lon="17.420004"><ele>353</ele></trkpt>
    <trkpt lat="48.512485" lon="17.419493"><ele>357</ele></trkpt>
    <trkpt lat="48.512984" lon="17.418778"><ele>353</ele></trkpt>
    <trkpt lat="48.513148" lon="17.418009"><ele>351</ele></trkpt>
    <trkpt lat="48.513295" lon="17.417129"><ele>362</ele></trkpt>
    <trkpt lat="48.513316" lon="17.416162"><ele>365</ele></trkpt>
    <trkpt lat="48.513264" lon="17.415184"><ele>375</ele></trkpt>
    <trkpt lat="48.513065" lon="17.413248"><ele>378</ele></trkpt>
    <trkpt lat="48.513352" lon="17.412080"><ele>376</ele></trkpt>
    <trkpt lat="48.513531" lon="17.411555"><ele>367</ele></trkpt>
    <trkpt lat="48.513617" lon="17.411186"><ele>362</ele></trkpt>
    <trkpt lat="48.513789" lon="17.409371"><ele>363</ele></trkpt>
    <trkpt lat="48.513802" lon="17.408497"><ele>366</ele></trkpt>
    <trkpt lat="48.513695" lon="17.407492"><ele>368</ele></trkpt>
    <trkpt lat="48.513793" lon="17.407131"><ele>375</ele></trkpt>
    <trkpt lat="48.514135" lon="17.406555"><ele>389</ele></trkpt>
    <trkpt lat="48.514275" lon="17.406000"><ele>398</ele></trkpt>
    <trkpt lat="48.515294" lon="17.404752"><ele>424</ele></trkpt>
    <trkpt lat="48.515708" lon="17.404418"><ele>433</ele></trkpt>
    <trkpt lat="48.516041" lon="17.403893"><ele>442</ele></trkpt>
    <trkpt lat="48.516613" lon="17.403520"><ele>451</ele></trkpt>
    <trkpt lat="48.516788" lon="17.403315"><ele>455</ele></trkpt>
    <trkpt lat="48.517075" lon="17.402684"><ele>464</ele></trkpt>
    <trkpt lat="48.517303" lon="17.402322"><ele>471</ele></trkpt>
    <trkpt lat="48.517446" lon="17.402232"><ele>473</ele></trkpt>
    <trkpt lat="48.517468" lon="17.402037"><ele>477</ele></trkpt>
    <trkpt lat="48.517622" lon="17.401779"><ele>483</ele></trkpt>
    <trkpt lat="48.517730" lon="17.401719"><ele>485</ele></trkpt>
    <trkpt lat="48.518043" lon="17.401401"><ele>499</ele></trkpt>
    <trkpt lat="48.518203" lon="17.401411"><ele>503</ele></trkpt>
    <trkpt lat="48.518385" lon="17.401332"><ele>510</ele></trkpt>
    <trkpt lat="48.518563" lon="17.401147"><ele>519</ele></trkpt>
    <trkpt lat="48.518642" lon="17.400974"><ele>525</ele></trkpt>
    <trkpt lat="48.518777" lon="17.400895"><ele>531</ele></trkpt>
    <trkpt lat="48.519002" lon="17.400681"><ele>540</ele></trkpt>
    <trkpt lat="48.519137" lon="17.400634"><ele>543</ele></trkpt>
    <trkpt lat="48.519256" lon="17.400659"><ele>547</ele></trkpt>
    <trkpt lat="48.519340" lon="17.400541"><ele>551</ele></trkpt>
    <trkpt lat="48.519671" lon="17.400446"><ele>562</ele></trkpt>
    <trkpt lat="48.519896" lon="17.400087"><ele>571</ele></trkpt>
    <trkpt lat="48.519958" lon="17.399875"><ele>575</ele></trkpt>
    <trkpt lat="48.520137" lon="17.399800"><ele>581</ele></trkpt>
    <trkpt lat="48.520285" lon="17.399515"><ele>588</ele></trkpt>
    <trkpt lat="48.520294" lon="17.399341"><ele>591</ele></trkpt>
    <trkpt lat="48.520413" lon="17.398929"><ele>600</ele></trkpt>
    <trkpt lat="48.520430" lon="17.398345"><ele>610</ele></trkpt>
    <trkpt lat="48.520533" lon="17.398181"><ele>613</ele></trkpt>
    <trkpt lat="48.520565" lon="17.397975"><ele>617</ele></trkpt>
    <trkpt lat="48.520753" lon="17.397862"><ele>622</ele></trkpt>
    <trkpt lat="48.520992" lon="17.397829"><ele>626</ele></trkpt>
    <trkpt lat="48.521179" lon="17.397859"><ele>629</ele></trkpt>
    <trkpt lat="48.521222" lon="17.397817"><ele>630</ele></trkpt>
    <trkpt lat="48.521217" lon="17.397571"><ele>633</ele></trkpt>
    <trkpt lat="48.521181" lon="17.397471"><ele>633</ele></trkpt>
    <trkpt lat="48.520974" lon="17.397185"><ele>633</ele></trkpt>
    <trkpt lat="48.520702" lon="17.396945"><ele>636</ele></trkpt>
    <trkpt lat="48.520615" lon="17.396821"><ele>637</ele></trkpt>
    <trkpt lat="48.520499" lon="17.396492"><ele>640</ele></trkpt>
    <trkpt lat="48.520468" lon="17.396278"><ele>642</ele></trkpt>
    <trkpt lat="48.520504" lon="17.396019"><ele>645</ele></trkpt>
    <trkpt lat="48.520309" lon="17.395446"><ele>651</ele></trkpt>
    <trkpt lat="48.520267" lon="17.395214"><ele>649</ele></trkpt>
    <trkpt lat="48.520223" lon="17.394715"><ele>647</ele></trkpt>
    <trkpt lat="48.520274" lon="17.394590"><ele>649</ele></trkpt>
    <trkpt lat="48.520607" lon="17.394309"><ele>661</ele></trkpt>
    <trkpt lat="48.520705" lon="17.394257"><ele>663</ele></trkpt>
    <trkpt lat="48.520886" lon="17.394264"><ele>666</ele></trkpt>
    <trkpt lat="48.521370" lon="17.394392"><ele>673</ele></trkpt>
    <trkpt lat="48.521790" lon="17.394709"><ele>680</ele></trkpt>
    <trkpt lat="48.521832" lon="17.394684"><ele>681</ele></trkpt>
    <trkpt lat="48.521859" lon="17.394544"><ele>682</ele></trkpt>
    <trkpt lat="48.521970" lon="17.394616"><ele>685</ele></trkpt>
    <trkpt lat="48.522030" lon="17.394529"><ele>688</ele></trkpt>
    <trkpt lat="48.522160" lon="17.394557"><ele>693</ele></trkpt>
    <trkpt lat="48.522405" lon="17.394838"><ele>702</ele></trkpt>
    <trkpt lat="48.522446" lon="17.394730"><ele>705</ele></trkpt>
    <trkpt lat="48.522419" lon="17.394511"><ele>703</ele></trkpt>
    <trkpt lat="48.522504" lon="17.394187"><ele>709</ele></trkpt>
    <trkpt lat="48.522588" lon="17.394244"><ele>713</ele></trkpt>
    <trkpt lat="48.522634" lon="17.394207"><ele>716</ele></trkpt>
    <trkpt lat="48.522676" lon="17.394235"><ele>718</ele></trkpt>
    <trkpt lat="48.522790" lon="17.394488"><ele>722</ele></trkpt>
    <trkpt lat="48.522989" lon="17.394758"><ele>730</ele></trkpt>
    <trkpt lat="48.523069" lon="17.394745"><ele>734</ele></trkpt>
    <trkpt lat="48.523107" lon="17.394800"><ele>735</ele></trkpt>
    <trkpt lat="48.523217" lon="17.394833"><ele>740</ele></trkpt>
    <trkpt lat="48.523279" lon="17.394701"><ele>744</ele></trkpt>
    <trkpt lat="48.523284" lon="17.394532"><ele>746</ele></trkpt>
    <trkpt lat="48.523385" lon="17.394534"><ele>750</ele></trkpt>
    <trkpt lat="48.523416" lon="17.394328"><ele>754</ele></trkpt>
    <trkpt lat="48.523529" lon="17.394279"><ele>757</ele></trkpt>
    <trkpt lat="48.523657" lon="17.393970"><ele>762</ele></trkpt>
    <trkpt lat="48.523635" lon="17.393441"><ele>765</ele></trkpt>
    <trkpt lat="48.523737" lon="17.393010"><ele>764</ele></trkpt>
    <trkpt lat="48.523720" lon="17.392914"><ele>765</ele></trkpt>
    <trkpt lat="48.523473" lon="17.392624"><ele>767</ele></trkpt>
    <trkpt lat="48.523475" lon="17.392758"><ele>766</ele></trkpt>
    <trkpt lat="48.523473" lon="17.392624"><ele>767</ele></trkpt>
    <trkpt lat="48.523720" lon="17.392914"><ele>765</ele></trkpt>
    <trkpt lat="48.523737" lon="17.393010"><ele>764</ele></trkpt>
    <trkpt lat="48.523635" lon="17.393441"><ele>765</ele></trkpt>
    <trkpt lat="48.523657" lon="17.393970"><ele>762</ele></trkpt>
    <trkpt lat="48.523529" lon="17.394279"><ele>757</ele></trkpt>
    <trkpt lat="48.523416" lon="17.394328"><ele>754</ele></trkpt>
    <trkpt lat="48.523385" lon="17.394534"><ele>750</ele></trkpt>
    <trkpt lat="48.523284" lon="17.394532"><ele>746</ele></trkpt>
    <trkpt lat="48.523279" lon="17.394701"><ele>744</ele></trkpt>
    <trkpt lat="48.523217" lon="17.394833"><ele>740</ele></trkpt>
    <trkpt lat="48.523107" lon="17.394800"><ele>735</ele></trkpt>
    <trkpt lat="48.523069" lon="17.394745"><ele>734</ele></trkpt>
    <trkpt lat="48.522989" lon="17.394758"><ele>730</ele></trkpt>
    <trkpt lat="48.522790" lon="17.394488"><ele>722</ele></trkpt>
    <trkpt lat="48.522676" lon="17.394235"><ele>718</ele></trkpt>
    <trkpt lat="48.522634" lon="17.394207"><ele>716</ele></trkpt>
    <trkpt lat="48.522588" lon="17.394244"><ele>713</ele></trkpt>
    <trkpt lat="48.522504" lon="17.394187"><ele>709</ele></trkpt>
    <trkpt lat="48.522419" lon="17.394511"><ele>703</ele></trkpt>
    <trkpt lat="48.522446" lon="17.394730"><ele>705</ele></trkpt>
    <trkpt lat="48.522405" lon="17.394838"><ele>702</ele></trkpt>
    <trkpt lat="48.522160" lon="17.394557"><ele>693</ele></trkpt>
    <trkpt lat="48.522030" lon="17.394529"><ele>688</ele></trkpt>
    <trkpt lat="48.521970" lon="17.394616"><ele>685</ele></trkpt>
    <trkpt lat="48.521859" lon="17.394544"><ele>682</ele></trkpt>
    <trkpt lat="48.521832" lon="17.394684"><ele>681</ele></trkpt>
    <trkpt lat="48.521790" lon="17.394709"><ele>680</ele></trkpt>
    <trkpt lat="48.521370" lon="17.394392"><ele>673</ele></trkpt>
    <trkpt lat="48.520886" lon="17.394264"><ele>666</ele></trkpt>
    <trkpt lat="48.520705" lon="17.394257"><ele>663</ele></trkpt>
    <trkpt lat="48.520607" lon="17.394309"><ele>661</ele></trkpt>
    <trkpt lat="48.520274" lon="17.394590"><ele>649</ele></trkpt>
    <trkpt lat="48.520223" lon="17.394715"><ele>647</ele></trkpt>
    <trkpt lat="48.520267" lon="17.395214"><ele>649</ele></trkpt>
    <trkpt lat="48.520309" lon="17.395446"><ele>651</ele></trkpt>
    <trkpt lat="48.520504" lon="17.396019"><ele>645</ele></trkpt>
    <trkpt lat="48.520468" lon="17.396278"><ele>642</ele></trkpt>
    <trkpt lat="48.520499" lon="17.396492"><ele>640</ele></trkpt>
    <trkpt lat="48.520615" lon="17.396821"><ele>637</ele></trkpt>
    <trkpt lat="48.520702" lon="17.396945"><ele>636</ele></trkpt>
    <trkpt lat="48.520974" lon="17.397185"><ele>633</ele></trkpt>
    <trkpt lat="48.521181" lon="17.397471"><ele>633</ele></trkpt>
    <trkpt lat="48.521217" lon="17.397571"><ele>633</ele></trkpt>
    <trkpt lat="48.521222" lon="17.397817"><ele>630</ele></trkpt>
    <trkpt lat="48.521179" lon="17.397859"><ele>629</ele></trkpt>
    <trkpt lat="48.520992" lon="17.397829"><ele>626</ele></trkpt>
    <trkpt lat="48.520753" lon="17.397862"><ele>622</ele></trkpt>
    <trkpt lat="48.520565" lon="17.397975"><ele>617</ele></trkpt>
    <trkpt lat="48.520533" lon="17.398181"><ele>613</ele></trkpt>
    <trkpt lat="48.520430" lon="17.398345"><ele>610</ele></trkpt>
    <trkpt lat="48.520413" lon="17.398929"><ele>600</ele></trkpt>
    <trkpt lat="48.520294" lon="17.399341"><ele>591</ele></trkpt>
    <trkpt lat="48.520285" lon="17.399515"><ele>588</ele></trkpt>
    <trkpt lat="48.520137" lon="17.399800"><ele>581</ele></trkpt>
    <trkpt lat="48.519958" lon="17.399875"><ele>575</ele></trkpt>
    <trkpt lat="48.519896" lon="17.400087"><ele>571</ele></trkpt>
    <trkpt lat="48.519671" lon="17.400446"><ele>562</ele></trkpt>
    <trkpt lat="48.519340" lon="17.400541"><ele>551</ele></trkpt>
    <trkpt lat="48.519256" lon="17.400659"><ele>547</ele></trkpt>
    <trkpt lat="48.519137" lon="17.400634"><ele>543</ele></trkpt>
    <trkpt lat="48.519002" lon="17.400681"><ele>540</ele></trkpt>
    <trkpt lat="48.518777" lon="17.400895"><ele>531</ele></trkpt>
    <trkpt lat="48.518642" lon="17.400974"><ele>525</ele></trkpt>
    <trkpt lat="48.518563" lon="17.401147"><ele>519</ele></trkpt>
    <trkpt lat="48.518385" lon="17.401332"><ele>510</ele></trkpt>
    <trkpt lat="48.518203" lon="17.401411"><ele>503</ele></trkpt>
    <trkpt lat="48.518043" lon="17.401401"><ele>499</ele></trkpt>
    <trkpt lat="48.517730" lon="17.401719"><ele>485</ele></trkpt>
    <trkpt lat="48.517622" lon="17.401779"><ele>483</ele></trkpt>
    <trkpt lat="48.517468" lon="17.402037"><ele>477</ele></trkpt>
    <trkpt lat="48.517446" lon="17.402232"><ele>473</ele></trkpt>
    <trkpt lat="48.517303" lon="17.402322"><ele>471</ele></trkpt>
    <trkpt lat="48.517075" lon="17.402684"><ele>464</ele></trkpt>
    <trkpt lat="48.516788" lon="17.403315"><ele>455</ele></trkpt>
    <trkpt lat="48.516613" lon="17.403520"><ele>451</ele></trkpt>
    <trkpt lat="48.516041" lon="17.403893"><ele>442</ele></trkpt>
    <trkpt lat="48.515708" lon="17.404418"><ele>433</ele></trkpt>
    <trkpt lat="48.515294" lon="17.404752"><ele>424</ele></trkpt>
    <trkpt lat="48.514275" lon="17.406000"><ele>398</ele></trkpt>
    <trkpt lat="48.514135" lon="17.406555"><ele>389</ele></trkpt>
    <trkpt lat="48.513793" lon="17.407131"><ele>375</ele></trkpt>
    <trkpt lat="48.513695" lon="17.407492"><ele>368</ele></trkpt>
    <trkpt lat="48.513802" lon="17.408497"><ele>366</ele></trkpt>
    <trkpt lat="48.513789" lon="17.409371"><ele>363</ele></trkpt>
    <trkpt lat="48.513617" lon="17.411186"><ele>362</ele></trkpt>
    <trkpt lat="48.513531" lon="17.411555"><ele>367</ele></trkpt>
    <trkpt lat="48.513352" lon="17.412080"><ele>376</ele></trkpt>
    <trkpt lat="48.513065" lon="17.413248"><ele>378</ele></trkpt>
    <trkpt lat="48.513264" lon="17.415184"><ele>375</ele></trkpt>
    <trkpt lat="48.513316" lon="17.416162"><ele>365</ele></trkpt>
    <trkpt lat="48.513295" lon="17.417129"><ele>362</ele></trkpt>
    <trkpt lat="48.513148" lon="17.418009"><ele>351</ele></trkpt>
    <trkpt lat="48.512984" lon="17.418778"><ele>353</ele></trkpt>
    <trkpt lat="48.512485" lon="17.419493"><ele>357</ele></trkpt>
    <trkpt lat="48.512324" lon="17.420004"><ele>353</ele></trkpt>
    <trkpt lat="48.512186" lon="17.420018"><ele>349</ele></trkpt>
    <trkpt lat="48.512003" lon="17.420160"><ele>345</ele></trkpt>
    <trkpt lat="48.511907" lon="17.420295"><ele>345</ele></trkpt>
    <trkpt lat="48.511847" lon="17.420260"><ele>343</ele></trkpt>
    <trkpt lat="48.511844" lon="17.420408"><ele>348</ele></trkpt>
    <trkpt lat="48.511542" lon="17.421026"><ele>357</ele></trkpt>
    <trkpt lat="48.511515" lon="17.421135"><ele>357</ele></trkpt>
    <trkpt lat="48.511429" lon="17.421218"><ele>355</ele></trkpt>
    <trkpt lat="48.511299" lon="17.421830"><ele>358</ele></trkpt>
    <trkpt lat="48.511560" lon="17.421831"><ele>368</ele></trkpt>
    <trkpt lat="48.511664" lon="17.421878"><ele>371</ele></trkpt>
    <trkpt lat="48.511809" lon="17.422051"><ele>367</ele></trkpt>
    <trkpt lat="48.511845" lon="17.422159"><ele>366</ele></trkpt>
    <trkpt lat="48.511764" lon="17.422637"><ele>367</ele></trkpt>
    <trkpt lat="48.511827" lon="17.423302"><ele>360</ele></trkpt>
    <trkpt lat="48.511722" lon="17.423769"><ele>360</ele></trkpt>
    <trkpt lat="48.511726" lon="17.424131"><ele>354</ele></trkpt>
    <trkpt lat="48.511636" lon="17.424625"><ele>346</ele></trkpt>
    <trkpt lat="48.511637" lon="17.425960"><ele>322</ele></trkpt>
    <trkpt lat="48.511559" lon="17.426596"><ele>311</ele></trkpt>
    <trkpt lat="48.511404" lon="17.427128"><ele>302</ele></trkpt>
    <trkpt lat="48.511054" lon="17.427996"><ele>290</ele></trkpt>
    <trkpt lat="48.510757" lon="17.428368"><ele>286</ele></trkpt>
    <trkpt lat="48.510636" lon="17.428791"><ele>277</ele></trkpt>
    <trkpt lat="48.510348" lon="17.429334"><ele>270</ele></trkpt>
    <trkpt lat="48.510297" lon="17.429735"><ele>264</ele></trkpt>
    <trkpt lat="48.510152" lon="17.430215"><ele>258</ele></trkpt>
    <trkpt lat="48.510081" lon="17.430326"><ele>256</ele></trkpt>
    <trkpt lat="48.509931" lon="17.430430"><ele>255</ele></trkpt>
    <trkpt lat="48.510017" lon="17.430918"><ele>250</ele></trkpt>
    <trkpt lat="48.510001" lon="17.431178"><ele>248</ele></trkpt>
    <trkpt lat="48.509672" lon="17.431605"><ele>244</ele></trkpt>
    <trkpt lat="48.509676" lon="17.431782"><ele>245</ele></trkpt>
    <trkpt lat="48.509575" lon="17.432217"><ele>242</ele></trkpt>
    <trkpt lat="48.509567" lon="17.432320"><ele>242</ele></trkpt>
    <trkpt lat="48.509653" lon="17.432416"><ele>242</ele></trkpt>
    <trkpt lat="48.509706" lon="17.432767"><ele>238</ele></trkpt>
    <trkpt lat="48.509210" lon="17.433671"><ele>229</ele></trkpt>
    <trkpt lat="48.509161" lon="17.433577"><ele>228</ele></trkpt>
  </trkseg></trk>
</gpx>
