<?xml version="1.0" encoding="UTF-8"?>
<gpx version="1.1" creator="MounTour (OpenStreetMap)" xmlns="http://www.topografix.com/GPX/1/1">
  <metadata><name>Závojový vodopád</name><copyright author="OpenStreetMap contributors"><license>https://opendatacommons.org/licenses/odbl/</license></copyright></metadata>
  <trk><name>Závojový vodopád</name><trkseg>
    <trkpt lat="48.940050" lon="20.475808"><ele>498</ele></trkpt>
    <trkpt lat="48.940374" lon="20.474989"><ele>499</ele></trkpt>
    <trkpt lat="48.940397" lon="20.474763"><ele>499</ele></trkpt>
    <trkpt lat="48.940381" lon="20.474521"><ele>501</ele></trkpt>
    <trkpt lat="48.940338" lon="20.474029"><ele>502</ele></trkpt>
    <trkpt lat="48.940313" lon="20.473877"><ele>501</ele></trkpt>
    <trkpt lat="48.940194" lon="20.473552"><ele>502</ele></trkpt>
    <trkpt lat="48.940194" lon="20.473343"><ele>501</ele></trkpt>
    <trkpt lat="48.940075" lon="20.472945"><ele>500</ele></trkpt>
    <trkpt lat="48.939856" lon="20.472518"><ele>502</ele></trkpt>
    <trkpt lat="48.939737" lon="20.472037"><ele>508</ele></trkpt>
    <trkpt lat="48.939669" lon="20.470850"><ele>509</ele></trkpt>
    <trkpt lat="48.939471" lon="20.469100"><ele>513</ele></trkpt>
    <trkpt lat="48.939474" lon="20.468691"><ele>515</ele></trkpt>
    <trkpt lat="48.939440" lon="20.468322"><ele>519</ele></trkpt>
    <trkpt lat="48.939543" lon="20.467723"><ele>517</ele></trkpt>
    <trkpt lat="48.939647" lon="20.467435"><ele>519</ele></trkpt>
    <trkpt lat="48.940005" lon="20.466912"><ele>515</ele></trkpt>
    <trkpt lat="48.940375" lon="20.466633"><ele>513</ele></trkpt>
    <trkpt lat="48.940671" lon="20.466151"><ele>518</ele></trkpt>
    <trkpt lat="48.940776" lon="20.465850"><ele>522</ele></trkpt>
    <trkpt lat="48.940884" lon="20.465141"><ele>527</ele></trkpt>
    <trkpt lat="48.940844" lon="20.464604"><ele>526</ele></trkpt>
    <trkpt lat="48.940797" lon="20.464391"><ele>526</ele></trkpt>
    <trkpt lat="48.940501" lon="20.463795"><ele>526</ele></trkpt>
    <trkpt lat="48.940283" lon="20.463259"><ele>523</ele></trkpt>
    <trkpt lat="48.940154" lon="20.462809"><ele>525</ele></trkpt>
    <trkpt lat="48.940075" lon="20.462382"><ele>525</ele></trkpt>
    <trkpt lat="48.939935" lon="20.461984"><ele>537</ele></trkpt>
    <trkpt lat="48.939934" lon="20.461807"><ele>536</ele></trkpt>
    <trkpt lat="48.940025" lon="20.461132"><ele>535</ele></trkpt>
    <trkpt lat="48.940096" lon="20.460949"><ele>538</ele></trkpt>
    <trkpt lat="48.940513" lon="20.460593"><ele>530</ele></trkpt>
    <trkpt lat="48.941531" lon="20.459593"><ele>524</ele></trkpt>
    <trkpt lat="48.941801" lon="20.459408"><ele>521</ele></trkpt>
    <trkpt lat="48.942090" lon="20.459005"><ele>523</ele></trkpt>
    <trkpt lat="48.942266" lon="20.458823"><ele>524</ele></trkpt>
    <trkpt lat="48.943181" lon="20.458100"><ele>525</ele></trkpt>
    <trkpt lat="48.943491" lon="20.457798"><ele>526</ele></trkpt>
    <trkpt lat="48.943773" lon="20.457331"><ele>522</ele></trkpt>
    <trkpt lat="48.943841" lon="20.457146"><ele>520</ele></trkpt>
    <trkpt lat="48.943886" lon="20.456747"><ele>521</ele></trkpt>
    <trkpt lat="48.943841" lon="20.456170"><ele>527</ele></trkpt>
    <trkpt lat="48.943780" lon="20.455846"><ele>530</ele></trkpt>
    <trkpt lat="48.943210" lon="20.453907"><ele>528</ele></trkpt>
    <trkpt lat="48.943118" lon="20.453778"><ele>529</ele></trkpt>
    <trkpt lat="48.942906" lon="20.453721"><ele>533</ele></trkpt>
    <trkpt lat="48.942800" lon="20.453632"><ele>532</ele></trkpt>
    <trkpt lat="48.942252" lon="20.452843"><ele>534</ele></trkpt>
    <trkpt lat="48.941951" lon="20.452132"><ele>529</ele></trkpt>
    <trkpt lat="48.941956" lon="20.451925"><ele>527</ele></trkpt>
    <trkpt lat="48.941836" lon="20.451451"><ele>533</ele></trkpt>
    <trkpt lat="48.941819" lon="20.451264"><ele>534</ele></trkpt>
    <trkpt lat="48.941510" lon="20.450703"><ele>538</ele></trkpt>
    <trkpt lat="48.941472" lon="20.450696"><ele>539</ele></trkpt>
    <trkpt lat="48.941409" lon="20.450325"><ele>533</ele></trkpt>
    <trkpt lat="48.941357" lon="20.450229"><ele>532</ele></trkpt>
    <trkpt lat="48.941266" lon="20.449859"><ele>534</ele></trkpt>
    <trkpt lat="48.941214" lon="20.448993"><ele>538</ele></trkpt>
    <trkpt lat="48.941112" lon="20.448308"><ele>542</ele></trkpt>
    <trkpt lat="48.940977" lon="20.447831"><ele>543</ele></trkpt>
    <trkpt lat="48.940804" lon="20.447529"><ele>543</ele></trkpt>
    <trkpt lat="48.940562" lon="20.447316"><ele>543</ele></trkpt>
    <trkpt lat="48.940193" lon="20.446808"><ele>545</ele></trkpt>
    <trkpt lat="48.940050" lon="20.446673"><ele>542</ele></trkpt>
    <trkpt lat="48.940038" lon="20.446486"><ele>541</ele></trkpt>
    <trkpt lat="48.939929" lon="20.445989"><ele>546</ele></trkpt>
    <trkpt lat="48.939920" lon="20.445442"><ele>547</ele></trkpt>
    <trkpt lat="48.939979" lon="20.445036"><ele>546</ele></trkpt>
    <trkpt lat="48.940039" lon="20.444271"><ele>544</ele></trkpt>
    <trkpt lat="48.940157" lon="20.444095"><ele>543</ele></trkpt>
    <trkpt lat="48.940245" lon="20.443642"><ele>545</ele></trkpt>
    <trkpt lat="48.940751" lon="20.442756"><ele>547</ele></trkpt>
    <trkpt lat="48.941211" lon="20.441778"><ele>553</ele></trkpt>
    <trkpt lat="48.941405" lon="20.441099"><ele>545</ele></trkpt>
    <trkpt lat="48.941377" lon="20.440833"><ele>548</ele></trkpt>
    <trkpt lat="48.941213" lon="20.440430"><ele>555</ele></trkpt>
    <trkpt lat="48.941038" lon="20.439475"><ele>547</ele></trkpt>
    <trkpt lat="48.941053" lon="20.439219"><ele>541</ele></trkpt>
    <trkpt lat="48.941199" lon="20.438991"><ele>544</ele></trkpt>
    <trkpt lat="48.941232" lon="20.438706"><ele>547</ele></trkpt>
    <trkpt lat="48.941218" lon="20.438187"><ele>550</ele></trkpt>
    <trkpt lat="48.941168" lon="20.437939"><ele>551</ele></trkpt>
    <trkpt lat="48.940958" lon="20.437365"><ele>547</ele></trkpt>
    <trkpt lat="48.941041" lon="20.437033"><ele>550</ele></trkpt>
    <trkpt lat="48.941033" lon="20.436901"><ele>551</ele></trkpt>
    <trkpt lat="48.941254" lon="20.436488"><ele>556</ele></trkpt>
    <trkpt lat="48.941260" lon="20.436367"><ele>555</ele></trkpt>
    <trkpt lat="48.941220" lon="20.436176"><ele>556</ele></trkpt>
    <trkpt lat="48.941232" lon="20.436027"><ele>560</ele></trkpt>
    <trkpt lat="48.940973" lon="20.435603"><ele>560</ele></trkpt>
    <trkpt lat="48.940930" lon="20.435447"><ele>561</ele></trkpt>
    <trkpt lat="48.940785" lon="20.435177"><ele>560</ele></trkpt>
    <trkpt lat="48.940611" lon="20.434992"><ele>558</ele></trkpt>
    <trkpt lat="48.940424" lon="20.434664"><ele>561</ele></trkpt>
    <trkpt lat="48.940360" lon="20.434608"><ele>562</ele></trkpt>
    <trkpt lat="48.940184" lon="20.434600"><ele>561</ele></trkpt>
    <trkpt lat="48.939799" lon="20.434469"><ele>560</ele></trkpt>
    <trkpt lat="48.939602" lon="20.434222"><ele>561</ele></trkpt>
    <trkpt lat="48.939442" lon="20.433959"><ele>559</ele></trkpt>
    <trkpt lat="48.939350" lon="20.433735"><ele>559</ele></trkpt>
    <trkpt lat="48.939225" lon="20.433617"><ele>554</ele></trkpt>
    <trkpt lat="48.939108" lon="20.433643"><ele>555</ele></trkpt>
    <trkpt lat="48.939048" lon="20.433573"><ele>558</ele></trkpt>
    <trkpt lat="48.939000" lon="20.433404"><ele>559</ele></trkpt>
    <trkpt lat="48.939021" lon="20.432986"><ele>562</ele></trkpt>
    <trkpt lat="48.938965" lon="20.432722"><ele>562</ele></trkpt>
    <trkpt lat="48.938771" lon="20.432367"><ele>562</ele></trkpt>
    <trkpt lat="48.938525" lon="20.432093"><ele>561</ele></trkpt>
    <trkpt lat="48.938372" lon="20.431796"><ele>558</ele></trkpt>
    <trkpt lat="48.938304" lon="20.431463"><ele>557</ele></trkpt>
    <trkpt lat="48.938289" lon="20.431245"><ele>558</ele></trkpt>
    <trkpt lat="48.938205" lon="20.431075"><ele>562</ele></trkpt>
    <trkpt lat="48.938189" lon="20.430967"><ele>562</ele></trkpt>
    <trkpt lat="48.938177" lon="20.430245"><ele>558</ele></trkpt>
    <trkpt lat="48.938093" lon="20.430157"><ele>560</ele></trkpt>
    <trkpt lat="48.938038" lon="20.429416"><ele>555</ele></trkpt>
    <trkpt lat="48.937996" lon="20.429228"><ele>555</ele></trkpt>
    <trkpt lat="48.937786" lon="20.428800"><ele>560</ele></trkpt>
    <trkpt lat="48.937763" lon="20.428689"><ele>560</ele></trkpt>
    <trkpt lat="48.937805" lon="20.428549"><ele>561</ele></trkpt>
    <trkpt lat="48.937789" lon="20.428417"><ele>564</ele></trkpt>
    <trkpt lat="48.937283" lon="20.427725"><ele>567</ele></trkpt>
    <trkpt lat="48.937239" lon="20.427596"><ele>565</ele></trkpt>
    <trkpt lat="48.937217" lon="20.427363"><ele>562</ele></trkpt>
    <trkpt lat="48.937087" lon="20.427058"><ele>566</ele></trkpt>
    <trkpt lat="48.937050" lon="20.427033"><ele>567</ele></trkpt>
    <trkpt lat="48.937003" lon="20.426356"><ele>575</ele></trkpt>
    <trkpt lat="48.936460" lon="20.425919"><ele>590</ele></trkpt>
    <trkpt lat="48.936295" lon="20.425903"><ele>591</ele></trkpt>
    <trkpt lat="48.936195" lon="20.425960"><ele>590</ele></trkpt>
    <trkpt lat="48.936028" lon="20.425864"><ele>586</ele></trkpt>
    <trkpt lat="48.935902" lon="20.425690"><ele>582</ele></trkpt>
    <trkpt lat="48.935881" lon="20.425559"><ele>583</ele></trkpt>
    <trkpt lat="48.935791" lon="20.425378"><ele>585</ele></trkpt>
    <trkpt lat="48.935662" lon="20.425212"><ele>587</ele></trkpt>
    <trkpt lat="48.935508" lon="20.425094"><ele>587</ele></trkpt>
    <trkpt lat="48.935454" lon="20.425090"><ele>587</ele></trkpt>
    <trkpt lat="48.935406" lon="20.425142"><ele>586</ele></trkpt>
    <trkpt lat="48.935252" lon="20.425101"><ele>586</ele></trkpt>
    <trkpt lat="48.935214" lon="20.425042"><ele>587</ele></trkpt>
    <trkpt lat="48.935075" lon="20.424989"><ele>585</ele></trkpt>
    <trkpt lat="48.935000" lon="20.424858"><ele>589</ele></trkpt>
    <trkpt lat="48.934746" lon="20.424914"><ele>590</ele></trkpt>
    <trkpt lat="48.934572" lon="20.424847"><ele>590</ele></trkpt>
    <trkpt lat="48.934486" lon="20.424858"><ele>589</ele></trkpt>
    <trkpt lat="48.934385" lon="20.425097"><ele>582</ele></trkpt>
    <trkpt lat="48.934248" lon="20.425223"><ele>582</ele></trkpt>
    <trkpt lat="48.933930" lon="20.425326"><ele>584</ele></trkpt>
    <trkpt lat="48.933740" lon="20.425339"><ele>586</ele></trkpt>
    <trkpt lat="48.933293" lon="20.425262"><ele>595</ele></trkpt>
    <trkpt lat="48.933174" lon="20.425310"><ele>596</ele></trkpt>
    <trkpt lat="48.933092" lon="20.425264"><ele>598</ele></trkpt>
    <trkpt lat="48.932911" lon="20.425323"><ele>598</ele></trkpt>
    <trkpt lat="48.932892" lon="20.425390"><ele>597</ele></trkpt>
    <trkpt lat="48.932851" lon="20.425407"><ele>597</ele></trkpt>
    <trkpt lat="48.932533" lon="20.425483"><ele>595</ele></trkpt>
    <trkpt lat="48.932035" lon="20.425291"><ele>591</ele></trkpt>
    <trkpt lat="48.931900" lon="20.425293"><ele>589</ele></trkpt>
    <trkpt lat="48.931828" lon="20.425235"><ele>589</ele></trkpt>
    <trkpt lat="48.931706" lon="20.425362"><ele>585</ele></trkpt>
    <trkpt lat="48.931389" lon="20.425432"><ele>589</ele></trkpt>
    <trkpt lat="48.931071" lon="20.425572"><ele>590</ele></trkpt>
    <trkpt lat="48.930957" lon="20.425545"><ele>589</ele></trkpt>
    <trkpt lat="48.930874" lon="20.425431"><ele>588</ele></trkpt>
    <trkpt lat="48.930755" lon="20.425416"><ele>586</ele></trkpt>
    <trkpt lat="48.930659" lon="20.425342"><ele>583</ele></trkpt>
    <trkpt lat="48.930502" lon="20.425109"><ele>581</ele></trkpt>
    <trkpt lat="48.930453" lon="20.424631"><ele>587</ele></trkpt>
    <trkpt lat="48.930334" lon="20.424338"><ele>591</ele></trkpt>
    <trkpt lat="48.930301" lon="20.424100"><ele>593</ele></trkpt>
    <trkpt lat="48.930312" lon="20.423726"><ele>593</ele></trkpt>
    <trkpt lat="48.930424" lon="20.423301"><ele>592</ele></trkpt>
    <trkpt lat="48.930273" lon="20.422821"><ele>592</ele></trkpt>
    <trkpt lat="48.930256" lon="20.422429"><ele>592</ele></trkpt>
    <trkpt lat="48.930318" lon="20.421877"><ele>598</ele></trkpt>
    <trkpt lat="48.930396" lon="20.421541"><ele>603</ele></trkpt>
    <trkpt lat="48.930398" lon="20.420939"><ele>606</ele></trkpt>
    <trkpt lat="48.930475" lon="20.420078"><ele>611</ele></trkpt>
    <trkpt lat="48.930585" lon="20.419386"><ele>621</ele></trkpt>
    <trkpt lat="48.930658" lon="20.419168"><ele>627</ele></trkpt>
    <trkpt lat="48.930727" lon="20.418367"><ele>633</ele></trkpt>
    <trkpt lat="48.930796" lon="20.418042"><ele>632</ele></trkpt>
    <trkpt lat="48.930821" lon="20.417691"><ele>631</ele></trkpt>
    <trkpt lat="48.930822" lon="20.416625"><ele>643</ele></trkpt>
    <trkpt lat="48.930760" lon="20.416287"><ele>650</ele></trkpt>
    <trkpt lat="48.930673" lon="20.416105"><ele>654</ele></trkpt>
    <trkpt lat="48.930668" lon="20.415855"><ele>659</ele></trkpt>
    <trkpt lat="48.930685" lon="20.415738"><ele>661</ele></trkpt>
    <trkpt lat="48.930822" lon="20.415465"><ele>661</ele></trkpt>
    <trkpt lat="48.930934" lon="20.414958"><ele>673</ele></trkpt>
    <trkpt lat="48.930843" lon="20.414747"><ele>673</ele></trkpt>
    <trkpt lat="48.930892" lon="20.414646"><ele>677</ele></trkpt>
    <trkpt lat="48.930896" lon="20.414495"><ele>680</ele></trkpt>
    <trkpt lat="48.930926" lon="20.414416"><ele>682</ele></trkpt>
    <trkpt lat="48.930883" lon="20.413807"><ele>693</ele></trkpt>
    <trkpt lat="48.930933" lon="20.413581"><ele>699</ele></trkpt>
    <trkpt lat="48.930925" lon="20.413437"><ele>704</ele></trkpt>
    <trkpt lat="48.930787" lon="20.413133"><ele>714</ele></trkpt>
    <trkpt lat="48.930721" lon="20.413109"><ele>718</ele></trkpt>
    <trkpt lat="48.930490" lon="20.413327"><ele>718</ele></trkpt>
    <trkpt lat="48.930440" lon="20.413268"><ele>724</ele></trkpt>
    <trkpt lat="48.930374" lon="20.413275"><ele>727</ele></trkpt>
    <trkpt lat="48.930290" lon="20.412934"><ele>747</ele></trkpt>
    <trkpt lat="48.930359" lon="20.412890"><ele>746</ele></trkpt>
    <trkpt lat="48.930287" lon="20.412489"><ele>770</ele></trkpt>
    <trkpt lat="48.930222" lon="20.412437"><ele>780</ele></trkpt>
    <trkpt lat="48.930112" lon="20.412508"><ele>787</ele></trkpt>
    <trkpt lat="48.930081" lon="20.412677"><ele>782</ele></trkpt>
    <trkpt lat="48.929972" lon="20.412701"><ele>793</ele></trkpt>
    <trkpt lat="48.930003" lon="20.412579"><ele>795</ele></trkpt>
    <trkpt lat="48.929998" lon="20.412437"><ele>802</ele></trkpt>
    <trkpt lat="48.929915" lon="20.412299"><ele>812</ele></trkpt>
    <trkpt lat="48.929944" lon="20.412227"><ele>814</ele></trkpt>
    <trkpt lat="48.929926" lon="20.412152"><ele>817</ele></trkpt>
    <trkpt lat="48.929830" lon="20.412124"><ele>822</ele></trkpt>
    <trkpt lat="48.929844" lon="20.412026"><ele>824</ele></trkpt>
    <trkpt lat="48.929816" lon="20.411927"><ele>828</ele></trkpt>
    <trkpt lat="48.929631" lon="20.411843"><ele>837</ele></trkpt>
    <trkpt lat="48.929554" lon="20.411722"><ele>842</ele></trkpt>
    <trkpt lat="48.929397" lon="20.411712"><ele>848</ele></trkpt>
    <trkpt lat="48.929338" lon="20.411562"><ele>854</ele></trkpt>
    <trkpt lat="48.929394" lon="20.411128"><ele>860</ele></trkpt>
    <trkpt lat="48.929336" lon="20.410994"><ele>864</ele></trkpt>
    <trkpt lat="48.929244" lon="20.410413"><ele>871</ele></trkpt>
    <trkpt lat="48.929165" lon="20.410121"><ele>871</ele></trkpt>
    <trkpt lat="48.929037" lon="20.409921"><ele>874</ele></trkpt>
    <trkpt lat="48.929009" lon="20.409779"><ele>875</ele></trkpt>
    <trkpt lat="48.928891" lon="20.409614"><ele>873</ele></trkpt>
    <trkpt lat="48.928797" lon="20.409351"><ele>877</ele></trkpt>
    <trkpt lat="48.928509" lon="20.409118"><ele>882</ele></trkpt>
    <trkpt lat="48.928127" lon="20.408627"><ele>885</ele></trkpt>
    <trkpt lat="48.927873" lon="20.408385"><ele>886</ele></trkpt>
    <trkpt lat="48.927458" lon="20.408109"><ele>885</ele></trkpt>
    <trkpt lat="48.927130" lon="20.407817"><ele>887</ele></trkpt>
    <trkpt lat="48.926807" lon="20.407650"><ele>889</ele></trkpt>
    <trkpt lat="48.926488" lon="20.407593"><ele>890</ele></trkpt>
    <trkpt lat="48.926282" lon="20.407644"><ele>889</ele></trkpt>
    <trkpt lat="48.926063" lon="20.407597"><ele>891</ele></trkpt>
    <trkpt lat="48.925954" lon="20.407503"><ele>892</ele></trkpt>
    <trkpt lat="48.925777" lon="20.407609"><ele>895</ele></trkpt>
    <trkpt lat="48.925245" lon="20.407603"><ele>902</ele></trkpt>
    <trkpt lat="48.924819" lon="20.407346"><ele>905</ele></trkpt>
    <trkpt lat="48.923962" lon="20.407099"><ele>913</ele></trkpt>
    <trkpt lat="48.923800" lon="20.406997"><ele>915</ele></trkpt>
    <trkpt lat="48.923574" lon="20.406997"><ele>915</ele></trkpt>
    <trkpt lat="48.923222" lon="20.406874"><ele>917</ele></trkpt>
    <trkpt lat="48.922919" lon="20.406622"><ele>919</ele></trkpt>
    <trkpt lat="48.922746" lon="20.406579"><ele>921</ele></trkpt>
    <trkpt lat="48.922295" lon="20.406332"><ele>923</ele></trkpt>
    <trkpt lat="48.922069" lon="20.406321"><ele>924</ele></trkpt>
    <trkpt lat="48.921033" lon="20.405946"><ele>935</ele></trkpt>
    <trkpt lat="48.920275" lon="20.405458"><ele>937</ele></trkpt>
    <trkpt lat="48.919595" lon="20.405345"><ele>953</ele></trkpt>
    <trkpt lat="48.919383" lon="20.405163"><ele>956</ele></trkpt>
    <trkpt lat="48.919062" lon="20.404969"><ele>961</ele></trkpt>
    <trkpt lat="48.918653" lon="20.404803"><ele>964</ele></trkpt>
    <trkpt lat="48.918343" lon="20.404755"><ele>968</ele></trkpt>
    <trkpt lat="48.917589" lon="20.404460"><ele>968</ele></trkpt>
    <trkpt lat="48.917268" lon="20.404503"><ele>971</ele></trkpt>
    <trkpt lat="48.917162" lon="20.404406"><ele>973</ele></trkpt>
    <trkpt lat="48.917106" lon="20.404202"><ele>974</ele></trkpt>
    <trkpt lat="48.917147" lon="20.403975"><ele>980</ele></trkpt>
    <trkpt lat="48.916615" lon="20.404058"><ele>983</ele></trkpt>
    <trkpt lat="48.916217" lon="20.404241"><ele>992</ele></trkpt>
    <trkpt lat="48.916062" lon="20.404387"><ele>997</ele></trkpt>
    <trkpt lat="48.915714" lon="20.404611"><ele>1003</ele></trkpt>
    <trkpt lat="48.915483" lon="20.405200"><ele>1005</ele></trkpt>
    <trkpt lat="48.915323" lon="20.405325"><ele>1009</ele></trkpt>
    <trkpt lat="48.915231" lon="20.405334"><ele>1010</ele></trkpt>
    <trkpt lat="48.915152" lon="20.405320"><ele>1011</ele></trkpt>
    <trkpt lat="48.915090" lon="20.405255"><ele>1012</ele></trkpt>
    <trkpt lat="48.914710" lon="20.404583"><ele>1017</ele></trkpt>
    <trkpt lat="48.914642" lon="20.404433"><ele>1020</ele></trkpt>
    <trkpt lat="48.914601" lon="20.404224"><ele>1021</ele></trkpt>
    <trkpt lat="48.914605" lon="20.404068"><ele>1021</ele></trkpt>
    <trkpt lat="48.914567" lon="20.403951"><ele>1021</ele></trkpt>
    <trkpt lat="48.914449" lon="20.403789"><ele>1022</ele></trkpt>
    <trkpt lat="48.913666" lon="20.403626"><ele>1018</ele></trkpt>
    <trkpt lat="48.912958" lon="20.403031"><ele>1012</ele></trkpt>
    <trkpt lat="48.912709" lon="20.402997"><ele>1010</ele></trkpt>
    <trkpt lat="48.912515" lon="20.402891"><ele>1008</ele></trkpt>
    <trkpt lat="48.912109" lon="20.402914"><ele>1002</ele></trkpt>
    <trkpt lat="48.911767" lon="20.403125"><ele>993</ele></trkpt>
    <trkpt lat="48.911613" lon="20.403171"><ele>990</ele></trkpt>
    <trkpt lat="48.911405" lon="20.403502"><ele>981</ele></trkpt>
    <trkpt lat="48.911395" lon="20.403600"><ele>979</ele></trkpt>
    <trkpt lat="48.911434" lon="20.403782"><ele>976</ele></trkpt>
    <trkpt lat="48.911544" lon="20.404008"><ele>974</ele></trkpt>
    <trkpt lat="48.911702" lon="20.404208"><ele>971</ele></trkpt>
    <trkpt lat="48.912019" lon="20.404723"><ele>964</ele></trkpt>
    <trkpt lat="48.912170" lon="20.404862"><ele>960</ele></trkpt>
    <trkpt lat="48.912444" lon="20.405342"><ele>952</ele></trkpt>
    <trkpt lat="48.912770" lon="20.406026"><ele>936</ele></trkpt>
    <trkpt lat="48.912944" lon="20.406244"><ele>932</ele></trkpt>
    <trkpt lat="48.913085" lon="20.406302"><ele>929</ele></trkpt>
    <trkpt lat="48.913224" lon="20.406576"><ele>926</ele></trkpt>
    <trkpt lat="48.913290" lon="20.406777"><ele>922</ele></trkpt>
    <trkpt lat="48.913469" lon="20.407123"><ele>914</ele></trkpt>
    <trkpt lat="48.913583" lon="20.407553"><ele>902</ele></trkpt>
    <trkpt lat="48.913716" lon="20.407850"><ele>897</ele></trkpt>
    <trkpt lat="48.913949" lon="20.408717"><ele>874</ele></trkpt>
    <trkpt lat="48.914198" lon="20.409462"><ele>857</ele></trkpt>
    <trkpt lat="48.914249" lon="20.409733"><ele>853</ele></trkpt>
    <trkpt lat="48.914257" lon="20.409980"><ele>848</ele></trkpt>
    <trkpt lat="48.914187" lon="20.410851"><ele>840</ele></trkpt>
    <trkpt lat="48.914141" lon="20.411155"><ele>838</ele></trkpt>
    <trkpt lat="48.914020" lon="20.411603"><ele>837</ele></trkpt>
    <trkpt lat="48.913866" lon="20.412005"><ele>831</ele></trkpt>
    <trkpt lat="48.913753" lon="20.412174"><ele>828</ele></trkpt>
    <trkpt lat="48.913494" lon="20.412399"><ele>827</ele></trkpt>
    <trkpt lat="48.913404" lon="20.412536"><ele>825</ele></trkpt>
    <trkpt lat="48.913112" lon="20.413145"><ele>807</ele></trkpt>
    <trkpt lat="48.912935" lon="20.413424"><ele>802</ele></trkpt>
    <trkpt lat="48.912593" lon="20.414195"><ele>783</ele></trkpt>
    <trkpt lat="48.912406" lon="20.414376"><ele>775</ele></trkpt>
    <trkpt lat="48.912132" lon="20.414521"><ele>766</ele></trkpt>
    <trkpt lat="48.911248" lon="20.414716"><ele>738</ele></trkpt>
    <trkpt lat="48.911180" lon="20.414783"><ele>733</ele></trkpt>
    <trkpt lat="48.911183" lon="20.414914"><ele>729</ele></trkpt>
    <trkpt lat="48.911342" lon="20.415323"><ele>720</ele></trkpt>
    <trkpt lat="48.911987" lon="20.416632"><ele>683</ele></trkpt>
    <trkpt lat="48.912605" lon="20.417762"><ele>640</ele></trkpt>
    <trkpt lat="48.912706" lon="20.418026"><ele>637</ele></trkpt>
    <trkpt lat="48.914126" lon="20.418476"><ele>640</ele></trkpt>
    <trkpt lat="48.914529" lon="20.418684"><ele>639</ele></trkpt>
    <trkpt lat="48.914885" lon="20.418944"><ele>643</ele></trkpt>
    <trkpt lat="48.915165" lon="20.418906"><ele>649</ele></trkpt>
    <trkpt lat="48.915278" lon="20.418933"><ele>650</ele></trkpt>
    <trkpt lat="48.915883" lon="20.419283"><ele>647</ele></trkpt>
    <trkpt lat="48.916013" lon="20.419448"><ele>644</ele></trkpt>
    <trkpt lat="48.916183" lon="20.419756"><ele>640</ele></trkpt>
    <trkpt lat="48.916351" lon="20.419833"><ele>640</ele></trkpt>
    <trkpt lat="48.917155" lon="20.419968"><ele>641</ele></trkpt>
    <trkpt lat="48.917541" lon="20.420105"><ele>641</ele></trkpt>
    <trkpt lat="48.918094" lon="20.420796"><ele>634</ele></trkpt>
    <trkpt lat="48.918559" lon="20.421255"><ele>632</ele></trkpt>
    <trkpt lat="48.918613" lon="20.421478"><ele>630</ele></trkpt>
    <trkpt lat="48.918819" lon="20.421677"><ele>630</ele></trkpt>
    <trkpt lat="48.919186" lon="20.422259"><ele>628</ele></trkpt>
    <trkpt lat="48.919640" lon="20.422635"><ele>629</ele></trkpt>
    <trkpt lat="48.920143" lon="20.422712"><ele>624</ele></trkpt>
    <trkpt lat="48.920748" lon="20.423206"><ele>620</ele></trkpt>
    <trkpt lat="48.921087" lon="20.423278"><ele>618</ele></trkpt>
    <trkpt lat="48.921483" lon="20.423489"><ele>618</ele></trkpt>
    <trkpt lat="48.921859" lon="20.423863"><ele>619</ele></trkpt>
    <trkpt lat="48.921974" lon="20.423911"><ele>622</ele></trkpt>
    <trkpt lat="48.922177" lon="20.423893"><ele>623</ele></trkpt>
    <trkpt lat="48.922471" lon="20.423769"><ele>622</ele></trkpt>
    <trkpt lat="48.922617" lon="20.423783"><ele>620</ele></trkpt>
    <trkpt lat="48.923363" lon="20.424195"><ele>614</ele></trkpt>
    <trkpt lat="48.923964" lon="20.424426"><ele>611</ele></trkpt>
    <trkpt lat="48.924413" lon="20.424788"><ele>612</ele></trkpt>
    <trkpt lat="48.924662" lon="20.425094"><ele>612</ele></trkpt>
    <trkpt lat="48.924961" lon="20.425145"><ele>609</ele></trkpt>
    <trkpt lat="48.925192" lon="20.425116"><ele>607</ele></trkpt>
    <trkpt lat="48.925316" lon="20.425172"><ele>606</ele></trkpt>
    <trkpt lat="48.925761" lon="20.425599"><ele>602</ele></trkpt>
    <trkpt lat="48.925944" lon="20.425704"><ele>602</ele></trkpt>
    <trkpt lat="48.926165" lon="20.425695"><ele>602</ele></trkpt>
    <trkpt lat="48.926452" lon="20.425572"><ele>603</ele></trkpt>
    <trkpt lat="48.926699" lon="20.425368"><ele>604</ele></trkpt>
    <trkpt lat="48.926961" lon="20.425341"><ele>602</ele></trkpt>
    <trkpt lat="48.927753" lon="20.425453"><ele>595</ele></trkpt>
    <trkpt lat="48.928036" lon="20.425408"><ele>594</ele></trkpt>
    <trkpt lat="48.928583" lon="20.425145"><ele>596</ele></trkpt>
    <trkpt lat="48.929610" lon="20.425126"><ele>589</ele></trkpt>
    <trkpt lat="48.930352" lon="20.425354"><ele>584</ele></trkpt>
    <trkpt lat="48.930511" lon="20.425357"><ele>581</ele></trkpt>
    <trkpt lat="48.930579" lon="20.425254"><ele>579</ele></trkpt>
    <trkpt lat="48.930755" lon="20.425416"><ele>586</ele></trkpt>
    <trkpt lat="48.930874" lon="20.425431"><ele>588</ele></trkpt>
    <trkpt lat="48.931017" lon="20.425574"><ele>590</ele></trkpt>
    <trkpt lat="48.931180" lon="20.425550"><ele>590</ele></trkpt>
    <trkpt lat="48.931562" lon="20.425376"><ele>586</ele></trkpt>
    <trkpt lat="48.931706" lon="20.425362"><ele>585</ele></trkpt>
    <trkpt lat="48.931828" lon="20.425235"><ele>589</ele></trkpt>
    <trkpt lat="48.931900" lon="20.425293"><ele>589</ele></trkpt>
    <trkpt lat="48.932035" lon="20.425291"><ele>591</ele></trkpt>
    <trkpt lat="48.932533" lon="20.425483"><ele>595</ele></trkpt>
    <trkpt lat="48.932851" lon="20.425407"><ele>597</ele></trkpt>
    <trkpt lat="48.932892" lon="20.425390"><ele>597</ele></trkpt>
    <trkpt lat="48.932911" lon="20.425323"><ele>598</ele></trkpt>
    <trkpt lat="48.933092" lon="20.425264"><ele>598</ele></trkpt>
    <trkpt lat="48.933174" lon="20.425310"><ele>596</ele></trkpt>
    <trkpt lat="48.933293" lon="20.425262"><ele>595</ele></trkpt>
    <trkpt lat="48.933740" lon="20.425339"><ele>586</ele></trkpt>
    <trkpt lat="48.933930" lon="20.425326"><ele>584</ele></trkpt>
    <trkpt lat="48.934248" lon="20.425223"><ele>582</ele></trkpt>
    <trkpt lat="48.934385" lon="20.425097"><ele>582</ele></trkpt>
    <trkpt lat="48.934486" lon="20.424858"><ele>589</ele></trkpt>
    <trkpt lat="48.934572" lon="20.424847"><ele>590</ele></trkpt>
    <trkpt lat="48.934746" lon="20.424914"><ele>590</ele></trkpt>
    <trkpt lat="48.935000" lon="20.424858"><ele>589</ele></trkpt>
    <trkpt lat="48.935075" lon="20.424989"><ele>585</ele></trkpt>
    <trkpt lat="48.935214" lon="20.425042"><ele>587</ele></trkpt>
    <trkpt lat="48.935252" lon="20.425101"><ele>586</ele></trkpt>
    <trkpt lat="48.935406" lon="20.425142"><ele>586</ele></trkpt>
    <trkpt lat="48.935454" lon="20.425090"><ele>587</ele></trkpt>
    <trkpt lat="48.935508" lon="20.425094"><ele>587</ele></trkpt>
    <trkpt lat="48.935764" lon="20.425331"><ele>585</ele></trkpt>
    <trkpt lat="48.935881" lon="20.425559"><ele>583</ele></trkpt>
    <trkpt lat="48.935902" lon="20.425690"><ele>582</ele></trkpt>
    <trkpt lat="48.936028" lon="20.425864"><ele>586</ele></trkpt>
    <trkpt lat="48.936195" lon="20.425960"><ele>590</ele></trkpt>
    <trkpt lat="48.936295" lon="20.425903"><ele>591</ele></trkpt>
    <trkpt lat="48.936460" lon="20.425919"><ele>590</ele></trkpt>
    <trkpt lat="48.937015" lon="20.426377"><ele>575</ele></trkpt>
    <trkpt lat="48.936998" lon="20.426477"><ele>573</ele></trkpt>
    <trkpt lat="48.937050" lon="20.427033"><ele>567</ele></trkpt>
    <trkpt lat="48.937087" lon="20.427058"><ele>566</ele></trkpt>
    <trkpt lat="48.937217" lon="20.427363"><ele>562</ele></trkpt>
    <trkpt lat="48.937239" lon="20.427596"><ele>565</ele></trkpt>
    <trkpt lat="48.937283" lon="20.427725"><ele>567</ele></trkpt>
    <trkpt lat="48.937789" lon="20.428417"><ele>564</ele></trkpt>
    <trkpt lat="48.937805" lon="20.428549"><ele>561</ele></trkpt>
    <trkpt lat="48.937763" lon="20.428689"><ele>560</ele></trkpt>
    <trkpt lat="48.937786" lon="20.428800"><ele>560</ele></trkpt>
    <trkpt lat="48.937996" lon="20.429228"><ele>555</ele></trkpt>
    <trkpt lat="48.938038" lon="20.429416"><ele>555</ele></trkpt>
    <trkpt lat="48.938093" lon="20.430157"><ele>560</ele></trkpt>
    <trkpt lat="48.938177" lon="20.430245"><ele>558</ele></trkpt>
    <trkpt lat="48.938189" lon="20.430967"><ele>562</ele></trkpt>
    <trkpt lat="48.938205" lon="20.431075"><ele>562</ele></trkpt>
    <trkpt lat="48.938289" lon="20.431245"><ele>558</ele></trkpt>
    <trkpt lat="48.938304" lon="20.431463"><ele>557</ele></trkpt>
    <trkpt lat="48.938372" lon="20.431796"><ele>558</ele></trkpt>
    <trkpt lat="48.938525" lon="20.432093"><ele>561</ele></trkpt>
    <trkpt lat="48.938771" lon="20.432367"><ele>562</ele></trkpt>
    <trkpt lat="48.938965" lon="20.432722"><ele>562</ele></trkpt>
    <trkpt lat="48.939021" lon="20.432986"><ele>562</ele></trkpt>
    <trkpt lat="48.939000" lon="20.433404"><ele>559</ele></trkpt>
    <trkpt lat="48.939048" lon="20.433573"><ele>558</ele></trkpt>
    <trkpt lat="48.939108" lon="20.433643"><ele>555</ele></trkpt>
    <trkpt lat="48.939225" lon="20.433617"><ele>554</ele></trkpt>
    <trkpt lat="48.939350" lon="20.433735"><ele>559</ele></trkpt>
    <trkpt lat="48.939442" lon="20.433959"><ele>559</ele></trkpt>
    <trkpt lat="48.939602" lon="20.434222"><ele>561</ele></trkpt>
    <trkpt lat="48.939799" lon="20.434469"><ele>560</ele></trkpt>
    <trkpt lat="48.940184" lon="20.434600"><ele>561</ele></trkpt>
    <trkpt lat="48.940360" lon="20.434608"><ele>562</ele></trkpt>
    <trkpt lat="48.940424" lon="20.434664"><ele>561</ele></trkpt>
    <trkpt lat="48.940611" lon="20.434992"><ele>558</ele></trkpt>
    <trkpt lat="48.940785" lon="20.435177"><ele>560</ele></trkpt>
    <trkpt lat="48.940930" lon="20.435447"><ele>561</ele></trkpt>
    <trkpt lat="48.940973" lon="20.435603"><ele>560</ele></trkpt>
    <trkpt lat="48.941232" lon="20.436027"><ele>560</ele></trkpt>
    <trkpt lat="48.941220" lon="20.436176"><ele>556</ele></trkpt>
    <trkpt lat="48.941260" lon="20.436367"><ele>555</ele></trkpt>
    <trkpt lat="48.941254" lon="20.436488"><ele>556</ele></trkpt>
    <trkpt lat="48.941033" lon="20.436901"><ele>551</ele></trkpt>
    <trkpt lat="48.941041" lon="20.437033"><ele>550</ele></trkpt>
    <trkpt lat="48.940958" lon="20.437365"><ele>547</ele></trkpt>
    <trkpt lat="48.941168" lon="20.437939"><ele>551</ele></trkpt>
    <trkpt lat="48.941218" lon="20.438187"><ele>550</ele></trkpt>
    <trkpt lat="48.941232" lon="20.438706"><ele>547</ele></trkpt>
    <trkpt lat="48.941199" lon="20.438991"><ele>544</ele></trkpt>
    <trkpt lat="48.941053" lon="20.439219"><ele>541</ele></trkpt>
    <trkpt lat="48.941038" lon="20.439475"><ele>547</ele></trkpt>
    <trkpt lat="48.941213" lon="20.440430"><ele>555</ele></trkpt>
    <trkpt lat="48.941377" lon="20.440833"><ele>548</ele></trkpt>
    <trkpt lat="48.941405" lon="20.441099"><ele>545</ele></trkpt>
    <trkpt lat="48.941211" lon="20.441778"><ele>553</ele></trkpt>
    <trkpt lat="48.940751" lon="20.442756"><ele>547</ele></trkpt>
    <trkpt lat="48.940245" lon="20.443642"><ele>545</ele></trkpt>
    <trkpt lat="48.940157" lon="20.444095"><ele>543</ele></trkpt>
    <trkpt lat="48.940039" lon="20.444271"><ele>544</ele></trkpt>
    <trkpt lat="48.939979" lon="20.445036"><ele>546</ele></trkpt>
    <trkpt lat="48.939920" lon="20.445442"><ele>547</ele></trkpt>
    <trkpt lat="48.939929" lon="20.445989"><ele>546</ele></trkpt>
    <trkpt lat="48.940038" lon="20.446486"><ele>541</ele></trkpt>
    <trkpt lat="48.940050" lon="20.446673"><ele>542</ele></trkpt>
    <trkpt lat="48.940193" lon="20.446808"><ele>545</ele></trkpt>
    <trkpt lat="48.940562" lon="20.447316"><ele>543</ele></trkpt>
    <trkpt lat="48.940804" lon="20.447529"><ele>543</ele></trkpt>
    <trkpt lat="48.940977" lon="20.447831"><ele>543</ele></trkpt>
    <trkpt lat="48.941112" lon="20.448308"><ele>542</ele></trkpt>
    <trkpt lat="48.941214" lon="20.448993"><ele>538</ele></trkpt>
    <trkpt lat="48.941266" lon="20.449859"><ele>534</ele></trkpt>
    <trkpt lat="48.941357" lon="20.450229"><ele>532</ele></trkpt>
    <trkpt lat="48.941409" lon="20.450325"><ele>533</ele></trkpt>
    <trkpt lat="48.941472" lon="20.450696"><ele>539</ele></trkpt>
    <trkpt lat="48.941510" lon="20.450703"><ele>538</ele></trkpt>
    <trkpt lat="48.941819" lon="20.451264"><ele>534</ele></trkpt>
    <trkpt lat="48.941836" lon="20.451451"><ele>533</ele></trkpt>
    <trkpt lat="48.941956" lon="20.451925"><ele>527</ele></trkpt>
    <trkpt lat="48.941951" lon="20.452132"><ele>529</ele></trkpt>
    <trkpt lat="48.942252" lon="20.452843"><ele>534</ele></trkpt>
    <trkpt lat="48.942800" lon="20.453632"><ele>532</ele></trkpt>
    <trkpt lat="48.942906" lon="20.453721"><ele>533</ele></trkpt>
    <trkpt lat="48.943118" lon="20.453778"><ele>529</ele></trkpt>
    <trkpt lat="48.943210" lon="20.453907"><ele>528</ele></trkpt>
    <trkpt lat="48.943780" lon="20.455846"><ele>530</ele></trkpt>
    <trkpt lat="48.943841" lon="20.456170"><ele>527</ele></trkpt>
    <trkpt lat="48.943886" lon="20.456747"><ele>521</ele></trkpt>
    <trkpt lat="48.943841" lon="20.457146"><ele>520</ele></trkpt>
    <trkpt lat="48.943773" lon="20.457331"><ele>522</ele></trkpt>
    <trkpt lat="48.943491" lon="20.457798"><ele>526</ele></trkpt>
    <trkpt lat="48.943181" lon="20.458100"><ele>525</ele></trkpt>
    <trkpt lat="48.942266" lon="20.458823"><ele>524</ele></trkpt>
    <trkpt lat="48.942090" lon="20.459005"><ele>523</ele></trkpt>
    <trkpt lat="48.941801" lon="20.459408"><ele>521</ele></trkpt>
    <trkpt lat="48.941531" lon="20.459593"><ele>524</ele></trkpt>
    <trkpt lat="48.940513" lon="20.460593"><ele>530</ele></trkpt>
    <trkpt lat="48.940096" lon="20.460949"><ele>538</ele></trkpt>
    <trkpt lat="48.940025" lon="20.461132"><ele>535</ele></trkpt>
    <trkpt lat="48.939934" lon="20.461807"><ele>536</ele></trkpt>
    <trkpt lat="48.939935" lon="20.461984"><ele>537</ele></trkpt>
    <trkpt lat="48.940075" lon="20.462382"><ele>525</ele></trkpt>
    <trkpt lat="48.940154" lon="20.462809"><ele>525</ele></trkpt>
    <trkpt lat="48.940283" lon="20.463259"><ele>523</ele></trkpt>
    <trkpt lat="48.940501" lon="20.463795"><ele>526</ele></trkpt>
    <trkpt lat="48.940797" lon="20.464391"><ele>526</ele></trkpt>
    <trkpt lat="48.940844" lon="20.464604"><ele>526</ele></trkpt>
    <trkpt lat="48.940884" lon="20.465141"><ele>527</ele></trkpt>
    <trkpt lat="48.940776" lon="20.465850"><ele>522</ele></trkpt>
    <trkpt lat="48.940671" lon="20.466151"><ele>518</ele></trkpt>
    <trkpt lat="48.940375" lon="20.466633"><ele>513</ele></trkpt>
    <trkpt lat="48.940005" lon="20.466912"><ele>515</ele></trkpt>
    <trkpt lat="48.939647" lon="20.467435"><ele>519</ele></trkpt>
    <trkpt lat="48.939543" lon="20.467723"><ele>517</ele></trkpt>
    <trkpt lat="48.939440" lon="20.468322"><ele>519</ele></trkpt>
    <trkpt lat="48.939474" lon="20.468691"><ele>515</ele></trkpt>
    <trkpt lat="48.939471" lon="20.469100"><ele>513</ele></trkpt>
    <trkpt lat="48.939669" lon="20.470850"><ele>509</ele></trkpt>
    <trkpt lat="48.939737" lon="20.472037"><ele>508</ele></trkpt>
    <trkpt lat="48.939856" lon="20.472518"><ele>502</ele></trkpt>
    <trkpt lat="48.940075" lon="20.472945"><ele>500</ele></trkpt>
    <trkpt lat="48.940194" lon="20.473343"><ele>501</ele></trkpt>
    <trkpt lat="48.940194" lon="20.473552"><ele>502</ele></trkpt>
    <trkpt lat="48.940313" lon="20.473877"><ele>501</ele></trkpt>
    <trkpt lat="48.940338" lon="20.474029"><ele>502</ele></trkpt>
    <trkpt lat="48.940381" lon="20.474521"><ele>501</ele></trkpt>
    <trkpt lat="48.940397" lon="20.474763"><ele>499</ele></trkpt>
    <trkpt lat="48.940374" lon="20.474989"><ele>499</ele></trkpt>
    <trkpt lat="48.940050" lon="20.475808"><ele>498</ele></trkpt>
  </trkseg></trk>
</gpx>
