<?xml version="1.0" encoding="UTF-8"?>
<gpx version="1.1" creator="MounTour (OpenStreetMap)" xmlns="http://www.topografix.com/GPX/1/1">
  <metadata><name>Zelené pleso</name><copyright author="OpenStreetMap contributors"><license>https://opendatacommons.org/licenses/odbl/</license></copyright></metadata>
  <trk><name>Zelené pleso</name><trkseg>
    <trkpt lat="49.187979" lon="20.291903"><ele>919</ele></trkpt>
    <trkpt lat="49.188782" lon="20.290364"><ele>927</ele></trkpt>
    <trkpt lat="49.188841" lon="20.290189"><ele>927</ele></trkpt>
    <trkpt lat="49.188901" lon="20.289758"><ele>928</ele></trkpt>
    <trkpt lat="49.188992" lon="20.288622"><ele>935</ele></trkpt>
    <trkpt lat="49.189100" lon="20.286824"><ele>941</ele></trkpt>
    <trkpt lat="49.189209" lon="20.286286"><ele>943</ele></trkpt>
    <trkpt lat="49.189383" lon="20.285835"><ele>948</ele></trkpt>
    <trkpt lat="49.189536" lon="20.285539"><ele>952</ele></trkpt>
    <trkpt lat="49.189752" lon="20.285187"><ele>956</ele></trkpt>
    <trkpt lat="49.190798" lon="20.284605"><ele>974</ele></trkpt>
    <trkpt lat="49.190979" lon="20.284284"><ele>973</ele></trkpt>
    <trkpt lat="49.191167" lon="20.283723"><ele>980</ele></trkpt>
    <trkpt lat="49.191926" lon="20.282586"><ele>994</ele></trkpt>
    <trkpt lat="49.192814" lon="20.281762"><ele>1000</ele></trkpt>
    <trkpt lat="49.193203" lon="20.281561"><ele>1003</ele></trkpt>
    <trkpt lat="49.193487" lon="20.281489"><ele>1007</ele></trkpt>
    <trkpt lat="49.193650" lon="20.281365"><ele>1011</ele></trkpt>
    <trkpt lat="49.193729" lon="20.281135"><ele>1014</ele></trkpt>
    <trkpt lat="49.194192" lon="20.279054"><ele>1033</ele></trkpt>
    <trkpt lat="49.194348" lon="20.278855"><ele>1037</ele></trkpt>
    <trkpt lat="49.194552" lon="20.278719"><ele>1039</ele></trkpt>
    <trkpt lat="49.195182" lon="20.278171"><ele>1049</ele></trkpt>
    <trkpt lat="49.196089" lon="20.277327"><ele>1064</ele></trkpt>
    <trkpt lat="49.196550" lon="20.276286"><ele>1077</ele></trkpt>
    <trkpt lat="49.197128" lon="20.274804"><ele>1093</ele></trkpt>
    <trkpt lat="49.197455" lon="20.273840"><ele>1102</ele></trkpt>
    <trkpt lat="49.197622" lon="20.273103"><ele>1112</ele></trkpt>
    <trkpt lat="49.197950" lon="20.272374"><ele>1124</ele></trkpt>
    <trkpt lat="49.198172" lon="20.272055"><ele>1128</ele></trkpt>
    <trkpt lat="49.198518" lon="20.271905"><ele>1131</ele></trkpt>
    <trkpt lat="49.199235" lon="20.271816"><ele>1136</ele></trkpt>
    <trkpt lat="49.199995" lon="20.271500"><ele>1149</ele></trkpt>
    <trkpt lat="49.200330" lon="20.271292"><ele>1153</ele></trkpt>
    <trkpt lat="49.200430" lon="20.271292"><ele>1152</ele></trkpt>
    <trkpt lat="49.200493" lon="20.271352"><ele>1150</ele></trkpt>
    <trkpt lat="49.200706" lon="20.271732"><ele>1148</ele></trkpt>
    <trkpt lat="49.200862" lon="20.271721"><ele>1150</ele></trkpt>
    <trkpt lat="49.200988" lon="20.271653"><ele>1152</ele></trkpt>
    <trkpt lat="49.201141" lon="20.271481"><ele>1156</ele></trkpt>
    <trkpt lat="49.201732" lon="20.270728"><ele>1164</ele></trkpt>
    <trkpt lat="49.202398" lon="20.270140"><ele>1176</ele></trkpt>
    <trkpt lat="49.202540" lon="20.269954"><ele>1178</ele></trkpt>
    <trkpt lat="49.203137" lon="20.268125"><ele>1191</ele></trkpt>
    <trkpt lat="49.203631" lon="20.267156"><ele>1197</ele></trkpt>
    <trkpt lat="49.204253" lon="20.266378"><ele>1199</ele></trkpt>
    <trkpt lat="49.204880" lon="20.264957"><ele>1211</ele></trkpt>
    <trkpt lat="49.205090" lon="20.264381"><ele>1214</ele></trkpt>
    <trkpt lat="49.205130" lon="20.264189"><ele>1214</ele></trkpt>
    <trkpt lat="49.204925" lon="20.263834"><ele>1218</ele></trkpt>
    <trkpt lat="49.204934" lon="20.263748"><ele>1219</ele></trkpt>
    <trkpt lat="49.205082" lon="20.263521"><ele>1220</ele></trkpt>
    <trkpt lat="49.205158" lon="20.263300"><ele>1223</ele></trkpt>
    <trkpt lat="49.205172" lon="20.263008"><ele>1229</ele></trkpt>
    <trkpt lat="49.205139" lon="20.262911"><ele>1231</ele></trkpt>
    <trkpt lat="49.204952" lon="20.262737"><ele>1233</ele></trkpt>
    <trkpt lat="49.204931" lon="20.262658"><ele>1234</ele></trkpt>
    <trkpt lat="49.204956" lon="20.262504"><ele>1236</ele></trkpt>
    <trkpt lat="49.205428" lon="20.262226"><ele>1240</ele></trkpt>
    <trkpt lat="49.205924" lon="20.262041"><ele>1243</ele></trkpt>
    <trkpt lat="49.206168" lon="20.261796"><ele>1245</ele></trkpt>
    <trkpt lat="49.206227" lon="20.261656"><ele>1247</ele></trkpt>
    <trkpt lat="49.206241" lon="20.261520"><ele>1249</ele></trkpt>
    <trkpt lat="49.206181" lon="20.261005"><ele>1252</ele></trkpt>
    <trkpt lat="49.206353" lon="20.260562"><ele>1256</ele></trkpt>
    <trkpt lat="49.206469" lon="20.260144"><ele>1257</ele></trkpt>
    <trkpt lat="49.206686" lon="20.259663"><ele>1263</ele></trkpt>
    <trkpt lat="49.206927" lon="20.259452"><ele>1267</ele></trkpt>
    <trkpt lat="49.207019" lon="20.259431"><ele>1268</ele></trkpt>
    <trkpt lat="49.207270" lon="20.259507"><ele>1273</ele></trkpt>
    <trkpt lat="49.207708" lon="20.259493"><ele>1274</ele></trkpt>
    <trkpt lat="49.207982" lon="20.259320"><ele>1275</ele></trkpt>
    <trkpt lat="49.208386" lon="20.259012"><ele>1278</ele></trkpt>
    <trkpt lat="49.208704" lon="20.258669"><ele>1277</ele></trkpt>
    <trkpt lat="49.208785" lon="20.258508"><ele>1277</ele></trkpt>
    <trkpt lat="49.209649" lon="20.258102"><ele>1274</ele></trkpt>
    <trkpt lat="49.209790" lon="20.257896"><ele>1274</ele></trkpt>
    <trkpt lat="49.209977" lon="20.257290"><ele>1267</ele></trkpt>
    <trkpt lat="49.210159" lon="20.257043"><ele>1269</ele></trkpt>
    <trkpt lat="49.210592" lon="20.256861"><ele>1272</ele></trkpt>
    <trkpt lat="49.210974" lon="20.256788"><ele>1273</ele></trkpt>
    <trkpt lat="49.211233" lon="20.256692"><ele>1278</ele></trkpt>
    <trkpt lat="49.211507" lon="20.256515"><ele>1284</ele></trkpt>
    <trkpt lat="49.211722" lon="20.256265"><ele>1291</ele></trkpt>
    <trkpt lat="49.211977" lon="20.256073"><ele>1292</ele></trkpt>
    <trkpt lat="49.212241" lon="20.255744"><ele>1298</ele></trkpt>
    <trkpt lat="49.212336" lon="20.255686"><ele>1299</ele></trkpt>
    <trkpt lat="49.212556" lon="20.255691"><ele>1300</ele></trkpt>
    <trkpt lat="49.212704" lon="20.255519"><ele>1302</ele></trkpt>
    <trkpt lat="49.212837" lon="20.255447"><ele>1303</ele></trkpt>
    <trkpt lat="49.213094" lon="20.255139"><ele>1308</ele></trkpt>
    <trkpt lat="49.213403" lon="20.255037"><ele>1312</ele></trkpt>
    <trkpt lat="49.213886" lon="20.255021"><ele>1312</ele></trkpt>
    <trkpt lat="49.214133" lon="20.254854"><ele>1312</ele></trkpt>
    <trkpt lat="49.214210" lon="20.254768"><ele>1312</ele></trkpt>
    <trkpt lat="49.214379" lon="20.254438"><ele>1314</ele></trkpt>
    <trkpt lat="49.214619" lon="20.254253"><ele>1319</ele></trkpt>
    <trkpt lat="49.214669" lon="20.254151"><ele>1322</ele></trkpt>
    <trkpt lat="49.214716" lon="20.253901"><ele>1329</ele></trkpt>
    <trkpt lat="49.214668" lon="20.253857"><ele>1329</ele></trkpt>
    <trkpt lat="49.214454" lon="20.253956"><ele>1324</ele></trkpt>
    <trkpt lat="49.214310" lon="20.253945"><ele>1323</ele></trkpt>
    <trkpt lat="49.214241" lon="20.253901"><ele>1324</ele></trkpt>
    <trkpt lat="49.214086" lon="20.253577"><ele>1331</ele></trkpt>
    <trkpt lat="49.213835" lon="20.253422"><ele>1339</ele></trkpt>
    <trkpt lat="49.213850" lon="20.253347"><ele>1341</ele></trkpt>
    <trkpt lat="49.214086" lon="20.253114"><ele>1347</ele></trkpt>
    <trkpt lat="49.214422" lon="20.252896"><ele>1353</ele></trkpt>
    <trkpt lat="49.214706" lon="20.252612"><ele>1357</ele></trkpt>
    <trkpt lat="49.214792" lon="20.252507"><ele>1355</ele></trkpt>
    <trkpt lat="49.215029" lon="20.252062"><ele>1363</ele></trkpt>
    <trkpt lat="49.215451" lon="20.251701"><ele>1358</ele></trkpt>
    <trkpt lat="49.215559" lon="20.251544"><ele>1360</ele></trkpt>
    <trkpt lat="49.215772" lon="20.251416"><ele>1362</ele></trkpt>
    <trkpt lat="49.215953" lon="20.251476"><ele>1364</ele></trkpt>
    <trkpt lat="49.216066" lon="20.251413"><ele>1371</ele></trkpt>
    <trkpt lat="49.216341" lon="20.251213"><ele>1372</ele></trkpt>
    <trkpt lat="49.216390" lon="20.251064"><ele>1373</ele></trkpt>
    <trkpt lat="49.216474" lon="20.250651"><ele>1378</ele></trkpt>
    <trkpt lat="49.216679" lon="20.250122"><ele>1379</ele></trkpt>
    <trkpt lat="49.216725" lon="20.249847"><ele>1379</ele></trkpt>
    <trkpt lat="49.216507" lon="20.249103"><ele>1386</ele></trkpt>
    <trkpt lat="49.216471" lon="20.248277"><ele>1391</ele></trkpt>
    <trkpt lat="49.216431" lon="20.248130"><ele>1393</ele></trkpt>
    <trkpt lat="49.216352" lon="20.248012"><ele>1395</ele></trkpt>
    <trkpt lat="49.216230" lon="20.247171"><ele>1396</ele></trkpt>
    <trkpt lat="49.215981" lon="20.246109"><ele>1406</ele></trkpt>
    <trkpt lat="49.215659" lon="20.245324"><ele>1415</ele></trkpt>
    <trkpt lat="49.215282" lon="20.244640"><ele>1425</ele></trkpt>
    <trkpt lat="49.214983" lon="20.244241"><ele>1430</ele></trkpt>
    <trkpt lat="49.214773" lon="20.243653"><ele>1434</ele></trkpt>
    <trkpt lat="49.214582" lon="20.243323"><ele>1439</ele></trkpt>
    <trkpt lat="49.214393" lon="20.242739"><ele>1441</ele></trkpt>
    <trkpt lat="49.214389" lon="20.241714"><ele>1445</ele></trkpt>
    <trkpt lat="49.214536" lon="20.241285"><ele>1446</ele></trkpt>
    <trkpt lat="49.214554" lon="20.241100"><ele>1447</ele></trkpt>
    <trkpt lat="49.214322" lon="20.239621"><ele>1453</ele></trkpt>
    <trkpt lat="49.214108" lon="20.239251"><ele>1455</ele></trkpt>
    <trkpt lat="49.213898" lon="20.239077"><ele>1457</ele></trkpt>
    <trkpt lat="49.213860" lon="20.238984"><ele>1457</ele></trkpt>
    <trkpt lat="49.213800" lon="20.238683"><ele>1458</ele></trkpt>
    <trkpt lat="49.213581" lon="20.238118"><ele>1461</ele></trkpt>
    <trkpt lat="49.213568" lon="20.237804"><ele>1462</ele></trkpt>
    <trkpt lat="49.213487" lon="20.237469"><ele>1465</ele></trkpt>
    <trkpt lat="49.213368" lon="20.237214"><ele>1467</ele></trkpt>
    <trkpt lat="49.213238" lon="20.236560"><ele>1471</ele></trkpt>
    <trkpt lat="49.213256" lon="20.236083"><ele>1474</ele></trkpt>
    <trkpt lat="49.213172" lon="20.235784"><ele>1476</ele></trkpt>
    <trkpt lat="49.213236" lon="20.235102"><ele>1479</ele></trkpt>
    <trkpt lat="49.213243" lon="20.234382"><ele>1484</ele></trkpt>
    <trkpt lat="49.213191" lon="20.234285"><ele>1485</ele></trkpt>
    <trkpt lat="49.213031" lon="20.234161"><ele>1484</ele></trkpt>
    <trkpt lat="49.212854" lon="20.233607"><ele>1490</ele></trkpt>
    <trkpt lat="49.212899" lon="20.233268"><ele>1492</ele></trkpt>
    <trkpt lat="49.213060" lon="20.232896"><ele>1493</ele></trkpt>
    <trkpt lat="49.213072" lon="20.232541"><ele>1495</ele></trkpt>
    <trkpt lat="49.213037" lon="20.232385"><ele>1495</ele></trkpt>
    <trkpt lat="49.212800" lon="20.231976"><ele>1499</ele></trkpt>
    <trkpt lat="49.212546" lon="20.231742"><ele>1503</ele></trkpt>
    <trkpt lat="49.212290" lon="20.231388"><ele>1504</ele></trkpt>
    <trkpt lat="49.212022" lon="20.231186"><ele>1509</ele></trkpt>
    <trkpt lat="49.211891" lon="20.230904"><ele>1509</ele></trkpt>
    <trkpt lat="49.211813" lon="20.230498"><ele>1510</ele></trkpt>
    <trkpt lat="49.211912" lon="20.230245"><ele>1509</ele></trkpt>
    <trkpt lat="49.212004" lon="20.229869"><ele>1511</ele></trkpt>
    <trkpt lat="49.212097" lon="20.229654"><ele>1510</ele></trkpt>
    <trkpt lat="49.212161" lon="20.229330"><ele>1510</ele></trkpt>
    <trkpt lat="49.212143" lon="20.229251"><ele>1510</ele></trkpt>
    <trkpt lat="49.211693" lon="20.228864"><ele>1515</ele></trkpt>
    <trkpt lat="49.211634" lon="20.228831"><ele>1515</ele></trkpt>
    <trkpt lat="49.211395" lon="20.228842"><ele>1516</ele></trkpt>
    <trkpt lat="49.211195" lon="20.228557"><ele>1517</ele></trkpt>
    <trkpt lat="49.210994" lon="20.228444"><ele>1521</ele></trkpt>
    <trkpt lat="49.210971" lon="20.228372"><ele>1522</ele></trkpt>
    <trkpt lat="49.210954" lon="20.228195"><ele>1523</ele></trkpt>
    <trkpt lat="49.210978" lon="20.227959"><ele>1523</ele></trkpt>
    <trkpt lat="49.211294" lon="20.227462"><ele>1522</ele></trkpt>
    <trkpt lat="49.211304" lon="20.227261"><ele>1523</ele></trkpt>
    <trkpt lat="49.211173" lon="20.226792"><ele>1524</ele></trkpt>
    <trkpt lat="49.211067" lon="20.226615"><ele>1526</ele></trkpt>
    <trkpt lat="49.210576" lon="20.225507"><ele>1534</ele></trkpt>
    <trkpt lat="49.210485" lon="20.225033"><ele>1536</ele></trkpt>
    <trkpt lat="49.210470" lon="20.224368"><ele>1538</ele></trkpt>
    <trkpt lat="49.210447" lon="20.224270"><ele>1539</ele></trkpt>
    <trkpt lat="49.210275" lon="20.224017"><ele>1542</ele></trkpt>
    <trkpt lat="49.210169" lon="20.223711"><ele>1545</ele></trkpt>
    <trkpt lat="49.210178" lon="20.222980"><ele>1544</ele></trkpt>
    <trkpt lat="49.209982" lon="20.222614"><ele>1548</ele></trkpt>
    <trkpt lat="49.209879" lon="20.221836"><ele>1546</ele></trkpt>
    <trkpt lat="49.209788" lon="20.221626"><ele>1545</ele></trkpt>
    <trkpt lat="49.209890" lon="20.221403"><ele>1545</ele></trkpt>
    <trkpt lat="49.209863" lon="20.221235"><ele>1545</ele></trkpt>
    <trkpt lat="49.209889" lon="20.221125"><ele>1546</ele></trkpt>
    <trkpt lat="49.209863" lon="20.221235"><ele>1545</ele></trkpt>
    <trkpt lat="49.209890" lon="20.221403"><ele>1545</ele></trkpt>
    <trkpt lat="49.209788" lon="20.221626"><ele>1545</ele></trkpt>
    <trkpt lat="49.209879" lon="20.221836"><ele>1546</ele></trkpt>
    <trkpt lat="49.209982" lon="20.222614"><ele>1548</ele></trkpt>
    <trkpt lat="49.210178" lon="20.222980"><ele>1544</ele></trkpt>
    <trkpt lat="49.210169" lon="20.223711"><ele>1545</ele></trkpt>
    <trkpt lat="49.210275" lon="20.224017"><ele>1542</ele></trkpt>
    <trkpt lat="49.210447" lon="20.224270"><ele>1539</ele></trkpt>
    <trkpt lat="49.210470" lon="20.224368"><ele>1538</ele></trkpt>
    <trkpt lat="49.210485" lon="20.225033"><ele>1536</ele></trkpt>
    <trkpt lat="49.210576" lon="20.225507"><ele>1534</ele></trkpt>
    <trkpt lat="49.211067" lon="20.226615"><ele>1526</ele></trkpt>
    <trkpt lat="49.211173" lon="20.226792"><ele>1524</ele></trkpt>
    <trkpt lat="49.211304" lon="20.227261"><ele>1523</ele></trkpt>
    <trkpt lat="49.211294" lon="20.227462"><ele>1522</ele></trkpt>
    <trkpt lat="49.210978" lon="20.227959"><ele>1523</ele></trkpt>
    <trkpt lat="49.210954" lon="20.228195"><ele>1523</ele></trkpt>
    <trkpt lat="49.210971" lon="20.228372"><ele>1522</ele></trkpt>
    <trkpt lat="49.210994" lon="20.228444"><ele>1521</ele></trkpt>
    <trkpt lat="49.211195" lon="20.228557"><ele>1517</ele></trkpt>
    <trkpt lat="49.211395" lon="20.228842"><ele>1516</ele></trkpt>
    <trkpt lat="49.211634" lon="20.228831"><ele>1515</ele></trkpt>
    <trkpt lat="49.211693" lon="20.228864"><ele>1515</ele></trkpt>
    <trkpt lat="49.212143" lon="20.229251"><ele>1510</ele></trkpt>
    <trkpt lat="49.212161" lon="20.229330"><ele>1510</ele></trkpt>
    <trkpt lat="49.212097" lon="20.229654"><ele>1510</ele></trkpt>
    <trkpt lat="49.212004" lon="20.229869"><ele>1511</ele></trkpt>
    <trkpt lat="49.211912" lon="20.230245"><ele>1509</ele></trkpt>
    <trkpt lat="49.211813" lon="20.230498"><ele>1510</ele></trkpt>
    <trkpt lat="49.211891" lon="20.230904"><ele>1509</ele></trkpt>
    <trkpt lat="49.212022" lon="20.231186"><ele>1509</ele></trkpt>
    <trkpt lat="49.212290" lon="20.231388"><ele>1504</ele></trkpt>
    <trkpt lat="49.212546" lon="20.231742"><ele>1503</ele></trkpt>
    <trkpt lat="49.212800" lon="20.231976"><ele>1499</ele></trkpt>
    <trkpt lat="49.213037" lon="20.232385"><ele>1495</ele></trkpt>
    <trkpt lat="49.213072" lon="20.232541"><ele>1495</ele></trkpt>
    <trkpt lat="49.213060" lon="20.232896"><ele>1493</ele></trkpt>
    <trkpt lat="49.212899" lon="20.233268"><ele>1492</ele></trkpt>
    <trkpt lat="49.212854" lon="20.233607"><ele>1490</ele></trkpt>
    <trkpt lat="49.213031" lon="20.234161"><ele>1484</ele></trkpt>
    <trkpt lat="49.213191" lon="20.234285"><ele>1485</ele></trkpt>
    <trkpt lat="49.213243" lon="20.234382"><ele>1484</ele></trkpt>
    <trkpt lat="49.213236" lon="20.235102"><ele>1479</ele></trkpt>
    <trkpt lat="49.213172" lon="20.235784"><ele>1476</ele></trkpt>
    <trkpt lat="49.213256" lon="20.236083"><ele>1474</ele></trkpt>
    <trkpt lat="49.213238" lon="20.236560"><ele>1471</ele></trkpt>
    <trkpt lat="49.213368" lon="20.237214"><ele>1467</ele></trkpt>
    <trkpt lat="49.213487" lon="20.237469"><ele>1465</ele></trkpt>
    <trkpt lat="49.213568" lon="20.237804"><ele>1462</ele></trkpt>
    <trkpt lat="49.213581" lon="20.238118"><ele>1461</ele></trkpt>
    <trkpt lat="49.213800" lon="20.238683"><ele>1458</ele></trkpt>
    <trkpt lat="49.213860" lon="20.238984"><ele>1457</ele></trkpt>
    <trkpt lat="49.213898" lon="20.239077"><ele>1457</ele></trkpt>
    <trkpt lat="49.214108" lon="20.239251"><ele>1455</ele></trkpt>
    <trkpt lat="49.214322" lon="20.239621"><ele>1453</ele></trkpt>
    <trkpt lat="49.214554" lon="20.241100"><ele>1447</ele></trkpt>
    <trkpt lat="49.214536" lon="20.241285"><ele>1446</ele></trkpt>
    <trkpt lat="49.214389" lon="20.241714"><ele>1445</ele></trkpt>
    <trkpt lat="49.214393" lon="20.242739"><ele>1441</ele></trkpt>
    <trkpt lat="49.214582" lon="20.243323"><ele>1439</ele></trkpt>
    <trkpt lat="49.214773" lon="20.243653"><ele>1434</ele></trkpt>
    <trkpt lat="49.214983" lon="20.244241"><ele>1430</ele></trkpt>
    <trkpt lat="49.215282" lon="20.244640"><ele>1425</ele></trkpt>
    <trkpt lat="49.215659" lon="20.245324"><ele>1415</ele></trkpt>
    <trkpt lat="49.215981" lon="20.246109"><ele>1406</ele></trkpt>
    <trkpt lat="49.216230" lon="20.247171"><ele>1396</ele></trkpt>
    <trkpt lat="49.216352" lon="20.248012"><ele>1395</ele></trkpt>
    <trkpt lat="49.216431" lon="20.248130"><ele>1393</ele></trkpt>
    <trkpt lat="49.216471" lon="20.248277"><ele>1391</ele></trkpt>
    <trkpt lat="49.216507" lon="20.249103"><ele>1386</ele></trkpt>
    <trkpt lat="49.216725" lon="20.249847"><ele>1379</ele></trkpt>
    <trkpt lat="49.216679" lon="20.250122"><ele>1379</ele></trkpt>
    <trkpt lat="49.216474" lon="20.250651"><ele>1378</ele></trkpt>
    <trkpt lat="49.216390" lon="20.251064"><ele>1373</ele></trkpt>
    <trkpt lat="49.216341" lon="20.251213"><ele>1372</ele></trkpt>
    <trkpt lat="49.216066" lon="20.251413"><ele>1371</ele></trkpt>
    <trkpt lat="49.215953" lon="20.251476"><ele>1364</ele></trkpt>
    <trkpt lat="49.215772" lon="20.251416"><ele>1362</ele></trkpt>
    <trkpt lat="49.215559" lon="20.251544"><ele>1360</ele></trkpt>
    <trkpt lat="49.215451" lon="20.251701"><ele>1358</ele></trkpt>
    <trkpt lat="49.215029" lon="20.252062"><ele>1363</ele></trkpt>
    <trkpt lat="49.214792" lon="20.252507"><ele>1355</ele></trkpt>
    <trkpt lat="49.214706" lon="20.252612"><ele>1357</ele></trkpt>
    <trkpt lat="49.214422" lon="20.252896"><ele>1353</ele></trkpt>
    <trkpt lat="49.214086" lon="20.253114"><ele>1347</ele></trkpt>
    <trkpt lat="49.213850" lon="20.253347"><ele>1341</ele></trkpt>
    <trkpt lat="49.213835" lon="20.253422"><ele>1339</ele></trkpt>
    <trkpt lat="49.214086" lon="20.253577"><ele>1331</ele></trkpt>
    <trkpt lat="49.214241" lon="20.253901"><ele>1324</ele></trkpt>
    <trkpt lat="49.214310" lon="20.253945"><ele>1323</ele></trkpt>
    <trkpt lat="49.214454" lon="20.253956"><ele>1324</ele></trkpt>
    <trkpt lat="49.214668" lon="20.253857"><ele>1329</ele></trkpt>
    <trkpt lat="49.214716" lon="20.253901"><ele>1329</ele></trkpt>
    <trkpt lat="49.214669" lon="20.254151"><ele>1322</ele></trkpt>
    <trkpt lat="49.214619" lon="20.254253"><ele>1319</ele></trkpt>
    <trkpt lat="49.214379" lon="20.254438"><ele>1314</ele></trkpt>
    <trkpt lat="49.214210" lon="20.254768"><ele>1312</ele></trkpt>
    <trkpt lat="49.214133" lon="20.254854"><ele>1312</ele></trkpt>
    <trkpt lat="49.213886" lon="20.255021"><ele>1312</ele></trkpt>
    <trkpt lat="49.213403" lon="20.255037"><ele>1312</ele></trkpt>
    <trkpt lat="49.213094" lon="20.255139"><ele>1308</ele></trkpt>
    <trkpt lat="49.212837" lon="20.255447"><ele>1303</ele></trkpt>
    <trkpt lat="49.212704" lon="20.255519"><ele>1302</ele></trkpt>
    <trkpt lat="49.212556" lon="20.255691"><ele>1300</ele></trkpt>
    <trkpt lat="49.212336" lon="20.255686"><ele>1299</ele></trkpt>
    <trkpt lat="49.212241" lon="20.255744"><ele>1298</ele></trkpt>
    <trkpt lat="49.211977" lon="20.256073"><ele>1292</ele></trkpt>
    <trkpt lat="49.211722" lon="20.256265"><ele>1291</ele></trkpt>
    <trkpt lat="49.211507" lon="20.256515"><ele>1284</ele></trkpt>
    <trkpt lat="49.211233" lon="20.256692"><ele>1278</ele></trkpt>
    <trkpt lat="49.210974" lon="20.256788"><ele>1273</ele></trkpt>
    <trkpt lat="49.210592" lon="20.256861"><ele>1272</ele></trkpt>
    <trkpt lat="49.210159" lon="20.257043"><ele>1269</ele></trkpt>
    <trkpt lat="49.209977" lon="20.257290"><ele>1267</ele></trkpt>
    <trkpt lat="49.209790" lon="20.257896"><ele>1274</ele></trkpt>
    <trkpt lat="49.209649" lon="20.258102"><ele>1274</ele></trkpt>
    <trkpt lat="49.208785" lon="20.258508"><ele>1277</ele></trkpt>
    <trkpt lat="49.208704" lon="20.258669"><ele>1277</ele></trkpt>
    <trkpt lat="49.208386" lon="20.259012"><ele>1278</ele></trkpt>
    <trkpt lat="49.207982" lon="20.259320"><ele>1275</ele></trkpt>
    <trkpt lat="49.207708" lon="20.259493"><ele>1274</ele></trkpt>
    <trkpt lat="49.207270" lon="20.259507"><ele>1273</ele></trkpt>
    <trkpt lat="49.207019" lon="20.259431"><ele>1268</ele></trkpt>
    <trkpt lat="49.206927" lon="20.259452"><ele>1267</ele></trkpt>
    <trkpt lat="49.206686" lon="20.259663"><ele>1263</ele></trkpt>
    <trkpt lat="49.206469" lon="20.260144"><ele>1257</ele></trkpt>
    <trkpt lat="49.206353" lon="20.260562"><ele>1256</ele></trkpt>
    <trkpt lat="49.206181" lon="20.261005"><ele>1252</ele></trkpt>
    <trkpt lat="49.206241" lon="20.261520"><ele>1249</ele></trkpt>
    <trkpt lat="49.206227" lon="20.261656"><ele>1247</ele></trkpt>
    <trkpt lat="49.206168" lon="20.261796"><ele>1245</ele></trkpt>
    <trkpt lat="49.205924" lon="20.262041"><ele>1243</ele></trkpt>
    <trkpt lat="49.205428" lon="20.262226"><ele>1240</ele></trkpt>
    <trkpt lat="49.204956" lon="20.262504"><ele>1236</ele></trkpt>
    <trkpt lat="49.204931" lon="20.262658"><ele>1234</ele></trkpt>
    <trkpt lat="49.204952" lon="20.262737"><ele>1233</ele></trkpt>
    <trkpt lat="49.205139" lon="20.262911"><ele>1231</ele></trkpt>
    <trkpt lat="49.205172" lon="20.263008"><ele>1229</ele></trkpt>
    <trkpt lat="49.205158" lon="20.263300"><ele>1223</ele></trkpt>
    <trkpt lat="49.205082" lon="20.263521"><ele>1220</ele></trkpt>
    <trkpt lat="49.204934" lon="20.263748"><ele>1219</ele></trkpt>
    <trkpt lat="49.204925" lon="20.263834"><ele>1218</ele></trkpt>
    <trkpt lat="49.205130" lon="20.264189"><ele>1214</ele></trkpt>
    <trkpt lat="49.205090" lon="20.264381"><ele>1214</ele></trkpt>
    <trkpt lat="49.204880" lon="20.264957"><ele>1211</ele></trkpt>
    <trkpt lat="49.204253" lon="20.266378"><ele>1199</ele></trkpt>
    <trkpt lat="49.203631" lon="20.267156"><ele>1197</ele></trkpt>
    <trkpt lat="49.203137" lon="20.268125"><ele>1191</ele></trkpt>
    <trkpt lat="49.202540" lon="20.269954"><ele>1178</ele></trkpt>
    <trkpt lat="49.202398" lon="20.270140"><ele>1176</ele></trkpt>
    <trkpt lat="49.201732" lon="20.270728"><ele>1164</ele></trkpt>
    <trkpt lat="49.201141" lon="20.271481"><ele>1156</ele></trkpt>
    <trkpt lat="49.200988" lon="20.271653"><ele>1152</ele></trkpt>
    <trkpt lat="49.200862" lon="20.271721"><ele>1150</ele></trkpt>
    <trkpt lat="49.200706" lon="20.271732"><ele>1148</ele></trkpt>
    <trkpt lat="49.200493" lon="20.271352"><ele>1150</ele></trkpt>
    <trkpt lat="49.200430" lon="20.271292"><ele>1152</ele></trkpt>
    <trkpt lat="49.200330" lon="20.271292"><ele>1153</ele></trkpt>
    <trkpt lat="49.199995" lon="20.271500"><ele>1149</ele></trkpt>
    <trkpt lat="49.199235" lon="20.271816"><ele>1136</ele></trkpt>
    <trkpt lat="49.198518" lon="20.271905"><ele>1131</ele></trkpt>
    <trkpt lat="49.198172" lon="20.272055"><ele>1128</ele></trkpt>
    <trkpt lat="49.197950" lon="20.272374"><ele>1124</ele></trkpt>
    <trkpt lat="49.197622" lon="20.273103"><ele>1112</ele></trkpt>
    <trkpt lat="49.197455" lon="20.273840"><ele>1102</ele></trkpt>
    <trkpt lat="49.197128" lon="20.274804"><ele>1093</ele></trkpt>
    <trkpt lat="49.196550" lon="20.276286"><ele>1077</ele></trkpt>
    <trkpt lat="49.196089" lon="20.277327"><ele>1064</ele></trkpt>
    <trkpt lat="49.195182" lon="20.278171"><ele>1049</ele></trkpt>
    <trkpt lat="49.194552" lon="20.278719"><ele>1039</ele></trkpt>
    <trkpt lat="49.194348" lon="20.278855"><ele>1037</ele></trkpt>
    <trkpt lat="49.194192" lon="20.279054"><ele>1033</ele></trkpt>
    <trkpt lat="49.193729" lon="20.281135"><ele>1014</ele></trkpt>
    <trkpt lat="49.193650" lon="20.281365"><ele>1011</ele></trkpt>
    <trkpt lat="49.193487" lon="20.281489"><ele>1007</ele></trkpt>
    <trkpt lat="49.193203" lon="20.281561"><ele>1003</ele></trkpt>
    <trkpt lat="49.192814" lon="20.281762"><ele>1000</ele></trkpt>
    <trkpt lat="49.191926" lon="20.282586"><ele>994</ele></trkpt>
    <trkpt lat="49.191167" lon="20.283723"><ele>980</ele></trkpt>
    <trkpt lat="49.190979" lon="20.284284"><ele>973</ele></trkpt>
    <trkpt lat="49.190798" lon="20.284605"><ele>974</ele></trkpt>
    <trkpt lat="49.189752" lon="20.285187"><ele>956</ele></trkpt>
    <trkpt lat="49.189536" lon="20.285539"><ele>952</ele></trkpt>
    <trkpt lat="49.189383" lon="20.285835"><ele>948</ele></trkpt>
    <trkpt lat="49.189209" lon="20.286286"><ele>943</ele></trkpt>
    <trkpt lat="49.189100" lon="20.286824"><ele>941</ele></trkpt>
    <trkpt lat="49.188992" lon="20.288622"><ele>935</ele></trkpt>
    <trkpt lat="49.188901" lon="20.289758"><ele>928</ele></trkpt>
    <trkpt lat="49.188841" lon="20.290189"><ele>927</ele></trkpt>
    <trkpt lat="49.188782" lon="20.290364"><ele>927</ele></trkpt>
    <trkpt lat="49.187979" lon="20.291903"><ele>919</ele></trkpt>
  </trkseg></trk>
</gpx>
